{"type":"FeatureCollection","features":[{"type":"Feature","properties":{"code":"06001","nom":"Aiglun"},"geometry":{"type":"Polygon","coordinates":[[[6.912,43.832],[6.907,43.865],[6.936,43.88],[6.961,43.866],[6.959,43.836],[6.912,43.832]]]}},{"type":"Feature","properties":{"code":"06002","nom":"Amirat"},"geometry":{"type":"Polygon","coordinates":[[[6.832,43.918],[6.836,43.916],[6.835,43.894],[6.822,43.881],[6.792,43.876],[6.782,43.884],[6.799,43.91],[6.832,43.918]]]}},{"type":"Feature","properties":{"code":"06003","nom":"Andon"},"geometry":{"type":"Polygon","coordinates":[[[6.858,43.765],[6.872,43.734],[6.84,43.731],[6.806,43.749],[6.784,43.748],[6.77,43.783],[6.77,43.806],[6.802,43.812],[6.859,43.82],[6.86,43.783],[6.858,43.765]]]}},{"type":"Feature","properties":{"code":"06004","nom":"Antibes"},"geometry":{"type":"Polygon","coordinates":[[[7.068,43.607],[7.07,43.612],[7.118,43.623],[7.13,43.618],[7.125,43.574],[7.087,43.57],[7.065,43.593],[7.068,43.607]]]}},{"type":"Feature","properties":{"code":"06005","nom":"Ascros"},"geometry":{"type":"Polygon","coordinates":[[[7.05,43.91],[6.993,43.902],[6.973,43.923],[6.98,43.935],[7.005,43.938],[7.046,43.926],[7.059,43.922],[7.05,43.91]]]}},{"type":"Feature","properties":{"code":"06006","nom":"Aspremont"},"geometry":{"type":"Polygon","coordinates":[[[7.248,43.751],[7.242,43.752],[7.222,43.772],[7.254,43.801],[7.262,43.767],[7.248,43.751]]]}},{"type":"Feature","properties":{"code":"06007","nom":"Auribeau-sur-Siagne"},"geometry":{"type":"Polygon","coordinates":[[[6.912,43.598],[6.894,43.611],[6.902,43.624],[6.929,43.613],[6.912,43.598]]]}},{"type":"Feature","properties":{"code":"06008","nom":"Auvare"},"geometry":{"type":"Polygon","coordinates":[[[6.885,43.968],[6.904,44.033],[6.94,44.041],[6.943,44.041],[6.921,44.017],[6.942,44.006],[6.936,43.987],[6.893,43.967],[6.885,43.968]]]}},{"type":"Feature","properties":{"code":"06009","nom":"Bairols"},"geometry":{"type":"Polygon","coordinates":[[[7.142,43.972],[7.131,43.958],[7.093,43.992],[7.131,44.014],[7.142,43.972]]]}},{"type":"Feature","properties":{"code":"06010","nom":"Le Bar-sur-Loup"},"geometry":{"type":"Polygon","coordinates":[[[6.924,43.716],[6.948,43.705],[6.991,43.713],[7.007,43.697],[7.036,43.7],[7.025,43.694],[6.987,43.685],[6.96,43.687],[6.908,43.699],[6.899,43.713],[6.924,43.716]]]}},{"type":"Feature","properties":{"code":"06011","nom":"Beaulieu-sur-Mer"},"geometry":{"type":"Polygon","coordinates":[[[7.327,43.701],[7.343,43.714],[7.33,43.702],[7.327,43.701]]]}},{"type":"Feature","properties":{"code":"06012","nom":"Beausoleil"},"geometry":{"type":"Polygon","coordinates":[[[7.415,43.756],[7.427,43.759],[7.437,43.752],[7.413,43.735],[7.415,43.756]]]}},{"type":"Feature","properties":{"code":"06013","nom":"Belvédère"},"geometry":{"type":"Polygon","coordinates":[[[7.323,43.999],[7.309,44.036],[7.317,44.062],[7.291,44.061],[7.333,44.077],[7.364,44.064],[7.386,44.08],[7.387,44.124],[7.427,44.113],[7.423,44.049],[7.413,44.021],[7.351,44.016],[7.323,43.999]]]}},{"type":"Feature","properties":{"code":"06014","nom":"Bendejun"},"geometry":{"type":"Polygon","coordinates":[[[7.273,43.816],[7.267,43.822],[7.273,43.847],[7.296,43.842],[7.301,43.824],[7.273,43.816]]]}},{"type":"Feature","properties":{"code":"06015","nom":"Berre-les-Alpes"},"geometry":{"type":"Polygon","coordinates":[[[7.304,43.847],[7.331,43.858],[7.337,43.852],[7.357,43.81],[7.35,43.814],[7.323,43.825],[7.304,43.847]]]}},{"type":"Feature","properties":{"code":"06016","nom":"Beuil"},"geometry":{"type":"Polygon","coordinates":[[[6.914,44.189],[6.951,44.195],[6.975,44.158],[6.98,44.159],[6.994,44.133],[7.019,44.109],[7.027,44.067],[6.976,44.04],[6.95,44.038],[6.943,44.041],[6.94,44.041],[6.937,44.076],[6.97,44.119],[6.966,44.136],[6.911,44.164],[6.914,44.189]]]}},{"type":"Feature","properties":{"code":"06017","nom":"Bézaudun-les-Alpes"},"geometry":{"type":"Polygon","coordinates":[[[7.133,43.791],[7.131,43.79],[7.111,43.779],[7.089,43.781],[7.059,43.805],[7.049,43.825],[7.065,43.826],[7.089,43.823],[7.133,43.806],[7.133,43.791]]]}},{"type":"Feature","properties":{"code":"06018","nom":"Biot"},"geometry":{"type":"Polygon","coordinates":[[[7.07,43.612],[7.052,43.641],[7.098,43.647],[7.118,43.623],[7.07,43.612]]]}},{"type":"Feature","properties":{"code":"06019","nom":"Blausasc"},"geometry":{"type":"Polygon","coordinates":[[[7.37,43.822],[7.375,43.79],[7.338,43.766],[7.332,43.772],[7.337,43.781],[7.35,43.814],[7.357,43.81],[7.37,43.822]]]}},{"type":"Feature","properties":{"code":"06020","nom":"La Bollène-Vésubie"},"geometry":{"type":"Polygon","coordinates":[[[7.38,43.967],[7.35,43.968],[7.316,43.995],[7.323,43.999],[7.351,44.016],[7.413,44.021],[7.433,44.001],[7.425,43.997],[7.38,43.967]]]}},{"type":"Feature","properties":{"code":"06021","nom":"Bonson"},"geometry":{"type":"Polygon","coordinates":[[[7.189,43.878],[7.197,43.86],[7.196,43.849],[7.195,43.844],[7.159,43.863],[7.16,43.865],[7.189,43.878]]]}},{"type":"Feature","properties":{"code":"06022","nom":"Bouyon"},"geometry":{"type":"Polygon","coordinates":[[[7.141,43.842],[7.146,43.819],[7.133,43.806],[7.089,43.823],[7.128,43.849],[7.141,43.842]]]}},{"type":"Feature","properties":{"code":"06023","nom":"Breil-sur-Roya"},"geometry":{"type":"Polygon","coordinates":[[[7.45,43.934],[7.457,43.95],[7.425,43.997],[7.433,44.001],[7.505,43.983],[7.513,43.97],[7.572,43.947],[7.56,43.897],[7.501,43.875],[7.494,43.909],[7.463,43.914],[7.45,43.934]]]}},{"type":"Feature","properties":{"code":"06024","nom":"Briançonnet"},"geometry":{"type":"Polygon","coordinates":[[[6.717,43.88],[6.749,43.872],[6.782,43.884],[6.792,43.876],[6.794,43.843],[6.703,43.856],[6.696,43.876],[6.671,43.888],[6.717,43.88]]]}},{"type":"Feature","properties":{"code":"06025","nom":"Le Broc"},"geometry":{"type":"Polygon","coordinates":[[[7.133,43.806],[7.146,43.819],[7.141,43.842],[7.158,43.846],[7.185,43.822],[7.195,43.805],[7.16,43.796],[7.144,43.782],[7.133,43.791],[7.133,43.806]]]}},{"type":"Feature","properties":{"code":"06026","nom":"Cabris"},"geometry":{"type":"Polygon","coordinates":[[[6.861,43.667],[6.888,43.672],[6.893,43.647],[6.869,43.646],[6.861,43.667]]]}},{"type":"Feature","properties":{"code":"06027","nom":"Cagnes-sur-Mer"},"geometry":{"type":"Polygon","coordinates":[[[7.164,43.693],[7.178,43.656],[7.144,43.643],[7.121,43.671],[7.124,43.673],[7.144,43.692],[7.142,43.701],[7.164,43.693]]]}},{"type":"Feature","properties":{"code":"06028","nom":"Caille"},"geometry":{"type":"Polygon","coordinates":[[[6.721,43.782],[6.77,43.783],[6.784,43.748],[6.743,43.753],[6.721,43.782]]]}},{"type":"Feature","properties":{"code":"06029","nom":"Cannes"},"geometry":{"type":"Polygon","coordinates":[[[6.952,43.535],[6.945,43.571],[6.963,43.574],[6.969,43.568],[7.035,43.569],[7.058,43.551],[6.968,43.544],[6.952,43.535]]]}},{"type":"Feature","properties":{"code":"06030","nom":"Le Cannet"},"geometry":{"type":"Polygon","coordinates":[[[7.038,43.581],[7.035,43.569],[6.969,43.568],[7.019,43.588],[7.038,43.581]]]}},{"type":"Feature","properties":{"code":"06031","nom":"Cantaron"},"geometry":{"type":"Polygon","coordinates":[[[7.308,43.754],[7.297,43.758],[7.292,43.777],[7.317,43.785],[7.337,43.781],[7.332,43.772],[7.318,43.759],[7.308,43.754]]]}},{"type":"Feature","properties":{"code":"06032","nom":"Cap-d'Ail"},"geometry":{"type":"Polygon","coordinates":[[[7.39,43.726],[7.412,43.732],[7.383,43.723],[7.39,43.726]]]}},{"type":"Feature","properties":{"code":"06033","nom":"Carros"},"geometry":{"type":"Polygon","coordinates":[[[7.201,43.8],[7.206,43.796],[7.212,43.773],[7.204,43.765],[7.144,43.782],[7.16,43.796],[7.195,43.805],[7.201,43.8]]]}},{"type":"Feature","properties":{"code":"06034","nom":"Castagniers"},"geometry":{"type":"Polygon","coordinates":[[[7.206,43.796],[7.25,43.808],[7.254,43.801],[7.222,43.772],[7.212,43.773],[7.206,43.796]]]}},{"type":"Feature","properties":{"code":"06035","nom":"Castellar"},"geometry":{"type":"Polygon","coordinates":[[[7.484,43.823],[7.479,43.848],[7.497,43.851],[7.508,43.842],[7.519,43.802],[7.493,43.797],[7.484,43.823]]]}},{"type":"Feature","properties":{"code":"06036","nom":"Castillon"},"geometry":{"type":"Polygon","coordinates":[[[7.479,43.848],[7.484,43.823],[7.467,43.825],[7.448,43.827],[7.439,43.844],[7.479,43.848]]]}},{"type":"Feature","properties":{"code":"06037","nom":"Caussols"},"geometry":{"type":"Polygon","coordinates":[[[6.858,43.765],[6.956,43.747],[6.924,43.716],[6.899,43.713],[6.872,43.734],[6.858,43.765]]]}},{"type":"Feature","properties":{"code":"06038","nom":"Châteauneuf-Grasse"},"geometry":{"type":"Polygon","coordinates":[[[6.993,43.669],[7,43.642],[6.99,43.64],[6.988,43.641],[6.972,43.648],[6.96,43.687],[6.987,43.685],[6.993,43.669]]]}},{"type":"Feature","properties":{"code":"06039","nom":"Châteauneuf-Villevieille"},"geometry":{"type":"Polygon","coordinates":[[[7.292,43.777],[7.273,43.816],[7.301,43.824],[7.301,43.802],[7.317,43.785],[7.292,43.777]]]}},{"type":"Feature","properties":{"code":"06040","nom":"Châteauneuf-d'Entraunes"},"geometry":{"type":"Polygon","coordinates":[[[6.878,44.172],[6.858,44.167],[6.85,44.138],[6.82,44.111],[6.81,44.146],[6.812,44.174],[6.803,44.177],[6.828,44.206],[6.873,44.185],[6.878,44.172]]]}},{"type":"Feature","properties":{"code":"06041","nom":"Cipières"},"geometry":{"type":"Polygon","coordinates":[[[6.956,43.747],[6.858,43.765],[6.86,43.783],[6.904,43.791],[6.971,43.788],[6.984,43.771],[6.991,43.756],[6.956,43.747]]]}},{"type":"Feature","properties":{"code":"06042","nom":"Clans"},"geometry":{"type":"Polygon","coordinates":[[[7.234,44.017],[7.225,44.004],[7.206,44.002],[7.173,43.968],[7.152,43.964],[7.142,43.972],[7.131,44.014],[7.207,44.041],[7.234,44.017]]]}},{"type":"Feature","properties":{"code":"06043","nom":"Coaraze"},"geometry":{"type":"Polygon","coordinates":[[[7.315,43.897],[7.331,43.858],[7.304,43.847],[7.296,43.842],[7.273,43.847],[7.273,43.871],[7.315,43.897]]]}},{"type":"Feature","properties":{"code":"06044","nom":"La Colle-sur-Loup"},"geometry":{"type":"Polygon","coordinates":[[[7.124,43.673],[7.121,43.671],[7.094,43.676],[7.073,43.689],[7.08,43.706],[7.096,43.705],[7.124,43.673]]]}},{"type":"Feature","properties":{"code":"06045","nom":"Collongues"},"geometry":{"type":"Polygon","coordinates":[[[6.888,43.873],[6.835,43.894],[6.836,43.916],[6.892,43.89],[6.888,43.873]]]}},{"type":"Feature","properties":{"code":"06046","nom":"Colomars"},"geometry":{"type":"Polygon","coordinates":[[[7.199,43.761],[7.204,43.765],[7.212,43.773],[7.222,43.772],[7.242,43.752],[7.221,43.742],[7.199,43.761]]]}},{"type":"Feature","properties":{"code":"06047","nom":"Conségudes"},"geometry":{"type":"Polygon","coordinates":[[[7.049,43.855],[7.072,43.855],[7.065,43.826],[7.049,43.825],[7.024,43.829],[7.033,43.856],[7.049,43.855]]]}},{"type":"Feature","properties":{"code":"06048","nom":"Contes"},"geometry":{"type":"Polygon","coordinates":[[[7.301,43.824],[7.296,43.842],[7.304,43.847],[7.323,43.825],[7.35,43.814],[7.337,43.781],[7.317,43.785],[7.301,43.802],[7.301,43.824]]]}},{"type":"Feature","properties":{"code":"06049","nom":"Courmes"},"geometry":{"type":"Polygon","coordinates":[[[6.984,43.771],[6.988,43.771],[7.014,43.773],[7.056,43.751],[7.052,43.747],[6.998,43.732],[6.991,43.756],[6.984,43.771]]]}},{"type":"Feature","properties":{"code":"06050","nom":"Coursegoules"},"geometry":{"type":"Polygon","coordinates":[[[7.056,43.751],[7.014,43.773],[6.988,43.771],[7.001,43.814],[6.991,43.823],[7.024,43.829],[7.049,43.825],[7.059,43.805],[7.089,43.781],[7.056,43.751]]]}},{"type":"Feature","properties":{"code":"06051","nom":"La Croix-sur-Roudoule"},"geometry":{"type":"Polygon","coordinates":[[[6.836,44.011],[6.858,44.021],[6.858,44.041],[6.876,44.029],[6.904,44.033],[6.885,43.968],[6.848,43.965],[6.834,43.983],[6.839,43.99],[6.836,44.011]]]}},{"type":"Feature","properties":{"code":"06052","nom":"Cuébris"},"geometry":{"type":"Polygon","coordinates":[[[6.993,43.902],[7.05,43.91],[7.049,43.867],[6.994,43.883],[6.937,43.883],[6.938,43.897],[6.942,43.897],[6.953,43.898],[6.993,43.902]]]}},{"type":"Feature","properties":{"code":"06053","nom":"Daluis"},"geometry":{"type":"Polygon","coordinates":[[[6.858,44.041],[6.858,44.021],[6.836,44.011],[6.795,44.008],[6.746,44.043],[6.756,44.08],[6.791,44.063],[6.858,44.041]]]}},{"type":"Feature","properties":{"code":"06054","nom":"Drap"},"geometry":{"type":"Polygon","coordinates":[[[7.318,43.759],[7.332,43.772],[7.338,43.766],[7.36,43.756],[7.318,43.759]]]}},{"type":"Feature","properties":{"code":"06055","nom":"Duranus"},"geometry":{"type":"Polygon","coordinates":[[[7.244,43.882],[7.254,43.903],[7.307,43.918],[7.315,43.897],[7.273,43.871],[7.244,43.882]]]}},{"type":"Feature","properties":{"code":"06056","nom":"Entraunes"},"geometry":{"type":"Polygon","coordinates":[[[6.823,44.215],[6.828,44.206],[6.803,44.177],[6.751,44.164],[6.701,44.177],[6.714,44.218],[6.728,44.253],[6.79,44.272],[6.823,44.215]]]}},{"type":"Feature","properties":{"code":"06057","nom":"L'Escarène"},"geometry":{"type":"Polygon","coordinates":[[[7.37,43.822],[7.357,43.81],[7.337,43.852],[7.357,43.851],[7.385,43.851],[7.394,43.833],[7.37,43.822]]]}},{"type":"Feature","properties":{"code":"06058","nom":"Escragnolles"},"geometry":{"type":"Polygon","coordinates":[[[6.775,43.694],[6.767,43.722],[6.746,43.737],[6.712,43.74],[6.743,43.753],[6.784,43.748],[6.806,43.749],[6.84,43.731],[6.812,43.724],[6.787,43.695],[6.775,43.694]]]}},{"type":"Feature","properties":{"code":"06059","nom":"Èze"},"geometry":{"type":"Polygon","coordinates":[[[7.323,43.723],[7.321,43.724],[7.375,43.744],[7.39,43.726],[7.383,43.723],[7.348,43.714],[7.323,43.723]]]}},{"type":"Feature","properties":{"code":"06060","nom":"Falicon"},"geometry":{"type":"Polygon","coordinates":[[[7.262,43.767],[7.28,43.755],[7.279,43.743],[7.248,43.751],[7.262,43.767]]]}},{"type":"Feature","properties":{"code":"06061","nom":"Les Ferres"},"geometry":{"type":"Polygon","coordinates":[[[7.125,43.854],[7.128,43.849],[7.089,43.823],[7.065,43.826],[7.072,43.855],[7.101,43.861],[7.125,43.854]]]}},{"type":"Feature","properties":{"code":"06062","nom":"Fontan"},"geometry":{"type":"Polygon","coordinates":[[[7.582,44.031],[7.636,44.001],[7.55,43.992],[7.497,44.012],[7.464,44.048],[7.538,44.051],[7.582,44.031]]]}},{"type":"Feature","properties":{"code":"06063","nom":"Gars"},"geometry":{"type":"Polygon","coordinates":[[[6.806,43.841],[6.794,43.843],[6.792,43.876],[6.822,43.881],[6.852,43.851],[6.806,43.841]]]}},{"type":"Feature","properties":{"code":"06064","nom":"Gattières"},"geometry":{"type":"Polygon","coordinates":[[[7.185,43.747],[7.165,43.752],[7.131,43.79],[7.133,43.791],[7.144,43.782],[7.204,43.765],[7.199,43.761],[7.185,43.747]]]}},{"type":"Feature","properties":{"code":"06065","nom":"La Gaude"},"geometry":{"type":"Polygon","coordinates":[[[7.137,43.734],[7.183,43.742],[7.185,43.719],[7.164,43.693],[7.142,43.701],[7.137,43.734]]]}},{"type":"Feature","properties":{"code":"06066","nom":"Gilette"},"geometry":{"type":"Polygon","coordinates":[[[7.191,43.834],[7.185,43.822],[7.158,43.846],[7.141,43.842],[7.128,43.849],[7.125,43.854],[7.127,43.86],[7.159,43.863],[7.195,43.844],[7.191,43.834]]]}},{"type":"Feature","properties":{"code":"06067","nom":"Gorbio"},"geometry":{"type":"Polygon","coordinates":[[[7.473,43.782],[7.471,43.777],[7.436,43.777],[7.443,43.8],[7.473,43.782]]]}},{"type":"Feature","properties":{"code":"06068","nom":"Gourdon"},"geometry":{"type":"Polygon","coordinates":[[[6.991,43.713],[6.948,43.705],[6.924,43.716],[6.956,43.747],[6.991,43.756],[6.998,43.732],[6.991,43.713]]]}},{"type":"Feature","properties":{"code":"06069","nom":"Grasse"},"geometry":{"type":"Polygon","coordinates":[[[6.888,43.672],[6.915,43.682],[6.908,43.699],[6.96,43.687],[6.972,43.648],[6.988,43.641],[6.934,43.616],[6.929,43.613],[6.902,43.624],[6.893,43.647],[6.888,43.672]]]}},{"type":"Feature","properties":{"code":"06070","nom":"Gréolières"},"geometry":{"type":"Polygon","coordinates":[[[6.859,43.82],[6.912,43.832],[6.959,43.836],[6.991,43.823],[7.001,43.814],[6.988,43.771],[6.984,43.771],[6.971,43.788],[6.904,43.791],[6.86,43.783],[6.859,43.82]]]}},{"type":"Feature","properties":{"code":"06071","nom":"Guillaumes"},"geometry":{"type":"Polygon","coordinates":[[[6.82,44.111],[6.85,44.138],[6.858,44.167],[6.878,44.172],[6.895,44.166],[6.881,44.135],[6.889,44.101],[6.93,44.099],[6.937,44.076],[6.94,44.041],[6.904,44.033],[6.876,44.029],[6.858,44.041],[6.791,44.063],[6.817,44.073],[6.845,44.063],[6.84,44.099],[6.81,44.106],[6.82,44.111]]]}},{"type":"Feature","properties":{"code":"06072","nom":"Ilonse"},"geometry":{"type":"Polygon","coordinates":[[[7.093,43.992],[7.08,43.994],[7.07,44.003],[7.053,44.022],[7.059,44.04],[7.048,44.061],[7.066,44.072],[7.083,44.071],[7.114,44.064],[7.129,44.046],[7.128,44.044],[7.131,44.014],[7.093,43.992]]]}},{"type":"Feature","properties":{"code":"06073","nom":"Isola"},"geometry":{"type":"Polygon","coordinates":[[[7.014,44.158],[6.98,44.159],[6.975,44.158],[6.979,44.19],[7.007,44.196],[7.028,44.219],[7.019,44.232],[7.039,44.224],[7.07,44.233],[7.114,44.218],[7.143,44.2],[7.163,44.208],[7.194,44.187],[7.164,44.17],[7.135,44.164],[7.097,44.148],[7.063,44.146],[7.014,44.158]]]}},{"type":"Feature","properties":{"code":"06074","nom":"Lantosque"},"geometry":{"type":"Polygon","coordinates":[[[7.37,43.94],[7.334,43.949],[7.293,43.941],[7.27,43.951],[7.25,44.017],[7.254,44.018],[7.297,43.993],[7.316,43.995],[7.35,43.968],[7.38,43.967],[7.37,43.94]]]}},{"type":"Feature","properties":{"code":"06075","nom":"Levens"},"geometry":{"type":"Polygon","coordinates":[[[7.196,43.849],[7.197,43.86],[7.244,43.882],[7.273,43.871],[7.273,43.847],[7.267,43.822],[7.256,43.82],[7.218,43.818],[7.196,43.849]]]}},{"type":"Feature","properties":{"code":"06076","nom":"Lieuche"},"geometry":{"type":"Polygon","coordinates":[[[7.011,43.98],[7.002,44.004],[7.053,44.022],[7.07,44.003],[7.011,43.98]]]}},{"type":"Feature","properties":{"code":"06077","nom":"Lucéram"},"geometry":{"type":"Polygon","coordinates":[[[7.293,43.941],[7.334,43.949],[7.37,43.94],[7.39,43.934],[7.399,43.91],[7.394,43.891],[7.408,43.854],[7.403,43.854],[7.387,43.863],[7.357,43.851],[7.337,43.852],[7.331,43.858],[7.315,43.897],[7.307,43.918],[7.293,43.941]]]}},{"type":"Feature","properties":{"code":"06078","nom":"Malaussène"},"geometry":{"type":"Polygon","coordinates":[[[7.188,43.894],[7.157,43.897],[7.141,43.903],[7.082,43.917],[7.083,43.92],[7.108,43.93],[7.141,43.934],[7.166,43.919],[7.185,43.912],[7.188,43.894]]]}},{"type":"Feature","properties":{"code":"06079","nom":"Mandelieu-la-Napoule"},"geometry":{"type":"Polygon","coordinates":[[[6.904,43.495],[6.884,43.503],[6.879,43.533],[6.906,43.564],[6.942,43.571],[6.945,43.571],[6.952,43.535],[6.937,43.517],[6.904,43.495]]]}},{"type":"Feature","properties":{"code":"06080","nom":"Marie"},"geometry":{"type":"Polygon","coordinates":[[[7.207,44.047],[7.207,44.041],[7.131,44.014],[7.128,44.044],[7.207,44.047]]]}},{"type":"Feature","properties":{"code":"06081","nom":"Le Mas"},"geometry":{"type":"Polygon","coordinates":[[[6.907,43.865],[6.912,43.832],[6.859,43.82],[6.802,43.812],[6.806,43.841],[6.852,43.851],[6.907,43.865]]]}},{"type":"Feature","properties":{"code":"06082","nom":"Massoins"},"geometry":{"type":"Polygon","coordinates":[[[7.131,43.958],[7.166,43.919],[7.141,43.934],[7.108,43.93],[7.093,43.992],[7.131,43.958]]]}},{"type":"Feature","properties":{"code":"06083","nom":"Menton"},"geometry":{"type":"Polygon","coordinates":[[[7.471,43.777],[7.473,43.782],[7.481,43.796],[7.467,43.825],[7.484,43.823],[7.493,43.797],[7.519,43.802],[7.53,43.788],[7.488,43.765],[7.471,43.777]]]}},{"type":"Feature","properties":{"code":"06084","nom":"Mouans-Sartoux"},"geometry":{"type":"Polygon","coordinates":[[[6.955,43.6],[6.944,43.597],[6.934,43.616],[6.988,43.641],[6.99,43.64],[7.003,43.618],[6.97,43.614],[6.955,43.6]]]}},{"type":"Feature","properties":{"code":"06085","nom":"Mougins"},"geometry":{"type":"Polygon","coordinates":[[[6.969,43.568],[6.963,43.574],[6.955,43.6],[6.97,43.614],[7.003,43.618],[7.054,43.601],[7.038,43.581],[7.019,43.588],[6.969,43.568]]]}},{"type":"Feature","properties":{"code":"06086","nom":"Moulinet"},"geometry":{"type":"Polygon","coordinates":[[[7.425,43.997],[7.457,43.95],[7.45,43.934],[7.399,43.91],[7.39,43.934],[7.37,43.94],[7.38,43.967],[7.425,43.997]]]}},{"type":"Feature","properties":{"code":"06087","nom":"Les Mujouls"},"geometry":{"type":"Polygon","coordinates":[[[6.907,43.865],[6.852,43.851],[6.822,43.881],[6.835,43.894],[6.888,43.873],[6.907,43.865]]]}},{"type":"Feature","properties":{"code":"06088","nom":"Nice"},"geometry":{"type":"Polygon","coordinates":[[[7.297,43.755],[7.297,43.758],[7.308,43.754],[7.299,43.729],[7.321,43.724],[7.323,43.723],[7.302,43.708],[7.308,43.693],[7.258,43.694],[7.199,43.664],[7.185,43.719],[7.183,43.742],[7.185,43.747],[7.199,43.761],[7.221,43.742],[7.242,43.752],[7.248,43.751],[7.279,43.743],[7.297,43.755]]]}},{"type":"Feature","properties":{"code":"06089","nom":"Opio"},"geometry":{"type":"Polygon","coordinates":[[[7,43.642],[6.993,43.669],[7.028,43.666],[7.043,43.651],[7,43.642]]]}},{"type":"Feature","properties":{"code":"06090","nom":"Pégomas"},"geometry":{"type":"Polygon","coordinates":[[[6.906,43.564],[6.898,43.582],[6.912,43.598],[6.929,43.613],[6.934,43.616],[6.944,43.597],[6.942,43.571],[6.906,43.564]]]}},{"type":"Feature","properties":{"code":"06091","nom":"Peille"},"geometry":{"type":"Polygon","coordinates":[[[7.448,43.827],[7.443,43.8],[7.436,43.777],[7.427,43.759],[7.415,43.756],[7.39,43.758],[7.385,43.762],[7.375,43.79],[7.37,43.822],[7.394,43.833],[7.385,43.851],[7.403,43.854],[7.408,43.854],[7.439,43.844],[7.448,43.827]]]}},{"type":"Feature","properties":{"code":"06092","nom":"Peillon"},"geometry":{"type":"Polygon","coordinates":[[[7.338,43.766],[7.375,43.79],[7.385,43.762],[7.36,43.756],[7.338,43.766]]]}},{"type":"Feature","properties":{"code":"06093","nom":"La Penne"},"geometry":{"type":"Polygon","coordinates":[[[6.9,43.927],[6.892,43.93],[6.914,43.942],[6.962,43.943],[6.98,43.935],[6.973,43.923],[6.953,43.898],[6.942,43.897],[6.913,43.928],[6.9,43.927]]]}},{"type":"Feature","properties":{"code":"06094","nom":"Péone"},"geometry":{"type":"Polygon","coordinates":[[[6.878,44.172],[6.914,44.189],[6.911,44.164],[6.966,44.136],[6.97,44.119],[6.937,44.076],[6.93,44.099],[6.889,44.101],[6.881,44.135],[6.895,44.166],[6.878,44.172]]]}},{"type":"Feature","properties":{"code":"06095","nom":"Peymeinade"},"geometry":{"type":"Polygon","coordinates":[[[6.902,43.624],[6.894,43.611],[6.883,43.606],[6.86,43.637],[6.869,43.646],[6.893,43.647],[6.902,43.624]]]}},{"type":"Feature","properties":{"code":"06096","nom":"Pierlas"},"geometry":{"type":"Polygon","coordinates":[[[7.002,44.004],[6.982,44.012],[6.976,44.04],[7.027,44.067],[7.048,44.061],[7.059,44.04],[7.053,44.022],[7.002,44.004]]]}},{"type":"Feature","properties":{"code":"06097","nom":"Pierrefeu"},"geometry":{"type":"Polygon","coordinates":[[[7.072,43.855],[7.049,43.855],[7.049,43.867],[7.05,43.91],[7.059,43.922],[7.083,43.92],[7.082,43.917],[7.101,43.861],[7.072,43.855]]]}},{"type":"Feature","properties":{"code":"06098","nom":"Puget-Rostang"},"geometry":{"type":"Polygon","coordinates":[[[6.95,44.038],[6.943,44.013],[6.977,43.979],[6.955,43.959],[6.893,43.967],[6.936,43.987],[6.942,44.006],[6.921,44.017],[6.943,44.041],[6.95,44.038]]]}},{"type":"Feature","properties":{"code":"06099","nom":"Puget-Théniers"},"geometry":{"type":"Polygon","coordinates":[[[6.893,43.967],[6.955,43.959],[6.962,43.948],[6.962,43.943],[6.914,43.942],[6.892,43.93],[6.876,43.953],[6.848,43.965],[6.885,43.968],[6.893,43.967]]]}},{"type":"Feature","properties":{"code":"06100","nom":"Revest-les-Roches"},"geometry":{"type":"Polygon","coordinates":[[[7.16,43.865],[7.157,43.897],[7.188,43.894],[7.189,43.878],[7.16,43.865]]]}},{"type":"Feature","properties":{"code":"06101","nom":"Rigaud"},"geometry":{"type":"Polygon","coordinates":[[[7.011,43.98],[6.993,43.957],[6.962,43.948],[6.955,43.959],[6.977,43.979],[6.943,44.013],[6.95,44.038],[6.976,44.04],[6.982,44.012],[7.002,44.004],[7.011,43.98]]]}},{"type":"Feature","properties":{"code":"06102","nom":"Rimplas"},"geometry":{"type":"Polygon","coordinates":[[[7.114,44.064],[7.126,44.08],[7.136,44.129],[7.163,44.154],[7.175,44.125],[7.129,44.046],[7.114,44.064]]]}},{"type":"Feature","properties":{"code":"06103","nom":"Roquebillière"},"geometry":{"type":"Polygon","coordinates":[[[7.291,44.061],[7.317,44.062],[7.309,44.036],[7.323,43.999],[7.316,43.995],[7.297,43.993],[7.254,44.018],[7.271,44.046],[7.291,44.061]]]}},{"type":"Feature","properties":{"code":"06104","nom":"Roquebrune-Cap-Martin"},"geometry":{"type":"Polygon","coordinates":[[[7.427,43.759],[7.436,43.777],[7.471,43.777],[7.488,43.765],[7.437,43.752],[7.427,43.759]]]}},{"type":"Feature","properties":{"code":"06105","nom":"Roquefort-les-Pins"},"geometry":{"type":"Polygon","coordinates":[[[7.036,43.7],[7.073,43.689],[7.094,43.676],[7.071,43.648],[7.052,43.644],[7.043,43.651],[7.028,43.666],[7.025,43.694],[7.036,43.7]]]}},{"type":"Feature","properties":{"code":"06106","nom":"Roquestéron"},"geometry":{"type":"Polygon","coordinates":[[[7.049,43.855],[7.033,43.856],[6.993,43.875],[6.994,43.883],[7.049,43.867],[7.049,43.855]]]}},{"type":"Feature","properties":{"code":"06107","nom":"La Roque-en-Provence"},"geometry":{"type":"Polygon","coordinates":[[[6.993,43.875],[7.033,43.856],[7.024,43.829],[6.991,43.823],[6.959,43.836],[6.961,43.866],[6.993,43.875]]]}},{"type":"Feature","properties":{"code":"06108","nom":"La Roquette-sur-Siagne"},"geometry":{"type":"Polygon","coordinates":[[[6.944,43.597],[6.955,43.6],[6.963,43.574],[6.945,43.571],[6.942,43.571],[6.944,43.597]]]}},{"type":"Feature","properties":{"code":"06109","nom":"La Roquette-sur-Var"},"geometry":{"type":"Polygon","coordinates":[[[7.218,43.818],[7.217,43.816],[7.191,43.834],[7.195,43.844],[7.196,43.849],[7.218,43.818]]]}},{"type":"Feature","properties":{"code":"06110","nom":"Roubion"},"geometry":{"type":"Polygon","coordinates":[[[7.014,44.158],[7.034,44.116],[7.067,44.089],[7.066,44.072],[7.048,44.061],[7.027,44.067],[7.019,44.109],[6.994,44.133],[6.98,44.159],[7.014,44.158]]]}},{"type":"Feature","properties":{"code":"06111","nom":"Roure"},"geometry":{"type":"Polygon","coordinates":[[[7.097,44.148],[7.091,44.116],[7.107,44.091],[7.083,44.071],[7.066,44.072],[7.067,44.089],[7.034,44.116],[7.014,44.158],[7.063,44.146],[7.097,44.148]]]}},{"type":"Feature","properties":{"code":"06112","nom":"Le Rouret"},"geometry":{"type":"Polygon","coordinates":[[[6.993,43.669],[6.987,43.685],[7.025,43.694],[7.028,43.666],[6.993,43.669]]]}},{"type":"Feature","properties":{"code":"06113","nom":"Sainte-Agnès"},"geometry":{"type":"Polygon","coordinates":[[[7.443,43.8],[7.448,43.827],[7.467,43.825],[7.481,43.796],[7.473,43.782],[7.443,43.8]]]}},{"type":"Feature","properties":{"code":"06114","nom":"Saint-André-de-la-Roche"},"geometry":{"type":"Polygon","coordinates":[[[7.279,43.743],[7.28,43.755],[7.297,43.755],[7.279,43.743]]]}},{"type":"Feature","properties":{"code":"06115","nom":"Saint-Antonin"},"geometry":{"type":"Polygon","coordinates":[[[6.993,43.902],[6.953,43.898],[6.973,43.923],[6.993,43.902]]]}},{"type":"Feature","properties":{"code":"06116","nom":"Saint-Auban"},"geometry":{"type":"Polygon","coordinates":[[[6.703,43.856],[6.794,43.843],[6.806,43.841],[6.802,43.812],[6.77,43.806],[6.71,43.811],[6.703,43.824],[6.668,43.831],[6.678,43.852],[6.703,43.856]]]}},{"type":"Feature","properties":{"code":"06117","nom":"Saint-Blaise"},"geometry":{"type":"Polygon","coordinates":[[[7.206,43.796],[7.201,43.8],[7.217,43.816],[7.218,43.818],[7.256,43.82],[7.25,43.808],[7.206,43.796]]]}},{"type":"Feature","properties":{"code":"06118","nom":"Saint-Cézaire-sur-Siagne"},"geometry":{"type":"Polygon","coordinates":[[[6.787,43.695],[6.836,43.662],[6.85,43.662],[6.845,43.648],[6.824,43.624],[6.791,43.644],[6.762,43.666],[6.775,43.694],[6.787,43.695]]]}},{"type":"Feature","properties":{"code":"06119","nom":"Saint-Dalmas-le-Selvage"},"geometry":{"type":"Polygon","coordinates":[[[6.863,44.347],[6.903,44.306],[6.904,44.28],[6.844,44.252],[6.823,44.215],[6.79,44.272],[6.797,44.317],[6.84,44.347],[6.863,44.347]]]}},{"type":"Feature","properties":{"code":"06120","nom":"Saint-Étienne-de-Tinée"},"geometry":{"type":"Polygon","coordinates":[[[6.823,44.215],[6.844,44.252],[6.904,44.28],[6.903,44.306],[6.863,44.347],[6.872,44.353],[6.887,44.361],[6.922,44.352],[6.928,44.332],[6.96,44.311],[6.96,44.294],[6.994,44.281],[6.997,44.252],[7.019,44.232],[7.028,44.219],[7.007,44.196],[6.979,44.19],[6.975,44.158],[6.951,44.195],[6.914,44.189],[6.878,44.172],[6.873,44.185],[6.828,44.206],[6.823,44.215]]]}},{"type":"Feature","properties":{"code":"06121","nom":"Saint-Jean-Cap-Ferrat"},"geometry":{"type":"Polygon","coordinates":[[[7.325,43.701],[7.327,43.701],[7.33,43.702],[7.325,43.701]]]}},{"type":"Feature","properties":{"code":"06122","nom":"Saint-Jeannet"},"geometry":{"type":"Polygon","coordinates":[[[7.183,43.742],[7.137,43.734],[7.111,43.779],[7.131,43.79],[7.165,43.752],[7.185,43.747],[7.183,43.742]]]}},{"type":"Feature","properties":{"code":"06123","nom":"Saint-Laurent-du-Var"},"geometry":{"type":"Polygon","coordinates":[[[7.164,43.693],[7.185,43.719],[7.199,43.664],[7.178,43.656],[7.164,43.693]]]}},{"type":"Feature","properties":{"code":"06124","nom":"Saint-Léger"},"geometry":{"type":"Polygon","coordinates":[[[6.839,43.99],[6.795,44.008],[6.836,44.011],[6.839,43.99]]]}},{"type":"Feature","properties":{"code":"06125","nom":"Saint-Martin-d'Entraunes"},"geometry":{"type":"Polygon","coordinates":[[[6.725,44.111],[6.719,44.118],[6.708,44.124],[6.701,44.177],[6.751,44.164],[6.803,44.177],[6.812,44.174],[6.807,44.161],[6.725,44.111]]]}},{"type":"Feature","properties":{"code":"06126","nom":"Saint-Martin-du-Var"},"geometry":{"type":"Polygon","coordinates":[[[7.185,43.822],[7.191,43.834],[7.217,43.816],[7.201,43.8],[7.195,43.805],[7.185,43.822]]]}},{"type":"Feature","properties":{"code":"06127","nom":"Saint-Martin-Vésubie"},"geometry":{"type":"Polygon","coordinates":[[[7.271,44.046],[7.233,44.062],[7.24,44.118],[7.231,44.137],[7.262,44.148],[7.345,44.145],[7.358,44.116],[7.387,44.124],[7.386,44.08],[7.364,44.064],[7.333,44.077],[7.291,44.061],[7.271,44.046]]]}},{"type":"Feature","properties":{"code":"06128","nom":"Saint-Paul-de-Vence"},"geometry":{"type":"Polygon","coordinates":[[[7.124,43.673],[7.096,43.705],[7.122,43.711],[7.144,43.692],[7.124,43.673]]]}},{"type":"Feature","properties":{"code":"06129","nom":"Saint-Sauveur-sur-Tinée"},"geometry":{"type":"Polygon","coordinates":[[[7.083,44.071],[7.107,44.091],[7.091,44.116],[7.097,44.148],[7.135,44.164],[7.163,44.154],[7.136,44.129],[7.126,44.08],[7.114,44.064],[7.083,44.071]]]}},{"type":"Feature","properties":{"code":"06130","nom":"Saint-Vallier-de-Thiey"},"geometry":{"type":"Polygon","coordinates":[[[6.85,43.662],[6.836,43.662],[6.787,43.695],[6.812,43.724],[6.84,43.731],[6.872,43.734],[6.899,43.713],[6.908,43.699],[6.915,43.682],[6.888,43.672],[6.861,43.667],[6.85,43.662]]]}},{"type":"Feature","properties":{"code":"06131","nom":"Sallagriffon"},"geometry":{"type":"Polygon","coordinates":[[[6.892,43.89],[6.919,43.894],[6.938,43.897],[6.937,43.883],[6.936,43.88],[6.907,43.865],[6.888,43.873],[6.892,43.89]]]}},{"type":"Feature","properties":{"code":"06132","nom":"Saorge"},"geometry":{"type":"Polygon","coordinates":[[[7.413,44.021],[7.423,44.049],[7.464,44.048],[7.497,44.012],[7.55,43.992],[7.636,44.001],[7.663,44.015],[7.671,43.998],[7.632,43.965],[7.572,43.947],[7.513,43.97],[7.505,43.983],[7.433,44.001],[7.413,44.021]]]}},{"type":"Feature","properties":{"code":"06133","nom":"Sauze"},"geometry":{"type":"Polygon","coordinates":[[[6.756,44.08],[6.75,44.087],[6.787,44.11],[6.81,44.106],[6.84,44.099],[6.845,44.063],[6.817,44.073],[6.791,44.063],[6.756,44.08]]]}},{"type":"Feature","properties":{"code":"06134","nom":"Séranon"},"geometry":{"type":"Polygon","coordinates":[[[6.712,43.74],[6.683,43.758],[6.657,43.749],[6.642,43.768],[6.637,43.781],[6.636,43.789],[6.636,43.791],[6.68,43.778],[6.721,43.782],[6.743,43.753],[6.712,43.74]]]}},{"type":"Feature","properties":{"code":"06135","nom":"Sigale"},"geometry":{"type":"Polygon","coordinates":[[[6.961,43.866],[6.936,43.88],[6.937,43.883],[6.994,43.883],[6.993,43.875],[6.961,43.866]]]}},{"type":"Feature","properties":{"code":"06136","nom":"Sospel"},"geometry":{"type":"Polygon","coordinates":[[[7.399,43.91],[7.45,43.934],[7.463,43.914],[7.494,43.909],[7.501,43.875],[7.497,43.851],[7.479,43.848],[7.439,43.844],[7.408,43.854],[7.394,43.891],[7.399,43.91]]]}},{"type":"Feature","properties":{"code":"06137","nom":"Spéracèdes"},"geometry":{"type":"Polygon","coordinates":[[[6.845,43.648],[6.85,43.662],[6.861,43.667],[6.869,43.646],[6.86,43.637],[6.845,43.648]]]}},{"type":"Feature","properties":{"code":"06138","nom":"Théoule-sur-Mer"},"geometry":{"type":"Polygon","coordinates":[[[6.933,43.48],[6.904,43.495],[6.937,43.517],[6.954,43.506],[6.933,43.48]]]}},{"type":"Feature","properties":{"code":"06139","nom":"Thiéry"},"geometry":{"type":"Polygon","coordinates":[[[6.993,43.957],[7.011,43.98],[7.07,44.003],[7.08,43.994],[7.056,43.947],[7.013,43.961],[6.993,43.957]]]}},{"type":"Feature","properties":{"code":"06140","nom":"Le Tignet"},"geometry":{"type":"Polygon","coordinates":[[[6.883,43.606],[6.839,43.614],[6.824,43.624],[6.845,43.648],[6.86,43.637],[6.883,43.606]]]}},{"type":"Feature","properties":{"code":"06141","nom":"Toudon"},"geometry":{"type":"Polygon","coordinates":[[[7.141,43.903],[7.118,43.877],[7.127,43.86],[7.125,43.854],[7.101,43.861],[7.082,43.917],[7.141,43.903]]]}},{"type":"Feature","properties":{"code":"06142","nom":"Touët-de-l'Escarène"},"geometry":{"type":"Polygon","coordinates":[[[7.403,43.854],[7.385,43.851],[7.357,43.851],[7.387,43.863],[7.403,43.854]]]}},{"type":"Feature","properties":{"code":"06143","nom":"Touët-sur-Var"},"geometry":{"type":"Polygon","coordinates":[[[6.98,43.935],[6.962,43.943],[6.962,43.948],[6.993,43.957],[7.013,43.961],[7.056,43.947],[7.046,43.926],[7.005,43.938],[6.98,43.935]]]}},{"type":"Feature","properties":{"code":"06144","nom":"La Tour"},"geometry":{"type":"Polygon","coordinates":[[[7.188,43.925],[7.152,43.964],[7.173,43.968],[7.206,44.002],[7.225,44.004],[7.24,43.953],[7.215,43.934],[7.188,43.925]]]}},{"type":"Feature","properties":{"code":"06145","nom":"Tourette-du-Château"},"geometry":{"type":"Polygon","coordinates":[[[7.127,43.86],[7.118,43.877],[7.141,43.903],[7.157,43.897],[7.16,43.865],[7.159,43.863],[7.127,43.86]]]}},{"type":"Feature","properties":{"code":"06146","nom":"Tournefort"},"geometry":{"type":"Polygon","coordinates":[[[7.131,43.958],[7.142,43.972],[7.152,43.964],[7.188,43.925],[7.185,43.912],[7.166,43.919],[7.131,43.958]]]}},{"type":"Feature","properties":{"code":"06147","nom":"Tourrette-Levens"},"geometry":{"type":"Polygon","coordinates":[[[7.297,43.758],[7.297,43.755],[7.28,43.755],[7.262,43.767],[7.254,43.801],[7.25,43.808],[7.256,43.82],[7.267,43.822],[7.273,43.816],[7.292,43.777],[7.297,43.758]]]}},{"type":"Feature","properties":{"code":"06148","nom":"Tourrettes-sur-Loup"},"geometry":{"type":"Polygon","coordinates":[[[7.073,43.689],[7.036,43.7],[7.007,43.697],[6.991,43.713],[6.998,43.732],[7.052,43.747],[7.079,43.724],[7.08,43.706],[7.073,43.689]]]}},{"type":"Feature","properties":{"code":"06149","nom":"La Trinité"},"geometry":{"type":"Polygon","coordinates":[[[7.308,43.754],[7.318,43.759],[7.36,43.756],[7.385,43.762],[7.39,43.758],[7.375,43.744],[7.321,43.724],[7.299,43.729],[7.308,43.754]]]}},{"type":"Feature","properties":{"code":"06150","nom":"La Turbie"},"geometry":{"type":"Polygon","coordinates":[[[7.39,43.758],[7.415,43.756],[7.413,43.735],[7.412,43.732],[7.39,43.726],[7.375,43.744],[7.39,43.758]]]}},{"type":"Feature","properties":{"code":"06151","nom":"Utelle"},"geometry":{"type":"Polygon","coordinates":[[[7.197,43.86],[7.189,43.878],[7.188,43.894],[7.185,43.912],[7.188,43.925],[7.215,43.934],[7.24,43.953],[7.225,44.004],[7.234,44.017],[7.25,44.017],[7.27,43.951],[7.293,43.941],[7.307,43.918],[7.254,43.903],[7.244,43.882],[7.197,43.86]]]}},{"type":"Feature","properties":{"code":"06152","nom":"Valbonne"},"geometry":{"type":"Polygon","coordinates":[[[7.052,43.644],[7.052,43.641],[7.07,43.612],[7.068,43.607],[7.054,43.601],[7.003,43.618],[6.99,43.64],[7,43.642],[7.043,43.651],[7.052,43.644]]]}},{"type":"Feature","properties":{"code":"06153","nom":"Valdeblore"},"geometry":{"type":"Polygon","coordinates":[[[7.233,44.062],[7.207,44.047],[7.128,44.044],[7.129,44.046],[7.175,44.125],[7.163,44.154],[7.135,44.164],[7.164,44.17],[7.194,44.187],[7.221,44.168],[7.242,44.173],[7.262,44.148],[7.231,44.137],[7.24,44.118],[7.233,44.062]]]}},{"type":"Feature","properties":{"code":"06154","nom":"Valderoure"},"geometry":{"type":"Polygon","coordinates":[[[6.77,43.806],[6.77,43.783],[6.721,43.782],[6.68,43.778],[6.636,43.791],[6.71,43.811],[6.77,43.806]]]}},{"type":"Feature","properties":{"code":"06155","nom":"Vallauris"},"geometry":{"type":"Polygon","coordinates":[[[7.087,43.57],[7.058,43.551],[7.035,43.569],[7.038,43.581],[7.054,43.601],[7.068,43.607],[7.065,43.593],[7.087,43.57]]]}},{"type":"Feature","properties":{"code":"06156","nom":"Venanson"},"geometry":{"type":"Polygon","coordinates":[[[7.207,44.047],[7.233,44.062],[7.271,44.046],[7.254,44.018],[7.25,44.017],[7.234,44.017],[7.207,44.041],[7.207,44.047]]]}},{"type":"Feature","properties":{"code":"06157","nom":"Vence"},"geometry":{"type":"Polygon","coordinates":[[[7.056,43.751],[7.089,43.781],[7.111,43.779],[7.137,43.734],[7.142,43.701],[7.144,43.692],[7.122,43.711],[7.096,43.705],[7.08,43.706],[7.079,43.724],[7.052,43.747],[7.056,43.751]]]}},{"type":"Feature","properties":{"code":"06158","nom":"Villars-sur-Var"},"geometry":{"type":"Polygon","coordinates":[[[7.08,43.994],[7.093,43.992],[7.108,43.93],[7.083,43.92],[7.059,43.922],[7.046,43.926],[7.056,43.947],[7.08,43.994]]]}},{"type":"Feature","properties":{"code":"06159","nom":"Villefranche-sur-Mer"},"geometry":{"type":"Polygon","coordinates":[[[7.323,43.723],[7.348,43.714],[7.343,43.714],[7.327,43.701],[7.325,43.701],[7.308,43.693],[7.302,43.708],[7.323,43.723]]]}},{"type":"Feature","properties":{"code":"06160","nom":"Villeneuve-d'Entraunes"},"geometry":{"type":"Polygon","coordinates":[[[6.75,44.087],[6.725,44.111],[6.807,44.161],[6.812,44.174],[6.81,44.146],[6.82,44.111],[6.81,44.106],[6.787,44.11],[6.75,44.087]]]}},{"type":"Feature","properties":{"code":"06161","nom":"Villeneuve-Loubet"},"geometry":{"type":"Polygon","coordinates":[[[7.052,43.641],[7.052,43.644],[7.071,43.648],[7.094,43.676],[7.121,43.671],[7.144,43.643],[7.13,43.618],[7.118,43.623],[7.098,43.647],[7.052,43.641]]]}},{"type":"Feature","properties":{"code":"06162","nom":"La Brigue"},"geometry":{"type":"MultiPolygon","coordinates":[[[[7.636,44.001],[7.582,44.031],[7.594,44.066],[7.652,44.116],[7.675,44.118],[7.716,44.082],[7.703,44.043],[7.662,44.028],[7.663,44.015],[7.636,44.001]]],[[[7.677,44.142],[7.629,44.164],[7.636,44.177],[7.684,44.174],[7.677,44.142]]]]}},{"type":"Feature","properties":{"code":"06163","nom":"Tende"},"geometry":{"type":"Polygon","coordinates":[[[7.464,44.048],[7.423,44.049],[7.427,44.113],[7.504,44.143],[7.576,44.154],[7.62,44.15],[7.629,44.164],[7.677,44.142],[7.675,44.118],[7.652,44.116],[7.594,44.066],[7.582,44.031],[7.538,44.051],[7.464,44.048]]]}}]}