{"type":"FeatureCollection","features":[{"type":"Feature","properties":{"code":"10002","nom":"Ailleville"},"geometry":{"type":"Polygon","coordinates":[[[4.679,48.246],[4.666,48.248],[4.714,48.269],[4.715,48.26],[4.679,48.246]]]}},{"type":"Feature","properties":{"code":"10003","nom":"Aix-Villemaur-Pâlis"},"geometry":{"type":"Polygon","coordinates":[[[3.745,48.168],[3.695,48.155],[3.699,48.175],[3.724,48.233],[3.685,48.258],[3.652,48.278],[3.657,48.291],[3.662,48.294],[3.699,48.309],[3.724,48.306],[3.742,48.299],[3.761,48.283],[3.748,48.239],[3.792,48.22],[3.758,48.198],[3.768,48.18],[3.745,48.168]]]}},{"type":"Feature","properties":{"code":"10004","nom":"Allibaudières"},"geometry":{"type":"Polygon","coordinates":[[[4.067,48.588],[4.082,48.604],[4.113,48.597],[4.167,48.6],[4.182,48.592],[4.143,48.573],[4.088,48.564],[4.067,48.588]]]}},{"type":"Feature","properties":{"code":"10005","nom":"Amance"},"geometry":{"type":"Polygon","coordinates":[[[4.464,48.302],[4.502,48.297],[4.514,48.315],[4.55,48.298],[4.546,48.286],[4.507,48.273],[4.489,48.282],[4.457,48.274],[4.417,48.291],[4.434,48.308],[4.464,48.302]]]}},{"type":"Feature","properties":{"code":"10006","nom":"Arcis-sur-Aube"},"geometry":{"type":"Polygon","coordinates":[[[4.156,48.509],[4.129,48.507],[4.128,48.515],[4.12,48.537],[4.132,48.547],[4.16,48.54],[4.156,48.509]]]}},{"type":"Feature","properties":{"code":"10007","nom":"Arconville"},"geometry":{"type":"Polygon","coordinates":[[[4.695,48.157],[4.707,48.173],[4.743,48.172],[4.76,48.159],[4.741,48.14],[4.717,48.138],[4.695,48.157]]]}},{"type":"Feature","properties":{"code":"10008","nom":"Argançon"},"geometry":{"type":"Polygon","coordinates":[[[4.619,48.256],[4.631,48.246],[4.627,48.243],[4.584,48.235],[4.564,48.261],[4.563,48.264],[4.583,48.267],[4.619,48.256]]]}},{"type":"Feature","properties":{"code":"10009","nom":"Arrelles"},"geometry":{"type":"Polygon","coordinates":[[[4.316,48.065],[4.329,48.06],[4.313,48.057],[4.245,48.016],[4.238,48.025],[4.24,48.04],[4.282,48.063],[4.316,48.065]]]}},{"type":"Feature","properties":{"code":"10010","nom":"Arrembécourt"},"geometry":{"type":"Polygon","coordinates":[[[4.641,48.554],[4.635,48.544],[4.591,48.527],[4.581,48.548],[4.641,48.554]]]}},{"type":"Feature","properties":{"code":"10011","nom":"Arrentières"},"geometry":{"type":"Polygon","coordinates":[[[4.765,48.251],[4.755,48.243],[4.715,48.26],[4.714,48.269],[4.716,48.28],[4.736,48.294],[4.753,48.294],[4.764,48.264],[4.765,48.251]]]}},{"type":"Feature","properties":{"code":"10012","nom":"Arsonval"},"geometry":{"type":"Polygon","coordinates":[[[4.632,48.279],[4.634,48.281],[4.667,48.299],[4.671,48.293],[4.672,48.287],[4.654,48.264],[4.619,48.256],[4.632,48.279]]]}},{"type":"Feature","properties":{"code":"10013","nom":"Assenay"},"geometry":{"type":"Polygon","coordinates":[[[4.057,48.192],[4.082,48.175],[4.07,48.165],[4.047,48.186],[4.057,48.192]]]}},{"type":"Feature","properties":{"code":"10014","nom":"Assencières"},"geometry":{"type":"Polygon","coordinates":[[[4.182,48.344],[4.176,48.358],[4.21,48.37],[4.225,48.357],[4.226,48.35],[4.182,48.344],[4.182,48.344]]]}},{"type":"Feature","properties":{"code":"10015","nom":"Aubeterre"},"geometry":{"type":"Polygon","coordinates":[[[4.079,48.408],[4.079,48.409],[4.069,48.425],[4.115,48.437],[4.147,48.429],[4.123,48.411],[4.079,48.408]]]}},{"type":"Feature","properties":{"code":"10017","nom":"Aulnay"},"geometry":{"type":"Polygon","coordinates":[[[4.395,48.469],[4.385,48.485],[4.427,48.496],[4.437,48.498],[4.444,48.48],[4.428,48.464],[4.408,48.457],[4.395,48.469]]]}},{"type":"Feature","properties":{"code":"10018","nom":"Auxon"},"geometry":{"type":"Polygon","coordinates":[[[3.905,48.132],[3.916,48.146],[3.917,48.145],[3.916,48.131],[3.974,48.062],[3.961,48.062],[3.926,48.065],[3.894,48.079],[3.878,48.102],[3.907,48.107],[3.905,48.132]]]}},{"type":"Feature","properties":{"code":"10019","nom":"Val-d'Auzon"},"geometry":{"type":"Polygon","coordinates":[[[4.364,48.43],[4.39,48.415],[4.386,48.395],[4.415,48.375],[4.387,48.364],[4.358,48.39],[4.315,48.396],[4.308,48.41],[4.323,48.427],[4.364,48.43]]]}},{"type":"Feature","properties":{"code":"10020","nom":"Avant-lès-Marcilly"},"geometry":{"type":"Polygon","coordinates":[[[3.543,48.458],[3.568,48.458],[3.603,48.432],[3.602,48.42],[3.584,48.408],[3.559,48.402],[3.553,48.403],[3.542,48.423],[3.513,48.426],[3.513,48.44],[3.543,48.458]]]}},{"type":"Feature","properties":{"code":"10021","nom":"Avant-lès-Ramerupt"},"geometry":{"type":"Polygon","coordinates":[[[4.247,48.477],[4.223,48.451],[4.238,48.442],[4.296,48.465],[4.301,48.467],[4.312,48.46],[4.316,48.441],[4.235,48.425],[4.202,48.45],[4.247,48.477]]]}},{"type":"Feature","properties":{"code":"10022","nom":"Avirey-Lingey"},"geometry":{"type":"Polygon","coordinates":[[[4.313,48.057],[4.317,48.048],[4.338,48.022],[4.33,48.014],[4.244,48.014],[4.245,48.016],[4.313,48.057]]]}},{"type":"Feature","properties":{"code":"10023","nom":"Avon-la-Pèze"},"geometry":{"type":"Polygon","coordinates":[[[3.695,48.402],[3.698,48.398],[3.665,48.373],[3.637,48.365],[3.611,48.388],[3.627,48.398],[3.695,48.402]]]}},{"type":"Feature","properties":{"code":"10024","nom":"Avreuil"},"geometry":{"type":"Polygon","coordinates":[[[4.02,48.055],[4.019,48.053],[3.997,48.032],[3.978,48.037],[3.979,48.062],[4.007,48.076],[4.02,48.055]]]}},{"type":"Feature","properties":{"code":"10025","nom":"Bagneux-la-Fosse"},"geometry":{"type":"Polygon","coordinates":[[[4.241,48.006],[4.244,48.014],[4.33,48.014],[4.322,47.981],[4.28,47.979],[4.241,47.993],[4.241,48.006]]]}},{"type":"Feature","properties":{"code":"10026","nom":"Bailly-le-Franc"},"geometry":{"type":"Polygon","coordinates":[[[4.666,48.511],[4.643,48.513],[4.651,48.537],[4.67,48.532],[4.666,48.511]]]}},{"type":"Feature","properties":{"code":"10027","nom":"Balignicourt"},"geometry":{"type":"Polygon","coordinates":[[[4.424,48.554],[4.428,48.553],[4.464,48.548],[4.49,48.515],[4.475,48.508],[4.457,48.504],[4.422,48.548],[4.424,48.554]]]}},{"type":"Feature","properties":{"code":"10028","nom":"Balnot-la-Grange"},"geometry":{"type":"Polygon","coordinates":[[[4.226,47.972],[4.196,47.968],[4.17,47.967],[4.165,47.973],[4.155,47.991],[4.181,48.009],[4.241,48.006],[4.241,47.993],[4.226,47.972]]]}},{"type":"Feature","properties":{"code":"10029","nom":"Balnot-sur-Laignes"},"geometry":{"type":"Polygon","coordinates":[[[4.317,48.048],[4.382,48.047],[4.378,48.025],[4.338,48.022],[4.317,48.048]]]}},{"type":"Feature","properties":{"code":"10030","nom":"Barberey-Saint-Sulpice"},"geometry":{"type":"Polygon","coordinates":[[[4.037,48.349],[4.054,48.334],[3.986,48.306],[3.973,48.313],[4.037,48.349]]]}},{"type":"Feature","properties":{"code":"10031","nom":"Barbuise"},"geometry":{"type":"Polygon","coordinates":[[[3.561,48.572],[3.596,48.558],[3.596,48.534],[3.569,48.534],[3.551,48.528],[3.523,48.556],[3.545,48.573],[3.561,48.572]]]}},{"type":"Feature","properties":{"code":"10032","nom":"Baroville"},"geometry":{"type":"Polygon","coordinates":[[[4.76,48.159],[4.743,48.172],[4.707,48.173],[4.702,48.189],[4.7,48.195],[4.74,48.206],[4.758,48.182],[4.779,48.175],[4.76,48.159]]]}},{"type":"Feature","properties":{"code":"10033","nom":"Bar-sur-Aube"},"geometry":{"type":"Polygon","coordinates":[[[4.715,48.26],[4.755,48.243],[4.746,48.221],[4.733,48.222],[4.7,48.207],[4.682,48.219],[4.679,48.246],[4.715,48.26]]]}},{"type":"Feature","properties":{"code":"10034","nom":"Bar-sur-Seine"},"geometry":{"type":"Polygon","coordinates":[[[4.394,48.086],[4.393,48.08],[4.338,48.084],[4.326,48.089],[4.34,48.116],[4.406,48.149],[4.428,48.145],[4.43,48.142],[4.411,48.119],[4.423,48.104],[4.394,48.086]]]}},{"type":"Feature","properties":{"code":"10035","nom":"Bayel"},"geometry":{"type":"Polygon","coordinates":[[[4.74,48.206],[4.733,48.222],[4.746,48.221],[4.752,48.219],[4.795,48.212],[4.832,48.191],[4.856,48.193],[4.856,48.193],[4.847,48.18],[4.81,48.168],[4.784,48.174],[4.779,48.175],[4.758,48.182],[4.74,48.206]]]}},{"type":"Feature","properties":{"code":"10037","nom":"Bercenay-en-Othe"},"geometry":{"type":"Polygon","coordinates":[[[3.872,48.2],[3.881,48.227],[3.923,48.201],[3.927,48.166],[3.883,48.172],[3.872,48.2]]]}},{"type":"Feature","properties":{"code":"10038","nom":"Bercenay-le-Hayer"},"geometry":{"type":"Polygon","coordinates":[[[3.564,48.321],[3.544,48.32],[3.555,48.339],[3.604,48.353],[3.621,48.309],[3.585,48.324],[3.564,48.321]]]}},{"type":"Feature","properties":{"code":"10039","nom":"Bergères"},"geometry":{"type":"Polygon","coordinates":[[[4.657,48.196],[4.7,48.183],[4.672,48.174],[4.648,48.183],[4.647,48.187],[4.657,48.196]]]}},{"type":"Feature","properties":{"code":"10040","nom":"Bernon"},"geometry":{"type":"Polygon","coordinates":[[[4.001,47.96],[3.951,47.997],[3.984,48.013],[4.028,47.988],[4.028,47.975],[4.001,47.96]]]}},{"type":"Feature","properties":{"code":"10041","nom":"Bertignolles"},"geometry":{"type":"Polygon","coordinates":[[[4.517,48.162],[4.53,48.129],[4.51,48.112],[4.499,48.11],[4.507,48.136],[4.494,48.162],[4.508,48.164],[4.517,48.162]]]}},{"type":"Feature","properties":{"code":"10042","nom":"Bérulle"},"geometry":{"type":"Polygon","coordinates":[[[3.651,48.168],[3.641,48.185],[3.669,48.197],[3.699,48.175],[3.695,48.155],[3.668,48.139],[3.651,48.168]]]}},{"type":"Feature","properties":{"code":"10043","nom":"Bessy"},"geometry":{"type":"Polygon","coordinates":[[[4.04,48.556],[4.036,48.525],[4.021,48.521],[4.007,48.559],[4.021,48.558],[4.04,48.556]]]}},{"type":"Feature","properties":{"code":"10044","nom":"Bétignicourt"},"geometry":{"type":"Polygon","coordinates":[[[4.451,48.439],[4.44,48.445],[4.445,48.458],[4.466,48.459],[4.471,48.448],[4.471,48.448],[4.451,48.439]]]}},{"type":"Feature","properties":{"code":"10045","nom":"Beurey"},"geometry":{"type":"Polygon","coordinates":[[[4.497,48.195],[4.508,48.164],[4.494,48.162],[4.471,48.151],[4.45,48.157],[4.438,48.18],[4.462,48.199],[4.489,48.195],[4.497,48.195]]]}},{"type":"Feature","properties":{"code":"10046","nom":"Blaincourt-sur-Aube"},"geometry":{"type":"Polygon","coordinates":[[[4.472,48.384],[4.471,48.382],[4.438,48.369],[4.436,48.381],[4.453,48.403],[4.467,48.386],[4.472,48.384]]]}},{"type":"Feature","properties":{"code":"10047","nom":"Blignicourt"},"geometry":{"type":"Polygon","coordinates":[[[4.529,48.468],[4.537,48.468],[4.561,48.452],[4.558,48.439],[4.542,48.444],[4.529,48.468]]]}},{"type":"Feature","properties":{"code":"10048","nom":"Bligny"},"geometry":{"type":"Polygon","coordinates":[[[4.615,48.143],[4.59,48.168],[4.543,48.179],[4.566,48.196],[4.647,48.187],[4.648,48.183],[4.653,48.154],[4.615,48.143]]]}},{"type":"Feature","properties":{"code":"10049","nom":"Les Bordes-Aumont"},"geometry":{"type":"Polygon","coordinates":[[[4.119,48.178],[4.106,48.177],[4.095,48.186],[4.107,48.203],[4.137,48.19],[4.139,48.18],[4.119,48.178]]]}},{"type":"Feature","properties":{"code":"10050","nom":"Bossancourt"},"geometry":{"type":"Polygon","coordinates":[[[4.634,48.281],[4.632,48.279],[4.583,48.267],[4.593,48.286],[4.618,48.297],[4.634,48.281]]]}},{"type":"Feature","properties":{"code":"10051","nom":"Bouilly"},"geometry":{"type":"Polygon","coordinates":[[[4.029,48.209],[4.031,48.203],[4.03,48.187],[4.002,48.172],[3.982,48.168],[3.955,48.178],[3.948,48.192],[4.029,48.209]]]}},{"type":"Feature","properties":{"code":"10052","nom":"Boulages"},"geometry":{"type":"Polygon","coordinates":[[[3.885,48.578],[3.909,48.602],[3.911,48.602],[3.949,48.603],[3.925,48.567],[3.892,48.573],[3.885,48.578]]]}},{"type":"Feature","properties":{"code":"10053","nom":"Bouranton"},"geometry":{"type":"Polygon","coordinates":[[[4.167,48.298],[4.162,48.32],[4.178,48.333],[4.204,48.318],[4.191,48.3],[4.167,48.298]]]}},{"type":"Feature","properties":{"code":"10054","nom":"Bourdenay"},"geometry":{"type":"Polygon","coordinates":[[[3.581,48.375],[3.605,48.389],[3.611,48.388],[3.637,48.365],[3.604,48.353],[3.555,48.339],[3.544,48.32],[3.545,48.334],[3.581,48.375]]]}},{"type":"Feature","properties":{"code":"10055","nom":"Bourguignons"},"geometry":{"type":"Polygon","coordinates":[[[4.353,48.165],[4.361,48.165],[4.394,48.156],[4.406,48.149],[4.34,48.116],[4.329,48.121],[4.335,48.142],[4.342,48.161],[4.353,48.165]]]}},{"type":"Feature","properties":{"code":"10056","nom":"Bouy-Luxembourg"},"geometry":{"type":"Polygon","coordinates":[[[4.276,48.375],[4.26,48.361],[4.225,48.357],[4.21,48.37],[4.24,48.398],[4.276,48.375]]]}},{"type":"Feature","properties":{"code":"10057","nom":"Bouy-sur-Orvin"},"geometry":{"type":"Polygon","coordinates":[[[3.513,48.426],[3.485,48.412],[3.49,48.434],[3.492,48.434],[3.513,48.44],[3.513,48.426]]]}},{"type":"Feature","properties":{"code":"10058","nom":"Bragelogne-Beauvoir"},"geometry":{"type":"Polygon","coordinates":[[[4.306,47.954],[4.299,47.949],[4.252,47.956],[4.224,47.948],[4.226,47.972],[4.241,47.993],[4.28,47.979],[4.322,47.981],[4.313,47.963],[4.306,47.954]]]}},{"type":"Feature","properties":{"code":"10059","nom":"Braux"},"geometry":{"type":"Polygon","coordinates":[[[4.466,48.459],[4.445,48.458],[4.428,48.464],[4.444,48.48],[4.437,48.498],[4.457,48.504],[4.475,48.508],[4.495,48.494],[4.469,48.461],[4.466,48.459]]]}},{"type":"Feature","properties":{"code":"10060","nom":"Bréviandes"},"geometry":{"type":"Polygon","coordinates":[[[4.119,48.268],[4.136,48.252],[4.125,48.245],[4.098,48.248],[4.074,48.257],[4.088,48.264],[4.119,48.268]]]}},{"type":"Feature","properties":{"code":"10061","nom":"Brévonnes"},"geometry":{"type":"Polygon","coordinates":[[[4.435,48.331],[4.426,48.321],[4.396,48.325],[4.369,48.349],[4.387,48.364],[4.415,48.375],[4.437,48.367],[4.435,48.331]]]}},{"type":"Feature","properties":{"code":"10062","nom":"Briel-sur-Barse"},"geometry":{"type":"Polygon","coordinates":[[[4.375,48.231],[4.383,48.221],[4.352,48.19],[4.323,48.211],[4.335,48.219],[4.347,48.231],[4.375,48.231]]]}},{"type":"Feature","properties":{"code":"10063","nom":"Brienne-la-Vieille"},"geometry":{"type":"Polygon","coordinates":[[[4.588,48.384],[4.597,48.371],[4.566,48.361],[4.562,48.359],[4.554,48.356],[4.525,48.357],[4.488,48.369],[4.484,48.374],[4.512,48.384],[4.585,48.39],[4.588,48.384]]]}},{"type":"Feature","properties":{"code":"10064","nom":"Brienne-le-Château"},"geometry":{"type":"Polygon","coordinates":[[[4.574,48.425],[4.582,48.41],[4.585,48.39],[4.512,48.384],[4.484,48.374],[4.471,48.382],[4.472,48.384],[4.551,48.419],[4.56,48.422],[4.574,48.425]]]}},{"type":"Feature","properties":{"code":"10065","nom":"Brillecourt"},"geometry":{"type":"Polygon","coordinates":[[[4.375,48.49],[4.385,48.485],[4.395,48.469],[4.357,48.466],[4.356,48.468],[4.351,48.483],[4.375,48.49]]]}},{"type":"Feature","properties":{"code":"10066","nom":"Bucey-en-Othe"},"geometry":{"type":"Polygon","coordinates":[[[3.839,48.283],[3.84,48.285],[3.853,48.269],[3.885,48.261],[3.911,48.241],[3.91,48.24],[3.881,48.234],[3.848,48.25],[3.833,48.258],[3.839,48.283]]]}},{"type":"Feature","properties":{"code":"10067","nom":"Buchères"},"geometry":{"type":"Polygon","coordinates":[[[4.124,48.223],[4.091,48.223],[4.098,48.248],[4.125,48.245],[4.141,48.227],[4.124,48.223]]]}},{"type":"Feature","properties":{"code":"10068","nom":"Buxeuil"},"geometry":{"type":"Polygon","coordinates":[[[4.436,48.058],[4.383,48.047],[4.415,48.062],[4.436,48.058]]]}},{"type":"Feature","properties":{"code":"10069","nom":"Buxières-sur-Arce"},"geometry":{"type":"Polygon","coordinates":[[[4.428,48.145],[4.45,48.157],[4.471,48.151],[4.471,48.116],[4.43,48.142],[4.428,48.145]]]}},{"type":"Feature","properties":{"code":"10070","nom":"Celles-sur-Ource"},"geometry":{"type":"Polygon","coordinates":[[[4.393,48.08],[4.394,48.086],[4.432,48.086],[4.449,48.086],[4.438,48.053],[4.436,48.058],[4.415,48.062],[4.395,48.073],[4.393,48.08]]]}},{"type":"Feature","properties":{"code":"10071","nom":"Chacenay"},"geometry":{"type":"Polygon","coordinates":[[[4.528,48.082],[4.528,48.082],[4.524,48.101],[4.51,48.112],[4.53,48.129],[4.554,48.113],[4.528,48.082]]]}},{"type":"Feature","properties":{"code":"10072","nom":"La Chaise"},"geometry":{"type":"Polygon","coordinates":[[[4.669,48.33],[4.667,48.347],[4.633,48.36],[4.679,48.378],[4.698,48.369],[4.678,48.332],[4.669,48.33]]]}},{"type":"Feature","properties":{"code":"10073","nom":"Chalette-sur-Voire"},"geometry":{"type":"Polygon","coordinates":[[[4.406,48.445],[4.398,48.448],[4.408,48.457],[4.428,48.464],[4.445,48.458],[4.44,48.445],[4.406,48.445]]]}},{"type":"Feature","properties":{"code":"10074","nom":"Chamoy"},"geometry":{"type":"Polygon","coordinates":[[[3.916,48.131],[3.917,48.145],[3.967,48.132],[4.012,48.096],[4.006,48.08],[3.975,48.09],[3.962,48.108],[3.916,48.131]]]}},{"type":"Feature","properties":{"code":"10075","nom":"Champfleury"},"geometry":{"type":"Polygon","coordinates":[[[4.077,48.632],[4.073,48.613],[4.052,48.6],[4.026,48.606],[3.987,48.599],[4.008,48.628],[4.051,48.634],[4.077,48.632]]]}},{"type":"Feature","properties":{"code":"10076","nom":"Champignol-lez-Mondeville"},"geometry":{"type":"Polygon","coordinates":[[[4.707,48.095],[4.691,48.086],[4.685,48.099],[4.646,48.102],[4.626,48.119],[4.615,48.143],[4.653,48.154],[4.695,48.157],[4.717,48.138],[4.741,48.14],[4.732,48.119],[4.707,48.095]]]}},{"type":"Feature","properties":{"code":"10077","nom":"Champigny-sur-Aube"},"geometry":{"type":"Polygon","coordinates":[[[4.088,48.564],[4.082,48.553],[4.05,48.558],[4.067,48.588],[4.088,48.564]]]}},{"type":"Feature","properties":{"code":"10078","nom":"Champ-sur-Barse"},"geometry":{"type":"Polygon","coordinates":[[[4.418,48.218],[4.389,48.223],[4.414,48.266],[4.422,48.269],[4.418,48.218]]]}},{"type":"Feature","properties":{"code":"10079","nom":"Channes"},"geometry":{"type":"Polygon","coordinates":[[[4.299,47.949],[4.293,47.926],[4.266,47.924],[4.224,47.948],[4.252,47.956],[4.299,47.949]]]}},{"type":"Feature","properties":{"code":"10080","nom":"Chaource"},"geometry":{"type":"Polygon","coordinates":[[[4.173,48.024],[4.155,48.025],[4.101,48.039],[4.076,48.067],[4.117,48.076],[4.127,48.094],[4.157,48.08],[4.165,48.068],[4.195,48.041],[4.173,48.024]]]}},{"type":"Feature","properties":{"code":"10081","nom":"La Chapelle-Saint-Luc"},"geometry":{"type":"Polygon","coordinates":[[[4.041,48.307],[4.03,48.303],[3.989,48.298],[3.988,48.299],[3.986,48.306],[4.054,48.334],[4.069,48.329],[4.075,48.319],[4.041,48.307]]]}},{"type":"Feature","properties":{"code":"10082","nom":"Chapelle-Vallon"},"geometry":{"type":"Polygon","coordinates":[[[4.041,48.412],[4.009,48.423],[3.999,48.443],[4.002,48.444],[4.026,48.455],[4.069,48.459],[4.079,48.442],[4.069,48.425],[4.079,48.409],[4.041,48.412]]]}},{"type":"Feature","properties":{"code":"10083","nom":"Chappes"},"geometry":{"type":"Polygon","coordinates":[[[4.247,48.142],[4.245,48.142],[4.225,48.164],[4.23,48.165],[4.281,48.188],[4.28,48.167],[4.247,48.142]]]}},{"type":"Feature","properties":{"code":"10084","nom":"Charmont-sous-Barbuise"},"geometry":{"type":"Polygon","coordinates":[[[4.2,48.452],[4.202,48.45],[4.235,48.425],[4.237,48.42],[4.225,48.407],[4.19,48.396],[4.153,48.373],[4.144,48.394],[4.123,48.411],[4.147,48.429],[4.2,48.452]]]}},{"type":"Feature","properties":{"code":"10085","nom":"Charmoy"},"geometry":{"type":"Polygon","coordinates":[[[3.605,48.389],[3.581,48.375],[3.559,48.402],[3.584,48.408],[3.605,48.389]]]}},{"type":"Feature","properties":{"code":"10086","nom":"Charny-le-Bachot"},"geometry":{"type":"Polygon","coordinates":[[[3.968,48.523],[3.935,48.517],[3.925,48.526],[3.933,48.561],[3.981,48.555],[3.968,48.523]]]}},{"type":"Feature","properties":{"code":"10087","nom":"Chaserey"},"geometry":{"type":"Polygon","coordinates":[[[4.093,47.941],[4.061,47.946],[4.064,47.964],[4.096,47.954],[4.093,47.941]]]}},{"type":"Feature","properties":{"code":"10089","nom":"Châtres"},"geometry":{"type":"Polygon","coordinates":[[[3.825,48.515],[3.834,48.518],[3.867,48.509],[3.869,48.498],[3.834,48.468],[3.82,48.466],[3.807,48.479],[3.825,48.515]]]}},{"type":"Feature","properties":{"code":"10090","nom":"Chauchigny"},"geometry":{"type":"Polygon","coordinates":[[[3.969,48.412],[3.944,48.429],[3.999,48.443],[4.009,48.423],[3.969,48.412]]]}},{"type":"Feature","properties":{"code":"10091","nom":"Chaudrey"},"geometry":{"type":"Polygon","coordinates":[[[4.202,48.45],[4.2,48.452],[4.194,48.467],[4.238,48.487],[4.264,48.508],[4.273,48.516],[4.296,48.503],[4.256,48.483],[4.247,48.477],[4.202,48.45]]]}},{"type":"Feature","properties":{"code":"10092","nom":"Chauffour-lès-Bailly"},"geometry":{"type":"Polygon","coordinates":[[[4.355,48.172],[4.353,48.165],[4.342,48.161],[4.304,48.17],[4.28,48.167],[4.281,48.188],[4.275,48.204],[4.322,48.211],[4.336,48.178],[4.34,48.169],[4.355,48.172]]]}},{"type":"Feature","properties":{"code":"10093","nom":"Chaumesnil"},"geometry":{"type":"Polygon","coordinates":[[[4.566,48.361],[4.597,48.371],[4.633,48.36],[4.667,48.347],[4.581,48.354],[4.566,48.361]]]}},{"type":"Feature","properties":{"code":"10094","nom":"Chavanges"},"geometry":{"type":"Polygon","coordinates":[[[4.521,48.545],[4.531,48.53],[4.581,48.548],[4.591,48.527],[4.637,48.512],[4.591,48.491],[4.584,48.492],[4.542,48.507],[4.525,48.498],[4.52,48.499],[4.512,48.506],[4.521,48.545]]]}},{"type":"Feature","properties":{"code":"10095","nom":"Le Chêne"},"geometry":{"type":"Polygon","coordinates":[[[4.197,48.542],[4.187,48.544],[4.16,48.54],[4.132,48.547],[4.143,48.573],[4.182,48.592],[4.199,48.582],[4.21,48.572],[4.218,48.564],[4.197,48.542]]]}},{"type":"Feature","properties":{"code":"10096","nom":"Chennegy"},"geometry":{"type":"Polygon","coordinates":[[[3.836,48.186],[3.826,48.196],[3.814,48.205],[3.826,48.235],[3.848,48.25],[3.881,48.234],[3.881,48.227],[3.872,48.2],[3.836,48.186]]]}},{"type":"Feature","properties":{"code":"10097","nom":"Chervey"},"geometry":{"type":"Polygon","coordinates":[[[4.499,48.11],[4.484,48.106],[4.471,48.116],[4.471,48.151],[4.494,48.162],[4.507,48.136],[4.499,48.11]]]}},{"type":"Feature","properties":{"code":"10098","nom":"Chesley"},"geometry":{"type":"Polygon","coordinates":[[[4.064,47.964],[4.06,47.967],[4.073,47.981],[4.085,47.987],[4.119,47.997],[4.155,47.991],[4.155,47.991],[4.165,47.973],[4.113,47.964],[4.096,47.954],[4.064,47.964]]]}},{"type":"Feature","properties":{"code":"10099","nom":"Chessy-les-Prés"},"geometry":{"type":"Polygon","coordinates":[[[3.886,48.003],[3.894,48.016],[3.933,48.044],[3.971,48.027],[3.984,48.013],[3.951,47.997],[3.942,47.982],[3.904,47.992],[3.886,48],[3.886,48.003]]]}},{"type":"Feature","properties":{"code":"10100","nom":"Clérey"},"geometry":{"type":"Polygon","coordinates":[[[4.212,48.188],[4.21,48.181],[4.174,48.187],[4.163,48.209],[4.177,48.23],[4.225,48.233],[4.201,48.217],[4.24,48.203],[4.212,48.188]]]}},{"type":"Feature","properties":{"code":"10101","nom":"Coclois"},"geometry":{"type":"Polygon","coordinates":[[[4.344,48.487],[4.351,48.483],[4.356,48.468],[4.312,48.46],[4.301,48.467],[4.344,48.487]]]}},{"type":"Feature","properties":{"code":"10102","nom":"Colombé-la-Fosse"},"geometry":{"type":"Polygon","coordinates":[[[4.774,48.251],[4.765,48.251],[4.764,48.264],[4.784,48.281],[4.807,48.287],[4.816,48.29],[4.816,48.285],[4.818,48.272],[4.774,48.251]]]}},{"type":"Feature","properties":{"code":"10103","nom":"Colombé-le-Sec"},"geometry":{"type":"Polygon","coordinates":[[[4.79,48.237],[4.774,48.251],[4.818,48.272],[4.816,48.285],[4.827,48.254],[4.796,48.235],[4.79,48.237]]]}},{"type":"Feature","properties":{"code":"10104","nom":"Cormost"},"geometry":{"type":"Polygon","coordinates":[[[4.139,48.18],[4.151,48.171],[4.151,48.143],[4.123,48.134],[4.116,48.13],[4.119,48.178],[4.139,48.18]]]}},{"type":"Feature","properties":{"code":"10105","nom":"Courcelles-sur-Voire"},"geometry":{"type":"Polygon","coordinates":[[[4.529,48.468],[4.519,48.483],[4.513,48.498],[4.52,48.499],[4.525,48.498],[4.549,48.473],[4.537,48.468],[4.529,48.468]]]}},{"type":"Feature","properties":{"code":"10106","nom":"Courceroy"},"geometry":{"type":"Polygon","coordinates":[[[3.384,48.478],[3.404,48.486],[3.431,48.457],[3.406,48.453],[3.384,48.478]]]}},{"type":"Feature","properties":{"code":"10107","nom":"Coursan-en-Othe"},"geometry":{"type":"Polygon","coordinates":[[[3.806,48.101],[3.816,48.096],[3.845,48.076],[3.857,48.062],[3.826,48.064],[3.799,48.086],[3.806,48.101]]]}},{"type":"Feature","properties":{"code":"10108","nom":"Courtaoult"},"geometry":{"type":"Polygon","coordinates":[[[3.894,48.016],[3.886,48.003],[3.871,48.003],[3.843,48.036],[3.874,48.044],[3.887,48.044],[3.894,48.016]]]}},{"type":"Feature","properties":{"code":"10109","nom":"Courtenot"},"geometry":{"type":"Polygon","coordinates":[[[4.335,48.142],[4.28,48.143],[4.304,48.17],[4.342,48.161],[4.335,48.142]]]}},{"type":"Feature","properties":{"code":"10110","nom":"Courteranges"},"geometry":{"type":"Polygon","coordinates":[[[4.209,48.266],[4.2,48.276],[4.211,48.284],[4.233,48.278],[4.221,48.25],[4.209,48.266]]]}},{"type":"Feature","properties":{"code":"10111","nom":"Courteron"},"geometry":{"type":"Polygon","coordinates":[[[4.493,48.041],[4.493,48.041],[4.496,48.021],[4.472,48.014],[4.451,47.991],[4.443,48.023],[4.493,48.041]]]}},{"type":"Feature","properties":{"code":"10112","nom":"Coussegrey"},"geometry":{"type":"Polygon","coordinates":[[[4.025,47.929],[4.005,47.943],[4.001,47.96],[4.028,47.975],[4.037,47.977],[4.06,47.967],[4.064,47.964],[4.061,47.946],[4.025,47.929]]]}},{"type":"Feature","properties":{"code":"10113","nom":"Couvignon"},"geometry":{"type":"Polygon","coordinates":[[[4.7,48.183],[4.657,48.196],[4.645,48.22],[4.66,48.221],[4.682,48.219],[4.7,48.207],[4.7,48.195],[4.702,48.189],[4.7,48.183]]]}},{"type":"Feature","properties":{"code":"10114","nom":"Crancey"},"geometry":{"type":"Polygon","coordinates":[[[3.612,48.504],[3.622,48.528],[3.644,48.536],[3.659,48.536],[3.666,48.536],[3.664,48.532],[3.649,48.503],[3.612,48.504]]]}},{"type":"Feature","properties":{"code":"10115","nom":"Creney-près-Troyes"},"geometry":{"type":"Polygon","coordinates":[[[4.176,48.358],[4.182,48.344],[4.138,48.333],[4.124,48.308],[4.106,48.312],[4.109,48.329],[4.113,48.351],[4.15,48.367],[4.176,48.358]]]}},{"type":"Feature","properties":{"code":"10116","nom":"Crésantignes"},"geometry":{"type":"Polygon","coordinates":[[[4.025,48.133],[4.018,48.135],[4.01,48.147],[4.018,48.154],[4.031,48.141],[4.025,48.133]]]}},{"type":"Feature","properties":{"code":"10117","nom":"Crespy-le-Neuf"},"geometry":{"type":"Polygon","coordinates":[[[4.588,48.384],[4.585,48.39],[4.582,48.41],[4.643,48.411],[4.639,48.396],[4.588,48.384]]]}},{"type":"Feature","properties":{"code":"10118","nom":"Les Croûtes"},"geometry":{"type":"Polygon","coordinates":[[[3.862,47.977],[3.85,47.984],[3.84,48.004],[3.871,48.003],[3.886,48.003],[3.886,48],[3.862,47.977]]]}},{"type":"Feature","properties":{"code":"10119","nom":"Cunfin"},"geometry":{"type":"Polygon","coordinates":[[[4.622,48.024],[4.617,48.031],[4.63,48.054],[4.661,48.077],[4.69,48.073],[4.723,48.046],[4.704,48.02],[4.673,48.015],[4.622,48.024]]]}},{"type":"Feature","properties":{"code":"10120","nom":"Cussangy"},"geometry":{"type":"Polygon","coordinates":[[[4.085,47.987],[4.064,48.016],[4.067,48.048],[4.049,48.058],[4.047,48.061],[4.064,48.066],[4.075,48.069],[4.076,48.067],[4.101,48.039],[4.126,48.013],[4.119,47.997],[4.085,47.987]]]}},{"type":"Feature","properties":{"code":"10121","nom":"Dampierre"},"geometry":{"type":"Polygon","coordinates":[[[4.35,48.598],[4.424,48.554],[4.422,48.548],[4.397,48.537],[4.39,48.535],[4.376,48.533],[4.326,48.56],[4.326,48.575],[4.331,48.602],[4.35,48.598]]]}},{"type":"Feature","properties":{"code":"10122","nom":"Davrey"},"geometry":{"type":"Polygon","coordinates":[[[3.978,48.037],[3.971,48.027],[3.933,48.044],[3.961,48.062],[3.974,48.062],[3.979,48.062],[3.978,48.037]]]}},{"type":"Feature","properties":{"code":"10123","nom":"Dienville"},"geometry":{"type":"Polygon","coordinates":[[[4.514,48.315],[4.502,48.297],[4.464,48.302],[4.487,48.317],[4.488,48.337],[4.525,48.357],[4.554,48.356],[4.555,48.337],[4.514,48.315]]]}},{"type":"Feature","properties":{"code":"10124","nom":"Dierrey-Saint-Julien"},"geometry":{"type":"Polygon","coordinates":[[[3.84,48.285],[3.839,48.283],[3.79,48.297],[3.786,48.306],[3.823,48.324],[3.875,48.327],[3.89,48.317],[3.87,48.303],[3.84,48.285]]]}},{"type":"Feature","properties":{"code":"10125","nom":"Dierrey-Saint-Pierre"},"geometry":{"type":"Polygon","coordinates":[[[3.828,48.355],[3.877,48.328],[3.895,48.339],[3.898,48.326],[3.89,48.317],[3.875,48.327],[3.823,48.324],[3.786,48.306],[3.78,48.335],[3.786,48.34],[3.827,48.355],[3.828,48.355]]]}},{"type":"Feature","properties":{"code":"10126","nom":"Dolancourt"},"geometry":{"type":"Polygon","coordinates":[[[4.619,48.256],[4.619,48.256],[4.583,48.267],[4.632,48.279],[4.619,48.256]]]}},{"type":"Feature","properties":{"code":"10127","nom":"Dommartin-le-Coq"},"geometry":{"type":"Polygon","coordinates":[[[4.364,48.514],[4.375,48.49],[4.351,48.483],[4.344,48.487],[4.333,48.495],[4.353,48.509],[4.364,48.514]]]}},{"type":"Feature","properties":{"code":"10128","nom":"Donnement"},"geometry":{"type":"Polygon","coordinates":[[[4.397,48.537],[4.422,48.548],[4.457,48.504],[4.437,48.498],[4.427,48.496],[4.397,48.537]]]}},{"type":"Feature","properties":{"code":"10129","nom":"Dosches"},"geometry":{"type":"Polygon","coordinates":[[[4.27,48.297],[4.222,48.325],[4.236,48.338],[4.275,48.334],[4.29,48.319],[4.288,48.308],[4.335,48.282],[4.27,48.297]]]}},{"type":"Feature","properties":{"code":"10130","nom":"Dosnon"},"geometry":{"type":"Polygon","coordinates":[[[4.182,48.624],[4.229,48.621],[4.269,48.632],[4.293,48.629],[4.324,48.644],[4.325,48.642],[4.33,48.636],[4.315,48.616],[4.282,48.609],[4.227,48.602],[4.199,48.582],[4.182,48.592],[4.167,48.6],[4.182,48.624]]]}},{"type":"Feature","properties":{"code":"10131","nom":"Droupt-Saint-Basle"},"geometry":{"type":"Polygon","coordinates":[[[3.934,48.458],[3.93,48.459],[3.916,48.476],[3.931,48.492],[3.985,48.503],[3.999,48.483],[3.987,48.472],[3.934,48.458]]]}},{"type":"Feature","properties":{"code":"10132","nom":"Droupt-Sainte-Marie"},"geometry":{"type":"Polygon","coordinates":[[[3.98,48.506],[3.985,48.503],[3.931,48.492],[3.916,48.476],[3.902,48.486],[3.899,48.496],[3.935,48.517],[3.968,48.523],[3.98,48.506]]]}},{"type":"Feature","properties":{"code":"10133","nom":"Eaux-Puiseaux"},"geometry":{"type":"Polygon","coordinates":[[[3.873,48.101],[3.855,48.117],[3.905,48.132],[3.907,48.107],[3.878,48.102],[3.873,48.101]]]}},{"type":"Feature","properties":{"code":"10134","nom":"Échemines"},"geometry":{"type":"Polygon","coordinates":[[[3.853,48.374],[3.828,48.355],[3.827,48.355],[3.8,48.393],[3.816,48.405],[3.843,48.422],[3.85,48.411],[3.87,48.396],[3.853,48.374]]]}},{"type":"Feature","properties":{"code":"10135","nom":"Éclance"},"geometry":{"type":"Polygon","coordinates":[[[4.667,48.299],[4.634,48.281],[4.618,48.297],[4.627,48.322],[4.665,48.328],[4.667,48.299]]]}},{"type":"Feature","properties":{"code":"10136","nom":"Éguilly-sous-Bois"},"geometry":{"type":"Polygon","coordinates":[[[4.53,48.129],[4.517,48.162],[4.534,48.162],[4.562,48.112],[4.554,48.113],[4.53,48.129]]]}},{"type":"Feature","properties":{"code":"10137","nom":"Engente"},"geometry":{"type":"Polygon","coordinates":[[[4.763,48.293],[4.784,48.281],[4.764,48.264],[4.753,48.294],[4.763,48.293]]]}},{"type":"Feature","properties":{"code":"10138","nom":"Épagne"},"geometry":{"type":"Polygon","coordinates":[[[4.453,48.403],[4.451,48.408],[4.487,48.406],[4.467,48.386],[4.453,48.403]]]}},{"type":"Feature","properties":{"code":"10139","nom":"Épothémont"},"geometry":{"type":"Polygon","coordinates":[[[4.644,48.419],[4.651,48.427],[4.677,48.436],[4.68,48.417],[4.668,48.4],[4.662,48.393],[4.639,48.396],[4.643,48.411],[4.644,48.419]]]}},{"type":"Feature","properties":{"code":"10140","nom":"Ervy-le-Châtel"},"geometry":{"type":"Polygon","coordinates":[[[3.858,48.092],[3.857,48.093],[3.873,48.101],[3.878,48.102],[3.894,48.079],[3.926,48.065],[3.961,48.062],[3.933,48.044],[3.894,48.016],[3.887,48.044],[3.899,48.052],[3.886,48.08],[3.858,48.092]]]}},{"type":"Feature","properties":{"code":"10141","nom":"Essoyes"},"geometry":{"type":"Polygon","coordinates":[[[4.528,48.082],[4.528,48.082],[4.566,48.088],[4.594,48.066],[4.583,48.052],[4.544,48.037],[4.555,48.012],[4.536,48.007],[4.508,48.02],[4.496,48.021],[4.493,48.041],[4.523,48.064],[4.528,48.082]]]}},{"type":"Feature","properties":{"code":"10142","nom":"Estissac"},"geometry":{"type":"Polygon","coordinates":[[[3.79,48.297],[3.839,48.283],[3.833,48.258],[3.848,48.25],[3.826,48.235],[3.814,48.205],[3.792,48.22],[3.794,48.267],[3.775,48.29],[3.79,48.297]]]}},{"type":"Feature","properties":{"code":"10143","nom":"Étourvy"},"geometry":{"type":"Polygon","coordinates":[[[4.167,47.96],[4.142,47.937],[4.122,47.932],[4.093,47.941],[4.096,47.954],[4.113,47.964],[4.165,47.973],[4.17,47.967],[4.167,47.96]]]}},{"type":"Feature","properties":{"code":"10144","nom":"Étrelles-sur-Aube"},"geometry":{"type":"Polygon","coordinates":[[[3.884,48.578],[3.885,48.578],[3.892,48.573],[3.896,48.539],[3.866,48.544],[3.86,48.544],[3.855,48.573],[3.884,48.578]]]}},{"type":"Feature","properties":{"code":"10145","nom":"Faux-Villecerf"},"geometry":{"type":"Polygon","coordinates":[[[3.78,48.335],[3.742,48.299],[3.724,48.306],[3.723,48.323],[3.696,48.338],[3.739,48.356],[3.786,48.34],[3.78,48.335]]]}},{"type":"Feature","properties":{"code":"10146","nom":"Fay-lès-Marcilly"},"geometry":{"type":"Polygon","coordinates":[[[3.627,48.398],[3.611,48.388],[3.605,48.389],[3.584,48.408],[3.602,48.42],[3.627,48.398]]]}},{"type":"Feature","properties":{"code":"10147","nom":"Fays-la-Chapelle"},"geometry":{"type":"Polygon","coordinates":[[[4.018,48.135],[4.025,48.133],[4.026,48.126],[4.018,48.135]]]}},{"type":"Feature","properties":{"code":"10148","nom":"Ferreux-Quincey"},"geometry":{"type":"Polygon","coordinates":[[[3.585,48.484],[3.614,48.487],[3.633,48.47],[3.603,48.432],[3.568,48.458],[3.585,48.484]]]}},{"type":"Feature","properties":{"code":"10149","nom":"Feuges"},"geometry":{"type":"Polygon","coordinates":[[[4.082,48.4],[4.079,48.408],[4.123,48.411],[4.144,48.394],[4.103,48.38],[4.088,48.383],[4.082,48.4]]]}},{"type":"Feature","properties":{"code":"10150","nom":"Fontaine"},"geometry":{"type":"Polygon","coordinates":[[[4.733,48.222],[4.74,48.206],[4.7,48.195],[4.7,48.207],[4.733,48.222]]]}},{"type":"Feature","properties":{"code":"10151","nom":"Fontaine-les-Grès"},"geometry":{"type":"Polygon","coordinates":[[[3.895,48.399],[3.87,48.396],[3.85,48.411],[3.882,48.426],[3.919,48.427],[3.895,48.399]]]}},{"type":"Feature","properties":{"code":"10153","nom":"Fontaine-Mâcon"},"geometry":{"type":"Polygon","coordinates":[[[3.543,48.458],[3.513,48.44],[3.492,48.434],[3.476,48.467],[3.524,48.479],[3.543,48.458]]]}},{"type":"Feature","properties":{"code":"10154","nom":"Fontenay-de-Bossery"},"geometry":{"type":"Polygon","coordinates":[[[3.476,48.467],[3.492,48.434],[3.49,48.434],[3.448,48.437],[3.443,48.459],[3.475,48.468],[3.476,48.467]]]}},{"type":"Feature","properties":{"code":"10155","nom":"Fontette"},"geometry":{"type":"Polygon","coordinates":[[[4.658,48.079],[4.661,48.077],[4.63,48.054],[4.594,48.066],[4.566,48.088],[4.59,48.096],[4.63,48.092],[4.658,48.079]]]}},{"type":"Feature","properties":{"code":"10156","nom":"Fontvannes"},"geometry":{"type":"Polygon","coordinates":[[[3.84,48.285],[3.87,48.303],[3.899,48.281],[3.885,48.261],[3.853,48.269],[3.84,48.285]]]}},{"type":"Feature","properties":{"code":"10157","nom":"La Fosse-Corduan"},"geometry":{"type":"Polygon","coordinates":[[[3.656,48.456],[3.659,48.432],[3.632,48.43],[3.656,48.456]]]}},{"type":"Feature","properties":{"code":"10158","nom":"Fouchères"},"geometry":{"type":"Polygon","coordinates":[[[4.275,48.135],[4.247,48.142],[4.28,48.167],[4.304,48.17],[4.28,48.143],[4.275,48.135]]]}},{"type":"Feature","properties":{"code":"10159","nom":"Fralignes"},"geometry":{"type":"Polygon","coordinates":[[[4.394,48.156],[4.361,48.165],[4.365,48.174],[4.393,48.171],[4.394,48.156]]]}},{"type":"Feature","properties":{"code":"10160","nom":"Fravaux"},"geometry":{"type":"Polygon","coordinates":[[[4.631,48.246],[4.655,48.24],[4.653,48.225],[4.627,48.243],[4.631,48.246]]]}},{"type":"Feature","properties":{"code":"10161","nom":"Fresnay"},"geometry":{"type":"Polygon","coordinates":[[[4.783,48.321],[4.779,48.311],[4.763,48.293],[4.753,48.294],[4.736,48.294],[4.739,48.309],[4.772,48.325],[4.783,48.321]]]}},{"type":"Feature","properties":{"code":"10162","nom":"Fresnoy-le-Château"},"geometry":{"type":"Polygon","coordinates":[[[4.227,48.241],[4.262,48.228],[4.252,48.202],[4.24,48.203],[4.201,48.217],[4.225,48.233],[4.227,48.241]]]}},{"type":"Feature","properties":{"code":"10163","nom":"Fuligny"},"geometry":{"type":"Polygon","coordinates":[[[4.698,48.319],[4.678,48.332],[4.698,48.369],[4.7,48.363],[4.719,48.317],[4.698,48.319]]]}},{"type":"Feature","properties":{"code":"10164","nom":"Gélannes"},"geometry":{"type":"Polygon","coordinates":[[[3.702,48.474],[3.703,48.472],[3.656,48.456],[3.642,48.467],[3.64,48.489],[3.679,48.489],[3.702,48.474]]]}},{"type":"Feature","properties":{"code":"10165","nom":"Géraudot"},"geometry":{"type":"Polygon","coordinates":[[[4.341,48.275],[4.335,48.282],[4.288,48.308],[4.29,48.319],[4.32,48.332],[4.348,48.32],[4.352,48.273],[4.341,48.275]]]}},{"type":"Feature","properties":{"code":"10166","nom":"Les Grandes-Chapelles"},"geometry":{"type":"Polygon","coordinates":[[[4.073,48.467],[4.078,48.464],[4.069,48.459],[4.026,48.455],[4.002,48.444],[3.987,48.472],[3.999,48.483],[4.045,48.488],[4.067,48.47],[4.073,48.467]]]}},{"type":"Feature","properties":{"code":"10167","nom":"Grandville"},"geometry":{"type":"Polygon","coordinates":[[[4.199,48.582],[4.227,48.602],[4.282,48.609],[4.21,48.572],[4.199,48.582]]]}},{"type":"Feature","properties":{"code":"10168","nom":"Les Granges"},"geometry":{"type":"Polygon","coordinates":[[[4.051,48.056],[4.049,48.058],[4.067,48.048],[4.051,48.056]]]}},{"type":"Feature","properties":{"code":"10169","nom":"Gumery"},"geometry":{"type":"Polygon","coordinates":[[[3.431,48.457],[3.443,48.459],[3.448,48.437],[3.412,48.421],[3.397,48.435],[3.406,48.453],[3.431,48.457]]]}},{"type":"Feature","properties":{"code":"10170","nom":"Gyé-sur-Seine"},"geometry":{"type":"Polygon","coordinates":[[[4.403,48.005],[4.423,48.038],[4.455,48.052],[4.476,48.047],[4.493,48.041],[4.443,48.023],[4.451,47.991],[4.448,47.977],[4.447,47.962],[4.419,47.974],[4.403,48.005]]]}},{"type":"Feature","properties":{"code":"10171","nom":"Hampigny"},"geometry":{"type":"Polygon","coordinates":[[[4.58,48.475],[4.6,48.471],[4.627,48.468],[4.636,48.457],[4.589,48.449],[4.571,48.463],[4.58,48.475]]]}},{"type":"Feature","properties":{"code":"10172","nom":"Herbisse"},"geometry":{"type":"Polygon","coordinates":[[[4.174,48.626],[4.182,48.624],[4.167,48.6],[4.113,48.597],[4.082,48.604],[4.073,48.613],[4.077,48.632],[4.152,48.623],[4.174,48.626]]]}},{"type":"Feature","properties":{"code":"10173","nom":"Isle-Aumont"},"geometry":{"type":"Polygon","coordinates":[[[4.122,48.219],[4.137,48.19],[4.107,48.203],[4.106,48.207],[4.122,48.219]]]}},{"type":"Feature","properties":{"code":"10174","nom":"Isle-Aubigny"},"geometry":{"type":"Polygon","coordinates":[[[4.311,48.549],[4.273,48.516],[4.264,48.508],[4.248,48.519],[4.239,48.527],[4.252,48.544],[4.293,48.569],[4.326,48.575],[4.326,48.56],[4.311,48.549]]]}},{"type":"Feature","properties":{"code":"10175","nom":"Jasseines"},"geometry":{"type":"Polygon","coordinates":[[[4.385,48.485],[4.375,48.49],[4.364,48.514],[4.39,48.535],[4.397,48.537],[4.427,48.496],[4.385,48.485]]]}},{"type":"Feature","properties":{"code":"10176","nom":"Jaucourt"},"geometry":{"type":"Polygon","coordinates":[[[4.665,48.249],[4.655,48.24],[4.631,48.246],[4.619,48.256],[4.619,48.256],[4.654,48.264],[4.665,48.249]]]}},{"type":"Feature","properties":{"code":"10177","nom":"Javernant"},"geometry":{"type":"Polygon","coordinates":[[[4.023,48.159],[4.018,48.154],[4.01,48.147],[3.971,48.146],[3.982,48.168],[4.002,48.172],[4.024,48.161],[4.023,48.159]]]}},{"type":"Feature","properties":{"code":"10178","nom":"Jessains"},"geometry":{"type":"Polygon","coordinates":[[[4.583,48.267],[4.563,48.264],[4.546,48.286],[4.55,48.298],[4.572,48.307],[4.593,48.286],[4.583,48.267]]]}},{"type":"Feature","properties":{"code":"10179","nom":"Jeugny"},"geometry":{"type":"Polygon","coordinates":[[[4.098,48.116],[4.051,48.089],[4.047,48.087],[4.026,48.126],[4.025,48.133],[4.031,48.141],[4.053,48.135],[4.058,48.134],[4.086,48.12],[4.098,48.116]]]}},{"type":"Feature","properties":{"code":"10180","nom":"Joncreuil"},"geometry":{"type":"Polygon","coordinates":[[[4.635,48.544],[4.651,48.537],[4.643,48.513],[4.637,48.512],[4.591,48.527],[4.635,48.544]]]}},{"type":"Feature","properties":{"code":"10181","nom":"Jully-sur-Sarce"},"geometry":{"type":"Polygon","coordinates":[[[4.326,48.089],[4.296,48.095],[4.253,48.08],[4.252,48.081],[4.23,48.098],[4.231,48.108],[4.223,48.122],[4.245,48.142],[4.247,48.142],[4.275,48.135],[4.296,48.12],[4.329,48.121],[4.34,48.116],[4.326,48.089]]]}},{"type":"Feature","properties":{"code":"10182","nom":"Juvancourt"},"geometry":{"type":"Polygon","coordinates":[[[4.833,48.118],[4.834,48.105],[4.787,48.109],[4.8,48.135],[4.829,48.129],[4.833,48.118]]]}},{"type":"Feature","properties":{"code":"10183","nom":"Juvanzé"},"geometry":{"type":"Polygon","coordinates":[[[4.575,48.328],[4.612,48.324],[4.572,48.316],[4.575,48.328]]]}},{"type":"Feature","properties":{"code":"10184","nom":"Juzanvigny"},"geometry":{"type":"Polygon","coordinates":[[[4.582,48.41],[4.574,48.425],[4.644,48.419],[4.643,48.411],[4.582,48.41]]]}},{"type":"Feature","properties":{"code":"10185","nom":"Lagesse"},"geometry":{"type":"Polygon","coordinates":[[[4.155,47.991],[4.119,47.997],[4.126,48.013],[4.101,48.039],[4.155,48.025],[4.155,47.991]]]}},{"type":"Feature","properties":{"code":"10186","nom":"Laines-aux-Bois"},"geometry":{"type":"Polygon","coordinates":[[[4.019,48.236],[4.017,48.231],[3.956,48.201],[3.947,48.231],[3.966,48.246],[4.009,48.247],[4.019,48.236]]]}},{"type":"Feature","properties":{"code":"10187","nom":"Landreville"},"geometry":{"type":"Polygon","coordinates":[[[4.482,48.104],[4.494,48.084],[4.476,48.047],[4.455,48.052],[4.438,48.053],[4.449,48.086],[4.482,48.104]]]}},{"type":"Feature","properties":{"code":"10188","nom":"Lantages"},"geometry":{"type":"Polygon","coordinates":[[[4.172,48.088],[4.203,48.081],[4.209,48.109],[4.231,48.108],[4.23,48.098],[4.247,48.079],[4.227,48.053],[4.165,48.068],[4.157,48.08],[4.172,48.088]]]}},{"type":"Feature","properties":{"code":"10189","nom":"Lassicourt"},"geometry":{"type":"Polygon","coordinates":[[[4.501,48.422],[4.471,48.448],[4.471,48.448],[4.495,48.451],[4.521,48.437],[4.528,48.429],[4.501,48.422]]]}},{"type":"Feature","properties":{"code":"10190","nom":"Laubressel"},"geometry":{"type":"Polygon","coordinates":[[[4.222,48.325],[4.27,48.297],[4.233,48.278],[4.211,48.284],[4.191,48.3],[4.204,48.318],[4.222,48.325]]]}},{"type":"Feature","properties":{"code":"10191","nom":"Lavau"},"geometry":{"type":"Polygon","coordinates":[[[4.11,48.353],[4.113,48.351],[4.109,48.329],[4.08,48.315],[4.075,48.319],[4.069,48.329],[4.11,48.353]]]}},{"type":"Feature","properties":{"code":"10192","nom":"Lentilles"},"geometry":{"type":"Polygon","coordinates":[[[4.643,48.513],[4.666,48.511],[4.653,48.471],[4.627,48.468],[4.6,48.471],[4.591,48.491],[4.637,48.512],[4.643,48.513]]]}},{"type":"Feature","properties":{"code":"10193","nom":"Lesmont"},"geometry":{"type":"Polygon","coordinates":[[[4.406,48.445],[4.44,48.445],[4.451,48.439],[4.462,48.429],[4.433,48.418],[4.423,48.412],[4.399,48.418],[4.406,48.445]]]}},{"type":"Feature","properties":{"code":"10194","nom":"Lévigny"},"geometry":{"type":"Polygon","coordinates":[[[4.739,48.309],[4.736,48.294],[4.716,48.28],[4.672,48.287],[4.671,48.293],[4.698,48.319],[4.719,48.317],[4.739,48.309]]]}},{"type":"Feature","properties":{"code":"10195","nom":"Lhuître"},"geometry":{"type":"Polygon","coordinates":[[[4.315,48.616],[4.331,48.602],[4.326,48.575],[4.293,48.569],[4.252,48.544],[4.218,48.564],[4.21,48.572],[4.282,48.609],[4.315,48.616]]]}},{"type":"Feature","properties":{"code":"10196","nom":"Lignières"},"geometry":{"type":"Polygon","coordinates":[[[3.926,47.935],[3.942,47.982],[3.951,47.997],[4.001,47.96],[4.005,47.943],[3.986,47.931],[3.981,47.93],[3.926,47.935]]]}},{"type":"Feature","properties":{"code":"10197","nom":"Lignol-le-Château"},"geometry":{"type":"Polygon","coordinates":[[[4.856,48.193],[4.832,48.191],[4.795,48.212],[4.752,48.219],[4.79,48.237],[4.796,48.235],[4.836,48.222],[4.861,48.211],[4.856,48.193]]]}},{"type":"Feature","properties":{"code":"10198","nom":"Lirey"},"geometry":{"type":"Polygon","coordinates":[[[4.062,48.155],[4.046,48.148],[4.023,48.159],[4.024,48.161],[4.029,48.179],[4.062,48.155]]]}},{"type":"Feature","properties":{"code":"10199","nom":"Loches-sur-Ource"},"geometry":{"type":"Polygon","coordinates":[[[4.493,48.041],[4.493,48.041],[4.476,48.047],[4.494,48.084],[4.524,48.101],[4.528,48.082],[4.523,48.064],[4.493,48.041]]]}},{"type":"Feature","properties":{"code":"10200","nom":"La Loge-aux-Chèvres"},"geometry":{"type":"Polygon","coordinates":[[[4.398,48.275],[4.422,48.269],[4.414,48.266],[4.398,48.275]]]}},{"type":"Feature","properties":{"code":"10201","nom":"La Loge-Pomblin"},"geometry":{"type":"Polygon","coordinates":[[[4.019,48.053],[4.02,48.055],[4.056,48.075],[4.047,48.087],[4.051,48.089],[4.064,48.066],[4.047,48.061],[4.019,48.053]]]}},{"type":"Feature","properties":{"code":"10202","nom":"Les Loges-Margueron"},"geometry":{"type":"Polygon","coordinates":[[[4.051,48.089],[4.098,48.116],[4.116,48.13],[4.123,48.134],[4.16,48.128],[4.135,48.106],[4.172,48.088],[4.157,48.08],[4.127,48.094],[4.117,48.076],[4.075,48.069],[4.064,48.066],[4.051,48.089]]]}},{"type":"Feature","properties":{"code":"10203","nom":"Longchamp-sur-Aujon"},"geometry":{"type":"Polygon","coordinates":[[[4.8,48.135],[4.784,48.174],[4.81,48.168],[4.847,48.18],[4.837,48.152],[4.85,48.141],[4.829,48.129],[4.8,48.135]]]}},{"type":"Feature","properties":{"code":"10204","nom":"Longeville-sur-Mogne"},"geometry":{"type":"Polygon","coordinates":[[[4.073,48.16],[4.084,48.152],[4.058,48.134],[4.053,48.135],[4.046,48.148],[4.062,48.155],[4.073,48.16]]]}},{"type":"Feature","properties":{"code":"10205","nom":"Longpré-le-Sec"},"geometry":{"type":"Polygon","coordinates":[[[4.508,48.164],[4.497,48.195],[4.538,48.207],[4.562,48.207],[4.563,48.207],[4.566,48.196],[4.543,48.179],[4.534,48.162],[4.517,48.162],[4.508,48.164]]]}},{"type":"Feature","properties":{"code":"10206","nom":"Longsols"},"geometry":{"type":"Polygon","coordinates":[[[4.237,48.42],[4.235,48.425],[4.316,48.441],[4.32,48.44],[4.323,48.427],[4.308,48.41],[4.279,48.42],[4.237,48.42]]]}},{"type":"Feature","properties":{"code":"10207","nom":"Longueville-sur-Aube"},"geometry":{"type":"Polygon","coordinates":[[[3.915,48.528],[3.896,48.539],[3.892,48.573],[3.925,48.567],[3.933,48.561],[3.925,48.526],[3.915,48.528]]]}},{"type":"Feature","properties":{"code":"10208","nom":"La Louptière-Thénard"},"geometry":{"type":"Polygon","coordinates":[[[3.415,48.39],[3.421,48.409],[3.456,48.398],[3.471,48.375],[3.429,48.359],[3.415,48.39]]]}},{"type":"Feature","properties":{"code":"10209","nom":"Lusigny-sur-Barse"},"geometry":{"type":"Polygon","coordinates":[[[4.262,48.228],[4.227,48.241],[4.221,48.25],[4.233,48.278],[4.27,48.297],[4.335,48.282],[4.341,48.275],[4.309,48.25],[4.293,48.234],[4.262,48.228]]]}},{"type":"Feature","properties":{"code":"10210","nom":"Luyères"},"geometry":{"type":"Polygon","coordinates":[[[4.15,48.367],[4.153,48.373],[4.19,48.396],[4.225,48.407],[4.24,48.398],[4.21,48.37],[4.176,48.358],[4.15,48.367]]]}},{"type":"Feature","properties":{"code":"10211","nom":"Macey"},"geometry":{"type":"Polygon","coordinates":[[[3.89,48.317],[3.898,48.326],[3.908,48.328],[3.938,48.334],[3.954,48.317],[3.922,48.291],[3.934,48.276],[3.899,48.281],[3.87,48.303],[3.89,48.317]]]}},{"type":"Feature","properties":{"code":"10212","nom":"Machy"},"geometry":{"type":"Polygon","coordinates":[[[4.018,48.154],[4.023,48.159],[4.046,48.148],[4.053,48.135],[4.031,48.141],[4.018,48.154]]]}},{"type":"Feature","properties":{"code":"10213","nom":"Magnant"},"geometry":{"type":"Polygon","coordinates":[[[4.45,48.157],[4.428,48.145],[4.406,48.149],[4.394,48.156],[4.393,48.171],[4.42,48.198],[4.438,48.18],[4.45,48.157]]]}},{"type":"Feature","properties":{"code":"10214","nom":"Magnicourt"},"geometry":{"type":"Polygon","coordinates":[[[4.363,48.454],[4.357,48.466],[4.395,48.469],[4.408,48.457],[4.398,48.448],[4.377,48.446],[4.363,48.454]]]}},{"type":"Feature","properties":{"code":"10215","nom":"Magny-Fouchard"},"geometry":{"type":"Polygon","coordinates":[[[4.514,48.233],[4.507,48.251],[4.563,48.257],[4.577,48.229],[4.576,48.226],[4.563,48.207],[4.562,48.207],[4.548,48.218],[4.514,48.233]]]}},{"type":"Feature","properties":{"code":"10216","nom":"Mailly-le-Camp"},"geometry":{"type":"Polygon","coordinates":[[[4.131,48.686],[4.158,48.704],[4.178,48.709],[4.233,48.702],[4.222,48.667],[4.234,48.656],[4.194,48.632],[4.177,48.633],[4.173,48.656],[4.138,48.671],[4.131,48.686]]]}},{"type":"Feature","properties":{"code":"10217","nom":"Maison-des-Champs"},"geometry":{"type":"Polygon","coordinates":[[[4.577,48.229],[4.563,48.257],[4.564,48.261],[4.584,48.235],[4.577,48.229]]]}},{"type":"Feature","properties":{"code":"10218","nom":"Maisons-lès-Chaource"},"geometry":{"type":"Polygon","coordinates":[[[4.155,48.025],[4.173,48.024],[4.181,48.009],[4.155,47.991],[4.155,47.991],[4.155,48.025]]]}},{"type":"Feature","properties":{"code":"10219","nom":"Maisons-lès-Soulaines"},"geometry":{"type":"Polygon","coordinates":[[[4.779,48.311],[4.807,48.287],[4.784,48.281],[4.763,48.293],[4.779,48.311]]]}},{"type":"Feature","properties":{"code":"10220","nom":"Maizières-la-Grande-Paroisse"},"geometry":{"type":"Polygon","coordinates":[[[3.786,48.529],[3.825,48.515],[3.807,48.479],[3.768,48.483],[3.758,48.492],[3.766,48.528],[3.786,48.529]]]}},{"type":"Feature","properties":{"code":"10221","nom":"Maizières-lès-Brienne"},"geometry":{"type":"Polygon","coordinates":[[[4.651,48.427],[4.644,48.419],[4.574,48.425],[4.56,48.422],[4.564,48.438],[4.604,48.44],[4.651,48.427]]]}},{"type":"Feature","properties":{"code":"10222","nom":"Maraye-en-Othe"},"geometry":{"type":"Polygon","coordinates":[[[3.916,48.146],[3.905,48.132],[3.855,48.117],[3.814,48.126],[3.807,48.151],[3.845,48.169],[3.836,48.186],[3.872,48.2],[3.883,48.172],[3.927,48.166],[3.927,48.166],[3.925,48.151],[3.916,48.146]]]}},{"type":"Feature","properties":{"code":"10223","nom":"Marcilly-le-Hayer"},"geometry":{"type":"Polygon","coordinates":[[[3.635,48.282],[3.621,48.309],[3.604,48.353],[3.637,48.365],[3.665,48.373],[3.679,48.334],[3.662,48.294],[3.657,48.291],[3.635,48.282]]]}},{"type":"Feature","properties":{"code":"10224","nom":"Marigny-le-Châtel"},"geometry":{"type":"Polygon","coordinates":[[[3.698,48.398],[3.695,48.402],[3.685,48.42],[3.708,48.428],[3.75,48.417],[3.749,48.378],[3.741,48.373],[3.717,48.374],[3.698,48.398]]]}},{"type":"Feature","properties":{"code":"10225","nom":"Marnay-sur-Seine"},"geometry":{"type":"Polygon","coordinates":[[[3.569,48.534],[3.577,48.505],[3.532,48.506],[3.527,48.525],[3.551,48.528],[3.569,48.534]]]}},{"type":"Feature","properties":{"code":"10226","nom":"Marolles-lès-Bailly"},"geometry":{"type":"Polygon","coordinates":[[[4.322,48.211],[4.323,48.211],[4.352,48.19],[4.365,48.174],[4.361,48.165],[4.353,48.165],[4.355,48.172],[4.336,48.178],[4.322,48.211]]]}},{"type":"Feature","properties":{"code":"10227","nom":"Marolles-sous-Lignières"},"geometry":{"type":"Polygon","coordinates":[[[3.918,47.928],[3.896,47.929],[3.894,47.929],[3.915,47.976],[3.904,47.992],[3.942,47.982],[3.926,47.935],[3.918,47.928]]]}},{"type":"Feature","properties":{"code":"10228","nom":"Mathaux"},"geometry":{"type":"Polygon","coordinates":[[[4.437,48.367],[4.438,48.369],[4.471,48.382],[4.484,48.374],[4.488,48.369],[4.458,48.336],[4.435,48.331],[4.437,48.367]]]}},{"type":"Feature","properties":{"code":"10229","nom":"Maupas"},"geometry":{"type":"Polygon","coordinates":[[[4.086,48.12],[4.058,48.134],[4.084,48.152],[4.094,48.152],[4.086,48.12]]]}},{"type":"Feature","properties":{"code":"10230","nom":"Mergey"},"geometry":{"type":"Polygon","coordinates":[[[4.079,48.409],[4.079,48.408],[4.082,48.4],[4.059,48.396],[4.016,48.368],[3.998,48.38],[3.988,48.388],[4.041,48.412],[4.079,48.409]]]}},{"type":"Feature","properties":{"code":"10231","nom":"Le Mériot"},"geometry":{"type":"Polygon","coordinates":[[[3.405,48.528],[3.414,48.533],[3.451,48.529],[3.476,48.5],[3.458,48.485],[3.435,48.49],[3.405,48.528]]]}},{"type":"Feature","properties":{"code":"10232","nom":"Merrey-sur-Arce"},"geometry":{"type":"Polygon","coordinates":[[[4.432,48.086],[4.394,48.086],[4.423,48.104],[4.432,48.086]]]}},{"type":"Feature","properties":{"code":"10233","nom":"Méry-sur-Seine"},"geometry":{"type":"Polygon","coordinates":[[[3.915,48.528],[3.925,48.526],[3.935,48.517],[3.899,48.496],[3.902,48.486],[3.894,48.485],[3.869,48.498],[3.867,48.509],[3.915,48.528]]]}},{"type":"Feature","properties":{"code":"10234","nom":"Mesgrigny"},"geometry":{"type":"Polygon","coordinates":[[[3.853,48.463],[3.834,48.468],[3.869,48.498],[3.894,48.485],[3.853,48.463]]]}},{"type":"Feature","properties":{"code":"10235","nom":"Mesnil-la-Comtesse"},"geometry":{"type":"Polygon","coordinates":[[[4.194,48.491],[4.197,48.503],[4.205,48.501],[4.194,48.491]]]}},{"type":"Feature","properties":{"code":"10236","nom":"Mesnil-Lettre"},"geometry":{"type":"Polygon","coordinates":[[[4.296,48.465],[4.238,48.442],[4.223,48.451],[4.247,48.477],[4.256,48.483],[4.296,48.465]]]}},{"type":"Feature","properties":{"code":"10237","nom":"Mesnil-Saint-Loup"},"geometry":{"type":"Polygon","coordinates":[[[3.775,48.29],[3.761,48.283],[3.742,48.299],[3.78,48.335],[3.786,48.306],[3.79,48.297],[3.775,48.29]]]}},{"type":"Feature","properties":{"code":"10238","nom":"Mesnil-Saint-Père"},"geometry":{"type":"Polygon","coordinates":[[[4.352,48.273],[4.367,48.26],[4.375,48.231],[4.347,48.231],[4.309,48.25],[4.341,48.275],[4.352,48.273]]]}},{"type":"Feature","properties":{"code":"10239","nom":"Mesnil-Sellières"},"geometry":{"type":"Polygon","coordinates":[[[4.226,48.35],[4.236,48.338],[4.222,48.325],[4.204,48.318],[4.178,48.333],[4.182,48.344],[4.226,48.35]]]}},{"type":"Feature","properties":{"code":"10240","nom":"Messon"},"geometry":{"type":"Polygon","coordinates":[[[3.942,48.279],[3.948,48.265],[3.911,48.241],[3.885,48.261],[3.899,48.281],[3.934,48.276],[3.942,48.279]]]}},{"type":"Feature","properties":{"code":"10241","nom":"Metz-Robert"},"geometry":{"type":"Polygon","coordinates":[[[4.075,48.069],[4.117,48.076],[4.076,48.067],[4.075,48.069]]]}},{"type":"Feature","properties":{"code":"10242","nom":"Meurville"},"geometry":{"type":"Polygon","coordinates":[[[4.647,48.187],[4.566,48.196],[4.563,48.207],[4.576,48.226],[4.601,48.215],[4.645,48.22],[4.657,48.196],[4.647,48.187]]]}},{"type":"Feature","properties":{"code":"10243","nom":"Molins-sur-Aube"},"geometry":{"type":"Polygon","coordinates":[[[4.398,48.448],[4.406,48.445],[4.399,48.418],[4.39,48.415],[4.364,48.43],[4.377,48.446],[4.398,48.448]]]}},{"type":"Feature","properties":{"code":"10245","nom":"Montaulin"},"geometry":{"type":"Polygon","coordinates":[[[4.164,48.249],[4.18,48.261],[4.209,48.266],[4.221,48.25],[4.227,48.241],[4.225,48.233],[4.177,48.23],[4.164,48.249]]]}},{"type":"Feature","properties":{"code":"10246","nom":"Montceaux-lès-Vaudes"},"geometry":{"type":"Polygon","coordinates":[[[4.188,48.163],[4.16,48.128],[4.123,48.134],[4.151,48.143],[4.151,48.171],[4.188,48.163]]]}},{"type":"Feature","properties":{"code":"10247","nom":"Montfey"},"geometry":{"type":"Polygon","coordinates":[[[3.858,48.092],[3.886,48.08],[3.899,48.052],[3.887,48.044],[3.874,48.044],[3.857,48.062],[3.845,48.076],[3.858,48.092]]]}},{"type":"Feature","properties":{"code":"10248","nom":"Montgueux"},"geometry":{"type":"Polygon","coordinates":[[[3.942,48.279],[3.934,48.276],[3.922,48.291],[3.954,48.317],[3.973,48.313],[3.986,48.306],[3.988,48.299],[3.942,48.279]]]}},{"type":"Feature","properties":{"code":"10249","nom":"Montiéramey"},"geometry":{"type":"Polygon","coordinates":[[[4.347,48.231],[4.335,48.219],[4.293,48.234],[4.309,48.25],[4.347,48.231]]]}},{"type":"Feature","properties":{"code":"10250","nom":"Montier-en-l'Isle"},"geometry":{"type":"Polygon","coordinates":[[[4.665,48.249],[4.654,48.264],[4.672,48.287],[4.716,48.28],[4.714,48.269],[4.666,48.248],[4.665,48.249]]]}},{"type":"Feature","properties":{"code":"10251","nom":"Montigny-les-Monts"},"geometry":{"type":"Polygon","coordinates":[[[3.979,48.062],[3.974,48.062],[3.916,48.131],[3.962,48.108],[3.975,48.09],[4.006,48.08],[4.007,48.076],[3.979,48.062]]]}},{"type":"Feature","properties":{"code":"10252","nom":"Montmartin-le-Haut"},"geometry":{"type":"Polygon","coordinates":[[[4.562,48.207],[4.538,48.207],[4.548,48.218],[4.562,48.207]]]}},{"type":"Feature","properties":{"code":"10253","nom":"Montmorency-Beaufort"},"geometry":{"type":"Polygon","coordinates":[[[4.571,48.463],[4.569,48.463],[4.549,48.473],[4.525,48.498],[4.542,48.507],[4.584,48.492],[4.58,48.475],[4.571,48.463]]]}},{"type":"Feature","properties":{"code":"10254","nom":"Montpothier"},"geometry":{"type":"Polygon","coordinates":[[[3.523,48.556],[3.485,48.58],[3.516,48.59],[3.545,48.573],[3.523,48.556]]]}},{"type":"Feature","properties":{"code":"10255","nom":"Montreuil-sur-Barse"},"geometry":{"type":"Polygon","coordinates":[[[4.323,48.211],[4.322,48.211],[4.275,48.204],[4.252,48.202],[4.262,48.228],[4.293,48.234],[4.335,48.219],[4.323,48.211]]]}},{"type":"Feature","properties":{"code":"10256","nom":"Montsuzain"},"geometry":{"type":"Polygon","coordinates":[[[4.069,48.425],[4.079,48.442],[4.191,48.469],[4.194,48.467],[4.2,48.452],[4.147,48.429],[4.115,48.437],[4.069,48.425]]]}},{"type":"Feature","properties":{"code":"10257","nom":"Morembert"},"geometry":{"type":"Polygon","coordinates":[[[4.333,48.495],[4.311,48.503],[4.332,48.509],[4.353,48.509],[4.333,48.495]]]}},{"type":"Feature","properties":{"code":"10258","nom":"Morvilliers"},"geometry":{"type":"Polygon","coordinates":[[[4.597,48.371],[4.588,48.384],[4.639,48.396],[4.662,48.393],[4.679,48.378],[4.633,48.36],[4.597,48.371]]]}},{"type":"Feature","properties":{"code":"10259","nom":"La Motte-Tilly"},"geometry":{"type":"Polygon","coordinates":[[[3.443,48.459],[3.431,48.457],[3.404,48.486],[3.435,48.49],[3.458,48.485],[3.475,48.468],[3.443,48.459]]]}},{"type":"Feature","properties":{"code":"10260","nom":"Moussey"},"geometry":{"type":"Polygon","coordinates":[[[4.124,48.223],[4.122,48.219],[4.106,48.207],[4.06,48.217],[4.065,48.228],[4.091,48.223],[4.124,48.223]]]}},{"type":"Feature","properties":{"code":"10261","nom":"Mussy-sur-Seine"},"geometry":{"type":"Polygon","coordinates":[[[4.447,47.956],[4.438,47.96],[4.447,47.962],[4.448,47.977],[4.468,47.974],[4.486,48.003],[4.508,48.02],[4.536,48.007],[4.56,47.972],[4.553,47.968],[4.493,47.968],[4.447,47.956]]]}},{"type":"Feature","properties":{"code":"10262","nom":"Neuville-sur-Seine"},"geometry":{"type":"Polygon","coordinates":[[[4.455,48.052],[4.423,48.038],[4.403,48.005],[4.378,48.025],[4.382,48.047],[4.383,48.047],[4.436,48.058],[4.438,48.053],[4.455,48.052]]]}},{"type":"Feature","properties":{"code":"10263","nom":"Neuville-sur-Vanne"},"geometry":{"type":"Polygon","coordinates":[[[3.761,48.283],[3.775,48.29],[3.794,48.267],[3.792,48.22],[3.748,48.239],[3.761,48.283]]]}},{"type":"Feature","properties":{"code":"10264","nom":"Noé-les-Mallets"},"geometry":{"type":"Polygon","coordinates":[[[4.554,48.113],[4.562,48.112],[4.582,48.11],[4.59,48.096],[4.566,48.088],[4.528,48.082],[4.554,48.113]]]}},{"type":"Feature","properties":{"code":"10265","nom":"Les Noës-près-Troyes"},"geometry":{"type":"Polygon","coordinates":[[[4.05,48.3],[4.03,48.303],[4.041,48.307],[4.05,48.3]]]}},{"type":"Feature","properties":{"code":"10266","nom":"Nogent-en-Othe"},"geometry":{"type":"Polygon","coordinates":[[[3.814,48.126],[3.802,48.107],[3.769,48.133],[3.807,48.151],[3.814,48.126]]]}},{"type":"Feature","properties":{"code":"10267","nom":"Nogent-sur-Aube"},"geometry":{"type":"Polygon","coordinates":[[[4.311,48.503],[4.333,48.495],[4.344,48.487],[4.301,48.467],[4.296,48.465],[4.256,48.483],[4.296,48.503],[4.311,48.503]]]}},{"type":"Feature","properties":{"code":"10268","nom":"Nogent-sur-Seine"},"geometry":{"type":"Polygon","coordinates":[[[3.476,48.5],[3.51,48.522],[3.527,48.525],[3.532,48.506],[3.524,48.479],[3.476,48.467],[3.475,48.468],[3.458,48.485],[3.476,48.5]]]}},{"type":"Feature","properties":{"code":"10269","nom":"Nozay"},"geometry":{"type":"Polygon","coordinates":[[[4.045,48.488],[4.064,48.505],[4.089,48.523],[4.128,48.515],[4.129,48.507],[4.104,48.503],[4.067,48.47],[4.045,48.488]]]}},{"type":"Feature","properties":{"code":"10270","nom":"Onjon"},"geometry":{"type":"Polygon","coordinates":[[[4.24,48.398],[4.225,48.407],[4.237,48.42],[4.279,48.42],[4.308,48.41],[4.315,48.396],[4.286,48.371],[4.276,48.375],[4.24,48.398]]]}},{"type":"Feature","properties":{"code":"10271","nom":"Origny-le-Sec"},"geometry":{"type":"Polygon","coordinates":[[[3.807,48.479],[3.82,48.466],[3.787,48.441],[3.745,48.456],[3.717,48.458],[3.76,48.464],[3.768,48.483],[3.807,48.479]]]}},{"type":"Feature","properties":{"code":"10272","nom":"Ormes"},"geometry":{"type":"Polygon","coordinates":[[[4.082,48.553],[4.088,48.564],[4.143,48.573],[4.132,48.547],[4.12,48.537],[4.092,48.546],[4.082,48.553]]]}},{"type":"Feature","properties":{"code":"10273","nom":"Ortillon"},"geometry":{"type":"Polygon","coordinates":[[[4.194,48.467],[4.191,48.469],[4.185,48.475],[4.219,48.485],[4.248,48.519],[4.264,48.508],[4.238,48.487],[4.194,48.467]]]}},{"type":"Feature","properties":{"code":"10274","nom":"Orvilliers-Saint-Julien"},"geometry":{"type":"Polygon","coordinates":[[[3.82,48.466],[3.834,48.468],[3.853,48.463],[3.861,48.432],[3.843,48.422],[3.816,48.405],[3.776,48.432],[3.787,48.441],[3.82,48.466]]]}},{"type":"Feature","properties":{"code":"10275","nom":"Ossey-les-Trois-Maisons"},"geometry":{"type":"Polygon","coordinates":[[[3.787,48.441],[3.776,48.432],[3.75,48.417],[3.708,48.428],[3.71,48.46],[3.717,48.458],[3.745,48.456],[3.787,48.441]]]}},{"type":"Feature","properties":{"code":"10276","nom":"Paisy-Cosdon"},"geometry":{"type":"Polygon","coordinates":[[[3.687,48.254],[3.685,48.258],[3.724,48.233],[3.699,48.175],[3.669,48.197],[3.673,48.209],[3.703,48.23],[3.687,48.254]]]}},{"type":"Feature","properties":{"code":"10278","nom":"Pargues"},"geometry":{"type":"Polygon","coordinates":[[[4.244,48.014],[4.241,48.006],[4.181,48.009],[4.173,48.024],[4.195,48.041],[4.238,48.025],[4.245,48.016],[4.244,48.014]]]}},{"type":"Feature","properties":{"code":"10279","nom":"Pars-lès-Chavanges"},"geometry":{"type":"Polygon","coordinates":[[[4.52,48.499],[4.513,48.498],[4.495,48.494],[4.475,48.508],[4.49,48.515],[4.495,48.539],[4.511,48.548],[4.521,48.545],[4.512,48.506],[4.52,48.499]]]}},{"type":"Feature","properties":{"code":"10280","nom":"Pars-lès-Romilly"},"geometry":{"type":"Polygon","coordinates":[[[3.703,48.472],[3.702,48.474],[3.69,48.506],[3.758,48.492],[3.768,48.483],[3.76,48.464],[3.717,48.458],[3.71,48.46],[3.703,48.472]]]}},{"type":"Feature","properties":{"code":"10281","nom":"Le Pavillon-Sainte-Julie"},"geometry":{"type":"Polygon","coordinates":[[[3.895,48.399],[3.923,48.38],[3.938,48.344],[3.908,48.328],[3.898,48.326],[3.895,48.339],[3.897,48.367],[3.853,48.374],[3.87,48.396],[3.895,48.399]]]}},{"type":"Feature","properties":{"code":"10282","nom":"Payns"},"geometry":{"type":"Polygon","coordinates":[[[3.923,48.38],[3.974,48.402],[3.988,48.388],[3.998,48.38],[3.938,48.344],[3.923,48.38]]]}},{"type":"Feature","properties":{"code":"10283","nom":"Pel-et-Der"},"geometry":{"type":"Polygon","coordinates":[[[4.438,48.369],[4.437,48.367],[4.415,48.375],[4.386,48.395],[4.39,48.415],[4.399,48.418],[4.423,48.412],[4.436,48.381],[4.438,48.369]]]}},{"type":"Feature","properties":{"code":"10284","nom":"Périgny-la-Rose"},"geometry":{"type":"Polygon","coordinates":[[[3.608,48.574],[3.615,48.578],[3.631,48.572],[3.644,48.536],[3.622,48.528],[3.615,48.531],[3.608,48.574]]]}},{"type":"Feature","properties":{"code":"10285","nom":"Perthes-lès-Brienne"},"geometry":{"type":"Polygon","coordinates":[[[4.521,48.437],[4.542,48.444],[4.558,48.439],[4.551,48.421],[4.528,48.429],[4.521,48.437]]]}},{"type":"Feature","properties":{"code":"10286","nom":"Petit-Mesnil"},"geometry":{"type":"Polygon","coordinates":[[[4.627,48.322],[4.626,48.324],[4.593,48.332],[4.562,48.359],[4.566,48.361],[4.581,48.354],[4.667,48.347],[4.669,48.33],[4.665,48.328],[4.627,48.322]]]}},{"type":"Feature","properties":{"code":"10287","nom":"Piney"},"geometry":{"type":"Polygon","coordinates":[[[4.367,48.26],[4.352,48.273],[4.348,48.32],[4.32,48.332],[4.286,48.371],[4.315,48.396],[4.358,48.39],[4.387,48.364],[4.369,48.349],[4.396,48.325],[4.426,48.321],[4.434,48.308],[4.417,48.291],[4.39,48.276],[4.367,48.26]]]}},{"type":"Feature","properties":{"code":"10288","nom":"Plaines-Saint-Lange"},"geometry":{"type":"Polygon","coordinates":[[[4.496,48.021],[4.508,48.02],[4.486,48.003],[4.468,47.974],[4.448,47.977],[4.451,47.991],[4.472,48.014],[4.496,48.021]]]}},{"type":"Feature","properties":{"code":"10289","nom":"Plancy-l'Abbaye"},"geometry":{"type":"Polygon","coordinates":[[[3.967,48.63],[3.98,48.629],[3.987,48.599],[4.026,48.606],[4.052,48.6],[4.021,48.558],[4.007,48.559],[3.981,48.555],[3.933,48.561],[3.925,48.567],[3.949,48.603],[3.967,48.63]]]}},{"type":"Feature","properties":{"code":"10290","nom":"Planty"},"geometry":{"type":"Polygon","coordinates":[[[3.685,48.258],[3.687,48.254],[3.645,48.257],[3.624,48.259],[3.615,48.273],[3.615,48.273],[3.635,48.282],[3.657,48.291],[3.652,48.278],[3.685,48.258]]]}},{"type":"Feature","properties":{"code":"10291","nom":"Plessis-Barbuise"},"geometry":{"type":"Polygon","coordinates":[[[3.583,48.585],[3.605,48.573],[3.596,48.558],[3.561,48.572],[3.583,48.585]]]}},{"type":"Feature","properties":{"code":"10293","nom":"Poivres"},"geometry":{"type":"Polygon","coordinates":[[[4.233,48.702],[4.243,48.717],[4.264,48.706],[4.299,48.715],[4.327,48.697],[4.325,48.662],[4.234,48.656],[4.222,48.667],[4.233,48.702]]]}},{"type":"Feature","properties":{"code":"10294","nom":"Poligny"},"geometry":{"type":"Polygon","coordinates":[[[4.355,48.172],[4.34,48.169],[4.336,48.178],[4.355,48.172]]]}},{"type":"Feature","properties":{"code":"10295","nom":"Polisot"},"geometry":{"type":"Polygon","coordinates":[[[4.316,48.065],[4.338,48.084],[4.393,48.08],[4.395,48.073],[4.329,48.06],[4.316,48.065]]]}},{"type":"Feature","properties":{"code":"10296","nom":"Polisy"},"geometry":{"type":"Polygon","coordinates":[[[4.382,48.047],[4.317,48.048],[4.313,48.057],[4.329,48.06],[4.395,48.073],[4.415,48.062],[4.383,48.047],[4.382,48.047]]]}},{"type":"Feature","properties":{"code":"10297","nom":"Pont-Sainte-Marie"},"geometry":{"type":"Polygon","coordinates":[[[4.106,48.312],[4.1,48.31],[4.08,48.315],[4.109,48.329],[4.106,48.312]]]}},{"type":"Feature","properties":{"code":"10298","nom":"Pont-sur-Seine"},"geometry":{"type":"Polygon","coordinates":[[[3.614,48.487],[3.585,48.484],[3.577,48.505],[3.569,48.534],[3.596,48.534],[3.615,48.531],[3.622,48.528],[3.612,48.504],[3.614,48.487]]]}},{"type":"Feature","properties":{"code":"10299","nom":"Pouan-les-Vallées"},"geometry":{"type":"Polygon","coordinates":[[[4.036,48.525],[4.04,48.556],[4.05,48.558],[4.082,48.553],[4.092,48.546],[4.089,48.523],[4.064,48.505],[4.036,48.525]]]}},{"type":"Feature","properties":{"code":"10300","nom":"Pougy"},"geometry":{"type":"Polygon","coordinates":[[[4.363,48.454],[4.377,48.446],[4.364,48.43],[4.323,48.427],[4.32,48.44],[4.363,48.454]]]}},{"type":"Feature","properties":{"code":"10301","nom":"Pouy-sur-Vannes"},"geometry":{"type":"Polygon","coordinates":[[[3.621,48.309],[3.635,48.282],[3.615,48.273],[3.588,48.28],[3.588,48.301],[3.564,48.321],[3.585,48.324],[3.621,48.309]]]}},{"type":"Feature","properties":{"code":"10302","nom":"Praslin"},"geometry":{"type":"Polygon","coordinates":[[[4.24,48.04],[4.238,48.025],[4.195,48.041],[4.165,48.068],[4.227,48.053],[4.24,48.04]]]}},{"type":"Feature","properties":{"code":"10303","nom":"Précy-Notre-Dame"},"geometry":{"type":"Polygon","coordinates":[[[4.423,48.412],[4.433,48.418],[4.451,48.408],[4.453,48.403],[4.436,48.381],[4.423,48.412]]]}},{"type":"Feature","properties":{"code":"10304","nom":"Précy-Saint-Martin"},"geometry":{"type":"Polygon","coordinates":[[[4.471,48.424],[4.487,48.406],[4.451,48.408],[4.433,48.418],[4.462,48.429],[4.471,48.424]]]}},{"type":"Feature","properties":{"code":"10305","nom":"Prémierfait"},"geometry":{"type":"Polygon","coordinates":[[[4.064,48.505],[4.045,48.488],[3.999,48.483],[3.985,48.503],[3.98,48.506],[4.021,48.521],[4.036,48.525],[4.064,48.505]]]}},{"type":"Feature","properties":{"code":"10306","nom":"Proverville"},"geometry":{"type":"Polygon","coordinates":[[[4.655,48.24],[4.665,48.249],[4.666,48.248],[4.679,48.246],[4.682,48.219],[4.66,48.221],[4.653,48.225],[4.655,48.24]]]}},{"type":"Feature","properties":{"code":"10307","nom":"Prugny"},"geometry":{"type":"Polygon","coordinates":[[[3.948,48.265],[3.963,48.256],[3.966,48.246],[3.947,48.231],[3.91,48.24],[3.911,48.241],[3.948,48.265]]]}},{"type":"Feature","properties":{"code":"10308","nom":"Prunay-Belleville"},"geometry":{"type":"Polygon","coordinates":[[[3.786,48.34],[3.739,48.356],[3.741,48.373],[3.749,48.378],[3.8,48.393],[3.827,48.355],[3.786,48.34]]]}},{"type":"Feature","properties":{"code":"10309","nom":"Prusy"},"geometry":{"type":"Polygon","coordinates":[[[4.037,47.977],[4.054,47.986],[4.073,47.981],[4.06,47.967],[4.037,47.977]]]}},{"type":"Feature","properties":{"code":"10310","nom":"Puits-et-Nuisement"},"geometry":{"type":"Polygon","coordinates":[[[4.538,48.207],[4.497,48.195],[4.489,48.195],[4.489,48.225],[4.514,48.233],[4.548,48.218],[4.538,48.207]]]}},{"type":"Feature","properties":{"code":"10312","nom":"Racines"},"geometry":{"type":"Polygon","coordinates":[[[3.822,48.044],[3.826,48.064],[3.857,48.062],[3.874,48.044],[3.843,48.036],[3.832,48.036],[3.822,48.044]]]}},{"type":"Feature","properties":{"code":"10313","nom":"Radonvilliers"},"geometry":{"type":"Polygon","coordinates":[[[4.426,48.321],[4.435,48.331],[4.458,48.336],[4.488,48.369],[4.525,48.357],[4.488,48.337],[4.487,48.317],[4.464,48.302],[4.434,48.308],[4.426,48.321]]]}},{"type":"Feature","properties":{"code":"10314","nom":"Ramerupt"},"geometry":{"type":"Polygon","coordinates":[[[4.296,48.503],[4.273,48.516],[4.311,48.549],[4.332,48.509],[4.311,48.503],[4.296,48.503]]]}},{"type":"Feature","properties":{"code":"10315","nom":"Rances"},"geometry":{"type":"Polygon","coordinates":[[[4.569,48.463],[4.561,48.452],[4.537,48.468],[4.549,48.473],[4.569,48.463]]]}},{"type":"Feature","properties":{"code":"10316","nom":"Rhèges"},"geometry":{"type":"Polygon","coordinates":[[[4.021,48.521],[3.98,48.506],[3.968,48.523],[3.981,48.555],[4.007,48.559],[4.021,48.521]]]}},{"type":"Feature","properties":{"code":"10317","nom":"Les Riceys"},"geometry":{"type":"Polygon","coordinates":[[[4.438,47.96],[4.417,47.969],[4.361,47.957],[4.313,47.963],[4.322,47.981],[4.33,48.014],[4.338,48.022],[4.378,48.025],[4.403,48.005],[4.419,47.974],[4.447,47.962],[4.438,47.96]]]}},{"type":"Feature","properties":{"code":"10318","nom":"Rigny-la-Nonneuse"},"geometry":{"type":"Polygon","coordinates":[[[3.695,48.402],[3.627,48.398],[3.602,48.42],[3.632,48.43],[3.659,48.432],[3.685,48.42],[3.695,48.402]]]}},{"type":"Feature","properties":{"code":"10319","nom":"Rigny-le-Ferron"},"geometry":{"type":"Polygon","coordinates":[[[3.641,48.185],[3.594,48.179],[3.575,48.189],[3.622,48.226],[3.644,48.224],[3.673,48.209],[3.669,48.197],[3.641,48.185]]]}},{"type":"Feature","properties":{"code":"10320","nom":"Rilly-Sainte-Syre"},"geometry":{"type":"Polygon","coordinates":[[[3.944,48.429],[3.94,48.435],[3.934,48.458],[3.987,48.472],[4.002,48.444],[3.999,48.443],[3.944,48.429]]]}},{"type":"Feature","properties":{"code":"10321","nom":"La Rivière-de-Corps"},"geometry":{"type":"Polygon","coordinates":[[[4.021,48.27],[3.999,48.265],[3.991,48.289],[4.039,48.289],[4.021,48.27]]]}},{"type":"Feature","properties":{"code":"10323","nom":"Romilly-sur-Seine"},"geometry":{"type":"Polygon","coordinates":[[[3.708,48.535],[3.732,48.538],[3.766,48.528],[3.758,48.492],[3.69,48.506],[3.664,48.532],[3.666,48.536],[3.708,48.535]]]}},{"type":"Feature","properties":{"code":"10324","nom":"Roncenay"},"geometry":{"type":"Polygon","coordinates":[[[4.049,48.206],[4.062,48.201],[4.057,48.192],[4.047,48.186],[4.03,48.187],[4.031,48.203],[4.049,48.206]]]}},{"type":"Feature","properties":{"code":"10325","nom":"Rosières-près-Troyes"},"geometry":{"type":"Polygon","coordinates":[[[4.067,48.276],[4.087,48.266],[4.088,48.264],[4.074,48.257],[4.05,48.251],[4.036,48.264],[4.067,48.276]]]}},{"type":"Feature","properties":{"code":"10326","nom":"Rosnay-l'Hôpital"},"geometry":{"type":"Polygon","coordinates":[[[4.519,48.483],[4.529,48.468],[4.542,48.444],[4.521,48.437],[4.495,48.451],[4.471,48.448],[4.466,48.459],[4.469,48.461],[4.519,48.483]]]}},{"type":"Feature","properties":{"code":"10327","nom":"La Rothière"},"geometry":{"type":"Polygon","coordinates":[[[4.575,48.328],[4.555,48.337],[4.554,48.356],[4.562,48.359],[4.593,48.332],[4.626,48.324],[4.612,48.324],[4.575,48.328]]]}},{"type":"Feature","properties":{"code":"10328","nom":"Rouilly-Sacey"},"geometry":{"type":"Polygon","coordinates":[[[4.236,48.338],[4.226,48.35],[4.225,48.357],[4.26,48.361],[4.276,48.375],[4.286,48.371],[4.32,48.332],[4.29,48.319],[4.275,48.334],[4.236,48.338]]]}},{"type":"Feature","properties":{"code":"10329","nom":"Rouilly-Saint-Loup"},"geometry":{"type":"Polygon","coordinates":[[[4.136,48.252],[4.119,48.268],[4.122,48.278],[4.169,48.274],[4.18,48.261],[4.164,48.249],[4.136,48.252]]]}},{"type":"Feature","properties":{"code":"10330","nom":"Rouvres-les-Vignes"},"geometry":{"type":"Polygon","coordinates":[[[4.827,48.254],[4.845,48.249],[4.846,48.247],[4.836,48.222],[4.796,48.235],[4.827,48.254]]]}},{"type":"Feature","properties":{"code":"10331","nom":"Rumilly-lès-Vaudes"},"geometry":{"type":"Polygon","coordinates":[[[4.231,48.108],[4.209,48.109],[4.203,48.081],[4.172,48.088],[4.135,48.106],[4.16,48.128],[4.188,48.163],[4.2,48.17],[4.225,48.164],[4.245,48.142],[4.223,48.122],[4.231,48.108]]]}},{"type":"Feature","properties":{"code":"10332","nom":"Ruvigny"},"geometry":{"type":"Polygon","coordinates":[[[4.169,48.274],[4.175,48.283],[4.2,48.276],[4.209,48.266],[4.18,48.261],[4.169,48.274]]]}},{"type":"Feature","properties":{"code":"10333","nom":"Saint-André-les-Vergers"},"geometry":{"type":"Polygon","coordinates":[[[4.067,48.276],[4.036,48.264],[4.021,48.27],[4.039,48.289],[4.063,48.29],[4.067,48.276]]]}},{"type":"Feature","properties":{"code":"10334","nom":"Saint-Aubin"},"geometry":{"type":"Polygon","coordinates":[[[3.568,48.458],[3.543,48.458],[3.524,48.479],[3.532,48.506],[3.577,48.505],[3.585,48.484],[3.568,48.458]]]}},{"type":"Feature","properties":{"code":"10335","nom":"Saint-Benoist-sur-Vanne"},"geometry":{"type":"Polygon","coordinates":[[[3.673,48.209],[3.644,48.224],[3.645,48.257],[3.687,48.254],[3.703,48.23],[3.673,48.209]]]}},{"type":"Feature","properties":{"code":"10336","nom":"Saint-Benoît-sur-Seine"},"geometry":{"type":"Polygon","coordinates":[[[4.016,48.368],[4.059,48.396],[4.082,48.4],[4.088,48.383],[4.032,48.356],[4.016,48.368]]]}},{"type":"Feature","properties":{"code":"10337","nom":"Saint-Christophe-Dodinicourt"},"geometry":{"type":"Polygon","coordinates":[[[4.471,48.424],[4.462,48.429],[4.451,48.439],[4.471,48.448],[4.501,48.422],[4.471,48.424]]]}},{"type":"Feature","properties":{"code":"10338","nom":"Saint-Étienne-sous-Barbuise"},"geometry":{"type":"Polygon","coordinates":[[[4.073,48.467],[4.067,48.47],[4.104,48.503],[4.129,48.507],[4.156,48.509],[4.158,48.495],[4.125,48.489],[4.073,48.467]]]}},{"type":"Feature","properties":{"code":"10339","nom":"Saint-Flavy"},"geometry":{"type":"Polygon","coordinates":[[[3.816,48.405],[3.8,48.393],[3.749,48.378],[3.75,48.417],[3.776,48.432],[3.816,48.405]]]}},{"type":"Feature","properties":{"code":"10340","nom":"Saint-Germain"},"geometry":{"type":"Polygon","coordinates":[[[4.045,48.248],[4.019,48.236],[4.009,48.247],[3.966,48.246],[3.963,48.256],[3.999,48.265],[4.021,48.27],[4.036,48.264],[4.05,48.251],[4.045,48.248]]]}},{"type":"Feature","properties":{"code":"10341","nom":"Saint-Hilaire-sous-Romilly"},"geometry":{"type":"Polygon","coordinates":[[[3.642,48.467],[3.633,48.47],[3.614,48.487],[3.612,48.504],[3.649,48.503],[3.664,48.532],[3.69,48.506],[3.702,48.474],[3.679,48.489],[3.64,48.489],[3.642,48.467]]]}},{"type":"Feature","properties":{"code":"10342","nom":"Saint-Jean-de-Bonneval"},"geometry":{"type":"Polygon","coordinates":[[[4.029,48.179],[4.03,48.187],[4.047,48.186],[4.07,48.165],[4.073,48.16],[4.062,48.155],[4.029,48.179]]]}},{"type":"Feature","properties":{"code":"10343","nom":"Saint-Julien-les-Villas"},"geometry":{"type":"Polygon","coordinates":[[[4.122,48.278],[4.119,48.268],[4.088,48.264],[4.087,48.266],[4.11,48.287],[4.122,48.278]]]}},{"type":"Feature","properties":{"code":"10344","nom":"Saint-Léger-près-Troyes"},"geometry":{"type":"Polygon","coordinates":[[[4.065,48.228],[4.045,48.248],[4.05,48.251],[4.074,48.257],[4.098,48.248],[4.091,48.223],[4.065,48.228]]]}},{"type":"Feature","properties":{"code":"10345","nom":"Saint-Léger-sous-Brienne"},"geometry":{"type":"Polygon","coordinates":[[[4.487,48.406],[4.471,48.424],[4.501,48.422],[4.528,48.429],[4.551,48.421],[4.551,48.419],[4.472,48.384],[4.467,48.386],[4.487,48.406]]]}},{"type":"Feature","properties":{"code":"10346","nom":"Saint-Léger-sous-Margerie"},"geometry":{"type":"Polygon","coordinates":[[[4.49,48.515],[4.464,48.548],[4.495,48.539],[4.49,48.515]]]}},{"type":"Feature","properties":{"code":"10347","nom":"Saint-Loup-de-Buffigny"},"geometry":{"type":"Polygon","coordinates":[[[3.633,48.47],[3.642,48.467],[3.656,48.456],[3.632,48.43],[3.602,48.42],[3.603,48.432],[3.633,48.47]]]}},{"type":"Feature","properties":{"code":"10348","nom":"Saint-Lupien"},"geometry":{"type":"Polygon","coordinates":[[[3.665,48.373],[3.698,48.398],[3.717,48.374],[3.741,48.373],[3.739,48.356],[3.696,48.338],[3.679,48.334],[3.665,48.373]]]}},{"type":"Feature","properties":{"code":"10349","nom":"Saint-Lyé"},"geometry":{"type":"Polygon","coordinates":[[[4.016,48.368],[4.032,48.356],[4.037,48.349],[3.973,48.313],[3.954,48.317],[3.938,48.334],[3.908,48.328],[3.938,48.344],[3.998,48.38],[4.016,48.368]]]}},{"type":"Feature","properties":{"code":"10350","nom":"Saint-Mards-en-Othe"},"geometry":{"type":"Polygon","coordinates":[[[3.826,48.196],[3.836,48.186],[3.845,48.169],[3.807,48.151],[3.769,48.133],[3.74,48.139],[3.745,48.168],[3.768,48.18],[3.826,48.196]]]}},{"type":"Feature","properties":{"code":"10351","nom":"Saint-Martin-de-Bossenay"},"geometry":{"type":"Polygon","coordinates":[[[3.659,48.432],[3.656,48.456],[3.703,48.472],[3.71,48.46],[3.708,48.428],[3.685,48.42],[3.659,48.432]]]}},{"type":"Feature","properties":{"code":"10352","nom":"Sainte-Maure"},"geometry":{"type":"Polygon","coordinates":[[[4.054,48.334],[4.037,48.349],[4.032,48.356],[4.088,48.383],[4.103,48.38],[4.11,48.353],[4.069,48.329],[4.054,48.334]]]}},{"type":"Feature","properties":{"code":"10353","nom":"Saint-Mesmin"},"geometry":{"type":"Polygon","coordinates":[[[3.85,48.411],[3.843,48.422],[3.861,48.432],[3.889,48.45],[3.93,48.459],[3.934,48.458],[3.94,48.435],[3.919,48.427],[3.882,48.426],[3.85,48.411]]]}},{"type":"Feature","properties":{"code":"10354","nom":"Saint-Nabord-sur-Aube"},"geometry":{"type":"Polygon","coordinates":[[[4.177,48.488],[4.173,48.493],[4.214,48.538],[4.229,48.53],[4.205,48.501],[4.197,48.503],[4.194,48.491],[4.177,48.488]]]}},{"type":"Feature","properties":{"code":"10355","nom":"Saint-Nicolas-la-Chapelle"},"geometry":{"type":"Polygon","coordinates":[[[3.51,48.522],[3.476,48.5],[3.451,48.529],[3.482,48.541],[3.51,48.522]]]}},{"type":"Feature","properties":{"code":"10356","nom":"Saint-Oulph"},"geometry":{"type":"Polygon","coordinates":[[[3.896,48.539],[3.915,48.528],[3.867,48.509],[3.834,48.518],[3.866,48.544],[3.896,48.539]]]}},{"type":"Feature","properties":{"code":"10357","nom":"Saint-Parres-aux-Tertres"},"geometry":{"type":"Polygon","coordinates":[[[4.1,48.31],[4.106,48.312],[4.124,48.308],[4.156,48.296],[4.175,48.283],[4.169,48.274],[4.122,48.278],[4.11,48.287],[4.1,48.31]]]}},{"type":"Feature","properties":{"code":"10358","nom":"Saint-Parres-lès-Vaudes"},"geometry":{"type":"Polygon","coordinates":[[[4.21,48.181],[4.212,48.188],[4.23,48.165],[4.225,48.164],[4.2,48.17],[4.21,48.181]]]}},{"type":"Feature","properties":{"code":"10359","nom":"Saint-Phal"},"geometry":{"type":"Polygon","coordinates":[[[3.971,48.146],[4.01,48.147],[4.018,48.135],[4.026,48.126],[4.047,48.087],[4.056,48.075],[4.02,48.055],[4.007,48.076],[4.006,48.08],[4.012,48.096],[3.967,48.132],[3.917,48.145],[3.916,48.146],[3.925,48.151],[3.971,48.146]]]}},{"type":"Feature","properties":{"code":"10360","nom":"Saint-Pouange"},"geometry":{"type":"Polygon","coordinates":[[[4.045,48.248],[4.065,48.228],[4.06,48.217],[4.049,48.206],[4.031,48.203],[4.029,48.209],[4.017,48.231],[4.019,48.236],[4.045,48.248]]]}},{"type":"Feature","properties":{"code":"10361","nom":"Saint-Remy-sous-Barbuise"},"geometry":{"type":"Polygon","coordinates":[[[4.173,48.493],[4.177,48.488],[4.181,48.481],[4.101,48.459],[4.078,48.464],[4.073,48.467],[4.125,48.489],[4.158,48.495],[4.167,48.492],[4.173,48.493]]]}},{"type":"Feature","properties":{"code":"10362","nom":"Sainte-Savine"},"geometry":{"type":"Polygon","coordinates":[[[3.989,48.298],[4.03,48.303],[4.05,48.3],[4.063,48.29],[4.039,48.289],[3.991,48.289],[3.989,48.298]]]}},{"type":"Feature","properties":{"code":"10363","nom":"Saint-Thibault"},"geometry":{"type":"Polygon","coordinates":[[[4.151,48.171],[4.139,48.18],[4.137,48.19],[4.122,48.219],[4.124,48.223],[4.141,48.227],[4.163,48.209],[4.174,48.187],[4.151,48.171]]]}},{"type":"Feature","properties":{"code":"10364","nom":"Saint-Usage"},"geometry":{"type":"Polygon","coordinates":[[[4.626,48.119],[4.646,48.102],[4.685,48.099],[4.691,48.086],[4.658,48.079],[4.63,48.092],[4.59,48.096],[4.582,48.11],[4.626,48.119]]]}},{"type":"Feature","properties":{"code":"10365","nom":"Salon"},"geometry":{"type":"Polygon","coordinates":[[[4.001,48.664],[4.044,48.661],[4.068,48.658],[4.051,48.634],[4.008,48.628],[3.987,48.599],[3.98,48.629],[4.001,48.664]]]}},{"type":"Feature","properties":{"code":"10366","nom":"Saulcy"},"geometry":{"type":"Polygon","coordinates":[[[4.845,48.249],[4.827,48.254],[4.816,48.285],[4.816,48.29],[4.826,48.302],[4.851,48.296],[4.862,48.266],[4.845,48.249]]]}},{"type":"Feature","properties":{"code":"10367","nom":"La Saulsotte"},"geometry":{"type":"Polygon","coordinates":[[[3.465,48.57],[3.469,48.573],[3.485,48.58],[3.523,48.556],[3.551,48.528],[3.527,48.525],[3.51,48.522],[3.482,48.541],[3.465,48.57]]]}},{"type":"Feature","properties":{"code":"10368","nom":"Savières"},"geometry":{"type":"Polygon","coordinates":[[[3.944,48.429],[3.969,48.412],[3.974,48.402],[3.923,48.38],[3.895,48.399],[3.919,48.427],[3.94,48.435],[3.944,48.429]]]}},{"type":"Feature","properties":{"code":"10369","nom":"Semoine"},"geometry":{"type":"Polygon","coordinates":[[[4.078,48.702],[4.088,48.699],[4.131,48.686],[4.138,48.671],[4.086,48.642],[4.068,48.658],[4.044,48.661],[4.058,48.666],[4.078,48.702]]]}},{"type":"Feature","properties":{"code":"10370","nom":"Soligny-les-Étangs"},"geometry":{"type":"Polygon","coordinates":[[[3.485,48.412],[3.513,48.426],[3.542,48.423],[3.553,48.403],[3.478,48.383],[3.485,48.412]]]}},{"type":"Feature","properties":{"code":"10371","nom":"Sommeval"},"geometry":{"type":"Polygon","coordinates":[[[3.971,48.146],[3.925,48.151],[3.927,48.166],[3.955,48.178],[3.982,48.168],[3.971,48.146]]]}},{"type":"Feature","properties":{"code":"10372","nom":"Soulaines-Dhuys"},"geometry":{"type":"Polygon","coordinates":[[[4.755,48.367],[4.743,48.356],[4.7,48.363],[4.698,48.369],[4.679,48.378],[4.662,48.393],[4.668,48.4],[4.704,48.393],[4.76,48.388],[4.755,48.367]]]}},{"type":"Feature","properties":{"code":"10373","nom":"Souligny"},"geometry":{"type":"Polygon","coordinates":[[[3.948,48.192],[3.956,48.201],[4.017,48.231],[4.029,48.209],[3.948,48.192]]]}},{"type":"Feature","properties":{"code":"10374","nom":"Spoy"},"geometry":{"type":"Polygon","coordinates":[[[4.577,48.229],[4.584,48.235],[4.627,48.243],[4.653,48.225],[4.66,48.221],[4.645,48.22],[4.601,48.215],[4.576,48.226],[4.577,48.229]]]}},{"type":"Feature","properties":{"code":"10375","nom":"Thennelières"},"geometry":{"type":"Polygon","coordinates":[[[4.156,48.296],[4.167,48.298],[4.191,48.3],[4.211,48.284],[4.2,48.276],[4.175,48.283],[4.156,48.296]]]}},{"type":"Feature","properties":{"code":"10376","nom":"Thieffrain"},"geometry":{"type":"Polygon","coordinates":[[[4.427,48.214],[4.462,48.199],[4.438,48.18],[4.42,48.198],[4.427,48.214]]]}},{"type":"Feature","properties":{"code":"10377","nom":"Thil"},"geometry":{"type":"Polygon","coordinates":[[[4.743,48.356],[4.755,48.367],[4.793,48.356],[4.841,48.339],[4.814,48.323],[4.783,48.321],[4.772,48.325],[4.743,48.356]]]}},{"type":"Feature","properties":{"code":"10378","nom":"Thors"},"geometry":{"type":"Polygon","coordinates":[[[4.807,48.287],[4.779,48.311],[4.783,48.321],[4.814,48.323],[4.826,48.302],[4.816,48.29],[4.807,48.287]]]}},{"type":"Feature","properties":{"code":"10379","nom":"Torcy-le-Grand"},"geometry":{"type":"Polygon","coordinates":[[[4.158,48.495],[4.156,48.509],[4.16,48.54],[4.187,48.544],[4.167,48.492],[4.158,48.495]]]}},{"type":"Feature","properties":{"code":"10380","nom":"Torcy-le-Petit"},"geometry":{"type":"Polygon","coordinates":[[[4.187,48.544],[4.197,48.542],[4.214,48.538],[4.173,48.493],[4.167,48.492],[4.187,48.544]]]}},{"type":"Feature","properties":{"code":"10381","nom":"Torvilliers"},"geometry":{"type":"Polygon","coordinates":[[[3.948,48.265],[3.942,48.279],[3.988,48.299],[3.989,48.298],[3.991,48.289],[3.999,48.265],[3.963,48.256],[3.948,48.265]]]}},{"type":"Feature","properties":{"code":"10382","nom":"Traînel"},"geometry":{"type":"Polygon","coordinates":[[[3.478,48.383],[3.471,48.374],[3.471,48.375],[3.456,48.398],[3.421,48.409],[3.412,48.421],[3.448,48.437],[3.49,48.434],[3.485,48.412],[3.478,48.383]]]}},{"type":"Feature","properties":{"code":"10383","nom":"Trancault"},"geometry":{"type":"Polygon","coordinates":[[[3.471,48.374],[3.478,48.383],[3.553,48.403],[3.559,48.402],[3.581,48.375],[3.545,48.334],[3.498,48.37],[3.475,48.369],[3.471,48.374]]]}},{"type":"Feature","properties":{"code":"10384","nom":"Trannes"},"geometry":{"type":"Polygon","coordinates":[[[4.626,48.324],[4.627,48.322],[4.618,48.297],[4.593,48.286],[4.572,48.307],[4.572,48.316],[4.612,48.324],[4.626,48.324]]]}},{"type":"Feature","properties":{"code":"10386","nom":"Trouans"},"geometry":{"type":"Polygon","coordinates":[[[4.325,48.662],[4.324,48.644],[4.293,48.629],[4.269,48.632],[4.229,48.621],[4.182,48.624],[4.174,48.626],[4.177,48.633],[4.194,48.632],[4.234,48.656],[4.325,48.662]]]}},{"type":"Feature","properties":{"code":"10387","nom":"Troyes"},"geometry":{"type":"Polygon","coordinates":[[[4.075,48.319],[4.08,48.315],[4.1,48.31],[4.11,48.287],[4.087,48.266],[4.067,48.276],[4.063,48.29],[4.05,48.3],[4.041,48.307],[4.075,48.319]]]}},{"type":"Feature","properties":{"code":"10388","nom":"Turgy"},"geometry":{"type":"Polygon","coordinates":[[[4.064,48.016],[4.036,48.013],[4.051,48.056],[4.067,48.048],[4.064,48.016]]]}},{"type":"Feature","properties":{"code":"10389","nom":"Unienville"},"geometry":{"type":"Polygon","coordinates":[[[4.555,48.337],[4.575,48.328],[4.572,48.316],[4.572,48.307],[4.55,48.298],[4.514,48.315],[4.555,48.337]]]}},{"type":"Feature","properties":{"code":"10390","nom":"Urville"},"geometry":{"type":"Polygon","coordinates":[[[4.707,48.173],[4.695,48.157],[4.653,48.154],[4.648,48.183],[4.672,48.174],[4.7,48.183],[4.702,48.189],[4.707,48.173]]]}},{"type":"Feature","properties":{"code":"10391","nom":"Vailly"},"geometry":{"type":"Polygon","coordinates":[[[4.113,48.351],[4.11,48.353],[4.103,48.38],[4.144,48.394],[4.153,48.373],[4.15,48.367],[4.113,48.351]]]}},{"type":"Feature","properties":{"code":"10392","nom":"Vallant-Saint-Georges"},"geometry":{"type":"Polygon","coordinates":[[[3.861,48.432],[3.853,48.463],[3.894,48.485],[3.902,48.486],[3.916,48.476],[3.93,48.459],[3.889,48.45],[3.861,48.432]]]}},{"type":"Feature","properties":{"code":"10393","nom":"Vallentigny"},"geometry":{"type":"Polygon","coordinates":[[[4.636,48.457],[4.677,48.436],[4.651,48.427],[4.604,48.44],[4.564,48.438],[4.56,48.422],[4.551,48.419],[4.551,48.421],[4.558,48.439],[4.561,48.452],[4.569,48.463],[4.571,48.463],[4.589,48.449],[4.636,48.457]]]}},{"type":"Feature","properties":{"code":"10394","nom":"Vallières"},"geometry":{"type":"Polygon","coordinates":[[[4.036,48.013],[4.064,48.016],[4.085,47.987],[4.073,47.981],[4.054,47.986],[4.036,48.013]]]}},{"type":"Feature","properties":{"code":"10395","nom":"Vanlay"},"geometry":{"type":"Polygon","coordinates":[[[4.037,47.977],[4.028,47.975],[4.028,47.988],[3.984,48.013],[3.971,48.027],[3.978,48.037],[3.997,48.032],[4.019,48.053],[4.047,48.061],[4.049,48.058],[4.051,48.056],[4.036,48.013],[4.054,47.986],[4.037,47.977]]]}},{"type":"Feature","properties":{"code":"10396","nom":"Vauchassis"},"geometry":{"type":"Polygon","coordinates":[[[3.927,48.166],[3.927,48.166],[3.923,48.201],[3.881,48.227],[3.881,48.234],[3.91,48.24],[3.947,48.231],[3.956,48.201],[3.948,48.192],[3.955,48.178],[3.927,48.166]]]}},{"type":"Feature","properties":{"code":"10397","nom":"Vauchonvilliers"},"geometry":{"type":"Polygon","coordinates":[[[4.563,48.264],[4.564,48.261],[4.563,48.257],[4.507,48.251],[4.507,48.273],[4.546,48.286],[4.563,48.264]]]}},{"type":"Feature","properties":{"code":"10398","nom":"Vaucogne"},"geometry":{"type":"Polygon","coordinates":[[[4.332,48.509],[4.311,48.549],[4.326,48.56],[4.376,48.533],[4.39,48.535],[4.364,48.514],[4.353,48.509],[4.332,48.509]]]}},{"type":"Feature","properties":{"code":"10399","nom":"Vaudes"},"geometry":{"type":"Polygon","coordinates":[[[4.2,48.17],[4.188,48.163],[4.151,48.171],[4.174,48.187],[4.21,48.181],[4.2,48.17]]]}},{"type":"Feature","properties":{"code":"10400","nom":"Vaupoisson"},"geometry":{"type":"Polygon","coordinates":[[[4.177,48.488],[4.194,48.491],[4.205,48.501],[4.229,48.53],[4.239,48.527],[4.248,48.519],[4.219,48.485],[4.185,48.475],[4.181,48.481],[4.177,48.488]]]}},{"type":"Feature","properties":{"code":"10401","nom":"Vendeuvre-sur-Barse"},"geometry":{"type":"Polygon","coordinates":[[[4.427,48.214],[4.418,48.218],[4.422,48.269],[4.398,48.275],[4.39,48.276],[4.417,48.291],[4.457,48.274],[4.489,48.282],[4.507,48.273],[4.507,48.251],[4.514,48.233],[4.489,48.225],[4.489,48.195],[4.462,48.199],[4.427,48.214]]]}},{"type":"Feature","properties":{"code":"10402","nom":"La Vendue-Mignot"},"geometry":{"type":"Polygon","coordinates":[[[4.106,48.177],[4.119,48.178],[4.116,48.13],[4.098,48.116],[4.086,48.12],[4.094,48.152],[4.106,48.177]]]}},{"type":"Feature","properties":{"code":"10403","nom":"Vernonvilliers"},"geometry":{"type":"Polygon","coordinates":[[[4.667,48.299],[4.665,48.328],[4.669,48.33],[4.678,48.332],[4.698,48.319],[4.671,48.293],[4.667,48.299]]]}},{"type":"Feature","properties":{"code":"10404","nom":"Verpillières-sur-Ource"},"geometry":{"type":"Polygon","coordinates":[[[4.617,48.031],[4.578,48.029],[4.555,48.012],[4.544,48.037],[4.583,48.052],[4.594,48.066],[4.63,48.054],[4.617,48.031]]]}},{"type":"Feature","properties":{"code":"10405","nom":"Verricourt"},"geometry":{"type":"Polygon","coordinates":[[[4.357,48.466],[4.363,48.454],[4.32,48.44],[4.316,48.441],[4.312,48.46],[4.356,48.468],[4.357,48.466]]]}},{"type":"Feature","properties":{"code":"10406","nom":"Verrières"},"geometry":{"type":"Polygon","coordinates":[[[4.125,48.245],[4.136,48.252],[4.164,48.249],[4.177,48.23],[4.163,48.209],[4.141,48.227],[4.125,48.245]]]}},{"type":"Feature","properties":{"code":"10408","nom":"Viâpres-le-Petit"},"geometry":{"type":"Polygon","coordinates":[[[4.073,48.613],[4.082,48.604],[4.067,48.588],[4.05,48.558],[4.04,48.556],[4.021,48.558],[4.052,48.6],[4.073,48.613]]]}},{"type":"Feature","properties":{"code":"10409","nom":"Villacerf"},"geometry":{"type":"Polygon","coordinates":[[[4.009,48.423],[4.041,48.412],[3.988,48.388],[3.974,48.402],[3.969,48.412],[4.009,48.423]]]}},{"type":"Feature","properties":{"code":"10410","nom":"Villadin"},"geometry":{"type":"Polygon","coordinates":[[[3.696,48.338],[3.723,48.323],[3.724,48.306],[3.699,48.309],[3.662,48.294],[3.679,48.334],[3.696,48.338]]]}},{"type":"Feature","properties":{"code":"10411","nom":"La Ville-aux-Bois"},"geometry":{"type":"Polygon","coordinates":[[[4.704,48.393],[4.668,48.4],[4.68,48.417],[4.708,48.401],[4.704,48.393]]]}},{"type":"Feature","properties":{"code":"10412","nom":"Villechétif"},"geometry":{"type":"Polygon","coordinates":[[[4.182,48.344],[4.178,48.333],[4.162,48.32],[4.167,48.298],[4.156,48.296],[4.124,48.308],[4.138,48.333],[4.182,48.344],[4.182,48.344]]]}},{"type":"Feature","properties":{"code":"10414","nom":"Villeloup"},"geometry":{"type":"Polygon","coordinates":[[[3.895,48.339],[3.877,48.328],[3.828,48.355],[3.853,48.374],[3.897,48.367],[3.895,48.339]]]}},{"type":"Feature","properties":{"code":"10416","nom":"Villemereuil"},"geometry":{"type":"Polygon","coordinates":[[[4.062,48.201],[4.049,48.206],[4.06,48.217],[4.106,48.207],[4.107,48.203],[4.095,48.186],[4.092,48.184],[4.062,48.201]]]}},{"type":"Feature","properties":{"code":"10417","nom":"Villemoiron-en-Othe"},"geometry":{"type":"Polygon","coordinates":[[[3.814,48.205],[3.826,48.196],[3.768,48.18],[3.758,48.198],[3.792,48.22],[3.814,48.205]]]}},{"type":"Feature","properties":{"code":"10418","nom":"Villemorien"},"geometry":{"type":"Polygon","coordinates":[[[4.338,48.084],[4.316,48.065],[4.282,48.063],[4.253,48.08],[4.296,48.095],[4.326,48.089],[4.338,48.084]]]}},{"type":"Feature","properties":{"code":"10419","nom":"Villemoyenne"},"geometry":{"type":"Polygon","coordinates":[[[4.24,48.203],[4.252,48.202],[4.275,48.204],[4.281,48.188],[4.23,48.165],[4.212,48.188],[4.24,48.203]]]}},{"type":"Feature","properties":{"code":"10420","nom":"Villenauxe-la-Grande"},"geometry":{"type":"Polygon","coordinates":[[[3.58,48.605],[3.583,48.585],[3.561,48.572],[3.545,48.573],[3.516,48.59],[3.503,48.605],[3.556,48.62],[3.58,48.605]]]}},{"type":"Feature","properties":{"code":"10421","nom":"La Villeneuve-au-Châtelot"},"geometry":{"type":"Polygon","coordinates":[[[3.605,48.573],[3.608,48.574],[3.615,48.531],[3.596,48.534],[3.596,48.558],[3.605,48.573]]]}},{"type":"Feature","properties":{"code":"10422","nom":"Villeneuve-au-Chemin"},"geometry":{"type":"Polygon","coordinates":[[[3.857,48.093],[3.858,48.092],[3.845,48.076],[3.816,48.096],[3.857,48.093]]]}},{"type":"Feature","properties":{"code":"10423","nom":"La Villeneuve-au-Chêne"},"geometry":{"type":"Polygon","coordinates":[[[4.367,48.26],[4.39,48.276],[4.398,48.275],[4.414,48.266],[4.389,48.223],[4.383,48.221],[4.375,48.231],[4.367,48.26]]]}},{"type":"Feature","properties":{"code":"10424","nom":"Villeret"},"geometry":{"type":"Polygon","coordinates":[[[4.6,48.471],[4.58,48.475],[4.584,48.492],[4.591,48.491],[4.6,48.471]]]}},{"type":"Feature","properties":{"code":"10425","nom":"Villery"},"geometry":{"type":"Polygon","coordinates":[[[4.03,48.187],[4.029,48.179],[4.024,48.161],[4.002,48.172],[4.03,48.187]]]}},{"type":"Feature","properties":{"code":"10426","nom":"Ville-sous-la-Ferté"},"geometry":{"type":"Polygon","coordinates":[[[4.784,48.174],[4.8,48.135],[4.787,48.109],[4.732,48.119],[4.741,48.14],[4.76,48.159],[4.779,48.175],[4.784,48.174]]]}},{"type":"Feature","properties":{"code":"10427","nom":"Ville-sur-Arce"},"geometry":{"type":"Polygon","coordinates":[[[4.432,48.086],[4.423,48.104],[4.411,48.119],[4.43,48.142],[4.471,48.116],[4.484,48.106],[4.482,48.104],[4.449,48.086],[4.432,48.086]]]}},{"type":"Feature","properties":{"code":"10428","nom":"Ville-sur-Terre"},"geometry":{"type":"Polygon","coordinates":[[[4.743,48.356],[4.772,48.325],[4.739,48.309],[4.719,48.317],[4.7,48.363],[4.743,48.356]]]}},{"type":"Feature","properties":{"code":"10429","nom":"Villette-sur-Aube"},"geometry":{"type":"Polygon","coordinates":[[[4.128,48.515],[4.089,48.523],[4.092,48.546],[4.12,48.537],[4.128,48.515]]]}},{"type":"Feature","properties":{"code":"10430","nom":"Villiers-Herbisse"},"geometry":{"type":"Polygon","coordinates":[[[4.177,48.633],[4.174,48.626],[4.152,48.623],[4.077,48.632],[4.051,48.634],[4.068,48.658],[4.086,48.642],[4.138,48.671],[4.173,48.656],[4.177,48.633]]]}},{"type":"Feature","properties":{"code":"10431","nom":"Villiers-le-Bois"},"geometry":{"type":"Polygon","coordinates":[[[4.196,47.968],[4.185,47.94],[4.167,47.96],[4.17,47.967],[4.196,47.968]]]}},{"type":"Feature","properties":{"code":"10432","nom":"Villiers-sous-Praslin"},"geometry":{"type":"Polygon","coordinates":[[[4.247,48.079],[4.252,48.081],[4.253,48.08],[4.282,48.063],[4.24,48.04],[4.227,48.053],[4.247,48.079]]]}},{"type":"Feature","properties":{"code":"10433","nom":"Villy-en-Trodes"},"geometry":{"type":"Polygon","coordinates":[[[4.418,48.218],[4.427,48.214],[4.42,48.198],[4.393,48.171],[4.365,48.174],[4.352,48.19],[4.383,48.221],[4.389,48.223],[4.418,48.218]]]}},{"type":"Feature","properties":{"code":"10434","nom":"Villy-le-Bois"},"geometry":{"type":"Polygon","coordinates":[[[4.084,48.152],[4.073,48.16],[4.07,48.165],[4.082,48.175],[4.092,48.184],[4.095,48.186],[4.106,48.177],[4.094,48.152],[4.084,48.152]]]}},{"type":"Feature","properties":{"code":"10435","nom":"Villy-le-Maréchal"},"geometry":{"type":"Polygon","coordinates":[[[4.082,48.175],[4.057,48.192],[4.062,48.201],[4.092,48.184],[4.082,48.175]]]}},{"type":"Feature","properties":{"code":"10436","nom":"Vinets"},"geometry":{"type":"Polygon","coordinates":[[[4.214,48.538],[4.197,48.542],[4.218,48.564],[4.252,48.544],[4.239,48.527],[4.229,48.53],[4.214,48.538]]]}},{"type":"Feature","properties":{"code":"10437","nom":"Virey-sous-Bar"},"geometry":{"type":"Polygon","coordinates":[[[4.335,48.142],[4.329,48.121],[4.296,48.12],[4.275,48.135],[4.28,48.143],[4.335,48.142]]]}},{"type":"Feature","properties":{"code":"10438","nom":"Vitry-le-Croisé"},"geometry":{"type":"Polygon","coordinates":[[[4.543,48.179],[4.59,48.168],[4.615,48.143],[4.626,48.119],[4.582,48.11],[4.562,48.112],[4.534,48.162],[4.543,48.179]]]}},{"type":"Feature","properties":{"code":"10439","nom":"Viviers-sur-Artaut"},"geometry":{"type":"Polygon","coordinates":[[[4.484,48.106],[4.499,48.11],[4.51,48.112],[4.524,48.101],[4.494,48.084],[4.482,48.104],[4.484,48.106]]]}},{"type":"Feature","properties":{"code":"10440","nom":"Voigny"},"geometry":{"type":"Polygon","coordinates":[[[4.765,48.251],[4.774,48.251],[4.79,48.237],[4.752,48.219],[4.746,48.221],[4.755,48.243],[4.765,48.251]]]}},{"type":"Feature","properties":{"code":"10441","nom":"Vosnon"},"geometry":{"type":"Polygon","coordinates":[[[3.802,48.107],[3.814,48.126],[3.855,48.117],[3.873,48.101],[3.857,48.093],[3.816,48.096],[3.806,48.101],[3.802,48.107]]]}},{"type":"Feature","properties":{"code":"10442","nom":"Voué"},"geometry":{"type":"Polygon","coordinates":[[[4.069,48.459],[4.078,48.464],[4.101,48.459],[4.181,48.481],[4.185,48.475],[4.191,48.469],[4.079,48.442],[4.069,48.459]]]}},{"type":"Feature","properties":{"code":"10443","nom":"Vougrey"},"geometry":{"type":"Polygon","coordinates":[[[4.252,48.081],[4.247,48.079],[4.23,48.098],[4.252,48.081]]]}},{"type":"Feature","properties":{"code":"10444","nom":"Vulaines"},"geometry":{"type":"Polygon","coordinates":[[[3.605,48.23],[3.624,48.259],[3.645,48.257],[3.644,48.224],[3.622,48.226],[3.605,48.23]]]}},{"type":"Feature","properties":{"code":"10445","nom":"Yèvres-le-Petit"},"geometry":{"type":"Polygon","coordinates":[[[4.495,48.494],[4.513,48.498],[4.519,48.483],[4.469,48.461],[4.495,48.494]]]}}]}