{"type":"FeatureCollection","features":[{"type":"Feature","properties":{"code":"18001","nom":"Achères","pop":326},"geometry":{"type":"Polygon","coordinates":[[[2.44,47.279],[2.444,47.306],[2.482,47.295],[2.482,47.294],[2.478,47.272],[2.453,47.259],[2.438,47.264],[2.44,47.279]]]}},{"type":"Feature","properties":{"code":"18002","nom":"Ainay-le-Vieil","pop":189},"geometry":{"type":"Polygon","coordinates":[[[2.514,46.676],[2.527,46.685],[2.539,46.682],[2.557,46.681],[2.571,46.659],[2.567,46.652],[2.563,46.626],[2.536,46.637],[2.546,46.654],[2.511,46.669],[2.514,46.676]]]}},{"type":"Feature","properties":{"code":"18003","nom":"Les Aix-d'Angillon","pop":1877},"geometry":{"type":"Polygon","coordinates":[[[2.569,47.174],[2.542,47.178],[2.531,47.197],[2.555,47.217],[2.594,47.206],[2.569,47.174]]]}},{"type":"Feature","properties":{"code":"18004","nom":"Allogny","pop":1142},"geometry":{"type":"Polygon","coordinates":[[[2.288,47.278],[2.318,47.277],[2.367,47.248],[2.341,47.202],[2.296,47.192],[2.256,47.213],[2.257,47.238],[2.283,47.255],[2.288,47.278]]]}},{"type":"Feature","properties":{"code":"18005","nom":"Allouis","pop":1036},"geometry":{"type":"Polygon","coordinates":[[[2.266,47.15],[2.194,47.16],[2.182,47.176],[2.215,47.187],[2.256,47.211],[2.256,47.213],[2.296,47.192],[2.275,47.168],[2.266,47.15]]]}},{"type":"Feature","properties":{"code":"18006","nom":"Annoix","pop":250},"geometry":{"type":"Polygon","coordinates":[[[2.55,46.981],[2.571,46.963],[2.557,46.95],[2.538,46.944],[2.523,46.978],[2.531,46.989],[2.55,46.981]]]}},{"type":"Feature","properties":{"code":"18007","nom":"Apremont-sur-Allier","pop":66},"geometry":{"type":"Polygon","coordinates":[[[3.065,46.936],[3.05,46.906],[3.061,46.897],[2.985,46.885],[2.979,46.914],[3.007,46.938],[3.066,46.938],[3.065,46.936]]]}},{"type":"Feature","properties":{"code":"18008","nom":"Arçay","pop":500},"geometry":{"type":"Polygon","coordinates":[[[2.32,46.992],[2.333,47.003],[2.355,46.991],[2.361,46.953],[2.348,46.936],[2.325,46.925],[2.311,46.942],[2.33,46.981],[2.32,46.992]]]}},{"type":"Feature","properties":{"code":"18009","nom":"Arcomps","pop":280},"geometry":{"type":"Polygon","coordinates":[[[2.375,46.675],[2.388,46.689],[2.446,46.701],[2.456,46.696],[2.453,46.661],[2.437,46.648],[2.392,46.673],[2.375,46.675]]]}},{"type":"Feature","properties":{"code":"18010","nom":"Ardenais","pop":205},"geometry":{"type":"Polygon","coordinates":[[[2.371,46.674],[2.378,46.652],[2.37,46.617],[2.328,46.617],[2.34,46.627],[2.319,46.66],[2.319,46.661],[2.371,46.674]]]}},{"type":"Feature","properties":{"code":"18011","nom":"Argent-sur-Sauldre","pop":2023},"geometry":{"type":"Polygon","coordinates":[[[2.373,47.586],[2.438,47.61],[2.491,47.568],[2.489,47.546],[2.468,47.515],[2.415,47.531],[2.395,47.546],[2.373,47.549],[2.352,47.578],[2.373,47.586]]]}},{"type":"Feature","properties":{"code":"18012","nom":"Argenvières","pop":448},"geometry":{"type":"Polygon","coordinates":[[[3.016,47.159],[3.019,47.156],[3.025,47.131],[2.968,47.124],[2.961,47.155],[2.964,47.156],[3.016,47.159]]]}},{"type":"Feature","properties":{"code":"18013","nom":"Arpheuilles","pop":299},"geometry":{"type":"Polygon","coordinates":[[[2.539,46.742],[2.546,46.754],[2.519,46.815],[2.541,46.835],[2.581,46.831],[2.597,46.805],[2.621,46.805],[2.627,46.784],[2.61,46.772],[2.557,46.745],[2.539,46.742]]]}},{"type":"Feature","properties":{"code":"18014","nom":"Assigny","pop":159},"geometry":{"type":"Polygon","coordinates":[[[2.722,47.414],[2.717,47.423],[2.75,47.454],[2.775,47.447],[2.773,47.417],[2.722,47.414]]]}},{"type":"Feature","properties":{"code":"18015","nom":"Aubigny-sur-Nère","pop":5451},"geometry":{"type":"Polygon","coordinates":[[[2.47,47.511],[2.475,47.476],[2.455,47.441],[2.406,47.463],[2.364,47.466],[2.358,47.496],[2.372,47.515],[2.415,47.531],[2.468,47.515],[2.47,47.511]]]}},{"type":"Feature","properties":{"code":"18016","nom":"Aubinges","pop":401},"geometry":{"type":"Polygon","coordinates":[[[2.623,47.217],[2.594,47.206],[2.555,47.217],[2.571,47.238],[2.622,47.222],[2.623,47.217]]]}},{"type":"Feature","properties":{"code":"18017","nom":"Augy-sur-Aubois","pop":278},"geometry":{"type":"Polygon","coordinates":[[[2.847,46.809],[2.89,46.815],[2.899,46.776],[2.845,46.742],[2.817,46.78],[2.825,46.806],[2.847,46.809]]]}},{"type":"Feature","properties":{"code":"18018","nom":"Avord","pop":2909},"geometry":{"type":"Polygon","coordinates":[[[2.609,47.044],[2.657,47.043],[2.669,47.05],[2.719,47.047],[2.728,47.024],[2.664,47.011],[2.63,47.024],[2.614,47.015],[2.599,47.03],[2.609,47.044]]]}},{"type":"Feature","properties":{"code":"18019","nom":"Azy","pop":450},"geometry":{"type":"Polygon","coordinates":[[[2.732,47.218],[2.758,47.195],[2.758,47.194],[2.738,47.175],[2.688,47.17],[2.661,47.174],[2.672,47.199],[2.732,47.218]]]}},{"type":"Feature","properties":{"code":"18020","nom":"Bannay","pop":845},"geometry":{"type":"Polygon","coordinates":[[[2.89,47.366],[2.88,47.355],[2.854,47.353],[2.837,47.369],[2.838,47.39],[2.853,47.401],[2.92,47.41],[2.89,47.366]]]}},{"type":"Feature","properties":{"code":"18021","nom":"Bannegon","pop":233},"geometry":{"type":"Polygon","coordinates":[[[2.754,46.784],[2.749,46.774],[2.696,46.797],[2.71,46.831],[2.741,46.839],[2.743,46.832],[2.754,46.817],[2.754,46.784]]]}},{"type":"Feature","properties":{"code":"18022","nom":"Barlieu","pop":334},"geometry":{"type":"Polygon","coordinates":[[[2.612,47.527],[2.656,47.51],[2.669,47.485],[2.618,47.461],[2.59,47.482],[2.578,47.509],[2.612,47.527]]]}},{"type":"Feature","properties":{"code":"18023","nom":"Baugy","pop":1598},"geometry":{"type":"Polygon","coordinates":[[[2.811,47.023],[2.778,47.016],[2.753,47.031],[2.728,47.024],[2.719,47.047],[2.669,47.05],[2.684,47.076],[2.712,47.101],[2.745,47.093],[2.755,47.055],[2.795,47.057],[2.815,47.044],[2.811,47.023]]]}},{"type":"Feature","properties":{"code":"18024","nom":"Beddes","pop":105},"geometry":{"type":"Polygon","coordinates":[[[2.187,46.616],[2.248,46.63],[2.253,46.629],[2.216,46.607],[2.206,46.584],[2.181,46.6],[2.187,46.616]]]}},{"type":"Feature","properties":{"code":"18025","nom":"Beffes","pop":602},"geometry":{"type":"Polygon","coordinates":[[[3.03,47.108],[3.03,47.107],[3.023,47.08],[2.969,47.081],[2.973,47.102],[3.03,47.108]]]}},{"type":"Feature","properties":{"code":"18026","nom":"Belleville-sur-Loire","pop":989},"geometry":{"type":"Polygon","coordinates":[[[2.89,47.508],[2.789,47.478],[2.806,47.494],[2.874,47.52],[2.89,47.508]]]}},{"type":"Feature","properties":{"code":"18027","nom":"Bengy-sur-Craon","pop":628},"geometry":{"type":"Polygon","coordinates":[[[2.77,46.967],[2.745,46.978],[2.709,46.973],[2.69,46.989],[2.664,47.011],[2.728,47.024],[2.753,47.031],[2.778,47.016],[2.785,46.989],[2.776,46.977],[2.77,46.967]]]}},{"type":"Feature","properties":{"code":"18028","nom":"Berry-Bouy","pop":1168},"geometry":{"type":"Polygon","coordinates":[[[2.319,47.094],[2.246,47.119],[2.274,47.134],[2.266,47.15],[2.275,47.168],[2.322,47.153],[2.332,47.138],[2.319,47.094]]]}},{"type":"Feature","properties":{"code":"18029","nom":"Bessais-le-Fromental","pop":289},"geometry":{"type":"Polygon","coordinates":[[[2.775,46.719],[2.759,46.718],[2.735,46.746],[2.749,46.774],[2.754,46.784],[2.791,46.768],[2.828,46.735],[2.795,46.734],[2.775,46.719]]]}},{"type":"Feature","properties":{"code":"18030","nom":"Blancafort","pop":998},"geometry":{"type":"Polygon","coordinates":[[[2.567,47.569],[2.607,47.549],[2.612,47.527],[2.578,47.509],[2.547,47.497],[2.47,47.511],[2.468,47.515],[2.489,47.546],[2.491,47.568],[2.547,47.575],[2.567,47.569]]]}},{"type":"Feature","properties":{"code":"18031","nom":"Blet","pop":566},"geometry":{"type":"Polygon","coordinates":[[[2.788,46.874],[2.785,46.863],[2.756,46.85],[2.747,46.853],[2.728,46.87],[2.686,46.883],[2.692,46.916],[2.696,46.919],[2.788,46.874]]]}},{"type":"Feature","properties":{"code":"18032","nom":"Boulleret","pop":1397},"geometry":{"type":"Polygon","coordinates":[[[2.919,47.461],[2.92,47.459],[2.932,47.434],[2.92,47.41],[2.853,47.401],[2.833,47.423],[2.844,47.444],[2.854,47.451],[2.919,47.461]]]}},{"type":"Feature","properties":{"code":"18033","nom":"Bourges","pop":64186},"geometry":{"type":"Polygon","coordinates":[[[2.386,47.125],[2.404,47.129],[2.448,47.126],[2.454,47.122],[2.433,47.109],[2.443,47.087],[2.469,47.089],[2.461,47.058],[2.449,47.026],[2.407,47.049],[2.39,47.039],[2.34,47.03],[2.329,47.051],[2.324,47.074],[2.329,47.089],[2.348,47.085],[2.393,47.097],[2.386,47.125]]]}},{"type":"Feature","properties":{"code":"18034","nom":"Bouzais","pop":273},"geometry":{"type":"Polygon","coordinates":[[[2.485,46.712],[2.491,46.71],[2.456,46.696],[2.446,46.701],[2.458,46.707],[2.485,46.712]]]}},{"type":"Feature","properties":{"code":"18035","nom":"Brécy","pop":927},"geometry":{"type":"Polygon","coordinates":[[[2.645,47.096],[2.626,47.095],[2.576,47.119],[2.6,47.141],[2.591,47.156],[2.641,47.163],[2.686,47.14],[2.645,47.096]]]}},{"type":"Feature","properties":{"code":"18036","nom":"Brinay","pop":490},"geometry":{"type":"Polygon","coordinates":[[[2.113,47.196],[2.16,47.157],[2.122,47.143],[2.095,47.136],[2.069,47.156],[2.078,47.184],[2.113,47.196]]]}},{"type":"Feature","properties":{"code":"18037","nom":"Brinon-sur-Sauldre","pop":971},"geometry":{"type":"Polygon","coordinates":[[[2.196,47.488],[2.215,47.522],[2.196,47.549],[2.131,47.551],[2.12,47.583],[2.151,47.601],[2.198,47.607],[2.239,47.621],[2.289,47.629],[2.307,47.618],[2.292,47.61],[2.304,47.584],[2.288,47.558],[2.297,47.527],[2.243,47.515],[2.235,47.497],[2.196,47.488]]]}},{"type":"Feature","properties":{"code":"18038","nom":"Bruère-Allichamps","pop":567},"geometry":{"type":"Polygon","coordinates":[[[2.443,46.79],[2.434,46.766],[2.472,46.742],[2.466,46.739],[2.429,46.751],[2.419,46.779],[2.383,46.804],[2.408,46.81],[2.443,46.79]]]}},{"type":"Feature","properties":{"code":"18039","nom":"Bué","pop":296},"geometry":{"type":"Polygon","coordinates":[[[2.809,47.309],[2.796,47.287],[2.785,47.297],[2.777,47.325],[2.781,47.329],[2.809,47.309]]]}},{"type":"Feature","properties":{"code":"18040","nom":"Bussy","pop":354},"geometry":{"type":"Polygon","coordinates":[[[2.651,46.869],[2.619,46.861],[2.593,46.887],[2.585,46.909],[2.609,46.937],[2.618,46.942],[2.634,46.928],[2.659,46.879],[2.651,46.869]]]}},{"type":"Feature","properties":{"code":"18041","nom":"La Celette","pop":205},"geometry":{"type":"Polygon","coordinates":[[[2.568,46.609],[2.542,46.598],[2.527,46.62],[2.492,46.628],[2.486,46.666],[2.511,46.669],[2.546,46.654],[2.536,46.637],[2.563,46.626],[2.568,46.609]]]}},{"type":"Feature","properties":{"code":"18042","nom":"La Celle","pop":326},"geometry":{"type":"Polygon","coordinates":[[[2.472,46.742],[2.434,46.766],[2.443,46.79],[2.466,46.795],[2.481,46.769],[2.481,46.742],[2.472,46.742]]]}},{"type":"Feature","properties":{"code":"18043","nom":"La Celle-Condé","pop":189},"geometry":{"type":"Polygon","coordinates":[[[2.214,46.811],[2.221,46.79],[2.189,46.766],[2.155,46.758],[2.137,46.798],[2.15,46.807],[2.188,46.817],[2.214,46.811]]]}},{"type":"Feature","properties":{"code":"18044","nom":"Cerbois","pop":393},"geometry":{"type":"Polygon","coordinates":[[[2.082,47.087],[2.077,47.108],[2.095,47.136],[2.122,47.143],[2.117,47.12],[2.14,47.1],[2.132,47.092],[2.082,47.087]]]}},{"type":"Feature","properties":{"code":"18045","nom":"Chalivoy-Milon","pop":388},"geometry":{"type":"Polygon","coordinates":[[[2.686,46.883],[2.728,46.87],[2.747,46.853],[2.741,46.839],[2.71,46.831],[2.701,46.846],[2.676,46.867],[2.651,46.869],[2.659,46.879],[2.686,46.883]]]}},{"type":"Feature","properties":{"code":"18046","nom":"Chambon","pop":152},"geometry":{"type":"Polygon","coordinates":[[[2.323,46.757],[2.31,46.792],[2.337,46.804],[2.354,46.798],[2.347,46.766],[2.359,46.755],[2.323,46.757]]]}},{"type":"Feature","properties":{"code":"18047","nom":"La Chapelle-d'Angillon","pop":606},"geometry":{"type":"Polygon","coordinates":[[[2.455,47.39],[2.477,47.373],[2.439,47.363],[2.438,47.351],[2.408,47.365],[2.42,47.38],[2.455,47.39]]]}},{"type":"Feature","properties":{"code":"18048","nom":"La Chapelle-Hugon","pop":387},"geometry":{"type":"Polygon","coordinates":[[[2.978,46.868],[2.939,46.893],[2.915,46.892],[2.933,46.914],[2.979,46.914],[2.985,46.885],[2.978,46.868]]]}},{"type":"Feature","properties":{"code":"18049","nom":"La Chapelle-Montlinard","pop":491},"geometry":{"type":"Polygon","coordinates":[[[2.994,47.207],[2.998,47.201],[3.016,47.159],[2.964,47.156],[2.955,47.187],[2.994,47.207]]]}},{"type":"Feature","properties":{"code":"18050","nom":"La Chapelle-Saint-Ursin","pop":3681},"geometry":{"type":"Polygon","coordinates":[[[2.329,47.051],[2.298,47.035],[2.301,47.063],[2.324,47.074],[2.329,47.051]]]}},{"type":"Feature","properties":{"code":"18051","nom":"La Chapelotte","pop":132},"geometry":{"type":"Polygon","coordinates":[[[2.601,47.298],[2.593,47.291],[2.58,47.299],[2.564,47.353],[2.603,47.371],[2.619,47.363],[2.631,47.347],[2.643,47.331],[2.601,47.298]]]}},{"type":"Feature","properties":{"code":"18052","nom":"Charenton-du-Cher","pop":984},"geometry":{"type":"Polygon","coordinates":[[[2.705,46.739],[2.678,46.705],[2.648,46.689],[2.628,46.69],[2.624,46.713],[2.61,46.772],[2.627,46.784],[2.662,46.795],[2.678,46.789],[2.677,46.754],[2.705,46.739]]]}},{"type":"Feature","properties":{"code":"18053","nom":"Charentonnay","pop":282},"geometry":{"type":"Polygon","coordinates":[[[2.841,47.149],[2.878,47.175],[2.9,47.128],[2.896,47.116],[2.87,47.113],[2.843,47.125],[2.841,47.149]]]}},{"type":"Feature","properties":{"code":"18054","nom":"Charly","pop":226},"geometry":{"type":"Polygon","coordinates":[[[2.82,46.882],[2.817,46.881],[2.788,46.874],[2.696,46.919],[2.729,46.932],[2.754,46.937],[2.749,46.918],[2.808,46.901],[2.82,46.882]]]}},{"type":"Feature","properties":{"code":"18055","nom":"Chârost","pop":888},"geometry":{"type":"Polygon","coordinates":[[[2.095,46.981],[2.109,46.997],[2.157,47.003],[2.14,46.978],[2.095,46.981]]]}},{"type":"Feature","properties":{"code":"18056","nom":"Chassy","pop":233},"geometry":{"type":"Polygon","coordinates":[[[2.877,47.03],[2.878,47.018],[2.855,47.029],[2.811,47.023],[2.815,47.044],[2.795,47.057],[2.844,47.071],[2.843,47.058],[2.877,47.03]]]}},{"type":"Feature","properties":{"code":"18057","nom":"Châteaumeillant","pop":1629},"geometry":{"type":"Polygon","coordinates":[[[2.183,46.513],[2.159,46.557],[2.175,46.564],[2.167,46.589],[2.181,46.6],[2.206,46.584],[2.254,46.572],[2.25,46.544],[2.193,46.516],[2.195,46.506],[2.183,46.513]]]}},{"type":"Feature","properties":{"code":"18058","nom":"Châteauneuf-sur-Cher","pop":1360},"geometry":{"type":"Polygon","coordinates":[[[2.367,46.894],[2.372,46.866],[2.359,46.846],[2.337,46.837],[2.314,46.842],[2.309,46.873],[2.335,46.895],[2.367,46.894]]]}},{"type":"Feature","properties":{"code":"18059","nom":"Le Châtelet","pop":920},"geometry":{"type":"Polygon","coordinates":[[[2.312,46.603],[2.274,46.602],[2.253,46.629],[2.248,46.63],[2.271,46.654],[2.319,46.66],[2.34,46.627],[2.328,46.617],[2.312,46.603]]]}},{"type":"Feature","properties":{"code":"18060","nom":"Chaumont","pop":45},"geometry":{"type":"Polygon","coordinates":[[[2.747,46.853],[2.756,46.85],[2.764,46.836],[2.743,46.832],[2.741,46.839],[2.747,46.853]]]}},{"type":"Feature","properties":{"code":"18061","nom":"Chaumoux-Marcilly","pop":82},"geometry":{"type":"Polygon","coordinates":[[[2.811,47.15],[2.803,47.123],[2.787,47.118],[2.762,47.119],[2.756,47.14],[2.777,47.17],[2.811,47.15]]]}},{"type":"Feature","properties":{"code":"18062","nom":"Le Chautay","pop":256},"geometry":{"type":"Polygon","coordinates":[[[3.006,46.984],[2.995,46.97],[2.961,46.971],[2.923,46.993],[2.934,47.002],[2.958,47.001],[3.006,46.984]]]}},{"type":"Feature","properties":{"code":"18063","nom":"Chavannes","pop":151},"geometry":{"type":"Polygon","coordinates":[[[2.405,46.895],[2.432,46.893],[2.435,46.855],[2.419,46.843],[2.359,46.846],[2.372,46.866],[2.393,46.868],[2.405,46.895]]]}},{"type":"Feature","properties":{"code":"18064","nom":"Chéry","pop":233},"geometry":{"type":"Polygon","coordinates":[[[2.053,47.102],[2,47.114],[1.996,47.127],[2.037,47.138],[2.057,47.115],[2.053,47.102]]]}},{"type":"Feature","properties":{"code":"18065","nom":"Chezal-Benoît","pop":765},"geometry":{"type":"Polygon","coordinates":[[[2.048,46.833],[2.073,46.838],[2.096,46.855],[2.083,46.869],[2.126,46.88],[2.138,46.848],[2.157,46.838],[2.154,46.818],[2.15,46.807],[2.137,46.798],[2.104,46.794],[2.072,46.809],[2.048,46.833]]]}},{"type":"Feature","properties":{"code":"18066","nom":"Civray","pop":926},"geometry":{"type":"Polygon","coordinates":[[[2.23,46.963],[2.209,46.942],[2.159,46.939],[2.137,46.958],[2.14,46.978],[2.157,47.003],[2.191,47.023],[2.211,46.997],[2.23,46.963]]]}},{"type":"Feature","properties":{"code":"18067","nom":"Clémont","pop":687},"geometry":{"type":"Polygon","coordinates":[[[2.307,47.618],[2.373,47.586],[2.352,47.578],[2.373,47.549],[2.395,47.546],[2.381,47.531],[2.342,47.521],[2.297,47.527],[2.288,47.558],[2.304,47.584],[2.292,47.61],[2.307,47.618]]]}},{"type":"Feature","properties":{"code":"18068","nom":"Cogny","pop":31},"geometry":{"type":"Polygon","coordinates":[[[2.619,46.861],[2.651,46.869],[2.676,46.867],[2.701,46.846],[2.681,46.849],[2.614,46.831],[2.609,46.838],[2.619,46.861]]]}},{"type":"Feature","properties":{"code":"18069","nom":"Colombiers","pop":409},"geometry":{"type":"Polygon","coordinates":[[[2.585,46.705],[2.557,46.681],[2.539,46.682],[2.536,46.702],[2.568,46.715],[2.585,46.705]]]}},{"type":"Feature","properties":{"code":"18070","nom":"Concressault","pop":192},"geometry":{"type":"Polygon","coordinates":[[[2.547,47.497],[2.578,47.509],[2.59,47.482],[2.556,47.476],[2.547,47.497]]]}},{"type":"Feature","properties":{"code":"18071","nom":"Contres","pop":35},"geometry":{"type":"Polygon","coordinates":[[[2.488,46.885],[2.516,46.865],[2.53,46.84],[2.525,46.836],[2.499,46.836],[2.461,46.857],[2.488,46.885]]]}},{"type":"Feature","properties":{"code":"18072","nom":"Cornusse","pop":226},"geometry":{"type":"Polygon","coordinates":[[[2.709,46.973],[2.745,46.978],[2.77,46.967],[2.764,46.953],[2.754,46.937],[2.729,46.932],[2.689,46.955],[2.709,46.973]]]}},{"type":"Feature","properties":{"code":"18073","nom":"Corquoy","pop":198},"geometry":{"type":"Polygon","coordinates":[[[2.256,46.887],[2.254,46.899],[2.325,46.925],[2.348,46.936],[2.387,46.911],[2.379,46.899],[2.367,46.894],[2.335,46.895],[2.309,46.873],[2.295,46.863],[2.256,46.887]]]}},{"type":"Feature","properties":{"code":"18074","nom":"Couargues","pop":194},"geometry":{"type":"Polygon","coordinates":[[[2.974,47.27],[2.928,47.265],[2.891,47.294],[2.913,47.308],[2.923,47.301],[2.974,47.27]]]}},{"type":"Feature","properties":{"code":"18075","nom":"Cours-les-Barres","pop":1021},"geometry":{"type":"Polygon","coordinates":[[[3.019,47],[2.994,47.03],[3.038,47.033],[3.054,47.048],[3.064,47.046],[3.075,47.03],[3.074,47.012],[3.065,46.997],[3.045,47.01],[3.019,47]]]}},{"type":"Feature","properties":{"code":"18076","nom":"Coust","pop":415},"geometry":{"type":"Polygon","coordinates":[[[2.624,46.657],[2.571,46.659],[2.557,46.681],[2.585,46.705],[2.624,46.713],[2.628,46.69],[2.624,46.657]]]}},{"type":"Feature","properties":{"code":"18077","nom":"Couy","pop":369},"geometry":{"type":"Polygon","coordinates":[[[2.803,47.123],[2.843,47.125],[2.87,47.113],[2.85,47.093],[2.83,47.09],[2.789,47.107],[2.787,47.118],[2.803,47.123]]]}},{"type":"Feature","properties":{"code":"18078","nom":"Crézançay-sur-Cher","pop":61},"geometry":{"type":"Polygon","coordinates":[[[2.337,46.804],[2.316,46.823],[2.339,46.83],[2.367,46.807],[2.354,46.798],[2.337,46.804]]]}},{"type":"Feature","properties":{"code":"18079","nom":"Crézancy-en-Sancerre","pop":417},"geometry":{"type":"Polygon","coordinates":[[[2.713,47.301],[2.706,47.31],[2.736,47.323],[2.777,47.325],[2.785,47.297],[2.734,47.283],[2.713,47.301]]]}},{"type":"Feature","properties":{"code":"18080","nom":"Croisy","pop":143},"geometry":{"type":"Polygon","coordinates":[[[2.794,46.951],[2.827,46.948],[2.85,46.935],[2.838,46.906],[2.794,46.951]]]}},{"type":"Feature","properties":{"code":"18081","nom":"Crosses","pop":375},"geometry":{"type":"Polygon","coordinates":[[[2.522,47.014],[2.533,47.026],[2.565,47.034],[2.599,47.03],[2.614,47.015],[2.607,47],[2.586,46.984],[2.55,46.981],[2.531,46.989],[2.522,47.014]]]}},{"type":"Feature","properties":{"code":"18082","nom":"Cuffy","pop":1020},"geometry":{"type":"Polygon","coordinates":[[[3.079,46.96],[3.066,46.938],[3.007,46.938],[2.995,46.97],[3.006,46.984],[3.019,47],[3.045,47.01],[3.065,46.997],[3.079,46.96]]]}},{"type":"Feature","properties":{"code":"18083","nom":"Culan","pop":779},"geometry":{"type":"Polygon","coordinates":[[[2.384,46.518],[2.368,46.518],[2.338,46.539],[2.304,46.55],[2.311,46.566],[2.363,46.562],[2.402,46.559],[2.38,46.54],[2.384,46.518]]]}},{"type":"Feature","properties":{"code":"18084","nom":"Dampierre-en-Crot","pop":205},"geometry":{"type":"Polygon","coordinates":[[[2.562,47.423],[2.549,47.434],[2.542,47.47],[2.556,47.476],[2.59,47.482],[2.618,47.461],[2.606,47.452],[2.562,47.423]]]}},{"type":"Feature","properties":{"code":"18085","nom":"Dampierre-en-Graçay","pop":252},"geometry":{"type":"Polygon","coordinates":[[[1.958,47.192],[1.937,47.16],[1.93,47.165],[1.925,47.202],[1.958,47.192]]]}},{"type":"Feature","properties":{"code":"18086","nom":"Drevant","pop":555},"geometry":{"type":"Polygon","coordinates":[[[2.507,46.703],[2.503,46.706],[2.536,46.702],[2.539,46.682],[2.527,46.685],[2.507,46.703]]]}},{"type":"Feature","properties":{"code":"18087","nom":"Dun-sur-Auron","pop":3524},"geometry":{"type":"Polygon","coordinates":[[[2.516,46.865],[2.488,46.885],[2.492,46.901],[2.537,46.902],[2.542,46.921],[2.571,46.937],[2.609,46.937],[2.585,46.909],[2.593,46.887],[2.619,46.861],[2.609,46.838],[2.596,46.838],[2.577,46.861],[2.552,46.871],[2.516,46.865]]]}},{"type":"Feature","properties":{"code":"18088","nom":"Ennordres","pop":204},"geometry":{"type":"Polygon","coordinates":[[[2.347,47.46],[2.364,47.466],[2.406,47.463],[2.455,47.441],[2.48,47.417],[2.455,47.39],[2.42,47.38],[2.416,47.389],[2.367,47.4],[2.339,47.423],[2.347,47.46]]]}},{"type":"Feature","properties":{"code":"18089","nom":"Épineuil-le-Fleuriel","pop":436},"geometry":{"type":"Polygon","coordinates":[[[2.568,46.609],[2.569,46.609],[2.594,46.597],[2.608,46.573],[2.61,46.55],[2.575,46.538],[2.553,46.555],[2.52,46.559],[2.493,46.541],[2.488,46.568],[2.542,46.598],[2.568,46.609]]]}},{"type":"Feature","properties":{"code":"18090","nom":"Étréchy","pop":408},"geometry":{"type":"Polygon","coordinates":[[[2.779,47.182],[2.777,47.17],[2.756,47.14],[2.695,47.13],[2.686,47.14],[2.641,47.163],[2.661,47.174],[2.688,47.17],[2.738,47.175],[2.758,47.194],[2.779,47.182]]]}},{"type":"Feature","properties":{"code":"18091","nom":"Farges-Allichamps","pop":256},"geometry":{"type":"Polygon","coordinates":[[[2.389,46.741],[2.391,46.764],[2.419,46.779],[2.429,46.751],[2.389,46.741]]]}},{"type":"Feature","properties":{"code":"18092","nom":"Farges-en-Septaine","pop":1023},"geometry":{"type":"Polygon","coordinates":[[[2.626,47.095],[2.645,47.096],[2.684,47.076],[2.669,47.05],[2.657,47.043],[2.609,47.044],[2.607,47.068],[2.626,47.095]]]}},{"type":"Feature","properties":{"code":"18093","nom":"Faverdines","pop":135},"geometry":{"type":"Polygon","coordinates":[[[2.432,46.601],[2.437,46.648],[2.453,46.661],[2.486,46.666],[2.492,46.628],[2.468,46.628],[2.432,46.601]]]}},{"type":"Feature","properties":{"code":"18094","nom":"Feux","pop":317},"geometry":{"type":"Polygon","coordinates":[[[2.882,47.193],[2.859,47.203],[2.822,47.236],[2.827,47.241],[2.845,47.259],[2.868,47.249],[2.901,47.255],[2.895,47.196],[2.882,47.193]]]}},{"type":"Feature","properties":{"code":"18095","nom":"Flavigny","pop":150},"geometry":{"type":"Polygon","coordinates":[[[2.77,46.967],[2.776,46.977],[2.832,46.965],[2.827,46.948],[2.794,46.951],[2.764,46.953],[2.77,46.967]]]}},{"type":"Feature","properties":{"code":"18096","nom":"Foëcy","pop":2046},"geometry":{"type":"Polygon","coordinates":[[[2.16,47.157],[2.113,47.196],[2.124,47.206],[2.162,47.195],[2.182,47.176],[2.194,47.16],[2.178,47.153],[2.16,47.157]]]}},{"type":"Feature","properties":{"code":"18097","nom":"Fussy","pop":1891},"geometry":{"type":"Polygon","coordinates":[[[2.404,47.129],[2.419,47.163],[2.426,47.164],[2.448,47.143],[2.448,47.126],[2.404,47.129]]]}},{"type":"Feature","properties":{"code":"18098","nom":"Gardefort","pop":127},"geometry":{"type":"Polygon","coordinates":[[[2.827,47.241],[2.796,47.26],[2.803,47.268],[2.841,47.276],[2.845,47.259],[2.827,47.241]]]}},{"type":"Feature","properties":{"code":"18099","nom":"Garigny","pop":219},"geometry":{"type":"Polygon","coordinates":[[[2.896,47.066],[2.879,47.065],[2.848,47.079],[2.85,47.093],[2.87,47.113],[2.896,47.116],[2.9,47.113],[2.917,47.071],[2.896,47.066]]]}},{"type":"Feature","properties":{"code":"18100","nom":"Genouilly","pop":657},"geometry":{"type":"Polygon","coordinates":[[[1.842,47.178],[1.839,47.22],[1.872,47.205],[1.908,47.221],[1.925,47.202],[1.93,47.165],[1.894,47.16],[1.842,47.178]]]}},{"type":"Feature","properties":{"code":"18101","nom":"Germigny-l'Exempt","pop":293},"geometry":{"type":"Polygon","coordinates":[[[2.915,46.892],[2.909,46.889],[2.87,46.902],[2.823,46.882],[2.838,46.906],[2.85,46.935],[2.893,46.944],[2.918,46.934],[2.933,46.914],[2.915,46.892]]]}},{"type":"Feature","properties":{"code":"18102","nom":"Givardon","pop":300},"geometry":{"type":"Polygon","coordinates":[[[2.756,46.85],[2.785,46.863],[2.841,46.839],[2.847,46.809],[2.825,46.806],[2.764,46.836],[2.756,46.85]]]}},{"type":"Feature","properties":{"code":"18103","nom":"Graçay","pop":1234},"geometry":{"type":"Polygon","coordinates":[[[1.811,47.164],[1.814,47.167],[1.842,47.178],[1.894,47.16],[1.881,47.148],[1.888,47.105],[1.883,47.101],[1.847,47.111],[1.809,47.122],[1.845,47.145],[1.811,47.164]]]}},{"type":"Feature","properties":{"code":"18104","nom":"Groises","pop":129},"geometry":{"type":"Polygon","coordinates":[[[2.758,47.194],[2.758,47.195],[2.774,47.197],[2.822,47.236],[2.859,47.203],[2.791,47.194],[2.779,47.182],[2.758,47.194]]]}},{"type":"Feature","properties":{"code":"18105","nom":"Gron","pop":470},"geometry":{"type":"Polygon","coordinates":[[[2.712,47.101],[2.69,47.108],[2.695,47.13],[2.756,47.14],[2.762,47.119],[2.787,47.118],[2.789,47.107],[2.745,47.093],[2.712,47.101]]]}},{"type":"Feature","properties":{"code":"18106","nom":"Grossouvre","pop":264},"geometry":{"type":"Polygon","coordinates":[[[2.909,46.889],[2.915,46.892],[2.939,46.893],[2.978,46.868],[2.962,46.854],[2.909,46.86],[2.909,46.889]]]}},{"type":"Feature","properties":{"code":"18107","nom":"La Groutte","pop":115},"geometry":{"type":"Polygon","coordinates":[[[2.527,46.685],[2.514,46.676],[2.507,46.703],[2.527,46.685]]]}},{"type":"Feature","properties":{"code":"18108","nom":"La Guerche-sur-l'Aubois","pop":3151},"geometry":{"type":"Polygon","coordinates":[[[2.881,46.983],[2.903,46.993],[2.923,46.993],[2.961,46.971],[2.995,46.97],[3.007,46.938],[2.979,46.914],[2.933,46.914],[2.918,46.934],[2.893,46.944],[2.881,46.983]]]}},{"type":"Feature","properties":{"code":"18109","nom":"Henrichemont","pop":1721},"geometry":{"type":"Polygon","coordinates":[[[2.482,47.295],[2.538,47.325],[2.58,47.299],[2.593,47.291],[2.593,47.288],[2.552,47.278],[2.517,47.272],[2.482,47.294],[2.482,47.295]]]}},{"type":"Feature","properties":{"code":"18110","nom":"Herry","pop":958},"geometry":{"type":"Polygon","coordinates":[[[2.928,47.265],[2.974,47.27],[2.982,47.254],[2.978,47.236],[2.994,47.207],[2.955,47.187],[2.925,47.198],[2.9,47.194],[2.895,47.196],[2.901,47.255],[2.928,47.265]]]}},{"type":"Feature","properties":{"code":"18111","nom":"Humbligny","pop":175},"geometry":{"type":"Polygon","coordinates":[[[2.593,47.291],[2.601,47.298],[2.61,47.295],[2.7,47.262],[2.637,47.234],[2.628,47.229],[2.639,47.263],[2.593,47.288],[2.593,47.291]]]}},{"type":"Feature","properties":{"code":"18112","nom":"Ids-Saint-Roch","pop":295},"geometry":{"type":"Polygon","coordinates":[[[2.233,46.74],[2.286,46.753],[2.282,46.694],[2.25,46.677],[2.222,46.683],[2.234,46.703],[2.233,46.74]]]}},{"type":"Feature","properties":{"code":"18113","nom":"Ignol","pop":173},"geometry":{"type":"Polygon","coordinates":[[[2.881,46.983],[2.893,46.944],[2.85,46.935],[2.827,46.948],[2.832,46.965],[2.863,46.983],[2.881,46.983]]]}},{"type":"Feature","properties":{"code":"18114","nom":"Ineuil","pop":207},"geometry":{"type":"Polygon","coordinates":[[[2.31,46.792],[2.323,46.757],[2.286,46.753],[2.233,46.74],[2.224,46.751],[2.252,46.776],[2.277,46.802],[2.31,46.792]]]}},{"type":"Feature","properties":{"code":"18115","nom":"Ivoy-le-Pré","pop":771},"geometry":{"type":"Polygon","coordinates":[[[2.603,47.371],[2.564,47.353],[2.58,47.299],[2.538,47.325],[2.482,47.295],[2.444,47.306],[2.438,47.351],[2.439,47.363],[2.477,47.373],[2.455,47.39],[2.48,47.417],[2.549,47.396],[2.598,47.384],[2.603,47.371]]]}},{"type":"Feature","properties":{"code":"18116","nom":"Jalognes","pop":264},"geometry":{"type":"Polygon","coordinates":[[[2.758,47.195],[2.732,47.218],[2.736,47.235],[2.796,47.26],[2.827,47.241],[2.822,47.236],[2.774,47.197],[2.758,47.195]]]}},{"type":"Feature","properties":{"code":"18117","nom":"Jars","pop":481},"geometry":{"type":"Polygon","coordinates":[[[2.703,47.425],[2.717,47.423],[2.722,47.414],[2.732,47.373],[2.709,47.364],[2.666,47.381],[2.619,47.363],[2.603,47.371],[2.598,47.384],[2.62,47.405],[2.656,47.415],[2.687,47.407],[2.703,47.425]]]}},{"type":"Feature","properties":{"code":"18118","nom":"Jouet-sur-l'Aubois","pop":1303},"geometry":{"type":"Polygon","coordinates":[[[3.022,47.064],[3.054,47.048],[3.038,47.033],[2.994,47.03],[2.96,47.034],[2.978,47.061],[3.022,47.064]]]}},{"type":"Feature","properties":{"code":"18119","nom":"Jussy-Champagne","pop":205},"geometry":{"type":"Polygon","coordinates":[[[2.665,46.963],[2.63,46.958],[2.607,47],[2.614,47.015],[2.63,47.024],[2.664,47.011],[2.69,46.989],[2.665,46.963]]]}},{"type":"Feature","properties":{"code":"18120","nom":"Jussy-le-Chaudrier","pop":579},"geometry":{"type":"Polygon","coordinates":[[[2.968,47.124],[2.973,47.102],[2.969,47.081],[2.948,47.086],[2.926,47.118],[2.9,47.113],[2.896,47.116],[2.9,47.128],[2.921,47.147],[2.961,47.155],[2.968,47.124]]]}},{"type":"Feature","properties":{"code":"18121","nom":"Lantan","pop":96},"geometry":{"type":"Polygon","coordinates":[[[2.692,46.916],[2.686,46.883],[2.659,46.879],[2.634,46.928],[2.692,46.916]]]}},{"type":"Feature","properties":{"code":"18122","nom":"Lapan","pop":229},"geometry":{"type":"Polygon","coordinates":[[[2.309,46.942],[2.311,46.942],[2.325,46.925],[2.254,46.899],[2.251,46.901],[2.286,46.917],[2.309,46.942]]]}},{"type":"Feature","properties":{"code":"18124","nom":"Lazenay","pop":276},"geometry":{"type":"Polygon","coordinates":[[[2.077,47.108],[2.082,47.087],[2.131,47.056],[2.114,47.039],[2.089,47.045],[2.053,47.038],[2.031,47.042],[2.039,47.058],[2.055,47.072],[2.053,47.102],[2.057,47.115],[2.077,47.108]]]}},{"type":"Feature","properties":{"code":"18125","nom":"Léré","pop":1110},"geometry":{"type":"Polygon","coordinates":[[[2.897,47.485],[2.919,47.461],[2.854,47.451],[2.844,47.444],[2.824,47.462],[2.897,47.485]]]}},{"type":"Feature","properties":{"code":"18126","nom":"Levet","pop":1357},"geometry":{"type":"Polygon","coordinates":[[[2.433,46.921],[2.402,46.897],[2.379,46.899],[2.387,46.911],[2.348,46.936],[2.361,46.953],[2.412,46.958],[2.433,46.921]]]}},{"type":"Feature","properties":{"code":"18127","nom":"Lignières","pop":1310},"geometry":{"type":"Polygon","coordinates":[[[2.224,46.751],[2.18,46.73],[2.155,46.758],[2.189,46.766],[2.221,46.79],[2.252,46.776],[2.224,46.751]]]}},{"type":"Feature","properties":{"code":"18128","nom":"Limeux","pop":166},"geometry":{"type":"Polygon","coordinates":[[[2.156,47.074],[2.131,47.056],[2.082,47.087],[2.132,47.092],[2.156,47.074]]]}},{"type":"Feature","properties":{"code":"18129","nom":"Lissay-Lochy","pop":231},"geometry":{"type":"Polygon","coordinates":[[[2.394,46.999],[2.426,46.974],[2.412,46.958],[2.361,46.953],[2.355,46.991],[2.394,46.999]]]}},{"type":"Feature","properties":{"code":"18130","nom":"Loye-sur-Arnon","pop":305},"geometry":{"type":"Polygon","coordinates":[[[2.437,46.648],[2.432,46.601],[2.431,46.6],[2.423,46.593],[2.37,46.617],[2.37,46.617],[2.378,46.652],[2.371,46.674],[2.375,46.675],[2.392,46.673],[2.437,46.648]]]}},{"type":"Feature","properties":{"code":"18132","nom":"Lugny-Champagne","pop":142},"geometry":{"type":"Polygon","coordinates":[[[2.878,47.175],[2.841,47.149],[2.811,47.15],[2.777,47.17],[2.779,47.182],[2.791,47.194],[2.859,47.203],[2.882,47.193],[2.878,47.175]]]}},{"type":"Feature","properties":{"code":"18133","nom":"Lunery","pop":1486},"geometry":{"type":"Polygon","coordinates":[[[2.209,46.942],[2.23,46.963],[2.256,46.967],[2.28,46.969],[2.309,46.942],[2.286,46.917],[2.251,46.901],[2.231,46.912],[2.209,46.942]]]}},{"type":"Feature","properties":{"code":"18134","nom":"Lury-sur-Arnon","pop":648},"geometry":{"type":"Polygon","coordinates":[[[2.037,47.138],[2.041,47.153],[2.069,47.156],[2.095,47.136],[2.077,47.108],[2.057,47.115],[2.037,47.138]]]}},{"type":"Feature","properties":{"code":"18135","nom":"Maisonnais","pop":227},"geometry":{"type":"Polygon","coordinates":[[[2.248,46.63],[2.187,46.616],[2.189,46.642],[2.207,46.679],[2.222,46.683],[2.25,46.677],[2.271,46.654],[2.248,46.63]]]}},{"type":"Feature","properties":{"code":"18136","nom":"Marçais","pop":308},"geometry":{"type":"Polygon","coordinates":[[[2.362,46.744],[2.374,46.728],[2.388,46.689],[2.375,46.675],[2.371,46.674],[2.319,46.661],[2.315,46.689],[2.362,46.744]]]}},{"type":"Feature","properties":{"code":"18137","nom":"Mareuil-sur-Arnon","pop":487},"geometry":{"type":"Polygon","coordinates":[[[2.126,46.88],[2.155,46.912],[2.185,46.915],[2.195,46.888],[2.183,46.862],[2.157,46.838],[2.138,46.848],[2.126,46.88]]]}},{"type":"Feature","properties":{"code":"18138","nom":"Marmagne","pop":1963},"geometry":{"type":"Polygon","coordinates":[[[2.246,47.119],[2.319,47.094],[2.329,47.089],[2.324,47.074],[2.301,47.063],[2.258,47.057],[2.216,47.103],[2.246,47.119]]]}},{"type":"Feature","properties":{"code":"18139","nom":"Marseilles-lès-Aubigny","pop":645},"geometry":{"type":"Polygon","coordinates":[[[2.978,47.061],[2.957,47.069],[2.969,47.081],[3.023,47.08],[3.022,47.064],[2.978,47.061]]]}},{"type":"Feature","properties":{"code":"18140","nom":"Massay","pop":1345},"geometry":{"type":"Polygon","coordinates":[[[1.996,47.127],[1.947,47.117],[1.933,47.133],[1.937,47.16],[1.958,47.192],[1.967,47.196],[1.997,47.184],[2.031,47.189],[2.041,47.153],[2.037,47.138],[1.996,47.127]]]}},{"type":"Feature","properties":{"code":"18141","nom":"Mehun-sur-Yèvre","pop":6380},"geometry":{"type":"Polygon","coordinates":[[[2.246,47.119],[2.216,47.103],[2.196,47.115],[2.178,47.153],[2.194,47.16],[2.266,47.15],[2.274,47.134],[2.246,47.119]]]}},{"type":"Feature","properties":{"code":"18142","nom":"Meillant","pop":645},"geometry":{"type":"Polygon","coordinates":[[[2.541,46.835],[2.519,46.815],[2.546,46.754],[2.539,46.742],[2.481,46.742],[2.481,46.769],[2.466,46.795],[2.492,46.825],[2.525,46.836],[2.53,46.84],[2.541,46.835]]]}},{"type":"Feature","properties":{"code":"18143","nom":"Menetou-Couture","pop":343},"geometry":{"type":"Polygon","coordinates":[[[2.957,47.069],[2.978,47.061],[2.96,47.034],[2.958,47.001],[2.934,47.002],[2.933,47.02],[2.899,47.039],[2.896,47.066],[2.917,47.071],[2.957,47.069]]]}},{"type":"Feature","properties":{"code":"18144","nom":"Menetou-Râtel","pop":456},"geometry":{"type":"Polygon","coordinates":[[[2.709,47.364],[2.732,47.373],[2.756,47.373],[2.794,47.356],[2.787,47.341],[2.781,47.329],[2.777,47.325],[2.736,47.323],[2.717,47.336],[2.709,47.364]]]}},{"type":"Feature","properties":{"code":"18145","nom":"Menetou-Salon","pop":1626},"geometry":{"type":"Polygon","coordinates":[[[2.466,47.211],[2.453,47.259],[2.478,47.272],[2.482,47.294],[2.517,47.272],[2.522,47.199],[2.493,47.19],[2.466,47.211]]]}},{"type":"Feature","properties":{"code":"18146","nom":"Ménétréol-sous-Sancerre","pop":292},"geometry":{"type":"Polygon","coordinates":[[[2.874,47.329],[2.899,47.313],[2.845,47.311],[2.863,47.331],[2.874,47.329]]]}},{"type":"Feature","properties":{"code":"18147","nom":"Ménétréol-sur-Sauldre","pop":202},"geometry":{"type":"Polygon","coordinates":[[[2.244,47.415],[2.248,47.441],[2.237,47.471],[2.248,47.492],[2.347,47.46],[2.339,47.423],[2.244,47.415]]]}},{"type":"Feature","properties":{"code":"18148","nom":"Méreau","pop":2632},"geometry":{"type":"Polygon","coordinates":[[[2.031,47.189],[2.028,47.206],[2.06,47.205],[2.078,47.184],[2.069,47.156],[2.041,47.153],[2.031,47.189]]]}},{"type":"Feature","properties":{"code":"18149","nom":"Méry-ès-Bois","pop":533},"geometry":{"type":"Polygon","coordinates":[[[2.371,47.247],[2.367,47.248],[2.318,47.277],[2.327,47.292],[2.323,47.357],[2.366,47.35],[2.408,47.365],[2.438,47.351],[2.444,47.306],[2.44,47.279],[2.399,47.28],[2.371,47.247]]]}},{"type":"Feature","properties":{"code":"18150","nom":"Méry-sur-Cher","pop":690},"geometry":{"type":"Polygon","coordinates":[[[1.976,47.276],[2.025,47.265],[2.025,47.244],[2.003,47.222],[1.987,47.221],[1.961,47.242],[1.976,47.276]]]}},{"type":"Feature","properties":{"code":"18151","nom":"Montigny","pop":316},"geometry":{"type":"Polygon","coordinates":[[[2.672,47.199],[2.655,47.208],[2.637,47.234],[2.7,47.262],[2.704,47.263],[2.736,47.235],[2.732,47.218],[2.672,47.199]]]}},{"type":"Feature","properties":{"code":"18152","nom":"Montlouis","pop":111},"geometry":{"type":"Polygon","coordinates":[[[2.276,46.812],[2.277,46.802],[2.252,46.776],[2.221,46.79],[2.214,46.811],[2.249,46.839],[2.276,46.812]]]}},{"type":"Feature","properties":{"code":"18153","nom":"Morlac","pop":269},"geometry":{"type":"Polygon","coordinates":[[[2.282,46.694],[2.286,46.753],[2.323,46.757],[2.359,46.755],[2.362,46.744],[2.315,46.689],[2.282,46.694]]]}},{"type":"Feature","properties":{"code":"18154","nom":"Mornay-Berry","pop":177},"geometry":{"type":"Polygon","coordinates":[[[2.848,47.079],[2.879,47.065],[2.877,47.03],[2.843,47.058],[2.844,47.071],[2.848,47.079]]]}},{"type":"Feature","properties":{"code":"18155","nom":"Mornay-sur-Allier","pop":413},"geometry":{"type":"Polygon","coordinates":[[[3.055,46.839],[3.058,46.832],[3.039,46.81],[3.032,46.795],[2.96,46.804],[2.978,46.832],[3.01,46.828],[3.055,46.839]]]}},{"type":"Feature","properties":{"code":"18156","nom":"Morogues","pop":424},"geometry":{"type":"Polygon","coordinates":[[[2.571,47.238],[2.552,47.278],[2.593,47.288],[2.639,47.263],[2.628,47.229],[2.622,47.222],[2.571,47.238]]]}},{"type":"Feature","properties":{"code":"18157","nom":"Morthomiers","pop":845},"geometry":{"type":"Polygon","coordinates":[[[2.25,47.058],[2.258,47.057],[2.301,47.063],[2.298,47.035],[2.268,47.021],[2.263,47.018],[2.24,47.047],[2.25,47.058]]]}},{"type":"Feature","properties":{"code":"18158","nom":"Moulins-sur-Yèvre","pop":850},"geometry":{"type":"Polygon","coordinates":[[[2.53,47.122],[2.549,47.107],[2.556,47.069],[2.495,47.087],[2.502,47.105],[2.53,47.122]]]}},{"type":"Feature","properties":{"code":"18159","nom":"Nançay","pop":748},"geometry":{"type":"Polygon","coordinates":[[[2.119,47.334],[2.097,47.367],[2.115,47.422],[2.137,47.406],[2.189,47.438],[2.205,47.405],[2.23,47.408],[2.233,47.389],[2.257,47.375],[2.229,47.362],[2.245,47.331],[2.232,47.317],[2.192,47.32],[2.184,47.306],[2.157,47.3],[2.119,47.334]]]}},{"type":"Feature","properties":{"code":"18160","nom":"Nérondes","pop":1403},"geometry":{"type":"Polygon","coordinates":[[[2.903,46.993],[2.881,46.983],[2.863,46.983],[2.785,46.989],[2.778,47.016],[2.811,47.023],[2.855,47.029],[2.878,47.018],[2.903,46.993]]]}},{"type":"Feature","properties":{"code":"18161","nom":"Neuilly-en-Dun","pop":228},"geometry":{"type":"Polygon","coordinates":[[[2.825,46.806],[2.817,46.78],[2.791,46.768],[2.754,46.784],[2.754,46.817],[2.743,46.832],[2.764,46.836],[2.825,46.806]]]}},{"type":"Feature","properties":{"code":"18162","nom":"Neuilly-en-Sancerre","pop":244},"geometry":{"type":"Polygon","coordinates":[[[2.706,47.31],[2.713,47.301],[2.683,47.283],[2.61,47.295],[2.601,47.298],[2.643,47.331],[2.706,47.31]]]}},{"type":"Feature","properties":{"code":"18163","nom":"Neuvy-Deux-Clochers","pop":247},"geometry":{"type":"Polygon","coordinates":[[[2.713,47.301],[2.734,47.283],[2.704,47.263],[2.7,47.262],[2.61,47.295],[2.683,47.283],[2.713,47.301]]]}},{"type":"Feature","properties":{"code":"18164","nom":"Neuvy-le-Barrois","pop":147},"geometry":{"type":"Polygon","coordinates":[[[3.061,46.897],[3.063,46.89],[3.069,46.853],[3.055,46.839],[3.01,46.828],[2.978,46.832],[2.962,46.854],[2.978,46.868],[2.985,46.885],[3.061,46.897]]]}},{"type":"Feature","properties":{"code":"18165","nom":"Neuvy-sur-Barangeon","pop":1126},"geometry":{"type":"Polygon","coordinates":[[[2.318,47.277],[2.288,47.278],[2.247,47.285],[2.184,47.306],[2.192,47.32],[2.232,47.317],[2.245,47.331],[2.229,47.362],[2.257,47.375],[2.273,47.361],[2.323,47.357],[2.327,47.292],[2.318,47.277]]]}},{"type":"Feature","properties":{"code":"18166","nom":"Nohant-en-Goût","pop":548},"geometry":{"type":"Polygon","coordinates":[[[2.549,47.107],[2.576,47.119],[2.626,47.095],[2.607,47.068],[2.557,47.063],[2.556,47.069],[2.549,47.107]]]}},{"type":"Feature","properties":{"code":"18167","nom":"Nohant-en-Graçay","pop":289},"geometry":{"type":"Polygon","coordinates":[[[1.938,47.111],[1.888,47.105],[1.881,47.148],[1.894,47.16],[1.93,47.165],[1.937,47.16],[1.933,47.133],[1.947,47.117],[1.938,47.111]]]}},{"type":"Feature","properties":{"code":"18168","nom":"Le Noyer","pop":246},"geometry":{"type":"Polygon","coordinates":[[[2.631,47.347],[2.619,47.363],[2.666,47.381],[2.709,47.364],[2.688,47.349],[2.631,47.347]]]}},{"type":"Feature","properties":{"code":"18169","nom":"Nozières","pop":235},"geometry":{"type":"Polygon","coordinates":[[[2.466,46.739],[2.445,46.722],[2.384,46.727],[2.389,46.741],[2.429,46.751],[2.466,46.739]]]}},{"type":"Feature","properties":{"code":"18170","nom":"Oizon","pop":664},"geometry":{"type":"Polygon","coordinates":[[[2.455,47.441],[2.475,47.476],[2.47,47.511],[2.547,47.497],[2.556,47.476],[2.542,47.47],[2.549,47.434],[2.562,47.423],[2.549,47.396],[2.48,47.417],[2.455,47.441]]]}},{"type":"Feature","properties":{"code":"18171","nom":"Orcenais","pop":239},"geometry":{"type":"Polygon","coordinates":[[[2.446,46.701],[2.388,46.689],[2.374,46.728],[2.384,46.727],[2.445,46.722],[2.458,46.707],[2.446,46.701]]]}},{"type":"Feature","properties":{"code":"18172","nom":"Orval","pop":1619},"geometry":{"type":"Polygon","coordinates":[[[2.445,46.722],[2.466,46.739],[2.489,46.732],[2.485,46.712],[2.458,46.707],[2.445,46.722]]]}},{"type":"Feature","properties":{"code":"18173","nom":"Osmery","pop":264},"geometry":{"type":"Polygon","coordinates":[[[2.63,46.958],[2.665,46.963],[2.689,46.955],[2.729,46.932],[2.696,46.919],[2.692,46.916],[2.634,46.928],[2.618,46.942],[2.63,46.958]]]}},{"type":"Feature","properties":{"code":"18174","nom":"Osmoy","pop":291},"geometry":{"type":"Polygon","coordinates":[[[2.516,47.036],[2.461,47.058],[2.469,47.089],[2.495,47.087],[2.556,47.069],[2.557,47.063],[2.516,47.036]]]}},{"type":"Feature","properties":{"code":"18175","nom":"Ourouer-les-Bourdelins","pop":603},"geometry":{"type":"Polygon","coordinates":[[[2.823,46.882],[2.82,46.882],[2.808,46.901],[2.749,46.918],[2.754,46.937],[2.764,46.953],[2.794,46.951],[2.838,46.906],[2.823,46.882]]]}},{"type":"Feature","properties":{"code":"18176","nom":"Parassy","pop":415},"geometry":{"type":"Polygon","coordinates":[[[2.531,47.197],[2.522,47.199],[2.517,47.272],[2.552,47.278],[2.571,47.238],[2.555,47.217],[2.531,47.197]]]}},{"type":"Feature","properties":{"code":"18177","nom":"Parnay","pop":49},"geometry":{"type":"Polygon","coordinates":[[[2.541,46.835],[2.53,46.84],[2.516,46.865],[2.552,46.871],[2.577,46.861],[2.596,46.838],[2.581,46.831],[2.541,46.835]]]}},{"type":"Feature","properties":{"code":"18178","nom":"La Perche","pop":205},"geometry":{"type":"Polygon","coordinates":[[[2.567,46.652],[2.593,46.647],[2.589,46.617],[2.569,46.609],[2.568,46.609],[2.563,46.626],[2.567,46.652]]]}},{"type":"Feature","properties":{"code":"18179","nom":"Pigny","pop":966},"geometry":{"type":"Polygon","coordinates":[[[2.464,47.155],[2.448,47.143],[2.426,47.164],[2.45,47.185],[2.464,47.155]]]}},{"type":"Feature","properties":{"code":"18180","nom":"Plaimpied-Givaudins","pop":2101},"geometry":{"type":"Polygon","coordinates":[[[2.471,46.975],[2.426,46.974],[2.394,46.999],[2.39,47.039],[2.407,47.049],[2.449,47.026],[2.5,47.008],[2.471,46.975]]]}},{"type":"Feature","properties":{"code":"18181","nom":"Plou","pop":527},"geometry":{"type":"Polygon","coordinates":[[[2.156,47.074],[2.166,47.07],[2.19,47.042],[2.191,47.023],[2.157,47.003],[2.109,46.997],[2.097,47.012],[2.114,47.039],[2.131,47.056],[2.156,47.074]]]}},{"type":"Feature","properties":{"code":"18182","nom":"Poisieux","pop":216},"geometry":{"type":"Polygon","coordinates":[[[2.097,47.012],[2.083,47.019],[2.053,47.038],[2.089,47.045],[2.114,47.039],[2.097,47.012]]]}},{"type":"Feature","properties":{"code":"18183","nom":"Le Pondy","pop":147},"geometry":{"type":"Polygon","coordinates":[[[2.621,46.805],[2.631,46.818],[2.662,46.795],[2.627,46.784],[2.621,46.805]]]}},{"type":"Feature","properties":{"code":"18184","nom":"Précy","pop":353},"geometry":{"type":"Polygon","coordinates":[[[2.917,47.071],[2.9,47.113],[2.926,47.118],[2.948,47.086],[2.969,47.081],[2.957,47.069],[2.917,47.071]]]}},{"type":"Feature","properties":{"code":"18185","nom":"Presly","pop":207},"geometry":{"type":"Polygon","coordinates":[[[2.23,47.408],[2.244,47.415],[2.339,47.423],[2.367,47.4],[2.416,47.389],[2.42,47.38],[2.408,47.365],[2.366,47.35],[2.323,47.357],[2.273,47.361],[2.257,47.375],[2.233,47.389],[2.23,47.408]]]}},{"type":"Feature","properties":{"code":"18186","nom":"Preuilly","pop":477},"geometry":{"type":"Polygon","coordinates":[[[2.166,47.07],[2.156,47.074],[2.132,47.092],[2.14,47.1],[2.175,47.112],[2.195,47.084],[2.166,47.07]]]}},{"type":"Feature","properties":{"code":"18187","nom":"Préveranges","pop":520},"geometry":{"type":"Polygon","coordinates":[[[2.254,46.426],[2.198,46.428],[2.213,46.442],[2.213,46.474],[2.252,46.474],[2.279,46.492],[2.305,46.475],[2.283,46.449],[2.281,46.42],[2.254,46.426]]]}},{"type":"Feature","properties":{"code":"18188","nom":"Primelles","pop":191},"geometry":{"type":"Polygon","coordinates":[[[2.256,46.887],[2.244,46.874],[2.195,46.888],[2.185,46.915],[2.159,46.939],[2.209,46.942],[2.231,46.912],[2.251,46.901],[2.254,46.899],[2.256,46.887]]]}},{"type":"Feature","properties":{"code":"18189","nom":"Quantilly","pop":490},"geometry":{"type":"Polygon","coordinates":[[[2.425,47.218],[2.442,47.24],[2.438,47.264],[2.453,47.259],[2.466,47.211],[2.445,47.198],[2.425,47.203],[2.425,47.218]]]}},{"type":"Feature","properties":{"code":"18190","nom":"Quincy","pop":818},"geometry":{"type":"Polygon","coordinates":[[[2.175,47.112],[2.14,47.1],[2.117,47.12],[2.122,47.143],[2.16,47.157],[2.178,47.153],[2.196,47.115],[2.175,47.112]]]}},{"type":"Feature","properties":{"code":"18191","nom":"Raymond","pop":172},"geometry":{"type":"Polygon","coordinates":[[[2.665,46.963],[2.69,46.989],[2.709,46.973],[2.689,46.955],[2.665,46.963]]]}},{"type":"Feature","properties":{"code":"18192","nom":"Reigny","pop":234},"geometry":{"type":"Polygon","coordinates":[[[2.37,46.617],[2.37,46.617],[2.363,46.562],[2.311,46.566],[2.312,46.603],[2.328,46.617],[2.37,46.617]]]}},{"type":"Feature","properties":{"code":"18193","nom":"Rezay","pop":204},"geometry":{"type":"Polygon","coordinates":[[[2.152,46.659],[2.136,46.674],[2.155,46.692],[2.18,46.7],[2.207,46.679],[2.189,46.642],[2.152,46.659]]]}},{"type":"Feature","properties":{"code":"18194","nom":"Rians","pop":950},"geometry":{"type":"Polygon","coordinates":[[[2.655,47.208],[2.672,47.199],[2.661,47.174],[2.641,47.163],[2.591,47.156],[2.569,47.174],[2.594,47.206],[2.623,47.217],[2.655,47.208]]]}},{"type":"Feature","properties":{"code":"18195","nom":"Sagonne","pop":190},"geometry":{"type":"Polygon","coordinates":[[[2.785,46.863],[2.788,46.874],[2.817,46.881],[2.867,46.872],[2.862,46.846],[2.841,46.839],[2.785,46.863]]]}},{"type":"Feature","properties":{"code":"18196","nom":"Saint-Aignan-des-Noyers","pop":77},"geometry":{"type":"Polygon","coordinates":[[[2.845,46.742],[2.845,46.727],[2.828,46.735],[2.791,46.768],[2.817,46.78],[2.845,46.742]]]}},{"type":"Feature","properties":{"code":"18197","nom":"Saint-Amand-Montrond","pop":9899},"geometry":{"type":"Polygon","coordinates":[[[2.491,46.71],[2.485,46.712],[2.489,46.732],[2.466,46.739],[2.472,46.742],[2.481,46.742],[2.539,46.742],[2.557,46.745],[2.568,46.715],[2.536,46.702],[2.503,46.706],[2.491,46.71]]]}},{"type":"Feature","properties":{"code":"18198","nom":"Saint-Ambroix","pop":374},"geometry":{"type":"Polygon","coordinates":[[[2.07,46.954],[2.081,46.956],[2.137,46.958],[2.159,46.939],[2.185,46.915],[2.155,46.912],[2.11,46.913],[2.071,46.934],[2.07,46.954]]]}},{"type":"Feature","properties":{"code":"18199","nom":"Saint-Baudel","pop":250},"geometry":{"type":"Polygon","coordinates":[[[2.154,46.818],[2.157,46.838],[2.183,46.862],[2.195,46.888],[2.244,46.874],[2.244,46.843],[2.211,46.824],[2.19,46.831],[2.154,46.818]]]}},{"type":"Feature","properties":{"code":"18200","nom":"Saint-Bouize","pop":253},"geometry":{"type":"Polygon","coordinates":[[[2.928,47.265],[2.901,47.255],[2.868,47.249],[2.864,47.284],[2.891,47.294],[2.928,47.265]]]}},{"type":"Feature","properties":{"code":"18201","nom":"Saint-Caprais","pop":747},"geometry":{"type":"Polygon","coordinates":[[[2.311,46.942],[2.309,46.942],[2.28,46.969],[2.256,46.967],[2.293,46.989],[2.32,46.992],[2.33,46.981],[2.311,46.942]]]}},{"type":"Feature","properties":{"code":"18202","nom":"Saint-Céols","pop":16},"geometry":{"type":"Polygon","coordinates":[[[2.655,47.208],[2.623,47.217],[2.622,47.222],[2.628,47.229],[2.637,47.234],[2.655,47.208]]]}},{"type":"Feature","properties":{"code":"18203","nom":"Saint-Christophe-le-Chaudry","pop":95},"geometry":{"type":"Polygon","coordinates":[[[2.37,46.617],[2.423,46.593],[2.402,46.559],[2.363,46.562],[2.37,46.617]]]}},{"type":"Feature","properties":{"code":"18204","nom":"Saint-Denis-de-Palin","pop":274},"geometry":{"type":"Polygon","coordinates":[[[2.557,46.95],[2.571,46.937],[2.542,46.921],[2.537,46.902],[2.492,46.901],[2.472,46.913],[2.509,46.934],[2.486,46.963],[2.523,46.978],[2.538,46.944],[2.557,46.95]]]}},{"type":"Feature","properties":{"code":"18205","nom":"Saint-Doulchard","pop":9647},"geometry":{"type":"Polygon","coordinates":[[[2.329,47.089],[2.319,47.094],[2.332,47.138],[2.38,47.134],[2.386,47.125],[2.393,47.097],[2.348,47.085],[2.329,47.089]]]}},{"type":"Feature","properties":{"code":"18206","nom":"Saint-Éloy-de-Gy","pop":1581},"geometry":{"type":"Polygon","coordinates":[[[2.275,47.168],[2.296,47.192],[2.341,47.202],[2.359,47.189],[2.363,47.156],[2.38,47.134],[2.332,47.138],[2.322,47.153],[2.275,47.168]]]}},{"type":"Feature","properties":{"code":"18207","nom":"Saint-Florent-sur-Cher","pop":6463},"geometry":{"type":"Polygon","coordinates":[[[2.293,46.989],[2.256,46.967],[2.23,46.963],[2.211,46.997],[2.263,47.018],[2.268,47.021],[2.293,46.989]]]}},{"type":"Feature","properties":{"code":"18208","nom":"Sainte-Gemme-en-Sancerrois","pop":400},"geometry":{"type":"Polygon","coordinates":[[[2.786,47.403],[2.833,47.423],[2.853,47.401],[2.838,47.39],[2.812,47.382],[2.782,47.39],[2.786,47.403]]]}},{"type":"Feature","properties":{"code":"18209","nom":"Saint-Georges-de-Poisieux","pop":430},"geometry":{"type":"Polygon","coordinates":[[[2.503,46.706],[2.507,46.703],[2.514,46.676],[2.511,46.669],[2.486,46.666],[2.453,46.661],[2.456,46.696],[2.491,46.71],[2.503,46.706]]]}},{"type":"Feature","properties":{"code":"18210","nom":"Saint-Georges-sur-la-Prée","pop":591},"geometry":{"type":"Polygon","coordinates":[[[1.908,47.221],[1.909,47.244],[1.961,47.242],[1.987,47.221],[1.967,47.196],[1.958,47.192],[1.925,47.202],[1.908,47.221]]]}},{"type":"Feature","properties":{"code":"18211","nom":"Saint-Georges-sur-Moulon","pop":728},"geometry":{"type":"Polygon","coordinates":[[[2.419,47.163],[2.383,47.189],[2.425,47.203],[2.445,47.198],[2.45,47.185],[2.426,47.164],[2.419,47.163]]]}},{"type":"Feature","properties":{"code":"18212","nom":"Saint-Germain-des-Bois","pop":587},"geometry":{"type":"Polygon","coordinates":[[[2.433,46.921],[2.448,46.922],[2.472,46.913],[2.492,46.901],[2.488,46.885],[2.461,46.857],[2.435,46.855],[2.432,46.893],[2.405,46.895],[2.402,46.897],[2.433,46.921]]]}},{"type":"Feature","properties":{"code":"18213","nom":"Saint-Germain-du-Puy","pop":4779},"geometry":{"type":"Polygon","coordinates":[[[2.454,47.122],[2.482,47.135],[2.504,47.129],[2.53,47.122],[2.502,47.105],[2.495,47.087],[2.469,47.089],[2.443,47.087],[2.433,47.109],[2.454,47.122]]]}},{"type":"Feature","properties":{"code":"18214","nom":"Saint-Hilaire-de-Court","pop":594},"geometry":{"type":"Polygon","coordinates":[[[2.003,47.222],[2.028,47.206],[2.031,47.189],[1.997,47.184],[1.967,47.196],[1.987,47.221],[2.003,47.222]]]}},{"type":"Feature","properties":{"code":"18215","nom":"Saint-Hilaire-de-Gondilly","pop":134},"geometry":{"type":"Polygon","coordinates":[[[2.878,47.018],[2.877,47.03],[2.879,47.065],[2.896,47.066],[2.899,47.039],[2.933,47.02],[2.934,47.002],[2.923,46.993],[2.903,46.993],[2.878,47.018]]]}},{"type":"Feature","properties":{"code":"18216","nom":"Saint-Hilaire-en-Lignières","pop":504},"geometry":{"type":"Polygon","coordinates":[[[2.087,46.712],[2.091,46.728],[2.066,46.743],[2.115,46.774],[2.104,46.794],[2.137,46.798],[2.155,46.758],[2.18,46.73],[2.18,46.7],[2.155,46.692],[2.118,46.71],[2.087,46.712]]]}},{"type":"Feature","properties":{"code":"18217","nom":"Saint-Jeanvrin","pop":169},"geometry":{"type":"Polygon","coordinates":[[[2.253,46.629],[2.274,46.602],[2.254,46.572],[2.206,46.584],[2.216,46.607],[2.253,46.629]]]}},{"type":"Feature","properties":{"code":"18218","nom":"Saint-Just","pop":656},"geometry":{"type":"Polygon","coordinates":[[[2.523,46.978],[2.486,46.963],[2.475,46.97],[2.471,46.975],[2.5,47.008],[2.522,47.014],[2.531,46.989],[2.523,46.978]]]}},{"type":"Feature","properties":{"code":"18219","nom":"Saint-Laurent","pop":511},"geometry":{"type":"Polygon","coordinates":[[[2.256,47.213],[2.256,47.211],[2.193,47.209],[2.185,47.23],[2.145,47.245],[2.113,47.258],[2.114,47.279],[2.133,47.281],[2.166,47.272],[2.198,47.246],[2.233,47.234],[2.257,47.238],[2.256,47.213]]]}},{"type":"Feature","properties":{"code":"18220","nom":"Saint-Léger-le-Petit","pop":362},"geometry":{"type":"Polygon","coordinates":[[[2.973,47.102],[2.968,47.124],[3.025,47.131],[3.028,47.128],[3.03,47.108],[2.973,47.102]]]}},{"type":"Feature","properties":{"code":"18221","nom":"Saint-Loup-des-Chaumes","pop":279},"geometry":{"type":"Polygon","coordinates":[[[2.408,46.81],[2.383,46.804],[2.367,46.807],[2.339,46.83],[2.337,46.837],[2.359,46.846],[2.419,46.843],[2.408,46.81]]]}},{"type":"Feature","properties":{"code":"18223","nom":"Saint-Martin-d'Auxigny","pop":2546},"geometry":{"type":"Polygon","coordinates":[[[2.367,47.248],[2.371,47.247],[2.401,47.217],[2.425,47.218],[2.425,47.203],[2.383,47.189],[2.359,47.189],[2.341,47.202],[2.367,47.248]]]}},{"type":"Feature","properties":{"code":"18224","nom":"Saint-Martin-des-Champs","pop":307},"geometry":{"type":"Polygon","coordinates":[[[2.921,47.147],[2.9,47.194],[2.925,47.198],[2.955,47.187],[2.964,47.156],[2.961,47.155],[2.921,47.147]]]}},{"type":"Feature","properties":{"code":"18225","nom":"Saint-Maur","pop":253},"geometry":{"type":"Polygon","coordinates":[[[2.274,46.602],[2.312,46.603],[2.311,46.566],[2.304,46.55],[2.287,46.532],[2.25,46.544],[2.254,46.572],[2.274,46.602]]]}},{"type":"Feature","properties":{"code":"18226","nom":"Saint-Michel-de-Volangis","pop":474},"geometry":{"type":"Polygon","coordinates":[[[2.464,47.155],[2.491,47.169],[2.515,47.157],[2.504,47.129],[2.482,47.135],[2.454,47.122],[2.448,47.126],[2.448,47.143],[2.464,47.155]]]}},{"type":"Feature","properties":{"code":"18227","nom":"Sainte-Montaine","pop":166},"geometry":{"type":"Polygon","coordinates":[[[2.248,47.492],[2.235,47.497],[2.243,47.515],[2.297,47.527],[2.342,47.521],[2.381,47.531],[2.395,47.546],[2.415,47.531],[2.372,47.515],[2.358,47.496],[2.364,47.466],[2.347,47.46],[2.248,47.492]]]}},{"type":"Feature","properties":{"code":"18228","nom":"Saint-Outrille","pop":214},"geometry":{"type":"Polygon","coordinates":[[[1.811,47.164],[1.845,47.145],[1.809,47.122],[1.781,47.129],[1.774,47.131],[1.811,47.164]]]}},{"type":"Feature","properties":{"code":"18229","nom":"Saint-Palais","pop":610},"geometry":{"type":"Polygon","coordinates":[[[2.425,47.218],[2.401,47.217],[2.371,47.247],[2.399,47.28],[2.44,47.279],[2.438,47.264],[2.442,47.24],[2.425,47.218]]]}},{"type":"Feature","properties":{"code":"18230","nom":"Saint-Pierre-les-Bois","pop":261},"geometry":{"type":"Polygon","coordinates":[[[2.315,46.689],[2.319,46.661],[2.319,46.66],[2.271,46.654],[2.25,46.677],[2.282,46.694],[2.315,46.689]]]}},{"type":"Feature","properties":{"code":"18231","nom":"Saint-Pierre-les-Étieux","pop":729},"geometry":{"type":"Polygon","coordinates":[[[2.568,46.715],[2.557,46.745],[2.61,46.772],[2.624,46.713],[2.585,46.705],[2.568,46.715]]]}},{"type":"Feature","properties":{"code":"18232","nom":"Saint-Priest-la-Marche","pop":237},"geometry":{"type":"Polygon","coordinates":[[[2.198,46.428],[2.185,46.423],[2.168,46.424],[2.152,46.458],[2.2,46.481],[2.213,46.474],[2.213,46.442],[2.198,46.428]]]}},{"type":"Feature","properties":{"code":"18233","nom":"Saint-Satur","pop":1408},"geometry":{"type":"Polygon","coordinates":[[[2.874,47.329],[2.863,47.331],[2.832,47.348],[2.832,47.352],[2.837,47.369],[2.854,47.353],[2.88,47.355],[2.874,47.329]]]}},{"type":"Feature","properties":{"code":"18234","nom":"Saint-Saturnin","pop":446},"geometry":{"type":"Polygon","coordinates":[[[2.2,46.481],[2.195,46.506],[2.193,46.516],[2.25,46.544],[2.287,46.532],[2.279,46.492],[2.252,46.474],[2.213,46.474],[2.2,46.481]]]}},{"type":"Feature","properties":{"code":"18235","nom":"Sainte-Solange","pop":1111},"geometry":{"type":"Polygon","coordinates":[[[2.515,47.157],[2.542,47.178],[2.569,47.174],[2.591,47.156],[2.6,47.141],[2.576,47.119],[2.549,47.107],[2.53,47.122],[2.504,47.129],[2.515,47.157]]]}},{"type":"Feature","properties":{"code":"18236","nom":"Saint-Symphorien","pop":133},"geometry":{"type":"Polygon","coordinates":[[[2.277,46.802],[2.276,46.812],[2.316,46.823],[2.337,46.804],[2.31,46.792],[2.277,46.802]]]}},{"type":"Feature","properties":{"code":"18237","nom":"Sainte-Thorette","pop":473},"geometry":{"type":"Polygon","coordinates":[[[2.258,47.057],[2.25,47.058],[2.21,47.055],[2.19,47.042],[2.166,47.07],[2.195,47.084],[2.175,47.112],[2.196,47.115],[2.216,47.103],[2.258,47.057]]]}},{"type":"Feature","properties":{"code":"18238","nom":"Saint-Vitte","pop":117},"geometry":{"type":"Polygon","coordinates":[[[2.483,46.533],[2.493,46.541],[2.52,46.559],[2.553,46.555],[2.575,46.538],[2.537,46.52],[2.52,46.531],[2.483,46.533]]]}},{"type":"Feature","properties":{"code":"18240","nom":"Sancergues","pop":620},"geometry":{"type":"Polygon","coordinates":[[[2.9,47.194],[2.921,47.147],[2.9,47.128],[2.878,47.175],[2.882,47.193],[2.895,47.196],[2.9,47.194]]]}},{"type":"Feature","properties":{"code":"18241","nom":"Sancerre","pop":1269},"geometry":{"type":"Polygon","coordinates":[[[2.845,47.311],[2.844,47.305],[2.809,47.309],[2.781,47.329],[2.787,47.341],[2.832,47.348],[2.863,47.331],[2.845,47.311]]]}},{"type":"Feature","properties":{"code":"18242","nom":"Sancoins","pop":2951},"geometry":{"type":"Polygon","coordinates":[[[2.96,46.804],[2.94,46.793],[2.899,46.776],[2.89,46.815],[2.847,46.809],[2.841,46.839],[2.862,46.846],[2.896,46.84],[2.909,46.86],[2.962,46.854],[2.978,46.832],[2.96,46.804]]]}},{"type":"Feature","properties":{"code":"18243","nom":"Santranges","pop":440},"geometry":{"type":"Polygon","coordinates":[[[2.732,47.538],[2.767,47.525],[2.806,47.494],[2.789,47.478],[2.788,47.478],[2.752,47.476],[2.727,47.499],[2.727,47.536],[2.732,47.538]]]}},{"type":"Feature","properties":{"code":"18244","nom":"Saugy","pop":77},"geometry":{"type":"Polygon","coordinates":[[[2.084,46.959],[2.095,46.981],[2.14,46.978],[2.137,46.958],[2.081,46.956],[2.084,46.959]]]}},{"type":"Feature","properties":{"code":"18245","nom":"Saulzais-le-Potier","pop":472},"geometry":{"type":"Polygon","coordinates":[[[2.488,46.568],[2.473,46.585],[2.431,46.6],[2.432,46.601],[2.468,46.628],[2.492,46.628],[2.527,46.62],[2.542,46.598],[2.488,46.568]]]}},{"type":"Feature","properties":{"code":"18246","nom":"Savigny-en-Sancerre","pop":1088},"geometry":{"type":"Polygon","coordinates":[[[2.833,47.423],[2.786,47.403],[2.773,47.417],[2.775,47.447],[2.75,47.454],[2.752,47.476],[2.788,47.478],[2.824,47.462],[2.844,47.444],[2.833,47.423]]]}},{"type":"Feature","properties":{"code":"18247","nom":"Savigny-en-Septaine","pop":685},"geometry":{"type":"Polygon","coordinates":[[[2.533,47.026],[2.516,47.036],[2.557,47.063],[2.607,47.068],[2.609,47.044],[2.599,47.03],[2.565,47.034],[2.533,47.026]]]}},{"type":"Feature","properties":{"code":"18248","nom":"Senneçay","pop":443},"geometry":{"type":"Polygon","coordinates":[[[2.448,46.922],[2.433,46.921],[2.412,46.958],[2.426,46.974],[2.471,46.975],[2.475,46.97],[2.454,46.956],[2.448,46.922]]]}},{"type":"Feature","properties":{"code":"18249","nom":"Sens-Beaujeu","pop":403},"geometry":{"type":"Polygon","coordinates":[[[2.643,47.331],[2.631,47.347],[2.688,47.349],[2.709,47.364],[2.717,47.336],[2.736,47.323],[2.706,47.31],[2.643,47.331]]]}},{"type":"Feature","properties":{"code":"18250","nom":"Serruelles","pop":66},"geometry":{"type":"Polygon","coordinates":[[[2.379,46.899],[2.402,46.897],[2.405,46.895],[2.393,46.868],[2.372,46.866],[2.367,46.894],[2.379,46.899]]]}},{"type":"Feature","properties":{"code":"18251","nom":"Sévry","pop":65},"geometry":{"type":"Polygon","coordinates":[[[2.803,47.123],[2.811,47.15],[2.841,47.149],[2.843,47.125],[2.803,47.123]]]}},{"type":"Feature","properties":{"code":"18252","nom":"Sidiailles","pop":294},"geometry":{"type":"Polygon","coordinates":[[[2.317,46.469],[2.305,46.475],[2.279,46.492],[2.287,46.532],[2.304,46.55],[2.338,46.539],[2.368,46.518],[2.324,46.489],[2.33,46.482],[2.317,46.469]]]}},{"type":"Feature","properties":{"code":"18253","nom":"Soulangis","pop":454},"geometry":{"type":"Polygon","coordinates":[[[2.542,47.178],[2.515,47.157],[2.491,47.169],[2.493,47.19],[2.522,47.199],[2.531,47.197],[2.542,47.178]]]}},{"type":"Feature","properties":{"code":"18254","nom":"Soye-en-Septaine","pop":582},"geometry":{"type":"Polygon","coordinates":[[[2.533,47.026],[2.522,47.014],[2.5,47.008],[2.449,47.026],[2.461,47.058],[2.516,47.036],[2.533,47.026]]]}},{"type":"Feature","properties":{"code":"18255","nom":"Le Subdray","pop":967},"geometry":{"type":"Polygon","coordinates":[[[2.333,47.003],[2.32,46.992],[2.293,46.989],[2.268,47.021],[2.298,47.035],[2.329,47.051],[2.34,47.03],[2.333,47.003]]]}},{"type":"Feature","properties":{"code":"18256","nom":"Subligny","pop":337},"geometry":{"type":"Polygon","coordinates":[[[2.786,47.403],[2.782,47.39],[2.756,47.373],[2.732,47.373],[2.722,47.414],[2.773,47.417],[2.786,47.403]]]}},{"type":"Feature","properties":{"code":"18257","nom":"Sury-près-Léré","pop":649},"geometry":{"type":"Polygon","coordinates":[[[2.789,47.478],[2.89,47.508],[2.892,47.499],[2.897,47.485],[2.824,47.462],[2.788,47.478],[2.789,47.478]]]}},{"type":"Feature","properties":{"code":"18258","nom":"Sury-en-Vaux","pop":680},"geometry":{"type":"Polygon","coordinates":[[[2.794,47.356],[2.756,47.373],[2.782,47.39],[2.812,47.382],[2.838,47.39],[2.837,47.369],[2.832,47.352],[2.794,47.356]]]}},{"type":"Feature","properties":{"code":"18259","nom":"Sury-ès-Bois","pop":311},"geometry":{"type":"Polygon","coordinates":[[[2.717,47.423],[2.703,47.425],[2.671,47.438],[2.687,47.483],[2.727,47.499],[2.752,47.476],[2.75,47.454],[2.717,47.423]]]}},{"type":"Feature","properties":{"code":"18260","nom":"Tendron","pop":86},"geometry":{"type":"Polygon","coordinates":[[[2.785,46.989],[2.863,46.983],[2.832,46.965],[2.776,46.977],[2.785,46.989]]]}},{"type":"Feature","properties":{"code":"18261","nom":"Thaumiers","pop":387},"geometry":{"type":"Polygon","coordinates":[[[2.614,46.831],[2.681,46.849],[2.701,46.846],[2.71,46.831],[2.696,46.797],[2.678,46.789],[2.662,46.795],[2.631,46.818],[2.614,46.831]]]}},{"type":"Feature","properties":{"code":"18262","nom":"Thauvenay","pop":313},"geometry":{"type":"Polygon","coordinates":[[[2.844,47.305],[2.845,47.311],[2.899,47.313],[2.913,47.308],[2.891,47.294],[2.864,47.284],[2.844,47.305]]]}},{"type":"Feature","properties":{"code":"18263","nom":"Thénioux","pop":667},"geometry":{"type":"Polygon","coordinates":[[[1.909,47.244],[1.895,47.255],[1.941,47.29],[1.976,47.276],[1.961,47.242],[1.909,47.244]]]}},{"type":"Feature","properties":{"code":"18264","nom":"Thou","pop":77},"geometry":{"type":"Polygon","coordinates":[[[2.656,47.415],[2.638,47.429],[2.671,47.438],[2.703,47.425],[2.687,47.407],[2.656,47.415]]]}},{"type":"Feature","properties":{"code":"18265","nom":"Torteron","pop":785},"geometry":{"type":"Polygon","coordinates":[[[2.994,47.03],[3.019,47],[3.006,46.984],[2.958,47.001],[2.96,47.034],[2.994,47.03]]]}},{"type":"Feature","properties":{"code":"18266","nom":"Touchay","pop":220},"geometry":{"type":"Polygon","coordinates":[[[2.18,46.73],[2.224,46.751],[2.233,46.74],[2.234,46.703],[2.222,46.683],[2.207,46.679],[2.18,46.7],[2.18,46.73]]]}},{"type":"Feature","properties":{"code":"18267","nom":"Trouy","pop":4055},"geometry":{"type":"Polygon","coordinates":[[[2.333,47.003],[2.34,47.03],[2.39,47.039],[2.394,46.999],[2.355,46.991],[2.333,47.003]]]}},{"type":"Feature","properties":{"code":"18268","nom":"Uzay-le-Venon","pop":414},"geometry":{"type":"Polygon","coordinates":[[[2.461,46.857],[2.499,46.836],[2.525,46.836],[2.492,46.825],[2.466,46.795],[2.443,46.79],[2.408,46.81],[2.419,46.843],[2.435,46.855],[2.461,46.857]]]}},{"type":"Feature","properties":{"code":"18269","nom":"Vailly-sur-Sauldre","pop":649},"geometry":{"type":"Polygon","coordinates":[[[2.669,47.485],[2.687,47.483],[2.671,47.438],[2.638,47.429],[2.606,47.452],[2.618,47.461],[2.669,47.485]]]}},{"type":"Feature","properties":{"code":"18270","nom":"Vallenay","pop":687},"geometry":{"type":"Polygon","coordinates":[[[2.374,46.728],[2.362,46.744],[2.359,46.755],[2.347,46.766],[2.354,46.798],[2.367,46.807],[2.383,46.804],[2.419,46.779],[2.391,46.764],[2.389,46.741],[2.384,46.727],[2.374,46.728]]]}},{"type":"Feature","properties":{"code":"18271","nom":"Vasselay","pop":1579},"geometry":{"type":"Polygon","coordinates":[[[2.383,47.189],[2.419,47.163],[2.404,47.129],[2.386,47.125],[2.38,47.134],[2.363,47.156],[2.359,47.189],[2.383,47.189]]]}},{"type":"Feature","properties":{"code":"18272","nom":"Veaugues","pop":593},"geometry":{"type":"Polygon","coordinates":[[[2.736,47.235],[2.704,47.263],[2.734,47.283],[2.785,47.297],[2.796,47.287],[2.803,47.268],[2.796,47.26],[2.736,47.235]]]}},{"type":"Feature","properties":{"code":"18273","nom":"Venesmes","pop":782},"geometry":{"type":"Polygon","coordinates":[[[2.249,46.839],[2.244,46.843],[2.244,46.874],[2.256,46.887],[2.295,46.863],[2.309,46.873],[2.314,46.842],[2.337,46.837],[2.339,46.83],[2.316,46.823],[2.276,46.812],[2.249,46.839]]]}},{"type":"Feature","properties":{"code":"18274","nom":"Verdigny","pop":313},"geometry":{"type":"Polygon","coordinates":[[[2.787,47.341],[2.794,47.356],[2.832,47.352],[2.832,47.348],[2.787,47.341]]]}},{"type":"Feature","properties":{"code":"18275","nom":"Vereaux","pop":143},"geometry":{"type":"Polygon","coordinates":[[[2.817,46.881],[2.82,46.882],[2.823,46.882],[2.87,46.902],[2.909,46.889],[2.909,46.86],[2.896,46.84],[2.862,46.846],[2.867,46.872],[2.817,46.881]]]}},{"type":"Feature","properties":{"code":"18276","nom":"Vernais","pop":179},"geometry":{"type":"Polygon","coordinates":[[[2.735,46.746],[2.705,46.739],[2.677,46.754],[2.678,46.789],[2.696,46.797],[2.749,46.774],[2.735,46.746]]]}},{"type":"Feature","properties":{"code":"18277","nom":"Verneuil","pop":34},"geometry":{"type":"Polygon","coordinates":[[[2.631,46.818],[2.621,46.805],[2.597,46.805],[2.581,46.831],[2.596,46.838],[2.609,46.838],[2.614,46.831],[2.631,46.818]]]}},{"type":"Feature","properties":{"code":"18278","nom":"Vesdun","pop":540},"geometry":{"type":"Polygon","coordinates":[[[2.493,46.541],[2.483,46.533],[2.384,46.518],[2.38,46.54],[2.402,46.559],[2.423,46.593],[2.431,46.6],[2.473,46.585],[2.488,46.568],[2.493,46.541]]]}},{"type":"Feature","properties":{"code":"18279","nom":"Vierzon","pop":25068},"geometry":{"type":"Polygon","coordinates":[[[2.028,47.206],[2.003,47.222],[2.025,47.244],[2.025,47.265],[2.078,47.286],[2.094,47.285],[2.114,47.279],[2.113,47.258],[2.145,47.245],[2.154,47.224],[2.124,47.206],[2.113,47.196],[2.078,47.184],[2.06,47.205],[2.028,47.206]]]}},{"type":"Feature","properties":{"code":"18280","nom":"Vignoux-sous-les-Aix","pop":708},"geometry":{"type":"Polygon","coordinates":[[[2.491,47.169],[2.464,47.155],[2.45,47.185],[2.445,47.198],[2.466,47.211],[2.493,47.19],[2.491,47.169]]]}},{"type":"Feature","properties":{"code":"18281","nom":"Vignoux-sur-Barangeon","pop":2026},"geometry":{"type":"Polygon","coordinates":[[[2.124,47.206],[2.154,47.224],[2.145,47.245],[2.185,47.23],[2.193,47.209],[2.256,47.211],[2.215,47.187],[2.182,47.176],[2.162,47.195],[2.124,47.206]]]}},{"type":"Feature","properties":{"code":"18282","nom":"Villabon","pop":559},"geometry":{"type":"Polygon","coordinates":[[[2.645,47.096],[2.686,47.14],[2.695,47.13],[2.69,47.108],[2.712,47.101],[2.684,47.076],[2.645,47.096]]]}},{"type":"Feature","properties":{"code":"18283","nom":"Villecelin","pop":83},"geometry":{"type":"Polygon","coordinates":[[[2.244,46.843],[2.249,46.839],[2.214,46.811],[2.188,46.817],[2.15,46.807],[2.154,46.818],[2.19,46.831],[2.211,46.824],[2.244,46.843]]]}},{"type":"Feature","properties":{"code":"18284","nom":"Villegenon","pop":217},"geometry":{"type":"Polygon","coordinates":[[[2.598,47.384],[2.549,47.396],[2.562,47.423],[2.606,47.452],[2.638,47.429],[2.656,47.415],[2.62,47.405],[2.598,47.384]]]}},{"type":"Feature","properties":{"code":"18285","nom":"Villeneuve-sur-Cher","pop":402},"geometry":{"type":"Polygon","coordinates":[[[2.19,47.042],[2.21,47.055],[2.25,47.058],[2.24,47.047],[2.263,47.018],[2.211,46.997],[2.191,47.023],[2.19,47.042]]]}},{"type":"Feature","properties":{"code":"18286","nom":"Villequiers","pop":437},"geometry":{"type":"Polygon","coordinates":[[[2.848,47.079],[2.844,47.071],[2.795,47.057],[2.755,47.055],[2.745,47.093],[2.789,47.107],[2.83,47.09],[2.85,47.093],[2.848,47.079]]]}},{"type":"Feature","properties":{"code":"18287","nom":"Vinon","pop":302},"geometry":{"type":"Polygon","coordinates":[[[2.803,47.268],[2.796,47.287],[2.809,47.309],[2.844,47.305],[2.864,47.284],[2.868,47.249],[2.845,47.259],[2.841,47.276],[2.803,47.268]]]}},{"type":"Feature","properties":{"code":"18288","nom":"Vorly","pop":247},"geometry":{"type":"Polygon","coordinates":[[[2.472,46.913],[2.448,46.922],[2.454,46.956],[2.475,46.97],[2.486,46.963],[2.509,46.934],[2.472,46.913]]]}},{"type":"Feature","properties":{"code":"18289","nom":"Vornay","pop":584},"geometry":{"type":"Polygon","coordinates":[[[2.571,46.937],[2.557,46.95],[2.571,46.963],[2.55,46.981],[2.586,46.984],[2.607,47],[2.63,46.958],[2.618,46.942],[2.609,46.937],[2.571,46.937]]]}},{"type":"Feature","properties":{"code":"18290","nom":"Vouzeron","pop":578},"geometry":{"type":"Polygon","coordinates":[[[2.133,47.281],[2.157,47.3],[2.184,47.306],[2.247,47.285],[2.288,47.278],[2.283,47.255],[2.257,47.238],[2.233,47.234],[2.198,47.246],[2.166,47.272],[2.133,47.281]]]}}]}