{"type":"FeatureCollection","features":[{"type":"Feature","properties":{"code":"28001","nom":"Abondant","pop":2434},"geometry":{"type":"Polygon","coordinates":[[[1.37,48.801],[1.368,48.803],[1.366,48.805],[1.419,48.831],[1.428,48.822],[1.447,48.819],[1.44,48.803],[1.476,48.78],[1.468,48.77],[1.42,48.765],[1.401,48.772],[1.37,48.801]]]}},{"type":"Feature","properties":{"code":"28003","nom":"Allainville","pop":159},"geometry":{"type":"Polygon","coordinates":[[[1.27,48.712],[1.265,48.718],[1.275,48.721],[1.299,48.732],[1.313,48.734],[1.316,48.719],[1.299,48.711],[1.27,48.712]]]}},{"type":"Feature","properties":{"code":"28004","nom":"Allonnes","pop":321},"geometry":{"type":"Polygon","coordinates":[[[1.635,48.32],[1.63,48.343],[1.67,48.344],[1.679,48.314],[1.635,48.32]]]}},{"type":"Feature","properties":{"code":"28005","nom":"Alluyes","pop":756},"geometry":{"type":"Polygon","coordinates":[[[1.411,48.252],[1.385,48.225],[1.378,48.202],[1.363,48.198],[1.329,48.215],[1.322,48.225],[1.348,48.254],[1.377,48.244],[1.411,48.252]]]}},{"type":"Feature","properties":{"code":"28006","nom":"Amilly","pop":1855},"geometry":{"type":"Polygon","coordinates":[[[1.391,48.468],[1.417,48.469],[1.435,48.444],[1.431,48.426],[1.4,48.414],[1.376,48.434],[1.381,48.455],[1.391,48.468]]]}},{"type":"Feature","properties":{"code":"28007","nom":"Anet","pop":2721},"geometry":{"type":"Polygon","coordinates":[[[1.444,48.833],[1.442,48.83],[1.424,48.843],[1.424,48.861],[1.45,48.87],[1.458,48.872],[1.457,48.856],[1.444,48.833]]]}},{"type":"Feature","properties":{"code":"28008","nom":"Ardelles","pop":211},"geometry":{"type":"Polygon","coordinates":[[[1.152,48.558],[1.185,48.561],[1.2,48.55],[1.198,48.528],[1.168,48.533],[1.152,48.558]]]}},{"type":"Feature","properties":{"code":"28009","nom":"Ardelu","pop":72},"geometry":{"type":"Polygon","coordinates":[[[1.918,48.343],[1.901,48.345],[1.906,48.366],[1.918,48.343]]]}},{"type":"Feature","properties":{"code":"28010","nom":"Argenvilliers","pop":310},"geometry":{"type":"Polygon","coordinates":[[[1.012,48.272],[0.953,48.259],[0.934,48.264],[0.936,48.287],[0.996,48.288],[1.014,48.272],[1.012,48.272]]]}},{"type":"Feature","properties":{"code":"28012","nom":"Vald'Yerre","pop":3609},"geometry":{"type":"Polygon","coordinates":[[[1.167,48.026],[1.144,48.029],[1.12,48.04],[1.116,48.053],[1.106,48.082],[1.071,48.076],[1.034,48.086],[1.009,48.083],[1.004,48.106],[1.046,48.118],[1.03,48.133],[1.05,48.142],[1.078,48.154],[1.112,48.146],[1.138,48.154],[1.192,48.15],[1.211,48.153],[1.23,48.127],[1.231,48.112],[1.199,48.098],[1.183,48.075],[1.229,48.059],[1.235,48.046],[1.167,48.026]]]}},{"type":"Feature","properties":{"code":"28013","nom":"Aunay-sous-Auneau","pop":1484},"geometry":{"type":"Polygon","coordinates":[[[1.811,48.466],[1.839,48.458],[1.861,48.444],[1.828,48.423],[1.776,48.423],[1.775,48.43],[1.782,48.447],[1.811,48.466]]]}},{"type":"Feature","properties":{"code":"28014","nom":"Aunay-sous-Crécy","pop":646},"geometry":{"type":"Polygon","coordinates":[[[1.33,48.652],[1.294,48.641],[1.282,48.658],[1.306,48.676],[1.33,48.652]]]}},{"type":"Feature","properties":{"code":"28015","nom":"Auneau-Bleury-Saint-Symphorien","pop":6419},"geometry":{"type":"Polygon","coordinates":[[[1.797,48.485],[1.811,48.466],[1.782,48.447],[1.739,48.459],[1.739,48.46],[1.739,48.48],[1.767,48.486],[1.756,48.505],[1.726,48.501],[1.723,48.502],[1.718,48.519],[1.719,48.53],[1.755,48.528],[1.778,48.553],[1.788,48.554],[1.776,48.528],[1.797,48.485]]]}},{"type":"Feature","properties":{"code":"28016","nom":"Les Autels-Villevillon","pop":106},"geometry":{"type":"Polygon","coordinates":[[[0.982,48.189],[1.009,48.188],[1.019,48.164],[1.015,48.163],[0.959,48.166],[0.982,48.189]]]}},{"type":"Feature","properties":{"code":"28018","nom":"Authon-du-Perche","pop":1480},"geometry":{"type":"Polygon","coordinates":[[[0.849,48.21],[0.878,48.222],[0.922,48.213],[0.94,48.212],[0.906,48.202],[0.916,48.174],[0.936,48.167],[0.911,48.147],[0.86,48.168],[0.836,48.168],[0.857,48.188],[0.849,48.21]]]}},{"type":"Feature","properties":{"code":"28019","nom":"Baigneaux","pop":232},"geometry":{"type":"Polygon","coordinates":[[[1.847,48.146],[1.853,48.133],[1.851,48.121],[1.808,48.11],[1.788,48.126],[1.794,48.138],[1.847,48.146]]]}},{"type":"Feature","properties":{"code":"28021","nom":"Bailleau-le-Pin","pop":1684},"geometry":{"type":"Polygon","coordinates":[[[1.365,48.372],[1.361,48.366],[1.326,48.343],[1.329,48.332],[1.323,48.329],[1.301,48.334],[1.295,48.365],[1.327,48.38],[1.35,48.384],[1.365,48.372]]]}},{"type":"Feature","properties":{"code":"28022","nom":"Bailleau-l'Évêque","pop":1175},"geometry":{"type":"Polygon","coordinates":[[[1.428,48.505],[1.444,48.491],[1.443,48.483],[1.417,48.469],[1.391,48.468],[1.349,48.491],[1.35,48.494],[1.371,48.507],[1.4,48.505],[1.428,48.505]]]}},{"type":"Feature","properties":{"code":"28023","nom":"Bailleau-Armenonville","pop":1299},"geometry":{"type":"Polygon","coordinates":[[[1.634,48.511],[1.614,48.521],[1.591,48.53],[1.616,48.533],[1.638,48.552],[1.674,48.548],[1.655,48.537],[1.69,48.52],[1.679,48.51],[1.634,48.511]]]}},{"type":"Feature","properties":{"code":"28024","nom":"Barjouville","pop":1742},"geometry":{"type":"Polygon","coordinates":[[[1.467,48.4],[1.456,48.401],[1.454,48.413],[1.483,48.416],[1.486,48.395],[1.467,48.4]]]}},{"type":"Feature","properties":{"code":"28025","nom":"Barmainville","pop":0},"geometry":{"type":"Polygon","coordinates":[[[1.981,48.262],[1.962,48.246],[1.932,48.258],[1.947,48.269],[1.981,48.262]]]}},{"type":"Feature","properties":{"code":"28026","nom":"Baudreville","pop":247},"geometry":{"type":"Polygon","coordinates":[[[1.901,48.345],[1.918,48.343],[1.923,48.322],[1.903,48.324],[1.882,48.303],[1.862,48.31],[1.859,48.321],[1.861,48.332],[1.901,48.345]]]}},{"type":"Feature","properties":{"code":"28027","nom":"La Bazoche-Gouet","pop":1234},"geometry":{"type":"Polygon","coordinates":[[[0.944,48.113],[0.917,48.139],[0.909,48.144],[0.911,48.147],[0.936,48.167],[0.959,48.166],[1.015,48.163],[1.05,48.142],[1.03,48.133],[0.995,48.127],[0.945,48.098],[0.944,48.113]]]}},{"type":"Feature","properties":{"code":"28028","nom":"Bazoches-en-Dunois","pop":263},"geometry":{"type":"Polygon","coordinates":[[[1.608,48.108],[1.602,48.091],[1.567,48.066],[1.543,48.069],[1.555,48.088],[1.539,48.101],[1.57,48.121],[1.608,48.108]]]}},{"type":"Feature","properties":{"code":"28029","nom":"Bazoches-les-Hautes","pop":330},"geometry":{"type":"Polygon","coordinates":[[[1.863,48.174],[1.847,48.146],[1.794,48.138],[1.789,48.185],[1.803,48.172],[1.863,48.174]]]}},{"type":"Feature","properties":{"code":"28030","nom":"Beauche","pop":279},"geometry":{"type":"Polygon","coordinates":[[[0.97,48.654],[0.947,48.672],[0.951,48.682],[1.012,48.692],[1.016,48.676],[0.991,48.658],[0.97,48.654]]]}},{"type":"Feature","properties":{"code":"28031","nom":"Beaumont-les-Autels","pop":438},"geometry":{"type":"Polygon","coordinates":[[[0.934,48.264],[0.953,48.259],[1.012,48.272],[0.983,48.257],[0.972,48.226],[0.991,48.222],[0.944,48.213],[0.94,48.212],[0.922,48.213],[0.916,48.242],[0.934,48.264]]]}},{"type":"Feature","properties":{"code":"28032","nom":"Beauvilliers","pop":340},"geometry":{"type":"Polygon","coordinates":[[[1.71,48.297],[1.676,48.281],[1.602,48.302],[1.635,48.32],[1.679,48.314],[1.71,48.297],[1.71,48.297]]]}},{"type":"Feature","properties":{"code":"28033","nom":"Belhomert-Guéhouville","pop":810},"geometry":{"type":"Polygon","coordinates":[[[1.026,48.517],[1.066,48.524],[1.081,48.515],[1.039,48.48],[1.027,48.49],[1.025,48.494],[1.026,48.517]]]}},{"type":"Feature","properties":{"code":"28034","nom":"Berchères-Saint-Germain","pop":905},"geometry":{"type":"Polygon","coordinates":[[[1.516,48.523],[1.516,48.513],[1.492,48.51],[1.456,48.524],[1.439,48.514],[1.404,48.526],[1.398,48.528],[1.413,48.543],[1.44,48.543],[1.454,48.56],[1.474,48.565],[1.501,48.55],[1.516,48.523]]]}},{"type":"Feature","properties":{"code":"28035","nom":"Berchères-les-Pierres","pop":1000},"geometry":{"type":"Polygon","coordinates":[[[1.529,48.355],[1.524,48.382],[1.529,48.39],[1.548,48.405],[1.591,48.377],[1.588,48.359],[1.548,48.347],[1.529,48.355]]]}},{"type":"Feature","properties":{"code":"28036","nom":"Berchères-sur-Vesgre","pop":862},"geometry":{"type":"Polygon","coordinates":[[[1.572,48.864],[1.577,48.845],[1.527,48.821],[1.518,48.825],[1.521,48.829],[1.559,48.864],[1.572,48.864]]]}},{"type":"Feature","properties":{"code":"28037","nom":"Bérou-la-Mulotière","pop":345},"geometry":{"type":"Polygon","coordinates":[[[1.037,48.73],[1.063,48.759],[1.088,48.757],[1.114,48.746],[1.111,48.74],[1.103,48.732],[1.05,48.728],[1.042,48.727],[1.037,48.73]]]}},{"type":"Feature","properties":{"code":"28038","nom":"Béthonvilliers","pop":132},"geometry":{"type":"Polygon","coordinates":[[[0.889,48.25],[0.916,48.242],[0.922,48.213],[0.878,48.222],[0.889,48.25]]]}},{"type":"Feature","properties":{"code":"28039","nom":"Béville-le-Comte","pop":1705},"geometry":{"type":"Polygon","coordinates":[[[1.696,48.422],[1.666,48.426],[1.668,48.45],[1.678,48.459],[1.739,48.46],[1.739,48.459],[1.735,48.438],[1.725,48.418],[1.696,48.422]]]}},{"type":"Feature","properties":{"code":"28040","nom":"Billancelles","pop":310},"geometry":{"type":"Polygon","coordinates":[[[1.21,48.521],[1.232,48.513],[1.233,48.469],[1.193,48.477],[1.196,48.502],[1.21,48.521]]]}},{"type":"Feature","properties":{"code":"28041","nom":"Blandainville","pop":283},"geometry":{"type":"Polygon","coordinates":[[[1.29,48.289],[1.28,48.289],[1.266,48.325],[1.301,48.334],[1.323,48.329],[1.308,48.3],[1.29,48.289]]]}},{"type":"Feature","properties":{"code":"28045","nom":"Boissy-en-Drouais","pop":226},"geometry":{"type":"Polygon","coordinates":[[[1.265,48.718],[1.246,48.721],[1.228,48.733],[1.268,48.737],[1.275,48.721],[1.265,48.718]]]}},{"type":"Feature","properties":{"code":"28046","nom":"Boissy-lès-Perche","pop":497},"geometry":{"type":"Polygon","coordinates":[[[0.85,48.683],[0.877,48.716],[0.921,48.709],[0.951,48.682],[0.947,48.672],[0.915,48.642],[0.899,48.644],[0.871,48.669],[0.85,48.683]]]}},{"type":"Feature","properties":{"code":"28047","nom":"Boisville-la-Saint-Père","pop":719},"geometry":{"type":"Polygon","coordinates":[[[1.688,48.37],[1.717,48.359],[1.721,48.358],[1.719,48.328],[1.736,48.321],[1.71,48.297],[1.679,48.314],[1.67,48.344],[1.688,48.37]]]}},{"type":"Feature","properties":{"code":"28048","nom":"La Bourdinière-Saint-Loup","pop":741},"geometry":{"type":"Polygon","coordinates":[[[1.451,48.293],[1.418,48.296],[1.391,48.322],[1.412,48.343],[1.442,48.344],[1.46,48.322],[1.461,48.296],[1.451,48.293]]]}},{"type":"Feature","properties":{"code":"28049","nom":"Boncé","pop":212},"geometry":{"type":"Polygon","coordinates":[[[1.553,48.302],[1.512,48.291],[1.509,48.291],[1.49,48.319],[1.551,48.313],[1.553,48.302]]]}},{"type":"Feature","properties":{"code":"28050","nom":"Boncourt","pop":274},"geometry":{"type":"Polygon","coordinates":[[[1.457,48.856],[1.485,48.852],[1.444,48.833],[1.457,48.856]]]}},{"type":"Feature","properties":{"code":"28051","nom":"Bonneval","pop":4868},"geometry":{"type":"Polygon","coordinates":[[[1.383,48.143],[1.38,48.145],[1.367,48.15],[1.348,48.166],[1.335,48.19],[1.363,48.198],[1.378,48.202],[1.415,48.214],[1.435,48.199],[1.416,48.176],[1.383,48.143]]]}},{"type":"Feature","properties":{"code":"28052","nom":"Bouglainval","pop":743},"geometry":{"type":"Polygon","coordinates":[[[1.53,48.578],[1.539,48.567],[1.544,48.563],[1.521,48.533],[1.516,48.523],[1.501,48.55],[1.474,48.565],[1.479,48.577],[1.53,48.578]]]}},{"type":"Feature","properties":{"code":"28053","nom":"Le Boullay-les-Deux-Églises","pop":242},"geometry":{"type":"Polygon","coordinates":[[[1.343,48.653],[1.348,48.641],[1.362,48.628],[1.319,48.612],[1.29,48.633],[1.29,48.633],[1.294,48.641],[1.33,48.652],[1.343,48.653]]]}},{"type":"Feature","properties":{"code":"28054","nom":"Le Boullay-Mivoye","pop":526},"geometry":{"type":"Polygon","coordinates":[[[1.41,48.636],[1.388,48.634],[1.38,48.652],[1.406,48.678],[1.418,48.676],[1.437,48.664],[1.41,48.636]]]}},{"type":"Feature","properties":{"code":"28055","nom":"Le Boullay-Thierry","pop":594},"geometry":{"type":"Polygon","coordinates":[[[1.45,48.617],[1.421,48.607],[1.41,48.636],[1.437,48.664],[1.463,48.641],[1.45,48.617]]]}},{"type":"Feature","properties":{"code":"28056","nom":"Boutigny-Prouais","pop":1704},"geometry":{"type":"Polygon","coordinates":[[[1.623,48.74],[1.621,48.736],[1.59,48.713],[1.555,48.703],[1.534,48.704],[1.508,48.726],[1.518,48.734],[1.544,48.737],[1.555,48.756],[1.583,48.768],[1.585,48.763],[1.625,48.749],[1.623,48.74]]]}},{"type":"Feature","properties":{"code":"28057","nom":"Bouville","pop":530},"geometry":{"type":"Polygon","coordinates":[[[1.366,48.278],[1.387,48.275],[1.423,48.256],[1.411,48.252],[1.377,48.244],[1.348,48.254],[1.352,48.282],[1.366,48.278]]]}},{"type":"Feature","properties":{"code":"28058","nom":"Bréchamps","pop":362},"geometry":{"type":"Polygon","coordinates":[[[1.519,48.655],[1.508,48.678],[1.517,48.686],[1.537,48.68],[1.525,48.655],[1.519,48.655]]]}},{"type":"Feature","properties":{"code":"28059","nom":"Brezolles","pop":1785},"geometry":{"type":"Polygon","coordinates":[[[1.025,48.677],[1.071,48.711],[1.1,48.693],[1.051,48.669],[1.025,48.677]]]}},{"type":"Feature","properties":{"code":"28060","nom":"Briconville","pop":271},"geometry":{"type":"Polygon","coordinates":[[[1.398,48.528],[1.404,48.526],[1.4,48.505],[1.371,48.507],[1.374,48.519],[1.375,48.527],[1.398,48.528]]]}},{"type":"Feature","properties":{"code":"28061","nom":"Brou","pop":3230},"geometry":{"type":"Polygon","coordinates":[[[1.138,48.237],[1.137,48.245],[1.184,48.234],[1.182,48.204],[1.151,48.189],[1.126,48.205],[1.138,48.237]]]}},{"type":"Feature","properties":{"code":"28062","nom":"Broué","pop":837},"geometry":{"type":"Polygon","coordinates":[[[1.501,48.739],[1.496,48.759],[1.507,48.766],[1.526,48.772],[1.555,48.756],[1.544,48.737],[1.518,48.734],[1.501,48.739]]]}},{"type":"Feature","properties":{"code":"28064","nom":"Bû","pop":2077},"geometry":{"type":"Polygon","coordinates":[[[1.447,48.819],[1.485,48.809],[1.518,48.825],[1.527,48.821],[1.537,48.797],[1.512,48.782],[1.501,48.778],[1.476,48.78],[1.44,48.803],[1.447,48.819]]]}},{"type":"Feature","properties":{"code":"28065","nom":"Bullainville","pop":115},"geometry":{"type":"Polygon","coordinates":[[[1.483,48.168],[1.499,48.186],[1.531,48.168],[1.529,48.165],[1.49,48.158],[1.483,48.168]]]}},{"type":"Feature","properties":{"code":"28067","nom":"Cernay","pop":80},"geometry":{"type":"Polygon","coordinates":[[[1.208,48.388],[1.215,48.396],[1.246,48.401],[1.258,48.382],[1.26,48.379],[1.208,48.374],[1.208,48.388]]]}},{"type":"Feature","properties":{"code":"28068","nom":"Challet","pop":429},"geometry":{"type":"Polygon","coordinates":[[[1.419,48.569],[1.436,48.57],[1.454,48.56],[1.44,48.543],[1.413,48.543],[1.4,48.569],[1.419,48.569]]]}},{"type":"Feature","properties":{"code":"28070","nom":"Champhol","pop":3643},"geometry":{"type":"Polygon","coordinates":[[[1.496,48.474],[1.523,48.475],[1.53,48.463],[1.493,48.463],[1.496,48.474]]]}},{"type":"Feature","properties":{"code":"28071","nom":"Champrond-en-Gâtine","pop":744},"geometry":{"type":"Polygon","coordinates":[[[1.077,48.362],[1.046,48.362],[1.021,48.375],[1.039,48.396],[1.064,48.427],[1.069,48.431],[1.108,48.441],[1.104,48.412],[1.098,48.388],[1.094,48.372],[1.095,48.358],[1.077,48.362]]]}},{"type":"Feature","properties":{"code":"28072","nom":"Champrond-en-Perchet","pop":388},"geometry":{"type":"Polygon","coordinates":[[[0.922,48.302],[0.919,48.291],[0.859,48.312],[0.852,48.32],[0.903,48.315],[0.922,48.302]]]}},{"type":"Feature","properties":{"code":"28073","nom":"Champseru","pop":345},"geometry":{"type":"Polygon","coordinates":[[[1.634,48.467],[1.621,48.471],[1.615,48.496],[1.634,48.511],[1.679,48.51],[1.682,48.498],[1.677,48.489],[1.634,48.467]]]}},{"type":"Feature","properties":{"code":"28074","nom":"La Chapelle-d'Aunainville","pop":239},"geometry":{"type":"Polygon","coordinates":[[[1.828,48.423],[1.828,48.423],[1.819,48.404],[1.776,48.401],[1.776,48.423],[1.828,48.423]]]}},{"type":"Feature","properties":{"code":"28075","nom":"La Chapelle-du-Noyer","pop":1015},"geometry":{"type":"Polygon","coordinates":[[[1.341,48.039],[1.321,48.012],[1.294,48.031],[1.295,48.051],[1.314,48.068],[1.333,48.066],[1.341,48.039]]]}},{"type":"Feature","properties":{"code":"28076","nom":"La Chapelle-Forainvilliers","pop":211},"geometry":{"type":"Polygon","coordinates":[[[1.518,48.734],[1.508,48.726],[1.465,48.721],[1.467,48.733],[1.501,48.739],[1.518,48.734]]]}},{"type":"Feature","properties":{"code":"28077","nom":"La Chapelle-Fortin","pop":167},"geometry":{"type":"Polygon","coordinates":[[[0.888,48.633],[0.832,48.633],[0.823,48.651],[0.86,48.655],[0.871,48.669],[0.899,48.644],[0.888,48.633]]]}},{"type":"Feature","properties":{"code":"28078","nom":"Chapelle-Guillaume","pop":181},"geometry":{"type":"Polygon","coordinates":[[[0.917,48.139],[0.944,48.113],[0.889,48.102],[0.841,48.103],[0.85,48.133],[0.917,48.139]]]}},{"type":"Feature","properties":{"code":"28079","nom":"Chapelle-Royale","pop":333},"geometry":{"type":"Polygon","coordinates":[[[1.019,48.164],[1.078,48.154],[1.05,48.142],[1.015,48.163],[1.019,48.164]]]}},{"type":"Feature","properties":{"code":"28080","nom":"Charbonnières","pop":263},"geometry":{"type":"Polygon","coordinates":[[[0.979,48.206],[0.982,48.189],[0.959,48.166],[0.936,48.167],[0.916,48.174],[0.906,48.202],[0.94,48.212],[0.944,48.213],[0.979,48.206]]]}},{"type":"Feature","properties":{"code":"28081","nom":"Charonville","pop":293},"geometry":{"type":"Polygon","coordinates":[[[1.289,48.259],[1.29,48.289],[1.308,48.3],[1.321,48.295],[1.341,48.288],[1.329,48.271],[1.295,48.259],[1.289,48.259]]]}},{"type":"Feature","properties":{"code":"28082","nom":"Charpont","pop":622},"geometry":{"type":"Polygon","coordinates":[[[1.411,48.701],[1.441,48.712],[1.455,48.713],[1.454,48.694],[1.418,48.676],[1.406,48.678],[1.411,48.701]]]}},{"type":"Feature","properties":{"code":"28084","nom":"Chartainvilliers","pop":654},"geometry":{"type":"Polygon","coordinates":[[[1.569,48.528],[1.521,48.533],[1.544,48.563],[1.549,48.563],[1.569,48.528]]]}},{"type":"Feature","properties":{"code":"28085","nom":"Chartres","pop":38324},"geometry":{"type":"Polygon","coordinates":[[[1.493,48.463],[1.53,48.463],[1.542,48.458],[1.55,48.437],[1.516,48.427],[1.491,48.432],[1.478,48.436],[1.468,48.444],[1.466,48.467],[1.493,48.463]]]}},{"type":"Feature","properties":{"code":"28086","nom":"Chassant","pop":299},"geometry":{"type":"Polygon","coordinates":[[[1.088,48.284],[1.037,48.292],[1.066,48.3],[1.091,48.291],[1.088,48.284]]]}},{"type":"Feature","properties":{"code":"28087","nom":"Châtaincourt","pop":221},"geometry":{"type":"Polygon","coordinates":[[[1.246,48.721],[1.265,48.718],[1.27,48.712],[1.255,48.694],[1.237,48.677],[1.227,48.671],[1.206,48.681],[1.218,48.706],[1.246,48.721]]]}},{"type":"Feature","properties":{"code":"28088","nom":"Châteaudun","pop":12830},"geometry":{"type":"Polygon","coordinates":[[[1.26,48.105],[1.324,48.097],[1.365,48.083],[1.382,48.06],[1.372,48.047],[1.341,48.039],[1.333,48.066],[1.314,48.068],[1.262,48.09],[1.26,48.105]]]}},{"type":"Feature","properties":{"code":"28089","nom":"Châteauneuf-en-Thymerais","pop":2641},"geometry":{"type":"Polygon","coordinates":[[[1.238,48.611],[1.244,48.609],[1.257,48.589],[1.221,48.581],[1.238,48.611]]]}},{"type":"Feature","properties":{"code":"28090","nom":"Les Châtelets","pop":111},"geometry":{"type":"Polygon","coordinates":[[[1.016,48.676],[1.025,48.677],[1.051,48.669],[1.03,48.647],[1.001,48.638],[0.991,48.658],[1.016,48.676]]]}},{"type":"Feature","properties":{"code":"28091","nom":"Les Châtelliers-Notre-Dame","pop":148},"geometry":{"type":"Polygon","coordinates":[[[1.186,48.34],[1.183,48.345],[1.204,48.365],[1.228,48.361],[1.233,48.339],[1.23,48.331],[1.204,48.328],[1.186,48.34]]]}},{"type":"Feature","properties":{"code":"28092","nom":"Châtenay","pop":241},"geometry":{"type":"Polygon","coordinates":[[[1.861,48.332],[1.868,48.354],[1.874,48.374],[1.905,48.379],[1.906,48.366],[1.901,48.345],[1.861,48.332]]]}},{"type":"Feature","properties":{"code":"28094","nom":"Chaudon","pop":1688},"geometry":{"type":"Polygon","coordinates":[[[1.508,48.678],[1.519,48.655],[1.501,48.635],[1.47,48.641],[1.498,48.682],[1.508,48.678]]]}},{"type":"Feature","properties":{"code":"28095","nom":"Chauffours","pop":292},"geometry":{"type":"Polygon","coordinates":[[[1.35,48.384],[1.327,48.38],[1.324,48.406],[1.36,48.401],[1.35,48.384]]]}},{"type":"Feature","properties":{"code":"28096","nom":"La Chaussée-d'Ivry","pop":1321},"geometry":{"type":"Polygon","coordinates":[[[1.462,48.899],[1.46,48.91],[1.49,48.897],[1.5,48.892],[1.526,48.88],[1.513,48.871],[1.465,48.879],[1.462,48.899]]]}},{"type":"Feature","properties":{"code":"28098","nom":"Cherisy","pop":1842},"geometry":{"type":"Polygon","coordinates":[[[1.473,48.758],[1.445,48.743],[1.403,48.747],[1.4,48.758],[1.401,48.772],[1.42,48.765],[1.468,48.77],[1.473,48.758]]]}},{"type":"Feature","properties":{"code":"28099","nom":"Chuisnes","pop":1126},"geometry":{"type":"Polygon","coordinates":[[[1.169,48.416],[1.142,48.428],[1.146,48.452],[1.218,48.455],[1.237,48.437],[1.232,48.424],[1.169,48.416]]]}},{"type":"Feature","properties":{"code":"28100","nom":"Cintray","pop":479},"geometry":{"type":"Polygon","coordinates":[[[1.351,48.441],[1.346,48.442],[1.381,48.455],[1.376,48.434],[1.351,48.441]]]}},{"type":"Feature","properties":{"code":"28102","nom":"Clévilliers","pop":765},"geometry":{"type":"Polygon","coordinates":[[[1.375,48.527],[1.355,48.545],[1.364,48.572],[1.4,48.569],[1.413,48.543],[1.398,48.528],[1.375,48.527]]]}},{"type":"Feature","properties":{"code":"28103","nom":"Cloyes-les-Trois-Rivières","pop":5607},"geometry":{"type":"Polygon","coordinates":[[[1.167,48.026],[1.235,48.046],[1.229,48.059],[1.267,48.044],[1.295,48.051],[1.294,48.031],[1.321,48.012],[1.359,47.99],[1.382,48.008],[1.425,48.022],[1.433,48.009],[1.437,47.977],[1.406,47.97],[1.383,47.978],[1.37,47.954],[1.309,47.954],[1.3,47.968],[1.261,47.969],[1.247,47.979],[1.192,47.972],[1.187,48.003],[1.169,48.007],[1.167,48.026]]]}},{"type":"Feature","properties":{"code":"28104","nom":"Coltainville","pop":915},"geometry":{"type":"Polygon","coordinates":[[[1.621,48.471],[1.61,48.469],[1.582,48.468],[1.551,48.489],[1.555,48.495],[1.575,48.507],[1.614,48.521],[1.634,48.511],[1.615,48.496],[1.621,48.471]]]}},{"type":"Feature","properties":{"code":"28105","nom":"Combres","pop":547},"geometry":{"type":"Polygon","coordinates":[[[1.046,48.362],[1.077,48.362],[1.071,48.322],[1.086,48.316],[1.067,48.304],[1.036,48.315],[1.049,48.343],[1.046,48.362]]]}},{"type":"Feature","properties":{"code":"28106","nom":"Conie-Molitard","pop":387},"geometry":{"type":"Polygon","coordinates":[[[1.475,48.119],[1.476,48.11],[1.462,48.094],[1.428,48.095],[1.412,48.128],[1.438,48.137],[1.456,48.134],[1.475,48.119]]]}},{"type":"Feature","properties":{"code":"28107","nom":"Corancez","pop":372},"geometry":{"type":"Polygon","coordinates":[[[1.524,48.382],[1.529,48.355],[1.496,48.364],[1.506,48.382],[1.524,48.382]]]}},{"type":"Feature","properties":{"code":"28108","nom":"Cormainville","pop":213},"geometry":{"type":"Polygon","coordinates":[[[1.641,48.125],[1.608,48.108],[1.57,48.121],[1.57,48.13],[1.593,48.15],[1.635,48.148],[1.641,48.125]]]}},{"type":"Feature","properties":{"code":"28109","nom":"Les Corvées-les-Yys","pop":326},"geometry":{"type":"Polygon","coordinates":[[[1.114,48.383],[1.155,48.368],[1.2,48.373],[1.204,48.365],[1.183,48.345],[1.094,48.372],[1.098,48.388],[1.114,48.383]]]}},{"type":"Feature","properties":{"code":"28110","nom":"Le Coudray","pop":4038},"geometry":{"type":"Polygon","coordinates":[[[1.491,48.432],[1.516,48.427],[1.513,48.404],[1.483,48.417],[1.491,48.432]]]}},{"type":"Feature","properties":{"code":"28111","nom":"Coudray-au-Perche","pop":364},"geometry":{"type":"Polygon","coordinates":[[[0.849,48.21],[0.83,48.221],[0.833,48.25],[0.852,48.26],[0.883,48.256],[0.889,48.25],[0.878,48.222],[0.849,48.21]]]}},{"type":"Feature","properties":{"code":"28113","nom":"Coulombs","pop":1363},"geometry":{"type":"Polygon","coordinates":[[[1.559,48.682],[1.566,48.676],[1.581,48.638],[1.551,48.631],[1.552,48.639],[1.537,48.65],[1.525,48.655],[1.537,48.68],[1.559,48.682]]]}},{"type":"Feature","properties":{"code":"28114","nom":"Courbehaye","pop":138},"geometry":{"type":"Polygon","coordinates":[[[1.554,48.155],[1.597,48.168],[1.644,48.165],[1.656,48.152],[1.669,48.119],[1.641,48.125],[1.635,48.148],[1.593,48.15],[1.57,48.13],[1.545,48.149],[1.554,48.155]]]}},{"type":"Feature","properties":{"code":"28116","nom":"Courville-sur-Eure","pop":2791},"geometry":{"type":"Polygon","coordinates":[[[1.265,48.435],[1.237,48.437],[1.218,48.455],[1.233,48.469],[1.274,48.459],[1.265,48.435]]]}},{"type":"Feature","properties":{"code":"28117","nom":"Crécy-Couvé","pop":255},"geometry":{"type":"Polygon","coordinates":[[[1.292,48.693],[1.306,48.676],[1.282,48.658],[1.262,48.678],[1.275,48.695],[1.292,48.693]]]}},{"type":"Feature","properties":{"code":"28118","nom":"Croisilles","pop":422},"geometry":{"type":"Polygon","coordinates":[[[1.518,48.698],[1.517,48.686],[1.508,48.678],[1.498,48.682],[1.476,48.691],[1.518,48.698]]]}},{"type":"Feature","properties":{"code":"28119","nom":"La Croix-du-Perche","pop":147},"geometry":{"type":"Polygon","coordinates":[[[0.996,48.288],[1.003,48.294],[1.037,48.292],[1.088,48.284],[1.085,48.27],[1.029,48.267],[1.014,48.272],[0.996,48.288]]]}},{"type":"Feature","properties":{"code":"28120","nom":"Crucey-Villages","pop":463},"geometry":{"type":"Polygon","coordinates":[[[1.176,48.668],[1.177,48.667],[1.147,48.663],[1.089,48.636],[1.055,48.634],[1.03,48.647],[1.051,48.669],[1.1,48.693],[1.13,48.699],[1.166,48.716],[1.161,48.685],[1.176,48.668]]]}},{"type":"Feature","properties":{"code":"28121","nom":"Dambron","pop":93},"geometry":{"type":"Polygon","coordinates":[[[1.9,48.127],[1.89,48.106],[1.865,48.095],[1.851,48.121],[1.853,48.133],[1.9,48.127]]]}},{"type":"Feature","properties":{"code":"28122","nom":"Dammarie","pop":1505},"geometry":{"type":"Polygon","coordinates":[[[1.458,48.359],[1.463,48.364],[1.496,48.364],[1.529,48.355],[1.548,48.347],[1.551,48.313],[1.49,48.319],[1.46,48.322],[1.442,48.344],[1.458,48.359]]]}},{"type":"Feature","properties":{"code":"28123","nom":"Dampierre-sous-Brou","pop":443},"geometry":{"type":"Polygon","coordinates":[[[1.126,48.205],[1.085,48.214],[1.073,48.238],[1.138,48.237],[1.126,48.205]]]}},{"type":"Feature","properties":{"code":"28124","nom":"Dampierre-sur-Avre","pop":756},"geometry":{"type":"Polygon","coordinates":[[[1.152,48.786],[1.163,48.769],[1.178,48.736],[1.165,48.727],[1.135,48.743],[1.111,48.74],[1.114,48.746],[1.121,48.789],[1.152,48.786]]]}},{"type":"Feature","properties":{"code":"28126","nom":"Dancy","pop":202},"geometry":{"type":"Polygon","coordinates":[[[1.49,48.158],[1.456,48.134],[1.438,48.137],[1.454,48.17],[1.483,48.168],[1.49,48.158]]]}},{"type":"Feature","properties":{"code":"28127","nom":"Dangeau","pop":1259},"geometry":{"type":"Polygon","coordinates":[[[1.256,48.16],[1.237,48.174],[1.24,48.204],[1.214,48.237],[1.231,48.245],[1.25,48.256],[1.289,48.259],[1.295,48.259],[1.282,48.24],[1.322,48.225],[1.329,48.215],[1.309,48.186],[1.312,48.168],[1.299,48.152],[1.295,48.151],[1.256,48.16]]]}},{"type":"Feature","properties":{"code":"28128","nom":"Dangers","pop":433},"geometry":{"type":"Polygon","coordinates":[[[1.374,48.519],[1.371,48.507],[1.35,48.494],[1.34,48.522],[1.374,48.519]]]}},{"type":"Feature","properties":{"code":"28129","nom":"Denonville","pop":798},"geometry":{"type":"Polygon","coordinates":[[[1.811,48.375],[1.768,48.384],[1.77,48.392],[1.776,48.401],[1.819,48.404],[1.837,48.39],[1.811,48.375]]]}},{"type":"Feature","properties":{"code":"28130","nom":"Digny","pop":1003},"geometry":{"type":"Polygon","coordinates":[[[1.148,48.563],[1.152,48.558],[1.168,48.533],[1.198,48.528],[1.21,48.521],[1.196,48.502],[1.137,48.511],[1.109,48.506],[1.081,48.515],[1.066,48.524],[1.102,48.557],[1.148,48.563]]]}},{"type":"Feature","properties":{"code":"28132","nom":"Donnemain-Saint-Mamès","pop":654},"geometry":{"type":"Polygon","coordinates":[[[1.409,48.087],[1.365,48.083],[1.324,48.097],[1.354,48.117],[1.374,48.119],[1.401,48.106],[1.409,48.087]]]}},{"type":"Feature","properties":{"code":"28134","nom":"Dreux","pop":31543},"geometry":{"type":"Polygon","coordinates":[[[1.4,48.758],[1.403,48.747],[1.389,48.728],[1.384,48.721],[1.323,48.738],[1.313,48.764],[1.356,48.779],[1.366,48.764],[1.4,48.758]]]}},{"type":"Feature","properties":{"code":"28135","nom":"Droue-sur-Drouette","pop":1212},"geometry":{"type":"Polygon","coordinates":[[[1.689,48.612],[1.718,48.607],[1.702,48.585],[1.689,48.612]]]}},{"type":"Feature","properties":{"code":"28136","nom":"Écluzelles","pop":162},"geometry":{"type":"Polygon","coordinates":[[[1.441,48.712],[1.411,48.701],[1.402,48.707],[1.419,48.716],[1.441,48.712]]]}},{"type":"Feature","properties":{"code":"28137","nom":"Écrosnes","pop":869},"geometry":{"type":"Polygon","coordinates":[[[1.748,48.576],[1.778,48.553],[1.755,48.528],[1.719,48.53],[1.691,48.549],[1.698,48.569],[1.709,48.578],[1.748,48.576]]]}},{"type":"Feature","properties":{"code":"28139","nom":"Épeautrolles","pop":165},"geometry":{"type":"Polygon","coordinates":[[[1.323,48.329],[1.329,48.332],[1.344,48.328],[1.364,48.319],[1.35,48.304],[1.321,48.295],[1.308,48.3],[1.323,48.329]]]}},{"type":"Feature","properties":{"code":"28140","nom":"Épernon","pop":5715},"geometry":{"type":"Polygon","coordinates":[[[1.698,48.569],[1.675,48.578],[1.667,48.613],[1.691,48.617],[1.689,48.612],[1.702,48.585],[1.709,48.578],[1.698,48.569]]]}},{"type":"Feature","properties":{"code":"28141","nom":"Ermenonville-la-Grande","pop":311},"geometry":{"type":"Polygon","coordinates":[[[1.391,48.352],[1.412,48.343],[1.391,48.322],[1.364,48.319],[1.344,48.328],[1.374,48.353],[1.391,48.352]]]}},{"type":"Feature","properties":{"code":"28142","nom":"Ermenonville-la-Petite","pop":192},"geometry":{"type":"Polygon","coordinates":[[[1.352,48.282],[1.341,48.288],[1.321,48.295],[1.35,48.304],[1.366,48.278],[1.352,48.282]]]}},{"type":"Feature","properties":{"code":"28143","nom":"Escorpain","pop":223},"geometry":{"type":"Polygon","coordinates":[[[1.228,48.733],[1.246,48.721],[1.218,48.706],[1.184,48.729],[1.202,48.73],[1.228,48.733]]]}},{"type":"Feature","properties":{"code":"28144","nom":"Les Étilleux","pop":204},"geometry":{"type":"Polygon","coordinates":[[[0.787,48.262],[0.792,48.265],[0.833,48.25],[0.83,48.221],[0.822,48.224],[0.787,48.262]]]}},{"type":"Feature","properties":{"code":"28146","nom":"Faverolles","pop":820},"geometry":{"type":"Polygon","coordinates":[[[1.566,48.676],[1.559,48.682],[1.565,48.697],[1.582,48.696],[1.611,48.688],[1.606,48.679],[1.603,48.663],[1.566,48.676]]]}},{"type":"Feature","properties":{"code":"28147","nom":"Favières","pop":637},"geometry":{"type":"Polygon","coordinates":[[[1.232,48.513],[1.21,48.521],[1.198,48.528],[1.2,48.55],[1.261,48.538],[1.26,48.523],[1.232,48.513]]]}},{"type":"Feature","properties":{"code":"28148","nom":"Le Favril","pop":360},"geometry":{"type":"Polygon","coordinates":[[[1.094,48.48],[1.104,48.486],[1.165,48.468],[1.146,48.452],[1.108,48.441],[1.069,48.431],[1.078,48.47],[1.094,48.48]]]}},{"type":"Feature","properties":{"code":"28149","nom":"La Ferté-Vidame","pop":543},"geometry":{"type":"Polygon","coordinates":[[[0.823,48.609],[0.832,48.633],[0.888,48.633],[0.918,48.607],[0.938,48.586],[0.969,48.587],[0.927,48.561],[0.926,48.56],[0.852,48.582],[0.847,48.61],[0.823,48.609]]]}},{"type":"Feature","properties":{"code":"28151","nom":"Fessanvilliers-Mattanvilliers","pop":168},"geometry":{"type":"Polygon","coordinates":[[[1.071,48.711],[1.025,48.677],[1.016,48.676],[1.012,48.692],[1.008,48.707],[1.042,48.727],[1.05,48.728],[1.067,48.711],[1.071,48.711]]]}},{"type":"Feature","properties":{"code":"28153","nom":"Flacey","pop":208},"geometry":{"type":"Polygon","coordinates":[[[1.312,48.168],[1.348,48.166],[1.367,48.15],[1.355,48.13],[1.325,48.134],[1.299,48.152],[1.312,48.168]]]}},{"type":"Feature","properties":{"code":"28154","nom":"Fontaine-la-Guyon","pop":1684},"geometry":{"type":"Polygon","coordinates":[[[1.33,48.482],[1.3,48.449],[1.279,48.461],[1.28,48.497],[1.33,48.482]]]}},{"type":"Feature","properties":{"code":"28155","nom":"Fontaine-les-Ribouts","pop":186},"geometry":{"type":"Polygon","coordinates":[[[1.237,48.677],[1.27,48.639],[1.242,48.639],[1.227,48.671],[1.237,48.677]]]}},{"type":"Feature","properties":{"code":"28156","nom":"Fontaine-Simon","pop":888},"geometry":{"type":"Polygon","coordinates":[[[1.025,48.494],[0.955,48.493],[0.941,48.499],[0.967,48.524],[0.996,48.528],[1.026,48.517],[1.025,48.494]]]}},{"type":"Feature","properties":{"code":"28157","nom":"Fontenay-sur-Conie","pop":150},"geometry":{"type":"Polygon","coordinates":[[[1.656,48.152],[1.644,48.165],[1.654,48.181],[1.727,48.167],[1.715,48.152],[1.683,48.16],[1.656,48.152]]]}},{"type":"Feature","properties":{"code":"28158","nom":"Fontenay-sur-Eure","pop":1206},"geometry":{"type":"Polygon","coordinates":[[[1.385,48.406],[1.4,48.414],[1.431,48.426],[1.451,48.422],[1.454,48.413],[1.456,48.401],[1.425,48.388],[1.424,48.387],[1.385,48.406]]]}},{"type":"Feature","properties":{"code":"28159","nom":"La Framboisière","pop":333},"geometry":{"type":"Polygon","coordinates":[[[1.024,48.605],[1.037,48.6],[1.01,48.584],[0.994,48.598],[1.011,48.612],[1.024,48.605]]]}},{"type":"Feature","properties":{"code":"28160","nom":"Francourville","pop":941},"geometry":{"type":"Polygon","coordinates":[[[1.62,48.395],[1.647,48.416],[1.666,48.426],[1.696,48.422],[1.683,48.388],[1.68,48.373],[1.62,48.395]]]}},{"type":"Feature","properties":{"code":"28161","nom":"Frazé","pop":482},"geometry":{"type":"Polygon","coordinates":[[[1.137,48.245],[1.138,48.237],[1.073,48.238],[1.056,48.249],[1.032,48.262],[1.029,48.267],[1.085,48.27],[1.088,48.284],[1.091,48.291],[1.119,48.271],[1.16,48.265],[1.137,48.245]]]}},{"type":"Feature","properties":{"code":"28162","nom":"Fresnay-le-Comte","pop":281},"geometry":{"type":"Polygon","coordinates":[[[1.509,48.291],[1.461,48.296],[1.46,48.322],[1.49,48.319],[1.509,48.291]]]}},{"type":"Feature","properties":{"code":"28163","nom":"Fresnay-le-Gilmert","pop":217},"geometry":{"type":"Polygon","coordinates":[[[1.439,48.514],[1.428,48.505],[1.4,48.505],[1.404,48.526],[1.439,48.514]]]}},{"type":"Feature","properties":{"code":"28164","nom":"Fresnay-l'Évêque","pop":739},"geometry":{"type":"Polygon","coordinates":[[[1.856,48.259],[1.837,48.242],[1.771,48.224],[1.761,48.24],[1.782,48.269],[1.804,48.281],[1.856,48.3],[1.856,48.259]]]}},{"type":"Feature","properties":{"code":"28166","nom":"Friaize","pop":256},"geometry":{"type":"Polygon","coordinates":[[[1.108,48.441],[1.146,48.452],[1.142,48.428],[1.104,48.412],[1.108,48.441]]]}},{"type":"Feature","properties":{"code":"28167","nom":"Fruncé","pop":376},"geometry":{"type":"Polygon","coordinates":[[[1.141,48.39],[1.169,48.416],[1.232,48.424],[1.252,48.41],[1.246,48.401],[1.215,48.396],[1.191,48.395],[1.141,48.39]]]}},{"type":"Feature","properties":{"code":"28168","nom":"Gallardon","pop":3530},"geometry":{"type":"Polygon","coordinates":[[[1.674,48.548],[1.691,48.549],[1.719,48.53],[1.718,48.519],[1.69,48.52],[1.655,48.537],[1.674,48.548]]]}},{"type":"Feature","properties":{"code":"28169","nom":"Garancières-en-Beauce","pop":238},"geometry":{"type":"Polygon","coordinates":[[[1.922,48.458],[1.93,48.454],[1.943,48.441],[1.926,48.413],[1.878,48.428],[1.884,48.44],[1.922,48.458]]]}},{"type":"Feature","properties":{"code":"28170","nom":"Garancières-en-Drouais","pop":272},"geometry":{"type":"Polygon","coordinates":[[[1.299,48.711],[1.308,48.695],[1.292,48.693],[1.275,48.695],[1.255,48.694],[1.27,48.712],[1.299,48.711]]]}},{"type":"Feature","properties":{"code":"28171","nom":"Garnay","pop":1019},"geometry":{"type":"Polygon","coordinates":[[[1.308,48.695],[1.299,48.711],[1.316,48.719],[1.37,48.702],[1.374,48.69],[1.35,48.681],[1.308,48.695]]]}},{"type":"Feature","properties":{"code":"28172","nom":"Gas","pop":718},"geometry":{"type":"Polygon","coordinates":[[[1.675,48.578],[1.698,48.569],[1.691,48.549],[1.674,48.548],[1.638,48.552],[1.626,48.554],[1.645,48.576],[1.675,48.578]]]}},{"type":"Feature","properties":{"code":"28173","nom":"Gasville-Oisème","pop":1467},"geometry":{"type":"Polygon","coordinates":[[[1.582,48.468],[1.542,48.458],[1.53,48.463],[1.523,48.475],[1.551,48.489],[1.582,48.468]]]}},{"type":"Feature","properties":{"code":"28175","nom":"La Gaudaine","pop":178},"geometry":{"type":"Polygon","coordinates":[[[1.003,48.294],[0.996,48.288],[0.936,48.287],[0.918,48.287],[0.919,48.291],[0.922,48.302],[0.961,48.311],[1.003,48.294]]]}},{"type":"Feature","properties":{"code":"28176","nom":"Le Gault-Saint-Denis","pop":666},"geometry":{"type":"Polygon","coordinates":[[[1.457,48.236],[1.45,48.239],[1.43,48.257],[1.451,48.266],[1.485,48.274],[1.506,48.257],[1.532,48.244],[1.515,48.225],[1.495,48.207],[1.494,48.21],[1.49,48.233],[1.457,48.236]]]}},{"type":"Feature","properties":{"code":"28177","nom":"Gellainville","pop":765},"geometry":{"type":"Polygon","coordinates":[[[1.529,48.39],[1.513,48.404],[1.516,48.427],[1.55,48.437],[1.559,48.431],[1.548,48.405],[1.529,48.39]]]}},{"type":"Feature","properties":{"code":"28178","nom":"Germainville","pop":338},"geometry":{"type":"Polygon","coordinates":[[[1.445,48.741],[1.445,48.743],[1.473,48.758],[1.496,48.759],[1.501,48.739],[1.467,48.733],[1.445,48.741]]]}},{"type":"Feature","properties":{"code":"28180","nom":"Gilles","pop":498},"geometry":{"type":"Polygon","coordinates":[[[1.49,48.897],[1.514,48.922],[1.54,48.919],[1.542,48.916],[1.538,48.907],[1.5,48.892],[1.49,48.897]]]}},{"type":"Feature","properties":{"code":"28182","nom":"Gohory","pop":319},"geometry":{"type":"Polygon","coordinates":[[[1.192,48.15],[1.208,48.179],[1.237,48.174],[1.256,48.16],[1.211,48.153],[1.192,48.15]]]}},{"type":"Feature","properties":{"code":"28183","nom":"Gommerville","pop":663},"geometry":{"type":"Polygon","coordinates":[[[1.923,48.322],[1.918,48.343],[1.906,48.366],[1.905,48.379],[1.93,48.38],[1.967,48.381],[1.988,48.364],[1.97,48.339],[1.982,48.328],[1.959,48.309],[1.923,48.312],[1.923,48.322]]]}},{"type":"Feature","properties":{"code":"28184","nom":"Gouillons","pop":335},"geometry":{"type":"Polygon","coordinates":[[[1.868,48.354],[1.861,48.332],[1.859,48.321],[1.828,48.328],[1.825,48.348],[1.846,48.365],[1.868,48.354]]]}},{"type":"Feature","properties":{"code":"28185","nom":"Goussainville","pop":1335},"geometry":{"type":"Polygon","coordinates":[[[1.588,48.774],[1.583,48.768],[1.555,48.756],[1.526,48.772],[1.525,48.777],[1.546,48.795],[1.579,48.809],[1.588,48.774]]]}},{"type":"Feature","properties":{"code":"28187","nom":"Guainville","pop":696},"geometry":{"type":"Polygon","coordinates":[[[1.514,48.922],[1.49,48.897],[1.46,48.91],[1.448,48.925],[1.461,48.938],[1.501,48.941],[1.514,48.922]]]}},{"type":"Feature","properties":{"code":"28188","nom":"Le Gué-de-Longroi","pop":860},"geometry":{"type":"Polygon","coordinates":[[[1.677,48.489],[1.682,48.498],[1.723,48.502],[1.726,48.501],[1.736,48.484],[1.694,48.482],[1.677,48.489]]]}},{"type":"Feature","properties":{"code":"28189","nom":"Guilleville","pop":156},"geometry":{"type":"Polygon","coordinates":[[[1.775,48.206],[1.767,48.22],[1.771,48.224],[1.837,48.242],[1.841,48.222],[1.799,48.206],[1.775,48.206]]]}},{"type":"Feature","properties":{"code":"28190","nom":"Guillonville","pop":459},"geometry":{"type":"Polygon","coordinates":[[[1.689,48.078],[1.678,48.066],[1.659,48.077],[1.622,48.064],[1.602,48.091],[1.608,48.108],[1.641,48.125],[1.669,48.119],[1.673,48.115],[1.68,48.098],[1.689,48.078]]]}},{"type":"Feature","properties":{"code":"28191","nom":"Hanches","pop":2696},"geometry":{"type":"Polygon","coordinates":[[[1.649,48.632],[1.667,48.613],[1.675,48.578],[1.645,48.576],[1.603,48.583],[1.621,48.596],[1.641,48.624],[1.649,48.632]]]}},{"type":"Feature","properties":{"code":"28192","nom":"Happonvilliers","pop":296},"geometry":{"type":"Polygon","coordinates":[[[1.143,48.309],[1.12,48.304],[1.086,48.316],[1.071,48.322],[1.077,48.362],[1.095,48.358],[1.116,48.351],[1.143,48.309]]]}},{"type":"Feature","properties":{"code":"28193","nom":"Havelu","pop":127},"geometry":{"type":"Polygon","coordinates":[[[1.537,48.797],[1.546,48.795],[1.525,48.777],[1.512,48.782],[1.537,48.797]]]}},{"type":"Feature","properties":{"code":"28194","nom":"Houville-la-Branche","pop":420},"geometry":{"type":"Polygon","coordinates":[[[1.61,48.469],[1.621,48.471],[1.634,48.467],[1.668,48.45],[1.666,48.426],[1.647,48.416],[1.605,48.448],[1.61,48.469]]]}},{"type":"Feature","properties":{"code":"28195","nom":"Houx","pop":746},"geometry":{"type":"Polygon","coordinates":[[[1.602,48.564],[1.596,48.57],[1.603,48.583],[1.645,48.576],[1.626,48.554],[1.602,48.564]]]}},{"type":"Feature","properties":{"code":"28196","nom":"Illiers-Combray","pop":3210},"geometry":{"type":"Polygon","coordinates":[[[1.241,48.274],[1.209,48.273],[1.201,48.288],[1.168,48.303],[1.146,48.308],[1.192,48.316],[1.204,48.328],[1.23,48.331],[1.266,48.325],[1.28,48.289],[1.241,48.274]]]}},{"type":"Feature","properties":{"code":"28197","nom":"Intréville","pop":118},"geometry":{"type":"Polygon","coordinates":[[[1.959,48.309],[1.962,48.303],[1.956,48.289],[1.911,48.291],[1.923,48.312],[1.959,48.309]]]}},{"type":"Feature","properties":{"code":"28198","nom":"Jallans","pop":786},"geometry":{"type":"Polygon","coordinates":[[[1.409,48.087],[1.411,48.084],[1.382,48.06],[1.365,48.083],[1.409,48.087]]]}},{"type":"Feature","properties":{"code":"28199","nom":"Janville-en-Beauce","pop":2464},"geometry":{"type":"Polygon","coordinates":[[[1.863,48.174],[1.803,48.172],[1.789,48.185],[1.783,48.186],[1.775,48.206],[1.799,48.206],[1.841,48.222],[1.89,48.227],[1.923,48.212],[1.906,48.192],[1.875,48.17],[1.863,48.174]]]}},{"type":"Feature","properties":{"code":"28200","nom":"Jaudrais","pop":396},"geometry":{"type":"Polygon","coordinates":[[[1.132,48.597],[1.146,48.593],[1.148,48.563],[1.102,48.557],[1.09,48.572],[1.132,48.597]]]}},{"type":"Feature","properties":{"code":"28201","nom":"Jouy","pop":1988},"geometry":{"type":"Polygon","coordinates":[[[1.516,48.513],[1.516,48.523],[1.521,48.533],[1.569,48.528],[1.574,48.525],[1.575,48.507],[1.555,48.495],[1.516,48.513]]]}},{"type":"Feature","properties":{"code":"28202","nom":"Lamblore","pop":318},"geometry":{"type":"Polygon","coordinates":[[[0.918,48.607],[0.888,48.633],[0.899,48.644],[0.915,48.642],[0.95,48.632],[0.934,48.611],[0.918,48.607]]]}},{"type":"Feature","properties":{"code":"28203","nom":"Landelles","pop":628},"geometry":{"type":"Polygon","coordinates":[[[1.165,48.468],[1.193,48.477],[1.233,48.469],[1.218,48.455],[1.146,48.452],[1.165,48.468]]]}},{"type":"Feature","properties":{"code":"28206","nom":"Laons","pop":648},"geometry":{"type":"Polygon","coordinates":[[[1.166,48.716],[1.173,48.72],[1.184,48.729],[1.218,48.706],[1.206,48.681],[1.176,48.668],[1.161,48.685],[1.166,48.716]]]}},{"type":"Feature","properties":{"code":"28207","nom":"Léthuin","pop":240},"geometry":{"type":"Polygon","coordinates":[[[1.873,48.4],[1.875,48.394],[1.874,48.374],[1.868,48.354],[1.846,48.365],[1.842,48.368],[1.849,48.384],[1.873,48.4]]]}},{"type":"Feature","properties":{"code":"28208","nom":"Levainville","pop":379},"geometry":{"type":"Polygon","coordinates":[[[1.739,48.48],[1.736,48.484],[1.726,48.501],[1.756,48.505],[1.767,48.486],[1.739,48.48]]]}},{"type":"Feature","properties":{"code":"28209","nom":"Lèves","pop":5685},"geometry":{"type":"Polygon","coordinates":[[[1.479,48.489],[1.496,48.474],[1.493,48.463],[1.466,48.467],[1.443,48.483],[1.444,48.491],[1.479,48.489]]]}},{"type":"Feature","properties":{"code":"28210","nom":"Levesville-la-Chenard","pop":229},"geometry":{"type":"Polygon","coordinates":[[[1.804,48.281],[1.8,48.299],[1.828,48.328],[1.859,48.321],[1.862,48.31],[1.856,48.3],[1.804,48.281]]]}},{"type":"Feature","properties":{"code":"28211","nom":"Logron","pop":577},"geometry":{"type":"Polygon","coordinates":[[[1.295,48.151],[1.294,48.138],[1.258,48.113],[1.23,48.127],[1.211,48.153],[1.256,48.16],[1.295,48.151]]]}},{"type":"Feature","properties":{"code":"28212","nom":"Loigny-la-Bataille","pop":218},"geometry":{"type":"Polygon","coordinates":[[[1.727,48.167],[1.733,48.166],[1.779,48.127],[1.737,48.119],[1.708,48.121],[1.68,48.098],[1.673,48.115],[1.722,48.133],[1.715,48.152],[1.727,48.167]]]}},{"type":"Feature","properties":{"code":"28213","nom":"Lormaye","pop":686},"geometry":{"type":"Polygon","coordinates":[[[1.537,48.65],[1.552,48.639],[1.551,48.631],[1.537,48.65]]]}},{"type":"Feature","properties":{"code":"28214","nom":"La Loupe","pop":3191},"geometry":{"type":"Polygon","coordinates":[[[0.999,48.461],[1.003,48.469],[1.027,48.49],[1.039,48.48],[1.053,48.475],[0.999,48.461]]]}},{"type":"Feature","properties":{"code":"28215","nom":"Louville-la-Chenard","pop":245},"geometry":{"type":"Polygon","coordinates":[[[1.811,48.355],[1.825,48.348],[1.828,48.328],[1.8,48.299],[1.759,48.322],[1.763,48.343],[1.811,48.355]]]}},{"type":"Feature","properties":{"code":"28216","nom":"Louvilliers-en-Drouais","pop":230},"geometry":{"type":"Polygon","coordinates":[[[1.268,48.737],[1.274,48.742],[1.299,48.732],[1.275,48.721],[1.268,48.737]]]}},{"type":"Feature","properties":{"code":"28217","nom":"Louvilliers-lès-Perche","pop":207},"geometry":{"type":"Polygon","coordinates":[[[1.061,48.599],[1.037,48.6],[1.024,48.605],[1.055,48.634],[1.089,48.636],[1.097,48.611],[1.061,48.599]]]}},{"type":"Feature","properties":{"code":"28218","nom":"Lucé","pop":15921},"geometry":{"type":"Polygon","coordinates":[[[1.435,48.444],[1.468,48.444],[1.478,48.436],[1.451,48.422],[1.431,48.426],[1.435,48.444]]]}},{"type":"Feature","properties":{"code":"28219","nom":"Luigny","pop":430},"geometry":{"type":"Polygon","coordinates":[[[1.056,48.249],[1.059,48.22],[0.992,48.223],[0.992,48.235],[1.032,48.262],[1.056,48.249]]]}},{"type":"Feature","properties":{"code":"28220","nom":"Luisant","pop":6945},"geometry":{"type":"Polygon","coordinates":[[[1.478,48.436],[1.491,48.432],[1.483,48.417],[1.483,48.416],[1.454,48.413],[1.451,48.422],[1.478,48.436]]]}},{"type":"Feature","properties":{"code":"28221","nom":"Lumeau","pop":138},"geometry":{"type":"Polygon","coordinates":[[[1.803,48.089],[1.8,48.084],[1.774,48.086],[1.737,48.119],[1.779,48.127],[1.788,48.126],[1.808,48.11],[1.803,48.089]]]}},{"type":"Feature","properties":{"code":"28222","nom":"Luplanté","pop":384},"geometry":{"type":"Polygon","coordinates":[[[1.387,48.275],[1.366,48.278],[1.35,48.304],[1.364,48.319],[1.391,48.322],[1.418,48.296],[1.387,48.275]]]}},{"type":"Feature","properties":{"code":"28223","nom":"Luray","pop":1566},"geometry":{"type":"Polygon","coordinates":[[[1.419,48.716],[1.402,48.707],[1.38,48.703],[1.384,48.721],[1.389,48.728],[1.415,48.725],[1.419,48.716]]]}},{"type":"Feature","properties":{"code":"28225","nom":"Magny","pop":664},"geometry":{"type":"Polygon","coordinates":[[[1.279,48.37],[1.295,48.365],[1.301,48.334],[1.266,48.325],[1.23,48.331],[1.233,48.339],[1.279,48.37]]]}},{"type":"Feature","properties":{"code":"28226","nom":"Maillebois","pop":941},"geometry":{"type":"Polygon","coordinates":[[[1.177,48.667],[1.213,48.621],[1.155,48.607],[1.146,48.593],[1.132,48.597],[1.097,48.611],[1.089,48.636],[1.147,48.663],[1.177,48.667]]]}},{"type":"Feature","properties":{"code":"28227","nom":"Maintenon","pop":4494},"geometry":{"type":"Polygon","coordinates":[[[1.583,48.604],[1.591,48.605],[1.621,48.596],[1.603,48.583],[1.596,48.57],[1.59,48.57],[1.549,48.563],[1.544,48.563],[1.539,48.567],[1.576,48.584],[1.583,48.604]]]}},{"type":"Feature","properties":{"code":"28229","nom":"Mainvilliers","pop":10629},"geometry":{"type":"Polygon","coordinates":[[[1.468,48.444],[1.435,48.444],[1.417,48.469],[1.443,48.483],[1.466,48.467],[1.468,48.444]]]}},{"type":"Feature","properties":{"code":"28230","nom":"Maisons","pop":408},"geometry":{"type":"Polygon","coordinates":[[[1.819,48.404],[1.828,48.423],[1.873,48.4],[1.849,48.384],[1.837,48.39],[1.819,48.404]]]}},{"type":"Feature","properties":{"code":"28231","nom":"La Mancelière","pop":150},"geometry":{"type":"Polygon","coordinates":[[[1.001,48.638],[0.996,48.624],[0.967,48.64],[0.97,48.654],[0.991,48.658],[1.001,48.638]]]}},{"type":"Feature","properties":{"code":"28232","nom":"Manou","pop":608},"geometry":{"type":"Polygon","coordinates":[[[0.932,48.534],[0.926,48.56],[0.927,48.561],[0.964,48.557],[0.996,48.528],[0.967,48.524],[0.932,48.534]]]}},{"type":"Feature","properties":{"code":"28233","nom":"Marboué","pop":1108},"geometry":{"type":"Polygon","coordinates":[[[1.258,48.113],[1.294,48.138],[1.295,48.151],[1.299,48.152],[1.325,48.134],[1.355,48.13],[1.354,48.117],[1.324,48.097],[1.26,48.105],[1.258,48.113]]]}},{"type":"Feature","properties":{"code":"28234","nom":"Marchéville","pop":507},"geometry":{"type":"Polygon","coordinates":[[[1.204,48.365],[1.2,48.373],[1.208,48.374],[1.26,48.379],[1.279,48.37],[1.233,48.339],[1.228,48.361],[1.204,48.365]]]}},{"type":"Feature","properties":{"code":"28235","nom":"Marchezais","pop":413},"geometry":{"type":"Polygon","coordinates":[[[1.526,48.772],[1.507,48.766],[1.501,48.778],[1.512,48.782],[1.525,48.777],[1.526,48.772]]]}},{"type":"Feature","properties":{"code":"28236","nom":"Arcisses","pop":2197},"geometry":{"type":"Polygon","coordinates":[[[0.852,48.32],[0.816,48.325],[0.828,48.342],[0.907,48.37],[0.952,48.349],[0.967,48.317],[0.961,48.311],[0.922,48.302],[0.903,48.315],[0.852,48.32]]]}},{"type":"Feature","properties":{"code":"28237","nom":"Marolles-les-Buis","pop":205},"geometry":{"type":"Polygon","coordinates":[[[0.952,48.349],[0.907,48.37],[0.926,48.384],[0.949,48.385],[0.979,48.356],[0.952,48.349]]]}},{"type":"Feature","properties":{"code":"28239","nom":"Marville-Moutiers-Brûlé","pop":1024},"geometry":{"type":"Polygon","coordinates":[[[1.348,48.641],[1.343,48.653],[1.35,48.681],[1.374,48.69],[1.38,48.703],[1.402,48.707],[1.411,48.701],[1.406,48.678],[1.38,48.652],[1.348,48.641]]]}},{"type":"Feature","properties":{"code":"28240","nom":"Meaucé","pop":501},"geometry":{"type":"Polygon","coordinates":[[[0.955,48.493],[1.025,48.494],[1.027,48.49],[1.003,48.469],[0.961,48.476],[0.938,48.469],[0.936,48.476],[0.955,48.493]]]}},{"type":"Feature","properties":{"code":"28242","nom":"Méréglise","pop":105},"geometry":{"type":"Polygon","coordinates":[[[1.183,48.284],[1.168,48.303],[1.201,48.288],[1.183,48.284]]]}},{"type":"Feature","properties":{"code":"28243","nom":"Mérouville","pop":214},"geometry":{"type":"Polygon","coordinates":[[[1.911,48.291],[1.891,48.283],[1.882,48.303],[1.903,48.324],[1.923,48.322],[1.923,48.312],[1.911,48.291]]]}},{"type":"Feature","properties":{"code":"28245","nom":"Meslay-le-Grenet","pop":379},"geometry":{"type":"Polygon","coordinates":[[[1.361,48.366],[1.365,48.372],[1.384,48.384],[1.423,48.387],[1.391,48.352],[1.374,48.353],[1.361,48.366]]]}},{"type":"Feature","properties":{"code":"28246","nom":"Meslay-le-Vidame","pop":508},"geometry":{"type":"Polygon","coordinates":[[[1.451,48.293],[1.461,48.296],[1.509,48.291],[1.512,48.291],[1.521,48.274],[1.506,48.257],[1.485,48.274],[1.451,48.266],[1.451,48.293]]]}},{"type":"Feature","properties":{"code":"28247","nom":"Le Mesnil-Simon","pop":565},"geometry":{"type":"Polygon","coordinates":[[[1.546,48.872],[1.53,48.878],[1.526,48.88],[1.5,48.892],[1.538,48.907],[1.563,48.89],[1.546,48.872]]]}},{"type":"Feature","properties":{"code":"28248","nom":"Le Mesnil-Thomas","pop":335},"geometry":{"type":"Polygon","coordinates":[[[1.132,48.597],[1.09,48.572],[1.061,48.564],[1.061,48.599],[1.097,48.611],[1.132,48.597]]]}},{"type":"Feature","properties":{"code":"28249","nom":"Mévoisins","pop":615},"geometry":{"type":"Polygon","coordinates":[[[1.59,48.57],[1.596,48.57],[1.602,48.564],[1.614,48.541],[1.589,48.545],[1.59,48.57]]]}},{"type":"Feature","properties":{"code":"28251","nom":"Mézières-en-Drouais","pop":1059},"geometry":{"type":"Polygon","coordinates":[[[1.465,48.721],[1.455,48.713],[1.441,48.712],[1.419,48.716],[1.415,48.725],[1.445,48.741],[1.467,48.733],[1.465,48.721]]]}},{"type":"Feature","properties":{"code":"28252","nom":"Miermaigne","pop":164},"geometry":{"type":"Polygon","coordinates":[[[1.029,48.267],[1.032,48.262],[0.992,48.235],[0.992,48.223],[0.991,48.222],[0.972,48.226],[0.983,48.257],[1.012,48.272],[1.014,48.272],[1.029,48.267]]]}},{"type":"Feature","properties":{"code":"28253","nom":"Mignières","pop":1163},"geometry":{"type":"Polygon","coordinates":[[[1.391,48.352],[1.423,48.387],[1.424,48.387],[1.425,48.388],[1.436,48.365],[1.458,48.359],[1.442,48.344],[1.412,48.343],[1.391,48.352]]]}},{"type":"Feature","properties":{"code":"28254","nom":"Mittainvilliers-Vérigny","pop":801},"geometry":{"type":"Polygon","coordinates":[[[1.328,48.546],[1.355,48.545],[1.375,48.527],[1.374,48.519],[1.34,48.522],[1.35,48.494],[1.349,48.491],[1.33,48.482],[1.28,48.497],[1.288,48.515],[1.328,48.546]]]}},{"type":"Feature","properties":{"code":"28255","nom":"Moinville-la-Jeulin","pop":159},"geometry":{"type":"Polygon","coordinates":[[[1.717,48.359],[1.688,48.37],[1.68,48.373],[1.683,48.388],[1.711,48.384],[1.722,48.364],[1.717,48.359]]]}},{"type":"Feature","properties":{"code":"28256","nom":"Moléans","pop":433},"geometry":{"type":"Polygon","coordinates":[[[1.38,48.145],[1.383,48.143],[1.412,48.128],[1.428,48.095],[1.411,48.084],[1.409,48.087],[1.401,48.106],[1.374,48.119],[1.38,48.145]]]}},{"type":"Feature","properties":{"code":"28257","nom":"Mondonville-Saint-Jean","pop":96},"geometry":{"type":"Polygon","coordinates":[[[1.811,48.355],[1.813,48.374],[1.842,48.368],[1.846,48.365],[1.825,48.348],[1.811,48.355]]]}},{"type":"Feature","properties":{"code":"28259","nom":"Montboissier","pop":341},"geometry":{"type":"Polygon","coordinates":[[[1.378,48.202],[1.385,48.225],[1.411,48.252],[1.423,48.256],[1.43,48.257],[1.45,48.239],[1.426,48.234],[1.415,48.214],[1.378,48.202]]]}},{"type":"Feature","properties":{"code":"28260","nom":"Montharville","pop":105},"geometry":{"type":"Polygon","coordinates":[[[1.335,48.19],[1.348,48.166],[1.312,48.168],[1.309,48.186],[1.335,48.19]]]}},{"type":"Feature","properties":{"code":"28261","nom":"Montigny-le-Chartif","pop":586},"geometry":{"type":"Polygon","coordinates":[[[1.086,48.316],[1.12,48.304],[1.143,48.309],[1.146,48.308],[1.168,48.303],[1.183,48.284],[1.176,48.266],[1.16,48.265],[1.119,48.271],[1.091,48.291],[1.066,48.3],[1.067,48.304],[1.086,48.316]]]}},{"type":"Feature","properties":{"code":"28263","nom":"Montigny-sur-Avre","pop":256},"geometry":{"type":"Polygon","coordinates":[[[1.037,48.73],[1.042,48.727],[1.008,48.707],[0.985,48.726],[1.022,48.735],[1.037,48.73]]]}},{"type":"Feature","properties":{"code":"28264","nom":"Montireau","pop":136},"geometry":{"type":"Polygon","coordinates":[[[1.012,48.4],[1.02,48.431],[1.064,48.427],[1.039,48.396],[1.012,48.4]]]}},{"type":"Feature","properties":{"code":"28265","nom":"Montlandon","pop":252},"geometry":{"type":"Polygon","coordinates":[[[1.039,48.396],[1.021,48.375],[1.014,48.388],[1.012,48.4],[1.039,48.396]]]}},{"type":"Feature","properties":{"code":"28267","nom":"Montreuil","pop":538},"geometry":{"type":"Polygon","coordinates":[[[1.4,48.758],[1.366,48.764],[1.356,48.779],[1.356,48.779],[1.37,48.801],[1.401,48.772],[1.4,48.758]]]}},{"type":"Feature","properties":{"code":"28268","nom":"Morainville","pop":18},"geometry":{"type":"Polygon","coordinates":[[[1.813,48.374],[1.811,48.375],[1.837,48.39],[1.849,48.384],[1.842,48.368],[1.813,48.374]]]}},{"type":"Feature","properties":{"code":"28269","nom":"Morancez","pop":1935},"geometry":{"type":"Polygon","coordinates":[[[1.513,48.404],[1.529,48.39],[1.524,48.382],[1.506,48.382],[1.486,48.395],[1.483,48.416],[1.483,48.417],[1.513,48.404]]]}},{"type":"Feature","properties":{"code":"28270","nom":"Moriers","pop":223},"geometry":{"type":"Polygon","coordinates":[[[1.45,48.239],[1.457,48.236],[1.455,48.207],[1.435,48.199],[1.415,48.214],[1.426,48.234],[1.45,48.239]]]}},{"type":"Feature","properties":{"code":"28271","nom":"Morvilliers","pop":137},"geometry":{"type":"Polygon","coordinates":[[[0.947,48.672],[0.97,48.654],[0.967,48.64],[0.95,48.632],[0.915,48.642],[0.947,48.672]]]}},{"type":"Feature","properties":{"code":"28272","nom":"Mottereau","pop":152},"geometry":{"type":"Polygon","coordinates":[[[1.192,48.237],[1.184,48.234],[1.137,48.245],[1.16,48.265],[1.176,48.266],[1.192,48.237]]]}},{"type":"Feature","properties":{"code":"28273","nom":"Moulhard","pop":139},"geometry":{"type":"Polygon","coordinates":[[[1.059,48.22],[1.035,48.208],[0.979,48.206],[0.944,48.213],[0.991,48.222],[0.992,48.223],[1.059,48.22]]]}},{"type":"Feature","properties":{"code":"28274","nom":"Moutiers","pop":246},"geometry":{"type":"Polygon","coordinates":[[[1.8,48.299],[1.804,48.281],[1.782,48.269],[1.748,48.278],[1.71,48.297],[1.71,48.297],[1.736,48.321],[1.759,48.322],[1.8,48.299]]]}},{"type":"Feature","properties":{"code":"28275","nom":"Néron","pop":687},"geometry":{"type":"Polygon","coordinates":[[[1.541,48.607],[1.53,48.578],[1.479,48.577],[1.457,48.588],[1.473,48.604],[1.494,48.617],[1.541,48.607]]]}},{"type":"Feature","properties":{"code":"28276","nom":"Neuvy-en-Beauce","pop":0},"geometry":{"type":"Polygon","coordinates":[[[1.882,48.303],[1.891,48.283],[1.899,48.26],[1.891,48.247],[1.856,48.259],[1.856,48.3],[1.862,48.31],[1.882,48.303]]]}},{"type":"Feature","properties":{"code":"28277","nom":"Neuvy-en-Dunois","pop":300},"geometry":{"type":"Polygon","coordinates":[[[1.515,48.225],[1.569,48.223],[1.577,48.206],[1.531,48.168],[1.499,48.186],[1.495,48.207],[1.515,48.225]]]}},{"type":"Feature","properties":{"code":"28278","nom":"Nogent-le-Phaye","pop":1452},"geometry":{"type":"Polygon","coordinates":[[[1.61,48.469],[1.605,48.448],[1.559,48.431],[1.55,48.437],[1.542,48.458],[1.582,48.468],[1.61,48.469]]]}},{"type":"Feature","properties":{"code":"28279","nom":"Nogent-le-Roi","pop":4021},"geometry":{"type":"Polygon","coordinates":[[[1.546,48.607],[1.541,48.607],[1.494,48.617],[1.501,48.635],[1.519,48.655],[1.525,48.655],[1.537,48.65],[1.551,48.631],[1.546,48.607]]]}},{"type":"Feature","properties":{"code":"28280","nom":"Nogent-le-Rotrou","pop":9292},"geometry":{"type":"Polygon","coordinates":[[[0.808,48.29],[0.808,48.29],[0.76,48.298],[0.781,48.333],[0.785,48.34],[0.788,48.341],[0.818,48.35],[0.828,48.342],[0.816,48.325],[0.852,48.32],[0.859,48.312],[0.846,48.3],[0.808,48.29]]]}},{"type":"Feature","properties":{"code":"28281","nom":"Nogent-sur-Eure","pop":510},"geometry":{"type":"Polygon","coordinates":[[[1.385,48.406],[1.424,48.387],[1.423,48.387],[1.384,48.384],[1.365,48.372],[1.35,48.384],[1.36,48.401],[1.385,48.406]]]}},{"type":"Feature","properties":{"code":"28282","nom":"Nonvilliers-Grandhoux","pop":429},"geometry":{"type":"Polygon","coordinates":[[[1.146,48.308],[1.143,48.309],[1.116,48.351],[1.095,48.358],[1.094,48.372],[1.183,48.345],[1.186,48.34],[1.192,48.316],[1.146,48.308]]]}},{"type":"Feature","properties":{"code":"28283","nom":"Nottonville","pop":279},"geometry":{"type":"Polygon","coordinates":[[[1.475,48.119],[1.504,48.131],[1.519,48.151],[1.545,48.149],[1.57,48.13],[1.57,48.121],[1.539,48.101],[1.506,48.1],[1.476,48.11],[1.475,48.119]]]}},{"type":"Feature","properties":{"code":"28284","nom":"Oinville-Saint-Liphard","pop":279},"geometry":{"type":"Polygon","coordinates":[[[1.89,48.227],[1.891,48.247],[1.899,48.26],[1.932,48.258],[1.962,48.246],[1.967,48.235],[1.963,48.223],[1.923,48.212],[1.89,48.227]]]}},{"type":"Feature","properties":{"code":"28285","nom":"Oinville-sous-Auneau","pop":313},"geometry":{"type":"Polygon","coordinates":[[[1.736,48.484],[1.739,48.48],[1.739,48.46],[1.678,48.459],[1.694,48.482],[1.736,48.484]]]}},{"type":"Feature","properties":{"code":"28286","nom":"Ollé","pop":625},"geometry":{"type":"Polygon","coordinates":[[[1.317,48.41],[1.324,48.406],[1.327,48.38],[1.295,48.365],[1.279,48.37],[1.26,48.379],[1.258,48.382],[1.317,48.41]]]}},{"type":"Feature","properties":{"code":"28287","nom":"Orgères-en-Beauce","pop":1007},"geometry":{"type":"Polygon","coordinates":[[[1.673,48.115],[1.669,48.119],[1.656,48.152],[1.683,48.16],[1.715,48.152],[1.722,48.133],[1.673,48.115]]]}},{"type":"Feature","properties":{"code":"28289","nom":"Ormoy","pop":229},"geometry":{"type":"Polygon","coordinates":[[[1.473,48.604],[1.45,48.617],[1.463,48.641],[1.47,48.641],[1.501,48.635],[1.494,48.617],[1.473,48.604]]]}},{"type":"Feature","properties":{"code":"28290","nom":"Orrouer","pop":282},"geometry":{"type":"Polygon","coordinates":[[[1.317,48.41],[1.258,48.382],[1.246,48.401],[1.252,48.41],[1.283,48.421],[1.32,48.418],[1.317,48.41]]]}},{"type":"Feature","properties":{"code":"28291","nom":"Ouarville","pop":548},"geometry":{"type":"Polygon","coordinates":[[[1.813,48.374],[1.811,48.355],[1.763,48.343],[1.721,48.358],[1.717,48.359],[1.722,48.364],[1.768,48.384],[1.811,48.375],[1.813,48.374]]]}},{"type":"Feature","properties":{"code":"28292","nom":"Ouerre","pop":785},"geometry":{"type":"Polygon","coordinates":[[[1.455,48.713],[1.465,48.721],[1.508,48.726],[1.534,48.704],[1.518,48.698],[1.476,48.691],[1.454,48.694],[1.455,48.713]]]}},{"type":"Feature","properties":{"code":"28293","nom":"Oulins","pop":1171},"geometry":{"type":"Polygon","coordinates":[[[1.458,48.872],[1.465,48.879],[1.513,48.871],[1.526,48.88],[1.53,48.878],[1.514,48.855],[1.485,48.852],[1.457,48.856],[1.458,48.872]]]}},{"type":"Feature","properties":{"code":"28294","nom":"Oysonville","pop":517},"geometry":{"type":"Polygon","coordinates":[[[1.977,48.4],[1.967,48.381],[1.93,48.38],[1.919,48.396],[1.93,48.404],[1.962,48.404],[1.977,48.4]]]}},{"type":"Feature","properties":{"code":"28296","nom":"Péronville","pop":254},"geometry":{"type":"Polygon","coordinates":[[[1.621,48.048],[1.587,48.031],[1.545,48.044],[1.526,48.06],[1.543,48.069],[1.567,48.066],[1.602,48.091],[1.622,48.064],[1.621,48.048]]]}},{"type":"Feature","properties":{"code":"28298","nom":"Pierres","pop":2788},"geometry":{"type":"Polygon","coordinates":[[[1.541,48.607],[1.546,48.607],[1.583,48.604],[1.576,48.584],[1.539,48.567],[1.53,48.578],[1.541,48.607]]]}},{"type":"Feature","properties":{"code":"28299","nom":"Les Pinthières","pop":165},"geometry":{"type":"Polygon","coordinates":[[[1.59,48.713],[1.595,48.709],[1.582,48.696],[1.565,48.697],[1.555,48.703],[1.59,48.713]]]}},{"type":"Feature","properties":{"code":"28300","nom":"Poinville","pop":176},"geometry":{"type":"Polygon","coordinates":[[[1.925,48.174],[1.908,48.159],[1.875,48.17],[1.906,48.192],[1.925,48.174]]]}},{"type":"Feature","properties":{"code":"28301","nom":"Poisvilliers","pop":445},"geometry":{"type":"Polygon","coordinates":[[[1.444,48.491],[1.428,48.505],[1.439,48.514],[1.456,48.524],[1.492,48.51],[1.479,48.489],[1.444,48.491]]]}},{"type":"Feature","properties":{"code":"28302","nom":"Pontgouin","pop":1110},"geometry":{"type":"Polygon","coordinates":[[[1.109,48.506],[1.137,48.511],[1.196,48.502],[1.193,48.477],[1.165,48.468],[1.104,48.486],[1.109,48.506]]]}},{"type":"Feature","properties":{"code":"28303","nom":"Poupry","pop":96},"geometry":{"type":"Polygon","coordinates":[[[1.838,48.081],[1.803,48.089],[1.808,48.11],[1.851,48.121],[1.865,48.095],[1.838,48.081]]]}},{"type":"Feature","properties":{"code":"28304","nom":"Prasville","pop":451},"geometry":{"type":"Polygon","coordinates":[[[1.676,48.281],[1.71,48.297],[1.748,48.278],[1.719,48.247],[1.694,48.252],[1.676,48.281]]]}},{"type":"Feature","properties":{"code":"28305","nom":"Pré-Saint-Évroult","pop":283},"geometry":{"type":"Polygon","coordinates":[[[1.499,48.186],[1.483,48.168],[1.454,48.17],[1.416,48.176],[1.435,48.199],[1.455,48.207],[1.494,48.21],[1.495,48.207],[1.499,48.186]]]}},{"type":"Feature","properties":{"code":"28306","nom":"Pré-Saint-Martin","pop":174},"geometry":{"type":"Polygon","coordinates":[[[1.494,48.21],[1.455,48.207],[1.457,48.236],[1.49,48.233],[1.494,48.21]]]}},{"type":"Feature","properties":{"code":"28308","nom":"Prudemanche","pop":262},"geometry":{"type":"Polygon","coordinates":[[[1.173,48.72],[1.166,48.716],[1.13,48.699],[1.107,48.722],[1.103,48.732],[1.111,48.74],[1.135,48.743],[1.165,48.727],[1.173,48.72]]]}},{"type":"Feature","properties":{"code":"28309","nom":"Prunay-le-Gillon","pop":1164},"geometry":{"type":"Polygon","coordinates":[[[1.68,48.373],[1.688,48.37],[1.67,48.344],[1.63,48.343],[1.588,48.359],[1.591,48.377],[1.62,48.395],[1.68,48.373]]]}},{"type":"Feature","properties":{"code":"28310","nom":"La Puisaye","pop":248},"geometry":{"type":"Polygon","coordinates":[[[0.996,48.624],[1.011,48.612],[0.994,48.598],[0.969,48.587],[0.938,48.586],[0.934,48.611],[0.95,48.632],[0.967,48.64],[0.996,48.624]]]}},{"type":"Feature","properties":{"code":"28312","nom":"Puiseux","pop":136},"geometry":{"type":"Polygon","coordinates":[[[1.348,48.641],[1.38,48.652],[1.388,48.634],[1.362,48.628],[1.348,48.641]]]}},{"type":"Feature","properties":{"code":"28313","nom":"Réclainville","pop":203},"geometry":{"type":"Polygon","coordinates":[[[1.763,48.343],[1.759,48.322],[1.736,48.321],[1.719,48.328],[1.721,48.358],[1.763,48.343]]]}},{"type":"Feature","properties":{"code":"28314","nom":"Les Ressuintes","pop":152},"geometry":{"type":"Polygon","coordinates":[[[0.938,48.586],[0.918,48.607],[0.934,48.611],[0.938,48.586]]]}},{"type":"Feature","properties":{"code":"28315","nom":"Revercourt","pop":26},"geometry":{"type":"Polygon","coordinates":[[[1.107,48.722],[1.067,48.711],[1.05,48.728],[1.103,48.732],[1.107,48.722]]]}},{"type":"Feature","properties":{"code":"28316","nom":"Rohaire","pop":132},"geometry":{"type":"Polygon","coordinates":[[[0.815,48.67],[0.827,48.681],[0.85,48.683],[0.871,48.669],[0.86,48.655],[0.823,48.651],[0.815,48.67]]]}},{"type":"Feature","properties":{"code":"28317","nom":"Roinville","pop":588},"geometry":{"type":"Polygon","coordinates":[[[1.775,48.43],[1.735,48.438],[1.739,48.459],[1.782,48.447],[1.775,48.43]]]}},{"type":"Feature","properties":{"code":"28319","nom":"Rouvray-Saint-Denis","pop":647},"geometry":{"type":"Polygon","coordinates":[[[1.891,48.283],[1.911,48.291],[1.956,48.289],[1.962,48.303],[1.994,48.287],[1.987,48.269],[1.981,48.262],[1.947,48.269],[1.932,48.258],[1.899,48.26],[1.891,48.283]]]}},{"type":"Feature","properties":{"code":"28321","nom":"Rouvres","pop":802},"geometry":{"type":"Polygon","coordinates":[[[1.428,48.822],[1.442,48.83],[1.444,48.833],[1.485,48.852],[1.514,48.855],[1.521,48.829],[1.518,48.825],[1.485,48.809],[1.447,48.819],[1.428,48.822]]]}},{"type":"Feature","properties":{"code":"28322","nom":"Rueil-la-Gadelière","pop":465},"geometry":{"type":"Polygon","coordinates":[[[0.978,48.731],[0.985,48.726],[1.008,48.707],[1.012,48.692],[0.951,48.682],[0.921,48.709],[0.978,48.731]]]}},{"type":"Feature","properties":{"code":"28323","nom":"Saint-Ange-et-Torçay","pop":284},"geometry":{"type":"Polygon","coordinates":[[[1.213,48.621],[1.177,48.667],[1.176,48.668],[1.206,48.681],[1.227,48.671],[1.242,48.639],[1.23,48.614],[1.213,48.621]]]}},{"type":"Feature","properties":{"code":"28324","nom":"Saint-Arnoult-des-Bois","pop":897},"geometry":{"type":"Polygon","coordinates":[[[1.232,48.513],[1.26,48.523],[1.288,48.515],[1.28,48.497],[1.279,48.461],[1.274,48.459],[1.233,48.469],[1.232,48.513]]]}},{"type":"Feature","properties":{"code":"28325","nom":"Saint-Aubin-des-Bois","pop":1159},"geometry":{"type":"Polygon","coordinates":[[[1.346,48.442],[1.3,48.449],[1.33,48.482],[1.349,48.491],[1.391,48.468],[1.381,48.455],[1.346,48.442]]]}},{"type":"Feature","properties":{"code":"28326","nom":"Saint-Avit-les-Guespières","pop":342},"geometry":{"type":"Polygon","coordinates":[[[1.28,48.289],[1.29,48.289],[1.289,48.259],[1.25,48.256],[1.231,48.245],[1.241,48.274],[1.28,48.289]]]}},{"type":"Feature","properties":{"code":"28327","nom":"Saint-Bomer","pop":194},"geometry":{"type":"Polygon","coordinates":[[[0.836,48.168],[0.828,48.173],[0.798,48.195],[0.822,48.224],[0.83,48.221],[0.849,48.21],[0.857,48.188],[0.836,48.168]]]}},{"type":"Feature","properties":{"code":"28329","nom":"Saint-Christophe","pop":143},"geometry":{"type":"Polygon","coordinates":[[[1.38,48.145],[1.374,48.119],[1.354,48.117],[1.355,48.13],[1.367,48.15],[1.38,48.145]]]}},{"type":"Feature","properties":{"code":"28330","nom":"Villemaury","pop":1283},"geometry":{"type":"Polygon","coordinates":[[[1.52,47.982],[1.499,47.985],[1.458,48.008],[1.433,48.009],[1.425,48.022],[1.372,48.047],[1.382,48.06],[1.411,48.084],[1.428,48.095],[1.462,48.094],[1.476,48.11],[1.506,48.1],[1.515,48.074],[1.498,48.067],[1.476,48.036],[1.518,48.012],[1.52,47.982]]]}},{"type":"Feature","properties":{"code":"28331","nom":"Saintigny","pop":922},"geometry":{"type":"Polygon","coordinates":[[[1.036,48.315],[0.967,48.317],[0.952,48.349],[0.979,48.356],[0.949,48.385],[1.014,48.388],[1.021,48.375],[1.046,48.362],[1.049,48.343],[1.036,48.315]]]}},{"type":"Feature","properties":{"code":"28332","nom":"Sainte-Gemme-Moronval","pop":1114},"geometry":{"type":"Polygon","coordinates":[[[1.445,48.743],[1.445,48.741],[1.415,48.725],[1.389,48.728],[1.403,48.747],[1.445,48.743]]]}},{"type":"Feature","properties":{"code":"28333","nom":"Saint-Denis-des-Puits","pop":150},"geometry":{"type":"Polygon","coordinates":[[[1.114,48.383],[1.141,48.39],[1.191,48.395],[1.208,48.388],[1.208,48.374],[1.2,48.373],[1.155,48.368],[1.114,48.383]]]}},{"type":"Feature","properties":{"code":"28334","nom":"Saint-Denis-Lanneray","pop":2086},"geometry":{"type":"Polygon","coordinates":[[[1.295,48.051],[1.267,48.044],[1.229,48.059],[1.183,48.075],[1.199,48.098],[1.231,48.112],[1.23,48.127],[1.258,48.113],[1.26,48.105],[1.262,48.09],[1.314,48.068],[1.295,48.051]]]}},{"type":"Feature","properties":{"code":"28335","nom":"Saint-Éliph","pop":828},"geometry":{"type":"Polygon","coordinates":[[[1.094,48.48],[1.078,48.47],[1.069,48.431],[1.064,48.427],[1.02,48.431],[0.984,48.442],[0.999,48.461],[1.053,48.475],[1.094,48.48]]]}},{"type":"Feature","properties":{"code":"28336","nom":"Saint-Éman","pop":94},"geometry":{"type":"Polygon","coordinates":[[[1.192,48.316],[1.186,48.34],[1.204,48.328],[1.192,48.316]]]}},{"type":"Feature","properties":{"code":"28337","nom":"Saint-Georges-sur-Eure","pop":2797},"geometry":{"type":"Polygon","coordinates":[[[1.324,48.406],[1.317,48.41],[1.32,48.418],[1.351,48.441],[1.376,48.434],[1.4,48.414],[1.385,48.406],[1.36,48.401],[1.324,48.406]]]}},{"type":"Feature","properties":{"code":"28339","nom":"Saint-Germain-le-Gaillard","pop":368},"geometry":{"type":"Polygon","coordinates":[[[1.283,48.421],[1.252,48.41],[1.232,48.424],[1.237,48.437],[1.265,48.435],[1.283,48.421]]]}},{"type":"Feature","properties":{"code":"28341","nom":"Saint-Jean-de-Rebervilliers","pop":235},"geometry":{"type":"Polygon","coordinates":[[[1.244,48.609],[1.238,48.611],[1.23,48.614],[1.242,48.639],[1.27,48.639],[1.29,48.633],[1.29,48.633],[1.244,48.609]]]}},{"type":"Feature","properties":{"code":"28342","nom":"Saint-Jean-Pierre-Fixte","pop":271},"geometry":{"type":"Polygon","coordinates":[[[0.846,48.3],[0.858,48.289],[0.808,48.29],[0.846,48.3]]]}},{"type":"Feature","properties":{"code":"28343","nom":"Saint-Laurent-la-Gâtine","pop":470},"geometry":{"type":"Polygon","coordinates":[[[1.517,48.686],[1.518,48.698],[1.534,48.704],[1.555,48.703],[1.565,48.697],[1.559,48.682],[1.537,48.68],[1.517,48.686]]]}},{"type":"Feature","properties":{"code":"28344","nom":"Saint-Léger-des-Aubées","pop":254},"geometry":{"type":"Polygon","coordinates":[[[1.776,48.401],[1.77,48.392],[1.735,48.395],[1.725,48.418],[1.735,48.438],[1.775,48.43],[1.776,48.423],[1.776,48.401]]]}},{"type":"Feature","properties":{"code":"28346","nom":"Saint-Lubin-de-Cravant","pop":54},"geometry":{"type":"Polygon","coordinates":[[[1.071,48.711],[1.067,48.711],[1.107,48.722],[1.13,48.699],[1.1,48.693],[1.071,48.711]]]}},{"type":"Feature","properties":{"code":"28347","nom":"Saint-Lubin-de-la-Haye","pop":937},"geometry":{"type":"Polygon","coordinates":[[[1.546,48.795],[1.537,48.797],[1.527,48.821],[1.577,48.845],[1.587,48.843],[1.59,48.817],[1.579,48.809],[1.546,48.795]]]}},{"type":"Feature","properties":{"code":"28348","nom":"Saint-Lubin-des-Joncherets","pop":4116},"geometry":{"type":"Polygon","coordinates":[[[1.163,48.769],[1.187,48.773],[1.223,48.758],[1.202,48.73],[1.184,48.729],[1.173,48.72],[1.165,48.727],[1.178,48.736],[1.163,48.769]]]}},{"type":"Feature","properties":{"code":"28349","nom":"Saint-Lucien","pop":283},"geometry":{"type":"Polygon","coordinates":[[[1.607,48.631],[1.596,48.638],[1.608,48.66],[1.643,48.651],[1.651,48.638],[1.649,48.632],[1.641,48.624],[1.607,48.631]]]}},{"type":"Feature","properties":{"code":"28350","nom":"Saint-Luperce","pop":1005},"geometry":{"type":"Polygon","coordinates":[[[1.346,48.442],[1.351,48.441],[1.32,48.418],[1.283,48.421],[1.265,48.435],[1.274,48.459],[1.279,48.461],[1.3,48.449],[1.346,48.442]]]}},{"type":"Feature","properties":{"code":"28351","nom":"Saint-Maixme-Hauterive","pop":420},"geometry":{"type":"Polygon","coordinates":[[[1.152,48.558],[1.148,48.563],[1.146,48.593],[1.155,48.607],[1.213,48.621],[1.23,48.614],[1.238,48.611],[1.221,48.581],[1.185,48.561],[1.152,48.558]]]}},{"type":"Feature","properties":{"code":"28352","nom":"Saint-Martin-de-Nigelles","pop":1587},"geometry":{"type":"Polygon","coordinates":[[[1.591,48.605],[1.607,48.631],[1.641,48.624],[1.621,48.596],[1.591,48.605]]]}},{"type":"Feature","properties":{"code":"28353","nom":"Saint-Maur-sur-le-Loir","pop":411},"geometry":{"type":"Polygon","coordinates":[[[1.416,48.176],[1.454,48.17],[1.438,48.137],[1.412,48.128],[1.383,48.143],[1.416,48.176]]]}},{"type":"Feature","properties":{"code":"28354","nom":"Saint-Maurice-Saint-Germain","pop":528},"geometry":{"type":"Polygon","coordinates":[[[1.104,48.486],[1.094,48.48],[1.053,48.475],[1.039,48.48],[1.081,48.515],[1.109,48.506],[1.104,48.486]]]}},{"type":"Feature","properties":{"code":"28355","nom":"Saint-Ouen-Marchefroy","pop":290},"geometry":{"type":"Polygon","coordinates":[[[1.53,48.878],[1.546,48.872],[1.559,48.864],[1.521,48.829],[1.514,48.855],[1.53,48.878]]]}},{"type":"Feature","properties":{"code":"28357","nom":"Saint-Piat","pop":1120},"geometry":{"type":"Polygon","coordinates":[[[1.574,48.525],[1.569,48.528],[1.549,48.563],[1.59,48.57],[1.589,48.545],[1.614,48.541],[1.616,48.533],[1.591,48.53],[1.574,48.525]]]}},{"type":"Feature","properties":{"code":"28358","nom":"Saint-Prest","pop":2115},"geometry":{"type":"Polygon","coordinates":[[[1.523,48.475],[1.496,48.474],[1.479,48.489],[1.492,48.51],[1.516,48.513],[1.555,48.495],[1.551,48.489],[1.523,48.475]]]}},{"type":"Feature","properties":{"code":"28359","nom":"Saint-Rémy-sur-Avre","pop":4058},"geometry":{"type":"Polygon","coordinates":[[[1.245,48.77],[1.268,48.757],[1.274,48.742],[1.268,48.737],[1.228,48.733],[1.202,48.73],[1.223,48.758],[1.223,48.767],[1.245,48.77]]]}},{"type":"Feature","properties":{"code":"28360","nom":"Saint-Sauveur-Marville","pop":921},"geometry":{"type":"Polygon","coordinates":[[[1.244,48.609],[1.29,48.633],[1.319,48.612],[1.297,48.589],[1.257,48.589],[1.244,48.609]]]}},{"type":"Feature","properties":{"code":"28362","nom":"Saint-Victor-de-Buthon","pop":510},"geometry":{"type":"Polygon","coordinates":[[[1.014,48.388],[0.949,48.385],[0.926,48.384],[0.945,48.418],[0.976,48.439],[0.984,48.442],[1.02,48.431],[1.012,48.4],[1.014,48.388]]]}},{"type":"Feature","properties":{"code":"28363","nom":"Sainville","pop":1046},"geometry":{"type":"Polygon","coordinates":[[[1.828,48.423],[1.828,48.423],[1.861,48.444],[1.88,48.441],[1.884,48.44],[1.878,48.428],[1.926,48.413],[1.93,48.404],[1.919,48.396],[1.875,48.394],[1.873,48.4],[1.828,48.423]]]}},{"type":"Feature","properties":{"code":"28364","nom":"Sancheville","pop":742},"geometry":{"type":"Polygon","coordinates":[[[1.597,48.168],[1.554,48.155],[1.529,48.165],[1.531,48.168],[1.577,48.206],[1.617,48.201],[1.617,48.182],[1.597,48.168]]]}},{"type":"Feature","properties":{"code":"28365","nom":"Sandarville","pop":423},"geometry":{"type":"Polygon","coordinates":[[[1.329,48.332],[1.326,48.343],[1.361,48.366],[1.374,48.353],[1.344,48.328],[1.329,48.332]]]}},{"type":"Feature","properties":{"code":"28366","nom":"Santeuil","pop":324},"geometry":{"type":"Polygon","coordinates":[[[1.768,48.384],[1.722,48.364],[1.711,48.384],[1.735,48.395],[1.77,48.392],[1.768,48.384]]]}},{"type":"Feature","properties":{"code":"28367","nom":"Santilly","pop":303},"geometry":{"type":"Polygon","coordinates":[[[1.853,48.133],[1.847,48.146],[1.863,48.174],[1.875,48.17],[1.908,48.159],[1.92,48.146],[1.912,48.129],[1.9,48.127],[1.853,48.133]]]}},{"type":"Feature","properties":{"code":"28368","nom":"La Saucelle","pop":198},"geometry":{"type":"Polygon","coordinates":[[[0.996,48.624],[1.001,48.638],[1.03,48.647],[1.055,48.634],[1.024,48.605],[1.011,48.612],[0.996,48.624]]]}},{"type":"Feature","properties":{"code":"28369","nom":"Saulnières","pop":751},"geometry":{"type":"Polygon","coordinates":[[[1.294,48.641],[1.29,48.633],[1.27,48.639],[1.237,48.677],[1.255,48.694],[1.275,48.695],[1.262,48.678],[1.282,48.658],[1.294,48.641]]]}},{"type":"Feature","properties":{"code":"28370","nom":"Saumeray","pop":465},"geometry":{"type":"Polygon","coordinates":[[[1.295,48.259],[1.329,48.271],[1.341,48.288],[1.352,48.282],[1.348,48.254],[1.322,48.225],[1.282,48.24],[1.295,48.259]]]}},{"type":"Feature","properties":{"code":"28371","nom":"Saussay","pop":1080},"geometry":{"type":"Polygon","coordinates":[[[1.39,48.846],[1.398,48.857],[1.424,48.861],[1.424,48.843],[1.39,48.846]]]}},{"type":"Feature","properties":{"code":"28372","nom":"Senantes","pop":528},"geometry":{"type":"Polygon","coordinates":[[[1.603,48.663],[1.608,48.66],[1.596,48.638],[1.581,48.638],[1.566,48.676],[1.603,48.663]]]}},{"type":"Feature","properties":{"code":"28373","nom":"Senonches","pop":3045},"geometry":{"type":"Polygon","coordinates":[[[1.066,48.524],[1.026,48.517],[0.996,48.528],[0.964,48.557],[0.927,48.561],[0.969,48.587],[0.994,48.598],[1.01,48.584],[1.037,48.6],[1.061,48.599],[1.061,48.564],[1.09,48.572],[1.102,48.557],[1.066,48.524]]]}},{"type":"Feature","properties":{"code":"28374","nom":"Serazereux","pop":536},"geometry":{"type":"Polygon","coordinates":[[[1.436,48.57],[1.419,48.569],[1.403,48.6],[1.421,48.607],[1.45,48.617],[1.473,48.604],[1.457,48.588],[1.436,48.57]]]}},{"type":"Feature","properties":{"code":"28375","nom":"Serville","pop":359},"geometry":{"type":"Polygon","coordinates":[[[1.468,48.77],[1.476,48.78],[1.501,48.778],[1.507,48.766],[1.496,48.759],[1.473,48.758],[1.468,48.77]]]}},{"type":"Feature","properties":{"code":"28377","nom":"Sorel-Moussel","pop":1758},"geometry":{"type":"Polygon","coordinates":[[[1.442,48.83],[1.428,48.822],[1.419,48.831],[1.366,48.805],[1.36,48.831],[1.39,48.846],[1.424,48.843],[1.442,48.83]]]}},{"type":"Feature","properties":{"code":"28378","nom":"Souancé-au-Perche","pop":486},"geometry":{"type":"Polygon","coordinates":[[[0.808,48.29],[0.808,48.29],[0.858,48.289],[0.878,48.277],[0.883,48.256],[0.852,48.26],[0.833,48.25],[0.792,48.265],[0.808,48.29]]]}},{"type":"Feature","properties":{"code":"28379","nom":"Soulaires","pop":471},"geometry":{"type":"Polygon","coordinates":[[[1.614,48.521],[1.575,48.507],[1.574,48.525],[1.591,48.53],[1.614,48.521]]]}},{"type":"Feature","properties":{"code":"28380","nom":"Sours","pop":1959},"geometry":{"type":"Polygon","coordinates":[[[1.647,48.416],[1.62,48.395],[1.591,48.377],[1.548,48.405],[1.559,48.431],[1.605,48.448],[1.647,48.416]]]}},{"type":"Feature","properties":{"code":"28382","nom":"Terminiers","pop":881},"geometry":{"type":"Polygon","coordinates":[[[1.8,48.084],[1.771,48.07],[1.709,48.067],[1.689,48.078],[1.68,48.098],[1.708,48.121],[1.737,48.119],[1.774,48.086],[1.8,48.084]]]}},{"type":"Feature","properties":{"code":"28383","nom":"Theuville","pop":729},"geometry":{"type":"Polygon","coordinates":[[[1.63,48.343],[1.635,48.32],[1.602,48.302],[1.553,48.302],[1.551,48.313],[1.548,48.347],[1.588,48.359],[1.63,48.343]]]}},{"type":"Feature","properties":{"code":"28385","nom":"Le Thieulin","pop":423},"geometry":{"type":"Polygon","coordinates":[[[1.169,48.416],[1.141,48.39],[1.114,48.383],[1.098,48.388],[1.104,48.412],[1.142,48.428],[1.169,48.416]]]}},{"type":"Feature","properties":{"code":"28386","nom":"Thimert-Gâtelles","pop":1231},"geometry":{"type":"Polygon","coordinates":[[[1.185,48.561],[1.221,48.581],[1.257,48.589],[1.297,48.589],[1.295,48.557],[1.328,48.546],[1.288,48.515],[1.26,48.523],[1.261,48.538],[1.2,48.55],[1.185,48.561]]]}},{"type":"Feature","properties":{"code":"28387","nom":"Thiron-Gardais","pop":962},"geometry":{"type":"Polygon","coordinates":[[[1.066,48.3],[1.037,48.292],[1.003,48.294],[0.961,48.311],[0.967,48.317],[1.036,48.315],[1.067,48.304],[1.066,48.3]]]}},{"type":"Feature","properties":{"code":"28388","nom":"Thivars","pop":1119},"geometry":{"type":"Polygon","coordinates":[[[1.463,48.364],[1.458,48.359],[1.436,48.365],[1.425,48.388],[1.456,48.401],[1.467,48.4],[1.463,48.364]]]}},{"type":"Feature","properties":{"code":"28389","nom":"Thiville","pop":334},"geometry":{"type":"Polygon","coordinates":[[[1.321,48.012],[1.341,48.039],[1.372,48.047],[1.425,48.022],[1.382,48.008],[1.359,47.99],[1.321,48.012]]]}},{"type":"Feature","properties":{"code":"28390","nom":"Tillay-le-Péneux","pop":316},"geometry":{"type":"Polygon","coordinates":[[[1.783,48.186],[1.789,48.185],[1.794,48.138],[1.788,48.126],[1.779,48.127],[1.733,48.166],[1.738,48.181],[1.783,48.186]]]}},{"type":"Feature","properties":{"code":"28391","nom":"Toury","pop":2640},"geometry":{"type":"Polygon","coordinates":[[[1.971,48.178],[1.969,48.172],[1.925,48.174],[1.906,48.192],[1.923,48.212],[1.963,48.223],[1.979,48.204],[1.971,48.178]]]}},{"type":"Feature","properties":{"code":"28392","nom":"Trancrainville","pop":169},"geometry":{"type":"Polygon","coordinates":[[[1.891,48.247],[1.89,48.227],[1.841,48.222],[1.837,48.242],[1.856,48.259],[1.891,48.247]]]}},{"type":"Feature","properties":{"code":"28393","nom":"Tremblay-les-Villages","pop":2206},"geometry":{"type":"MultiPolygon","coordinates":[[[[1.419,48.569],[1.4,48.569],[1.364,48.572],[1.355,48.545],[1.328,48.546],[1.295,48.557],[1.297,48.589],[1.319,48.612],[1.362,48.628],[1.388,48.634],[1.41,48.636],[1.421,48.607],[1.403,48.6],[1.419,48.569]]],[[[1.474,48.565],[1.454,48.56],[1.436,48.57],[1.457,48.588],[1.479,48.577],[1.474,48.565]]]]}},{"type":"Feature","properties":{"code":"28394","nom":"Tréon","pop":1418},"geometry":{"type":"Polygon","coordinates":[[[1.306,48.676],[1.292,48.693],[1.308,48.695],[1.35,48.681],[1.343,48.653],[1.33,48.652],[1.306,48.676]]]}},{"type":"Feature","properties":{"code":"28395","nom":"Trizay-Coutretot-Saint-Serge","pop":430},"geometry":{"type":"Polygon","coordinates":[[[0.858,48.289],[0.846,48.3],[0.859,48.312],[0.919,48.291],[0.918,48.287],[0.878,48.277],[0.858,48.289]]]}},{"type":"Feature","properties":{"code":"28396","nom":"Trizay-lès-Bonneval","pop":323},"geometry":{"type":"Polygon","coordinates":[[[1.363,48.198],[1.335,48.19],[1.309,48.186],[1.329,48.215],[1.363,48.198]]]}},{"type":"Feature","properties":{"code":"28397","nom":"Umpeau","pop":404},"geometry":{"type":"Polygon","coordinates":[[[1.634,48.467],[1.677,48.489],[1.694,48.482],[1.678,48.459],[1.668,48.45],[1.634,48.467]]]}},{"type":"Feature","properties":{"code":"28398","nom":"Unverre","pop":1203},"geometry":{"type":"Polygon","coordinates":[[[1.073,48.238],[1.085,48.214],[1.126,48.205],[1.151,48.189],[1.138,48.154],[1.112,48.146],[1.078,48.154],[1.019,48.164],[1.009,48.188],[0.982,48.189],[0.979,48.206],[1.035,48.208],[1.059,48.22],[1.056,48.249],[1.073,48.238]]]}},{"type":"Feature","properties":{"code":"28400","nom":"Varize","pop":184},"geometry":{"type":"Polygon","coordinates":[[[1.526,48.06],[1.498,48.067],[1.515,48.074],[1.506,48.1],[1.539,48.101],[1.555,48.088],[1.543,48.069],[1.526,48.06]]]}},{"type":"Feature","properties":{"code":"28401","nom":"Vaupillon","pop":466},"geometry":{"type":"Polygon","coordinates":[[[0.976,48.439],[0.959,48.443],[0.938,48.469],[0.961,48.476],[1.003,48.469],[0.999,48.461],[0.984,48.442],[0.976,48.439]]]}},{"type":"Feature","properties":{"code":"28403","nom":"Ver-lès-Chartres","pop":776},"geometry":{"type":"Polygon","coordinates":[[[1.486,48.395],[1.506,48.382],[1.496,48.364],[1.463,48.364],[1.467,48.4],[1.486,48.395]]]}},{"type":"Feature","properties":{"code":"28404","nom":"Vernouillet","pop":12310},"geometry":{"type":"Polygon","coordinates":[[[1.384,48.721],[1.38,48.703],[1.374,48.69],[1.37,48.702],[1.316,48.719],[1.313,48.734],[1.323,48.738],[1.384,48.721]]]}},{"type":"Feature","properties":{"code":"28405","nom":"Vert-en-Drouais","pop":1123},"geometry":{"type":"Polygon","coordinates":[[[1.278,48.763],[1.311,48.765],[1.313,48.764],[1.323,48.738],[1.313,48.734],[1.299,48.732],[1.274,48.742],[1.268,48.757],[1.278,48.763]]]}},{"type":"Feature","properties":{"code":"28406","nom":"Éole-en-Beauce","pop":1238},"geometry":{"type":"Polygon","coordinates":[[[1.569,48.223],[1.559,48.241],[1.592,48.26],[1.617,48.257],[1.636,48.236],[1.694,48.252],[1.719,48.247],[1.746,48.218],[1.767,48.22],[1.775,48.206],[1.783,48.186],[1.738,48.181],[1.733,48.166],[1.727,48.167],[1.654,48.181],[1.644,48.165],[1.597,48.168],[1.617,48.182],[1.617,48.201],[1.577,48.206],[1.569,48.223]]]}},{"type":"Feature","properties":{"code":"28407","nom":"Vichères","pop":289},"geometry":{"type":"Polygon","coordinates":[[[0.916,48.242],[0.889,48.25],[0.883,48.256],[0.878,48.277],[0.918,48.287],[0.936,48.287],[0.934,48.264],[0.916,48.242]]]}},{"type":"Feature","properties":{"code":"28408","nom":"Vierville","pop":107},"geometry":{"type":"Polygon","coordinates":[[[1.874,48.374],[1.875,48.394],[1.919,48.396],[1.93,48.38],[1.905,48.379],[1.874,48.374]]]}},{"type":"Feature","properties":{"code":"28409","nom":"Vieuvicq","pop":442},"geometry":{"type":"Polygon","coordinates":[[[1.201,48.288],[1.209,48.273],[1.241,48.274],[1.231,48.245],[1.214,48.237],[1.192,48.237],[1.176,48.266],[1.183,48.284],[1.201,48.288]]]}},{"type":"Feature","properties":{"code":"28410","nom":"Villampuy","pop":296},"geometry":{"type":"Polygon","coordinates":[[[1.545,48.044],[1.512,48.028],[1.518,48.012],[1.476,48.036],[1.498,48.067],[1.526,48.06],[1.545,48.044]]]}},{"type":"Feature","properties":{"code":"28411","nom":"Villars","pop":179},"geometry":{"type":"Polygon","coordinates":[[[1.569,48.223],[1.515,48.225],[1.532,48.244],[1.559,48.241],[1.569,48.223]]]}},{"type":"Feature","properties":{"code":"28414","nom":"Villebon","pop":53},"geometry":{"type":"Polygon","coordinates":[[[1.215,48.396],[1.208,48.388],[1.191,48.395],[1.215,48.396]]]}},{"type":"Feature","properties":{"code":"28415","nom":"Villemeux-sur-Eure","pop":1780},"geometry":{"type":"Polygon","coordinates":[[[1.463,48.641],[1.437,48.664],[1.418,48.676],[1.454,48.694],[1.476,48.691],[1.498,48.682],[1.47,48.641],[1.463,48.641]]]}},{"type":"Feature","properties":{"code":"28417","nom":"Villiers-le-Morhier","pop":1351},"geometry":{"type":"Polygon","coordinates":[[[1.591,48.605],[1.583,48.604],[1.546,48.607],[1.551,48.631],[1.581,48.638],[1.596,48.638],[1.607,48.631],[1.591,48.605]]]}},{"type":"Feature","properties":{"code":"28418","nom":"Villiers-Saint-Orien","pop":162},"geometry":{"type":"Polygon","coordinates":[[[1.456,48.134],[1.49,48.158],[1.529,48.165],[1.554,48.155],[1.545,48.149],[1.519,48.151],[1.504,48.131],[1.475,48.119],[1.456,48.134]]]}},{"type":"Feature","properties":{"code":"28419","nom":"Vitray-en-Beauce","pop":346},"geometry":{"type":"Polygon","coordinates":[[[1.418,48.296],[1.451,48.293],[1.451,48.266],[1.43,48.257],[1.423,48.256],[1.387,48.275],[1.418,48.296]]]}},{"type":"Feature","properties":{"code":"28421","nom":"Voise","pop":245},"geometry":{"type":"Polygon","coordinates":[[[1.711,48.384],[1.683,48.388],[1.696,48.422],[1.725,48.418],[1.735,48.395],[1.711,48.384]]]}},{"type":"Feature","properties":{"code":"28422","nom":"Les Villages Vovéens","pop":4009},"geometry":{"type":"Polygon","coordinates":[[[1.553,48.302],[1.602,48.302],[1.676,48.281],[1.694,48.252],[1.636,48.236],[1.617,48.257],[1.592,48.26],[1.559,48.241],[1.532,48.244],[1.506,48.257],[1.521,48.274],[1.512,48.291],[1.553,48.302]]]}},{"type":"Feature","properties":{"code":"28423","nom":"Yermenonville","pop":621},"geometry":{"type":"Polygon","coordinates":[[[1.616,48.533],[1.614,48.541],[1.602,48.564],[1.626,48.554],[1.638,48.552],[1.616,48.533]]]}},{"type":"Feature","properties":{"code":"28424","nom":"Yèvres","pop":1677},"geometry":{"type":"Polygon","coordinates":[[[1.237,48.174],[1.208,48.179],[1.192,48.15],[1.138,48.154],[1.151,48.189],[1.182,48.204],[1.184,48.234],[1.192,48.237],[1.214,48.237],[1.24,48.204],[1.237,48.174]]]}},{"type":"Feature","properties":{"code":"28425","nom":"Ymeray","pop":615},"geometry":{"type":"Polygon","coordinates":[[[1.682,48.498],[1.679,48.51],[1.69,48.52],[1.718,48.519],[1.723,48.502],[1.682,48.498]]]}},{"type":"Feature","properties":{"code":"28426","nom":"Ymonville","pop":475},"geometry":{"type":"Polygon","coordinates":[[[1.748,48.278],[1.782,48.269],[1.761,48.24],[1.771,48.224],[1.767,48.22],[1.746,48.218],[1.719,48.247],[1.748,48.278]]]}}]}