{"type":"FeatureCollection","features":[{"type":"Feature","properties":{"code":"2A001","nom":"Afa","pop":3350},"geometry":{"type":"Polygon","coordinates":[[[8.808,42.009],[8.816,41.981],[8.785,41.953],[8.785,41.955],[8.788,41.969],[8.784,42.006],[8.808,42.009]]]}},{"type":"Feature","properties":{"code":"2A004","nom":"Ajaccio","pop":76320},"geometry":{"type":"Polygon","coordinates":[[[8.623,41.971],[8.669,41.948],[8.701,41.953],[8.744,41.961],[8.785,41.955],[8.785,41.953],[8.818,41.951],[8.821,41.919],[8.802,41.908],[8.798,41.905],[8.781,41.924],[8.741,41.932],[8.719,41.908],[8.671,41.905],[8.61,41.912],[8.624,41.935],[8.593,41.965],[8.623,41.971]]]}},{"type":"Feature","properties":{"code":"2A006","nom":"Alata","pop":3681},"geometry":{"type":"Polygon","coordinates":[[[8.669,41.99],[8.742,41.994],[8.77,41.99],[8.788,41.969],[8.785,41.955],[8.744,41.961],[8.701,41.953],[8.69,41.974],[8.669,41.982],[8.669,41.99]]]}},{"type":"Feature","properties":{"code":"2A008","nom":"Albitreccia","pop":1833},"geometry":{"type":"Polygon","coordinates":[[[8.961,41.855],[8.958,41.847],[8.94,41.845],[8.913,41.844],[8.895,41.852],[8.86,41.823],[8.849,41.845],[8.822,41.859],[8.79,41.853],[8.788,41.868],[8.807,41.874],[8.857,41.871],[8.86,41.888],[8.896,41.883],[8.934,41.875],[8.961,41.855]]]}},{"type":"Feature","properties":{"code":"2A011","nom":"Altagène","pop":52},"geometry":{"type":"Polygon","coordinates":[[[9.091,41.721],[9.094,41.706],[9.082,41.698],[9.051,41.71],[9.091,41.721]]]}},{"type":"Feature","properties":{"code":"2A014","nom":"Ambiegna","pop":79},"geometry":{"type":"Polygon","coordinates":[[[8.774,42.102],[8.799,42.083],[8.787,42.078],[8.737,42.084],[8.757,42.091],[8.774,42.102]]]}},{"type":"Feature","properties":{"code":"2A017","nom":"Appietto","pop":1749},"geometry":{"type":"Polygon","coordinates":[[[8.803,42.013],[8.808,42.009],[8.784,42.006],[8.788,41.969],[8.77,41.99],[8.742,41.994],[8.669,41.99],[8.657,42.004],[8.732,42.023],[8.796,42.024],[8.803,42.013]]]}},{"type":"Feature","properties":{"code":"2A018","nom":"Arbellara","pop":165},"geometry":{"type":"Polygon","coordinates":[[[9.016,41.675],[9.021,41.67],[9,41.661],[8.972,41.652],[8.969,41.68],[8.995,41.687],[9.016,41.675]]]}},{"type":"Feature","properties":{"code":"2A019","nom":"Arbori","pop":53},"geometry":{"type":"Polygon","coordinates":[[[8.81,42.112],[8.774,42.102],[8.757,42.091],[8.777,42.123],[8.768,42.135],[8.812,42.155],[8.835,42.131],[8.821,42.116],[8.81,42.112]]]}},{"type":"Feature","properties":{"code":"2A021","nom":"Argiusta-Moriccio","pop":75},"geometry":{"type":"Polygon","coordinates":[[[9.004,41.826],[9.008,41.831],[9.022,41.838],[9.061,41.804],[9.049,41.79],[9.004,41.826]]]}},{"type":"Feature","properties":{"code":"2A022","nom":"Arro","pop":80},"geometry":{"type":"Polygon","coordinates":[[[8.799,42.083],[8.774,42.102],[8.81,42.112],[8.827,42.083],[8.799,42.083]]]}},{"type":"Feature","properties":{"code":"2A024","nom":"Aullène","pop":184},"geometry":{"type":"Polygon","coordinates":[[[9.119,41.856],[9.152,41.844],[9.102,41.794],[9.082,41.764],[9.034,41.771],[9.049,41.79],[9.061,41.804],[9.093,41.827],[9.119,41.856]]]}},{"type":"Feature","properties":{"code":"2A026","nom":"Azilone-Ampaza","pop":208},"geometry":{"type":"Polygon","coordinates":[[[9.007,41.88],[9.03,41.888],[9.033,41.857],[8.999,41.863],[8.993,41.863],[9.007,41.88]]]}},{"type":"Feature","properties":{"code":"2A027","nom":"Azzana","pop":49},"geometry":{"type":"Polygon","coordinates":[[[8.913,42.143],[8.917,42.145],[8.94,42.149],[8.93,42.126],[8.956,42.101],[8.957,42.093],[8.947,42.09],[8.934,42.086],[8.924,42.091],[8.913,42.143]]]}},{"type":"Feature","properties":{"code":"2A028","nom":"Balogna","pop":135},"geometry":{"type":"Polygon","coordinates":[[[8.703,42.185],[8.72,42.209],[8.772,42.203],[8.794,42.207],[8.797,42.187],[8.772,42.162],[8.721,42.174],[8.703,42.185]]]}},{"type":"Feature","properties":{"code":"2A031","nom":"Bastelica","pop":522},"geometry":{"type":"Polygon","coordinates":[[[9.053,41.959],[9.022,41.928],[8.988,41.909],[8.96,41.897],[8.952,41.904],[8.951,41.921],[8.95,41.931],[8.981,41.944],[9.005,41.981],[8.974,42.005],[8.978,42.01],[9.021,42.041],[9.045,42.035],[9.103,42.045],[9.134,42.06],[9.16,42.027],[9.147,42.011],[9.097,41.978],[9.065,41.963],[9.053,41.959]]]}},{"type":"Feature","properties":{"code":"2A032","nom":"Bastelicaccia","pop":4411},"geometry":{"type":"Polygon","coordinates":[[[8.822,41.96],[8.872,41.954],[8.864,41.926],[8.838,41.912],[8.819,41.907],[8.802,41.908],[8.821,41.919],[8.818,41.951],[8.822,41.96]]]}},{"type":"Feature","properties":{"code":"2A035","nom":"Belvédère-Campomoro","pop":213},"geometry":{"type":"Polygon","coordinates":[[[8.859,41.624],[8.814,41.588],[8.782,41.588],[8.797,41.632],[8.823,41.631],[8.869,41.646],[8.859,41.624]]]}},{"type":"Feature","properties":{"code":"2A038","nom":"Bilia","pop":54},"geometry":{"type":"Polygon","coordinates":[[[8.914,41.634],[8.921,41.614],[8.901,41.605],[8.887,41.627],[8.914,41.634]]]}},{"type":"Feature","properties":{"code":"2A040","nom":"Bocognano","pop":419},"geometry":{"type":"Polygon","coordinates":[[[9.071,42.13],[9.112,42.114],[9.134,42.091],[9.134,42.06],[9.103,42.045],[9.04,42.061],[9.028,42.079],[9.005,42.08],[9.003,42.113],[9.038,42.127],[9.071,42.13]]]}},{"type":"Feature","properties":{"code":"2A041","nom":"Bonifacio","pop":3344},"geometry":{"type":"Polygon","coordinates":[[[9.235,41.507],[9.246,41.483],[9.287,41.484],[9.244,41.447],[9.224,41.443],[9.225,41.417],[9.265,41.428],[9.22,41.367],[9.178,41.368],[9.168,41.385],[9.127,41.399],[9.091,41.402],[9.121,41.438],[9.095,41.45],[9.1,41.474],[9.126,41.474],[9.14,41.457],[9.165,41.467],[9.191,41.495],[9.235,41.507]]]}},{"type":"Feature","properties":{"code":"2A048","nom":"Calcatoggio","pop":516},"geometry":{"type":"Polygon","coordinates":[[[8.796,42.024],[8.732,42.023],[8.657,42.004],[8.691,42.028],[8.742,42.041],[8.744,42.057],[8.806,42.028],[8.796,42.024]]]}},{"type":"Feature","properties":{"code":"2A056","nom":"Campo","pop":102},"geometry":{"type":"Polygon","coordinates":[[[9.014,41.897],[9.009,41.882],[8.988,41.9],[9.014,41.897]]]}},{"type":"Feature","properties":{"code":"2A060","nom":"Cannelle","pop":70},"geometry":{"type":"Polygon","coordinates":[[[8.794,42.056],[8.842,42.043],[8.835,42.039],[8.825,42.039],[8.791,42.055],[8.794,42.056]]]}},{"type":"Feature","properties":{"code":"2A061","nom":"Carbini","pop":117},"geometry":{"type":"Polygon","coordinates":[[[9.164,41.656],[9.133,41.665],[9.126,41.68],[9.165,41.701],[9.189,41.684],[9.164,41.656]]]}},{"type":"Feature","properties":{"code":"2A062","nom":"Carbuccia","pop":379},"geometry":{"type":"Polygon","coordinates":[[[8.963,42.02],[8.939,42.014],[8.893,42.017],[8.907,42.026],[8.947,42.055],[8.963,42.02]]]}},{"type":"Feature","properties":{"code":"2A064","nom":"Cardo-Torgia","pop":32},"geometry":{"type":"Polygon","coordinates":[[[8.958,41.847],[8.961,41.855],[8.974,41.87],[8.989,41.859],[8.964,41.837],[8.958,41.847]]]}},{"type":"Feature","properties":{"code":"2A065","nom":"Cargèse","pop":1150},"geometry":{"type":"Polygon","coordinates":[[[8.682,42.172],[8.671,42.13],[8.651,42.117],[8.625,42.123],[8.594,42.143],[8.566,42.177],[8.582,42.183],[8.621,42.185],[8.636,42.166],[8.682,42.172]]]}},{"type":"Feature","properties":{"code":"2A066","nom":"Cargiaca","pop":64},"geometry":{"type":"Polygon","coordinates":[[[9.042,41.71],[9.025,41.719],[9.036,41.75],[9.058,41.743],[9.056,41.721],[9.049,41.712],[9.042,41.71]]]}},{"type":"Feature","properties":{"code":"2A070","nom":"Casaglione","pop":571},"geometry":{"type":"Polygon","coordinates":[[[8.794,42.056],[8.791,42.055],[8.744,42.059],[8.717,42.078],[8.737,42.084],[8.787,42.078],[8.794,42.056]]]}},{"type":"Feature","properties":{"code":"2A071","nom":"Casalabriva","pop":235},"geometry":{"type":"Polygon","coordinates":[[[8.876,41.769],[8.917,41.78],[8.94,41.775],[8.953,41.743],[8.922,41.74],[8.9,41.763],[8.876,41.769]]]}},{"type":"Feature","properties":{"code":"2A085","nom":"Cauro","pop":1486},"geometry":{"type":"Polygon","coordinates":[[[8.838,41.912],[8.849,41.903],[8.896,41.921],[8.951,41.921],[8.952,41.904],[8.891,41.886],[8.861,41.889],[8.837,41.888],[8.819,41.907],[8.838,41.912]]]}},{"type":"Feature","properties":{"code":"2A089","nom":"Ciamannacce","pop":129},"geometry":{"type":"Polygon","coordinates":[[[9.127,41.928],[9.136,41.947],[9.11,41.975],[9.097,41.978],[9.147,42.011],[9.156,42],[9.166,41.954],[9.139,41.931],[9.127,41.928]]]}},{"type":"Feature","properties":{"code":"2A090","nom":"Coggia","pop":818},"geometry":{"type":"Polygon","coordinates":[[[8.702,42.111],[8.718,42.143],[8.768,42.135],[8.777,42.123],[8.757,42.091],[8.737,42.084],[8.717,42.078],[8.702,42.111]]]}},{"type":"Feature","properties":{"code":"2A091","nom":"Cognocoli-Monticchi","pop":172},"geometry":{"type":"Polygon","coordinates":[[[8.913,41.823],[8.863,41.778],[8.868,41.76],[8.857,41.755],[8.824,41.764],[8.824,41.789],[8.821,41.791],[8.86,41.823],[8.895,41.852],[8.913,41.844],[8.913,41.823]]]}},{"type":"Feature","properties":{"code":"2A092","nom":"Conca","pop":1175},"geometry":{"type":"Polygon","coordinates":[[[9.232,41.774],[9.273,41.808],[9.277,41.794],[9.334,41.786],[9.36,41.764],[9.397,41.774],[9.407,41.743],[9.402,41.718],[9.382,41.725],[9.344,41.702],[9.305,41.714],[9.318,41.746],[9.261,41.761],[9.232,41.774]]]}},{"type":"Feature","properties":{"code":"2A094","nom":"Corrano","pop":75},"geometry":{"type":"Polygon","coordinates":[[[9.047,41.86],[9.06,41.905],[9.093,41.889],[9.087,41.863],[9.047,41.86]]]}},{"type":"Feature","properties":{"code":"2A098","nom":"Coti-Chiavari","pop":737},"geometry":{"type":"Polygon","coordinates":[[[8.821,41.791],[8.824,41.789],[8.791,41.762],[8.784,41.735],[8.775,41.741],[8.723,41.724],[8.683,41.747],[8.729,41.774],[8.721,41.798],[8.772,41.812],[8.821,41.791]]]}},{"type":"Feature","properties":{"code":"2A099","nom":"Cozzano","pop":282},"geometry":{"type":"Polygon","coordinates":[[[9.139,41.931],[9.166,41.954],[9.198,41.957],[9.223,41.949],[9.231,41.933],[9.214,41.917],[9.185,41.908],[9.139,41.931]]]}},{"type":"Feature","properties":{"code":"2A100","nom":"Cristinacce","pop":77},"geometry":{"type":"Polygon","coordinates":[[[8.882,42.272],[8.905,42.254],[8.882,42.247],[8.849,42.22],[8.819,42.222],[8.814,42.239],[8.882,42.272]]]}},{"type":"Feature","properties":{"code":"2A103","nom":"Cuttoli-Corticchiato","pop":2060},"geometry":{"type":"Polygon","coordinates":[[[8.872,41.954],[8.822,41.96],[8.843,41.982],[8.88,42.001],[8.947,41.989],[8.944,41.983],[8.872,41.954]]]}},{"type":"Feature","properties":{"code":"2A104","nom":"Eccica-Suarella","pop":1389},"geometry":{"type":"Polygon","coordinates":[[[8.951,41.921],[8.896,41.921],[8.849,41.903],[8.838,41.912],[8.864,41.926],[8.904,41.938],[8.93,41.934],[8.95,41.931],[8.951,41.921]]]}},{"type":"Feature","properties":{"code":"2A108","nom":"Évisa","pop":231},"geometry":{"type":"Polygon","coordinates":[[[8.857,42.331],[8.859,42.3],[8.882,42.272],[8.814,42.239],[8.768,42.252],[8.784,42.267],[8.767,42.291],[8.771,42.325],[8.828,42.319],[8.857,42.331]]]}},{"type":"Feature","properties":{"code":"2A114","nom":"Figari","pop":1772},"geometry":{"type":"Polygon","coordinates":[[[9.087,41.585],[9.112,41.596],[9.134,41.565],[9.165,41.548],[9.177,41.531],[9.167,41.509],[9.191,41.495],[9.165,41.467],[9.14,41.457],[9.126,41.474],[9.1,41.474],[9.095,41.45],[9.066,41.45],[9.08,41.477],[9.083,41.517],[9.061,41.532],[9.091,41.568],[9.087,41.585]]]}},{"type":"Feature","properties":{"code":"2A115","nom":"Foce","pop":151},"geometry":{"type":"Polygon","coordinates":[[[9.046,41.609],[9.022,41.598],[8.995,41.602],[9.01,41.631],[9.029,41.635],[9.08,41.65],[9.07,41.619],[9.046,41.609]]]}},{"type":"Feature","properties":{"code":"2A117","nom":"Forciolo","pop":93},"geometry":{"type":"Polygon","coordinates":[[[9.008,41.831],[8.999,41.863],[9.033,41.857],[9.036,41.853],[9.022,41.838],[9.008,41.831]]]}},{"type":"Feature","properties":{"code":"2A118","nom":"Fozzano","pop":210},"geometry":{"type":"Polygon","coordinates":[[[8.964,41.72],[8.989,41.728],[8.986,41.703],[9.02,41.709],[9.033,41.695],[9.016,41.675],[8.995,41.687],[8.969,41.68],[8.949,41.696],[8.964,41.72]]]}},{"type":"Feature","properties":{"code":"2A119","nom":"Frasseto","pop":134},"geometry":{"type":"Polygon","coordinates":[[[9.022,41.928],[9.053,41.959],[9.063,41.925],[9.03,41.888],[9.007,41.88],[9.009,41.882],[9.014,41.897],[9.022,41.928]]]}},{"type":"Feature","properties":{"code":"2A127","nom":"Giuncheto","pop":106},"geometry":{"type":"Polygon","coordinates":[[[8.981,41.586],[8.936,41.572],[8.943,41.601],[8.981,41.586]]]}},{"type":"Feature","properties":{"code":"2A128","nom":"Granace","pop":92},"geometry":{"type":"Polygon","coordinates":[[[9.01,41.631],[9.001,41.652],[9.021,41.64],[9.029,41.635],[9.01,41.631]]]}},{"type":"Feature","properties":{"code":"2A129","nom":"Grossa","pop":74},"geometry":{"type":"Polygon","coordinates":[[[8.814,41.588],[8.859,41.624],[8.887,41.627],[8.901,41.605],[8.897,41.593],[8.849,41.583],[8.814,41.588]]]}},{"type":"Feature","properties":{"code":"2A130","nom":"Grosseto-Prugna","pop":3900},"geometry":{"type":"Polygon","coordinates":[[[8.802,41.908],[8.819,41.907],[8.837,41.888],[8.861,41.889],[8.891,41.886],[8.952,41.904],[8.96,41.897],[8.974,41.87],[8.961,41.855],[8.934,41.875],[8.896,41.883],[8.86,41.888],[8.857,41.871],[8.807,41.874],[8.788,41.868],[8.798,41.905],[8.802,41.908]]]}},{"type":"Feature","properties":{"code":"2A131","nom":"Guagno","pop":145},"geometry":{"type":"Polygon","coordinates":[[[8.953,42.151],[8.94,42.149],[8.917,42.145],[8.921,42.171],[8.971,42.187],[8.985,42.209],[9.006,42.209],[9.046,42.208],[9.049,42.193],[9.048,42.176],[8.953,42.151]]]}},{"type":"Feature","properties":{"code":"2A132","nom":"Guargualé","pop":146},"geometry":{"type":"Polygon","coordinates":[[[8.938,41.798],[8.929,41.795],[8.913,41.823],[8.913,41.844],[8.94,41.845],[8.938,41.798]]]}},{"type":"Feature","properties":{"code":"2A133","nom":"Guitera-les-Bains","pop":154},"geometry":{"type":"Polygon","coordinates":[[[9.053,41.959],[9.065,41.963],[9.086,41.932],[9.105,41.917],[9.093,41.889],[9.06,41.905],[9.063,41.925],[9.053,41.959]]]}},{"type":"Feature","properties":{"code":"2A139","nom":"Lecci","pop":2134},"geometry":{"type":"Polygon","coordinates":[[[9.244,41.682],[9.275,41.698],[9.321,41.7],[9.342,41.684],[9.338,41.668],[9.351,41.64],[9.356,41.617],[9.314,41.629],[9.322,41.654],[9.28,41.693],[9.244,41.682]]]}},{"type":"Feature","properties":{"code":"2A141","nom":"Letia","pop":111},"geometry":{"type":"Polygon","coordinates":[[[8.927,42.254],[8.94,42.237],[8.894,42.222],[8.884,42.177],[8.88,42.178],[8.82,42.176],[8.818,42.192],[8.837,42.196],[8.849,42.22],[8.882,42.247],[8.905,42.254],[8.927,42.254],[8.927,42.254]]]}},{"type":"Feature","properties":{"code":"2A142","nom":"Levie","pop":674},"geometry":{"type":"Polygon","coordinates":[[[9.099,41.731],[9.125,41.738],[9.137,41.738],[9.14,41.715],[9.165,41.701],[9.126,41.68],[9.133,41.665],[9.164,41.656],[9.17,41.616],[9.13,41.597],[9.112,41.596],[9.087,41.585],[9.084,41.584],[9.046,41.609],[9.07,41.619],[9.08,41.65],[9.102,41.659],[9.094,41.706],[9.091,41.721],[9.099,41.731]]]}},{"type":"Feature","properties":{"code":"2A144","nom":"Lopigna","pop":113},"geometry":{"type":"Polygon","coordinates":[[[8.897,42.073],[8.887,42.064],[8.858,42.08],[8.827,42.083],[8.81,42.112],[8.821,42.116],[8.87,42.099],[8.897,42.073]]]}},{"type":"Feature","properties":{"code":"2A146","nom":"Loreto-di-Tallano","pop":47},"geometry":{"type":"Polygon","coordinates":[[[9.042,41.71],[9.039,41.689],[9.021,41.67],[9.016,41.675],[9.033,41.695],[9.02,41.709],[9.025,41.719],[9.042,41.71]]]}},{"type":"Feature","properties":{"code":"2A154","nom":"Marignana","pop":100},"geometry":{"type":"Polygon","coordinates":[[[8.703,42.185],[8.682,42.172],[8.636,42.166],[8.621,42.185],[8.673,42.21],[8.698,42.229],[8.736,42.218],[8.768,42.252],[8.814,42.239],[8.819,42.222],[8.794,42.207],[8.772,42.203],[8.72,42.209],[8.703,42.185]]]}},{"type":"Feature","properties":{"code":"2A158","nom":"Mela","pop":37},"geometry":{"type":"Polygon","coordinates":[[[9.094,41.706],[9.102,41.659],[9.082,41.698],[9.094,41.706]]]}},{"type":"Feature","properties":{"code":"2A160","nom":"Moca-Croce","pop":221},"geometry":{"type":"Polygon","coordinates":[[[8.962,41.809],[9.004,41.826],[9.049,41.79],[9.034,41.771],[9.027,41.752],[8.989,41.728],[9.009,41.769],[8.998,41.792],[8.962,41.809]]]}},{"type":"Feature","properties":{"code":"2A163","nom":"Monacia-d'Aullène","pop":540},"geometry":{"type":"Polygon","coordinates":[[[8.94,41.49],[8.977,41.513],[9.022,41.561],[9.041,41.571],[9.076,41.573],[9.063,41.548],[8.995,41.486],[8.94,41.49]]]}},{"type":"Feature","properties":{"code":"2A174","nom":"Murzo","pop":98},"geometry":{"type":"Polygon","coordinates":[[[8.887,42.148],[8.835,42.131],[8.812,42.155],[8.82,42.176],[8.88,42.178],[8.887,42.148]]]}},{"type":"Feature","properties":{"code":"2A181","nom":"Ocana","pop":657},"geometry":{"type":"Polygon","coordinates":[[[8.864,41.926],[8.872,41.954],[8.944,41.983],[8.948,41.941],[8.93,41.934],[8.904,41.938],[8.864,41.926]]]}},{"type":"Feature","properties":{"code":"2A186","nom":"Olivese","pop":221},"geometry":{"type":"Polygon","coordinates":[[[9.119,41.856],[9.093,41.827],[9.061,41.804],[9.022,41.838],[9.036,41.853],[9.047,41.86],[9.087,41.863],[9.119,41.856]]]}},{"type":"Feature","properties":{"code":"2A189","nom":"Olmeto","pop":1289},"geometry":{"type":"Polygon","coordinates":[[[8.919,41.681],[8.917,41.682],[8.85,41.696],[8.826,41.71],[8.828,41.716],[8.873,41.72],[8.922,41.74],[8.953,41.743],[8.964,41.72],[8.949,41.696],[8.919,41.681]]]}},{"type":"Feature","properties":{"code":"2A191","nom":"Olmiccia","pop":120},"geometry":{"type":"Polygon","coordinates":[[[9.001,41.652],[9,41.661],[9.021,41.67],[9.039,41.689],[9.055,41.68],[9.021,41.64],[9.001,41.652]]]}},{"type":"Feature","properties":{"code":"2A196","nom":"Orto","pop":81},"geometry":{"type":"Polygon","coordinates":[[[8.921,42.171],[8.919,42.181],[8.938,42.204],[8.98,42.224],[9.006,42.209],[8.985,42.209],[8.971,42.187],[8.921,42.171]]]}},{"type":"Feature","properties":{"code":"2A197","nom":"Osani","pop":96},"geometry":{"type":"Polygon","coordinates":[[[8.573,42.382],[8.595,42.37],[8.641,42.374],[8.684,42.348],[8.675,42.309],[8.66,42.302],[8.626,42.313],[8.628,42.341],[8.557,42.361],[8.573,42.382]]]}},{"type":"Feature","properties":{"code":"2A198","nom":"Ota","pop":470},"geometry":{"type":"Polygon","coordinates":[[[8.768,42.252],[8.736,42.218],[8.698,42.229],[8.689,42.263],[8.691,42.275],[8.751,42.279],[8.767,42.291],[8.784,42.267],[8.768,42.252]]]}},{"type":"Feature","properties":{"code":"2A200","nom":"Palneca","pop":133},"geometry":{"type":"Polygon","coordinates":[[[9.22,41.99],[9.223,41.949],[9.198,41.957],[9.166,41.954],[9.156,42],[9.147,42.011],[9.16,42.027],[9.221,42.027],[9.22,41.99]]]}},{"type":"Feature","properties":{"code":"2A203","nom":"Partinello","pop":94},"geometry":{"type":"Polygon","coordinates":[[[8.684,42.348],[8.725,42.342],[8.705,42.321],[8.687,42.282],[8.66,42.302],[8.675,42.309],[8.684,42.348]]]}},{"type":"Feature","properties":{"code":"2A204","nom":"Pastricciola","pop":90},"geometry":{"type":"Polygon","coordinates":[[[9.048,42.176],[9.065,42.167],[9.071,42.13],[9.038,42.127],[9.003,42.113],[8.983,42.112],[8.961,42.126],[8.953,42.151],[9.048,42.176]]]}},{"type":"Feature","properties":{"code":"2A209","nom":"Peri","pop":2044},"geometry":{"type":"Polygon","coordinates":[[[8.843,41.982],[8.867,42.015],[8.893,42.017],[8.939,42.014],[8.963,42.02],[8.978,42.01],[8.974,42.005],[8.947,41.989],[8.88,42.001],[8.843,41.982]]]}},{"type":"Feature","properties":{"code":"2A211","nom":"Petreto-Bicchisano","pop":572},"geometry":{"type":"Polygon","coordinates":[[[8.938,41.798],[8.957,41.811],[8.962,41.809],[8.998,41.792],[9.009,41.769],[8.989,41.728],[8.964,41.72],[8.953,41.743],[8.94,41.775],[8.917,41.78],[8.929,41.795],[8.938,41.798]]]}},{"type":"Feature","properties":{"code":"2A212","nom":"Piana","pop":452},"geometry":{"type":"Polygon","coordinates":[[[8.698,42.229],[8.673,42.21],[8.621,42.185],[8.582,42.183],[8.568,42.219],[8.58,42.244],[8.621,42.254],[8.689,42.263],[8.698,42.229]]]}},{"type":"Feature","properties":{"code":"2A215","nom":"Pianottoli-Caldarello","pop":749},"geometry":{"type":"Polygon","coordinates":[[[9.084,41.584],[9.087,41.585],[9.091,41.568],[9.061,41.532],[9.083,41.517],[9.08,41.477],[9.052,41.46],[9.003,41.475],[8.995,41.486],[9.063,41.548],[9.076,41.573],[9.084,41.584]]]}},{"type":"Feature","properties":{"code":"2A228","nom":"Pietrosella","pop":2074},"geometry":{"type":"Polygon","coordinates":[[[8.86,41.823],[8.821,41.791],[8.772,41.812],[8.76,41.842],[8.79,41.853],[8.822,41.859],[8.849,41.845],[8.86,41.823]]]}},{"type":"Feature","properties":{"code":"2A232","nom":"Pila-Canale","pop":271},"geometry":{"type":"Polygon","coordinates":[[[8.868,41.76],[8.863,41.778],[8.913,41.823],[8.929,41.795],[8.917,41.78],[8.876,41.769],[8.868,41.76]]]}},{"type":"Feature","properties":{"code":"2A240","nom":"Poggiolo","pop":104},"geometry":{"type":"Polygon","coordinates":[[[8.917,42.145],[8.913,42.143],[8.897,42.141],[8.887,42.148],[8.88,42.178],[8.884,42.177],[8.919,42.181],[8.921,42.171],[8.917,42.145]]]}},{"type":"Feature","properties":{"code":"2A247","nom":"Porto-Vecchio","pop":11198},"geometry":{"type":"Polygon","coordinates":[[[9.287,41.484],[9.246,41.483],[9.235,41.507],[9.241,41.541],[9.223,41.562],[9.192,41.576],[9.17,41.616],[9.164,41.656],[9.189,41.684],[9.247,41.658],[9.28,41.632],[9.322,41.654],[9.314,41.629],[9.32,41.605],[9.362,41.591],[9.35,41.567],[9.303,41.546],[9.283,41.529],[9.287,41.484]]]}},{"type":"Feature","properties":{"code":"2A249","nom":"Propriano","pop":3996},"geometry":{"type":"Polygon","coordinates":[[[8.917,41.682],[8.919,41.681],[8.919,41.655],[8.914,41.634],[8.887,41.627],[8.859,41.624],[8.869,41.646],[8.883,41.672],[8.917,41.682]]]}},{"type":"Feature","properties":{"code":"2A253","nom":"Quasquara","pop":66},"geometry":{"type":"Polygon","coordinates":[[[8.988,41.909],[9.022,41.928],[9.014,41.897],[8.988,41.9],[8.988,41.909]]]}},{"type":"Feature","properties":{"code":"2A254","nom":"Quenza","pop":200},"geometry":{"type":"Polygon","coordinates":[[[9.227,41.855],[9.269,41.84],[9.309,41.832],[9.273,41.808],[9.232,41.774],[9.201,41.778],[9.166,41.764],[9.137,41.738],[9.137,41.738],[9.125,41.738],[9.124,41.774],[9.122,41.791],[9.139,41.82],[9.163,41.839],[9.193,41.837],[9.227,41.855]]]}},{"type":"Feature","properties":{"code":"2A258","nom":"Renno","pop":62},"geometry":{"type":"Polygon","coordinates":[[[8.818,42.192],[8.797,42.187],[8.794,42.207],[8.819,42.222],[8.849,42.22],[8.837,42.196],[8.818,42.192]]]}},{"type":"Feature","properties":{"code":"2A259","nom":"Rezza","pop":61},"geometry":{"type":"Polygon","coordinates":[[[8.94,42.149],[8.953,42.151],[8.961,42.126],[8.983,42.112],[8.956,42.101],[8.93,42.126],[8.94,42.149]]]}},{"type":"Feature","properties":{"code":"2A262","nom":"Rosazia","pop":53},"geometry":{"type":"Polygon","coordinates":[[[8.835,42.131],[8.887,42.148],[8.897,42.141],[8.87,42.099],[8.821,42.116],[8.835,42.131]]]}},{"type":"Feature","properties":{"code":"2A266","nom":"Salice","pop":102},"geometry":{"type":"Polygon","coordinates":[[[8.897,42.141],[8.913,42.143],[8.924,42.091],[8.934,42.086],[8.897,42.073],[8.87,42.099],[8.897,42.141]]]}},{"type":"Feature","properties":{"code":"2A268","nom":"Sampolo","pop":90},"geometry":{"type":"Polygon","coordinates":[[[9.11,41.975],[9.136,41.947],[9.127,41.928],[9.107,41.928],[9.11,41.975]]]}},{"type":"Feature","properties":{"code":"2A269","nom":"Sari-Solenzara","pop":1445},"geometry":{"type":"Polygon","coordinates":[[[9.273,41.808],[9.309,41.832],[9.347,41.846],[9.371,41.865],[9.402,41.86],[9.406,41.823],[9.395,41.8],[9.397,41.774],[9.36,41.764],[9.334,41.786],[9.277,41.794],[9.273,41.808]]]}},{"type":"Feature","properties":{"code":"2A270","nom":"Sari-d'Orcino","pop":351},"geometry":{"type":"Polygon","coordinates":[[[8.842,42.043],[8.794,42.056],[8.787,42.078],[8.799,42.083],[8.827,42.083],[8.858,42.08],[8.887,42.064],[8.877,42.056],[8.87,42.049],[8.842,42.043]]]}},{"type":"Feature","properties":{"code":"2A271","nom":"Sarrola-Carcopino","pop":3278},"geometry":{"type":"Polygon","coordinates":[[[8.803,42.013],[8.837,42.016],[8.835,42.039],[8.842,42.043],[8.87,42.049],[8.867,42.015],[8.843,41.982],[8.822,41.96],[8.818,41.951],[8.785,41.953],[8.816,41.981],[8.808,42.009],[8.803,42.013]]]}},{"type":"Feature","properties":{"code":"2A272","nom":"Sartène","pop":3742},"geometry":{"type":"Polygon","coordinates":[[[9.01,41.631],[8.995,41.602],[9.022,41.598],[9.046,41.609],[9.084,41.584],[9.076,41.573],[9.041,41.571],[9.022,41.561],[8.977,41.513],[8.94,41.49],[8.914,41.508],[8.887,41.506],[8.877,41.524],[8.81,41.557],[8.782,41.588],[8.814,41.588],[8.849,41.583],[8.897,41.593],[8.901,41.605],[8.921,41.614],[8.914,41.634],[8.919,41.655],[8.949,41.647],[8.972,41.652],[9,41.661],[9.001,41.652],[9.01,41.631]],[[8.981,41.586],[8.943,41.601],[8.936,41.572],[8.981,41.586]]]}},{"type":"Feature","properties":{"code":"2A276","nom":"Serra-di-Ferro","pop":727},"geometry":{"type":"Polygon","coordinates":[[[8.857,41.755],[8.828,41.716],[8.826,41.71],[8.772,41.713],[8.784,41.735],[8.791,41.762],[8.824,41.789],[8.824,41.764],[8.857,41.755]]]}},{"type":"Feature","properties":{"code":"2A278","nom":"Serra-di-Scopamène","pop":135},"geometry":{"type":"Polygon","coordinates":[[[9.152,41.844],[9.163,41.839],[9.139,41.82],[9.122,41.791],[9.124,41.774],[9.099,41.731],[9.091,41.721],[9.079,41.732],[9.082,41.764],[9.102,41.794],[9.152,41.844]]]}},{"type":"Feature","properties":{"code":"2A279","nom":"Serriera","pop":113},"geometry":{"type":"Polygon","coordinates":[[[8.725,42.342],[8.757,42.339],[8.771,42.325],[8.767,42.291],[8.751,42.279],[8.691,42.275],[8.687,42.282],[8.705,42.321],[8.725,42.342]]]}},{"type":"Feature","properties":{"code":"2A282","nom":"Soccia","pop":160},"geometry":{"type":"Polygon","coordinates":[[[8.94,42.237],[8.98,42.224],[8.938,42.204],[8.919,42.181],[8.884,42.177],[8.894,42.222],[8.94,42.237]]]}},{"type":"Feature","properties":{"code":"2A284","nom":"Sollacaro","pop":396},"geometry":{"type":"Polygon","coordinates":[[[8.828,41.716],[8.857,41.755],[8.868,41.76],[8.876,41.769],[8.9,41.763],[8.922,41.74],[8.873,41.72],[8.828,41.716]]]}},{"type":"Feature","properties":{"code":"2A285","nom":"Sorbollano","pop":65},"geometry":{"type":"Polygon","coordinates":[[[9.125,41.738],[9.099,41.731],[9.124,41.774],[9.125,41.738]]]}},{"type":"Feature","properties":{"code":"2A288","nom":"Sotta","pop":1893},"geometry":{"type":"Polygon","coordinates":[[[9.191,41.495],[9.167,41.509],[9.177,41.531],[9.165,41.548],[9.134,41.565],[9.112,41.596],[9.13,41.597],[9.17,41.616],[9.192,41.576],[9.223,41.562],[9.241,41.541],[9.235,41.507],[9.191,41.495]]]}},{"type":"Feature","properties":{"code":"2A295","nom":"Sant'Andréa-d'Orcino","pop":144},"geometry":{"type":"Polygon","coordinates":[[[8.825,42.039],[8.806,42.028],[8.744,42.057],[8.744,42.059],[8.791,42.055],[8.825,42.039]]]}},{"type":"Feature","properties":{"code":"2A300","nom":"San-Gavino-di-Carbini","pop":1204},"geometry":{"type":"Polygon","coordinates":[[[9.137,41.738],[9.203,41.695],[9.244,41.682],[9.28,41.693],[9.322,41.654],[9.28,41.632],[9.247,41.658],[9.189,41.684],[9.165,41.701],[9.14,41.715],[9.137,41.738],[9.137,41.738]]]}},{"type":"Feature","properties":{"code":"2A308","nom":"Sainte-Lucie-de-Tallano","pop":363},"geometry":{"type":"Polygon","coordinates":[[[9.049,41.712],[9.051,41.71],[9.082,41.698],[9.102,41.659],[9.08,41.65],[9.029,41.635],[9.021,41.64],[9.055,41.68],[9.039,41.689],[9.042,41.71],[9.049,41.712]]]}},{"type":"Feature","properties":{"code":"2A310","nom":"Santa-Maria-Figaniella","pop":74},"geometry":{"type":"Polygon","coordinates":[[[9.027,41.752],[9.036,41.75],[9.025,41.719],[9.02,41.709],[8.986,41.703],[8.989,41.728],[9.027,41.752]]]}},{"type":"Feature","properties":{"code":"2A312","nom":"Santa-Maria-Siché","pop":364},"geometry":{"type":"Polygon","coordinates":[[[8.96,41.897],[8.988,41.909],[8.988,41.9],[9.009,41.882],[9.007,41.88],[8.993,41.863],[8.989,41.859],[8.974,41.87],[8.96,41.897]]]}},{"type":"Feature","properties":{"code":"2A322","nom":"Tasso","pop":89},"geometry":{"type":"Polygon","coordinates":[[[9.065,41.963],[9.097,41.978],[9.11,41.975],[9.107,41.928],[9.105,41.917],[9.086,41.932],[9.065,41.963]]]}},{"type":"Feature","properties":{"code":"2A323","nom":"Tavaco","pop":414},"geometry":{"type":"Polygon","coordinates":[[[8.87,42.049],[8.877,42.056],[8.907,42.026],[8.893,42.017],[8.867,42.015],[8.87,42.049]]]}},{"type":"Feature","properties":{"code":"2A324","nom":"Tavera","pop":453},"geometry":{"type":"Polygon","coordinates":[[[9.103,42.045],[9.045,42.035],[9.021,42.041],[8.971,42.087],[8.957,42.093],[8.956,42.101],[8.983,42.112],[9.003,42.113],[9.005,42.08],[9.028,42.079],[9.04,42.061],[9.103,42.045]]]}},{"type":"Feature","properties":{"code":"2A326","nom":"Tolla","pop":120},"geometry":{"type":"Polygon","coordinates":[[[8.947,41.989],[8.974,42.005],[9.005,41.981],[8.981,41.944],[8.95,41.931],[8.93,41.934],[8.948,41.941],[8.944,41.983],[8.947,41.989]]]}},{"type":"Feature","properties":{"code":"2A330","nom":"Ucciani","pop":504},"geometry":{"type":"Polygon","coordinates":[[[8.957,42.093],[8.971,42.087],[9.021,42.041],[8.978,42.01],[8.963,42.02],[8.947,42.055],[8.961,42.076],[8.947,42.09],[8.957,42.093]]]}},{"type":"Feature","properties":{"code":"2A331","nom":"Urbalacone","pop":65},"geometry":{"type":"Polygon","coordinates":[[[8.957,41.811],[8.938,41.798],[8.94,41.845],[8.958,41.847],[8.964,41.837],[8.957,41.811]]]}},{"type":"Feature","properties":{"code":"2A336","nom":"Valle-di-Mezzana","pop":537},"geometry":{"type":"Polygon","coordinates":[[[8.835,42.039],[8.837,42.016],[8.803,42.013],[8.796,42.024],[8.806,42.028],[8.825,42.039],[8.835,42.039]]]}},{"type":"Feature","properties":{"code":"2A345","nom":"Vero","pop":640},"geometry":{"type":"Polygon","coordinates":[[[8.887,42.064],[8.897,42.073],[8.934,42.086],[8.947,42.09],[8.961,42.076],[8.947,42.055],[8.907,42.026],[8.877,42.056],[8.887,42.064]]]}},{"type":"Feature","properties":{"code":"2A348","nom":"Vico","pop":999},"geometry":{"type":"Polygon","coordinates":[[[8.682,42.172],[8.703,42.185],[8.721,42.174],[8.772,42.162],[8.797,42.187],[8.818,42.192],[8.82,42.176],[8.812,42.155],[8.768,42.135],[8.718,42.143],[8.702,42.111],[8.664,42.106],[8.651,42.117],[8.671,42.13],[8.682,42.172]]]}},{"type":"Feature","properties":{"code":"2A349","nom":"Viggianello","pop":908},"geometry":{"type":"Polygon","coordinates":[[[8.949,41.696],[8.969,41.68],[8.972,41.652],[8.949,41.647],[8.919,41.655],[8.919,41.681],[8.949,41.696]]]}},{"type":"Feature","properties":{"code":"2A351","nom":"Villanova","pop":402},"geometry":{"type":"Polygon","coordinates":[[[8.669,41.982],[8.69,41.974],[8.701,41.953],[8.669,41.948],[8.623,41.971],[8.648,41.969],[8.669,41.982]]]}},{"type":"Feature","properties":{"code":"2A357","nom":"Zérubia","pop":46},"geometry":{"type":"Polygon","coordinates":[[[9.036,41.75],[9.027,41.752],[9.034,41.771],[9.082,41.764],[9.079,41.732],[9.056,41.721],[9.058,41.743],[9.036,41.75]]]}},{"type":"Feature","properties":{"code":"2A358","nom":"Zévaco","pop":50},"geometry":{"type":"Polygon","coordinates":[[[9.06,41.905],[9.047,41.86],[9.036,41.853],[9.033,41.857],[9.03,41.888],[9.063,41.925],[9.06,41.905]]]}},{"type":"Feature","properties":{"code":"2A359","nom":"Zicavo","pop":203},"geometry":{"type":"Polygon","coordinates":[[[9.236,41.876],[9.227,41.855],[9.193,41.837],[9.163,41.839],[9.152,41.844],[9.119,41.856],[9.087,41.863],[9.093,41.889],[9.105,41.917],[9.107,41.928],[9.127,41.928],[9.139,41.931],[9.185,41.908],[9.214,41.917],[9.252,41.899],[9.236,41.876]]]}},{"type":"Feature","properties":{"code":"2A360","nom":"Zigliara","pop":127},"geometry":{"type":"Polygon","coordinates":[[[9.004,41.826],[8.962,41.809],[8.957,41.811],[8.964,41.837],[8.989,41.859],[8.993,41.863],[8.999,41.863],[9.008,41.831],[9.004,41.826]]]}},{"type":"Feature","properties":{"code":"2A362","nom":"Zonza","pop":2989},"geometry":{"type":"Polygon","coordinates":[[[9.244,41.682],[9.203,41.695],[9.137,41.738],[9.166,41.764],[9.201,41.778],[9.232,41.774],[9.261,41.761],[9.318,41.746],[9.305,41.714],[9.344,41.702],[9.382,41.725],[9.402,41.718],[9.4,41.693],[9.373,41.679],[9.385,41.652],[9.351,41.64],[9.338,41.668],[9.342,41.684],[9.321,41.7],[9.275,41.698],[9.244,41.682]]]}},{"type":"Feature","properties":{"code":"2A363","nom":"Zoza","pop":66},"geometry":{"type":"Polygon","coordinates":[[[9.051,41.71],[9.049,41.712],[9.056,41.721],[9.079,41.732],[9.091,41.721],[9.051,41.71]]]}}]}