{"type":"FeatureCollection","features":[{"type":"Feature","properties":{"code":"2B002","nom":"Aghione"},"geometry":{"type":"Polygon","coordinates":[[[9.457,42.077],[9.431,42.061],[9.39,42.083],[9.368,42.1],[9.357,42.124],[9.393,42.127],[9.438,42.123],[9.457,42.077]]]}},{"type":"Feature","properties":{"code":"2B003","nom":"Aiti"},"geometry":{"type":"Polygon","coordinates":[[[9.257,42.392],[9.209,42.395],[9.197,42.418],[9.232,42.418],[9.256,42.403],[9.257,42.392]]]}},{"type":"Feature","properties":{"code":"2B005","nom":"Alando"},"geometry":{"type":"Polygon","coordinates":[[[9.306,42.312],[9.294,42.301],[9.281,42.296],[9.274,42.303],[9.278,42.319],[9.306,42.312]]]}},{"type":"Feature","properties":{"code":"2B007","nom":"Albertacce"},"geometry":{"type":"Polygon","coordinates":[[[8.927,42.254],[8.905,42.254],[8.882,42.272],[8.859,42.3],[8.857,42.331],[8.914,42.375],[8.93,42.373],[8.95,42.362],[8.964,42.337],[8.998,42.334],[8.994,42.324],[8.974,42.311],[8.986,42.28],[8.97,42.265],[8.927,42.254]]]}},{"type":"Feature","properties":{"code":"2B009","nom":"Aléria"},"geometry":{"type":"Polygon","coordinates":[[[9.497,42.048],[9.472,42.078],[9.457,42.077],[9.438,42.123],[9.452,42.143],[9.453,42.144],[9.454,42.15],[9.534,42.13],[9.556,42.142],[9.549,42.104],[9.497,42.048]]]}},{"type":"Feature","properties":{"code":"2B010","nom":"Algajola"},"geometry":{"type":"Polygon","coordinates":[[[8.867,42.608],[8.856,42.598],[8.848,42.609],[8.867,42.608]]]}},{"type":"Feature","properties":{"code":"2B012","nom":"Altiani"},"geometry":{"type":"Polygon","coordinates":[[[9.242,42.218],[9.245,42.228],[9.245,42.228],[9.258,42.227],[9.279,42.241],[9.311,42.244],[9.292,42.199],[9.261,42.198],[9.242,42.218]]]}},{"type":"Feature","properties":{"code":"2B013","nom":"Alzi"},"geometry":{"type":"Polygon","coordinates":[[[9.294,42.301],[9.306,42.312],[9.341,42.326],[9.306,42.301],[9.294,42.301]]]}},{"type":"Feature","properties":{"code":"2B015","nom":"Ampriani"},"geometry":{"type":"Polygon","coordinates":[[[9.35,42.251],[9.357,42.262],[9.36,42.245],[9.35,42.251]]]}},{"type":"Feature","properties":{"code":"2B016","nom":"Antisanti"},"geometry":{"type":"Polygon","coordinates":[[[9.317,42.181],[9.355,42.194],[9.39,42.173],[9.414,42.176],[9.452,42.143],[9.438,42.123],[9.393,42.127],[9.37,42.152],[9.344,42.145],[9.315,42.159],[9.317,42.181]]]}},{"type":"Feature","properties":{"code":"2B020","nom":"Aregno"},"geometry":{"type":"Polygon","coordinates":[[[8.881,42.607],[8.895,42.595],[8.899,42.574],[8.884,42.576],[8.853,42.591],[8.856,42.598],[8.867,42.608],[8.876,42.615],[8.881,42.607]]]}},{"type":"Feature","properties":{"code":"2B023","nom":"Asco"},"geometry":{"type":"Polygon","coordinates":[[[8.978,42.392],[8.93,42.373],[8.914,42.375],[8.901,42.383],[8.911,42.41],[8.921,42.426],[8.919,42.46],[8.965,42.456],[9.036,42.495],[9.061,42.504],[9.057,42.489],[9.084,42.467],[9.079,42.428],[9.074,42.417],[9.048,42.401],[8.978,42.392]]]}},{"type":"Feature","properties":{"code":"2B025","nom":"Avapessa"},"geometry":{"type":"Polygon","coordinates":[[[8.88,42.56],[8.916,42.569],[8.895,42.55],[8.88,42.56]]]}},{"type":"Feature","properties":{"code":"2B029","nom":"Barbaggio"},"geometry":{"type":"Polygon","coordinates":[[[9.398,42.693],[9.393,42.675],[9.382,42.668],[9.338,42.678],[9.329,42.694],[9.398,42.693]]]}},{"type":"Feature","properties":{"code":"2B030","nom":"Barrettali"},"geometry":{"type":"Polygon","coordinates":[[[9.392,42.845],[9.34,42.866],[9.326,42.901],[9.361,42.89],[9.402,42.861],[9.392,42.845]]]}},{"type":"Feature","properties":{"code":"2B033","nom":"Bastia"},"geometry":{"type":"Polygon","coordinates":[[[9.45,42.662],[9.393,42.675],[9.398,42.693],[9.405,42.705],[9.455,42.708],[9.45,42.662]]]}},{"type":"Feature","properties":{"code":"2B034","nom":"Belgodère"},"geometry":{"type":"Polygon","coordinates":[[[9.038,42.574],[9.016,42.578],[8.998,42.614],[9,42.642],[9.018,42.642],[9.016,42.616],[9.041,42.575],[9.038,42.574]]]}},{"type":"Feature","properties":{"code":"2B036","nom":"Bigorno"},"geometry":{"type":"Polygon","coordinates":[[[9.312,42.506],[9.306,42.503],[9.294,42.515],[9.29,42.549],[9.294,42.552],[9.321,42.545],[9.312,42.506]]]}},{"type":"Feature","properties":{"code":"2B037","nom":"Biguglia"},"geometry":{"type":"Polygon","coordinates":[[[9.398,42.62],[9.395,42.635],[9.463,42.639],[9.486,42.613],[9.467,42.598],[9.415,42.587],[9.416,42.605],[9.398,42.62]]]}},{"type":"Feature","properties":{"code":"2B039","nom":"Bisinchi"},"geometry":{"type":"Polygon","coordinates":[[[9.306,42.503],[9.312,42.506],[9.33,42.506],[9.341,42.484],[9.333,42.466],[9.331,42.455],[9.299,42.495],[9.306,42.503]]]}},{"type":"Feature","properties":{"code":"2B042","nom":"Borgo"},"geometry":{"type":"Polygon","coordinates":[[[9.396,42.55],[9.382,42.56],[9.415,42.587],[9.467,42.598],[9.486,42.613],[9.528,42.565],[9.466,42.552],[9.396,42.55]]]}},{"type":"Feature","properties":{"code":"2B043","nom":"Brando"},"geometry":{"type":"Polygon","coordinates":[[[9.416,42.796],[9.491,42.798],[9.468,42.753],[9.415,42.773],[9.418,42.789],[9.416,42.796]]]}},{"type":"Feature","properties":{"code":"2B045","nom":"Bustanico"},"geometry":{"type":"Polygon","coordinates":[[[9.347,42.33],[9.345,42.328],[9.341,42.326],[9.306,42.312],[9.278,42.319],[9.281,42.335],[9.34,42.342],[9.344,42.339],[9.347,42.33]]]}},{"type":"Feature","properties":{"code":"2B046","nom":"Cagnano"},"geometry":{"type":"Polygon","coordinates":[[[9.404,42.863],[9.417,42.887],[9.477,42.882],[9.48,42.86],[9.404,42.863]]]}},{"type":"Feature","properties":{"code":"2B047","nom":"Calacuccia"},"geometry":{"type":"Polygon","coordinates":[[[9.076,42.314],[9.039,42.296],[9.009,42.326],[8.994,42.324],[8.998,42.334],[9.025,42.353],[9.039,42.336],[9.076,42.314]]]}},{"type":"Feature","properties":{"code":"2B049","nom":"Calenzana"},"geometry":{"type":"Polygon","coordinates":[[[8.919,42.498],[8.922,42.492],[8.917,42.467],[8.919,42.46],[8.921,42.426],[8.911,42.41],[8.862,42.421],[8.838,42.419],[8.8,42.435],[8.793,42.455],[8.763,42.461],[8.744,42.447],[8.679,42.467],[8.654,42.481],[8.666,42.512],[8.717,42.529],[8.74,42.535],[8.768,42.515],[8.815,42.537],[8.858,42.524],[8.919,42.498]],[[8.843,42.509],[8.838,42.52],[8.814,42.509],[8.83,42.497],[8.843,42.509]]]}},{"type":"Feature","properties":{"code":"2B050","nom":"Calvi"},"geometry":{"type":"Polygon","coordinates":[[[8.815,42.537],[8.768,42.515],[8.74,42.535],[8.717,42.529],[8.727,42.563],[8.765,42.556],[8.797,42.565],[8.81,42.553],[8.815,42.537]]]}},{"type":"Feature","properties":{"code":"2B051","nom":"Cambia"},"geometry":{"type":"Polygon","coordinates":[[[9.279,42.379],[9.325,42.377],[9.329,42.363],[9.279,42.361],[9.28,42.364],[9.279,42.379]]]}},{"type":"Feature","properties":{"code":"2B052","nom":"Campana"},"geometry":{"type":"Polygon","coordinates":[[[9.327,42.391],[9.327,42.396],[9.35,42.383],[9.345,42.383],[9.327,42.391]]]}},{"type":"Feature","properties":{"code":"2B053","nom":"Campi"},"geometry":{"type":"Polygon","coordinates":[[[9.409,42.254],[9.404,42.263],[9.431,42.282],[9.444,42.27],[9.444,42.27],[9.409,42.254]]]}},{"type":"Feature","properties":{"code":"2B054","nom":"Campile"},"geometry":{"type":"Polygon","coordinates":[[[9.385,42.51],[9.381,42.503],[9.371,42.485],[9.341,42.484],[9.33,42.506],[9.335,42.506],[9.385,42.51]]]}},{"type":"Feature","properties":{"code":"2B055","nom":"Campitello"},"geometry":{"type":"Polygon","coordinates":[[[9.321,42.545],[9.344,42.55],[9.346,42.545],[9.334,42.537],[9.335,42.506],[9.33,42.506],[9.312,42.506],[9.321,42.545]]]}},{"type":"Feature","properties":{"code":"2B057","nom":"Canale-di-Verde"},"geometry":{"type":"Polygon","coordinates":[[[9.444,42.27],[9.458,42.285],[9.515,42.271],[9.555,42.253],[9.553,42.241],[9.527,42.244],[9.466,42.272],[9.444,42.27]]]}},{"type":"Feature","properties":{"code":"2B058","nom":"Canari"},"geometry":{"type":"Polygon","coordinates":[[[9.34,42.866],[9.392,42.845],[9.385,42.835],[9.349,42.834],[9.326,42.812],[9.31,42.834],[9.34,42.866]]]}},{"type":"Feature","properties":{"code":"2B059","nom":"Canavaggia"},"geometry":{"type":"Polygon","coordinates":[[[9.222,42.528],[9.267,42.52],[9.285,42.5],[9.262,42.476],[9.21,42.472],[9.192,42.483],[9.18,42.494],[9.193,42.506],[9.222,42.528]]]}},{"type":"Feature","properties":{"code":"2B063","nom":"Carcheto-Brustico"},"geometry":{"type":"Polygon","coordinates":[[[9.34,42.342],[9.339,42.342],[9.365,42.371],[9.375,42.369],[9.379,42.365],[9.373,42.347],[9.344,42.339],[9.34,42.342]]]}},{"type":"Feature","properties":{"code":"2B067","nom":"Carpineto"},"geometry":{"type":"Polygon","coordinates":[[[9.379,42.365],[9.381,42.365],[9.392,42.354],[9.373,42.347],[9.379,42.365]]]}},{"type":"Feature","properties":{"code":"2B068","nom":"Carticasi"},"geometry":{"type":"Polygon","coordinates":[[[9.339,42.342],[9.34,42.342],[9.281,42.335],[9.272,42.341],[9.279,42.361],[9.329,42.363],[9.331,42.36],[9.339,42.342]]]}},{"type":"Feature","properties":{"code":"2B069","nom":"Casabianca"},"geometry":{"type":"Polygon","coordinates":[[[9.375,42.438],[9.373,42.438],[9.36,42.444],[9.358,42.452],[9.365,42.456],[9.386,42.451],[9.392,42.449],[9.384,42.442],[9.375,42.438]]]}},{"type":"Feature","properties":{"code":"2B072","nom":"Casalta"},"geometry":{"type":"Polygon","coordinates":[[[9.409,42.447],[9.435,42.441],[9.449,42.436],[9.432,42.426],[9.418,42.428],[9.405,42.431],[9.409,42.447]]]}},{"type":"Feature","properties":{"code":"2B073","nom":"Casamaccioli"},"geometry":{"type":"Polygon","coordinates":[[[9.039,42.296],[8.992,42.243],[8.958,42.254],[8.927,42.254],[8.927,42.254],[8.97,42.265],[8.986,42.28],[8.974,42.311],[8.994,42.324],[9.009,42.326],[9.039,42.296]]]}},{"type":"Feature","properties":{"code":"2B074","nom":"Casanova"},"geometry":{"type":"Polygon","coordinates":[[[9.182,42.257],[9.177,42.25],[9.148,42.256],[9.124,42.239],[9.141,42.276],[9.18,42.275],[9.182,42.257]]]}},{"type":"Feature","properties":{"code":"2B075","nom":"Casevecchie"},"geometry":{"type":"Polygon","coordinates":[[[9.393,42.127],[9.357,42.124],[9.344,42.145],[9.37,42.152],[9.393,42.127]]]}},{"type":"Feature","properties":{"code":"2B077","nom":"Castellare-di-Casinca"},"geometry":{"type":"Polygon","coordinates":[[[9.464,42.476],[9.485,42.473],[9.531,42.484],[9.536,42.47],[9.482,42.46],[9.464,42.476]]]}},{"type":"Feature","properties":{"code":"2B078","nom":"Castellare-di-Mercurio"},"geometry":{"type":"Polygon","coordinates":[[[9.255,42.336],[9.258,42.329],[9.247,42.291],[9.229,42.295],[9.255,42.336]]]}},{"type":"Feature","properties":{"code":"2B079","nom":"Castello-di-Rostino"},"geometry":{"type":"Polygon","coordinates":[[[9.331,42.455],[9.325,42.446],[9.308,42.448],[9.293,42.467],[9.262,42.476],[9.285,42.5],[9.299,42.495],[9.331,42.455]]]}},{"type":"Feature","properties":{"code":"2B080","nom":"Castifao"},"geometry":{"type":"Polygon","coordinates":[[[9.075,42.538],[9.094,42.565],[9.127,42.561],[9.132,42.546],[9.193,42.506],[9.18,42.494],[9.155,42.51],[9.132,42.496],[9.078,42.507],[9.075,42.538]]]}},{"type":"Feature","properties":{"code":"2B081","nom":"Castiglione"},"geometry":{"type":"Polygon","coordinates":[[[9.112,42.388],[9.092,42.389],[9.074,42.417],[9.079,42.428],[9.107,42.43],[9.147,42.422],[9.152,42.395],[9.112,42.388]]]}},{"type":"Feature","properties":{"code":"2B082","nom":"Castineta"},"geometry":{"type":"Polygon","coordinates":[[[9.324,42.411],[9.324,42.405],[9.309,42.415],[9.252,42.425],[9.22,42.444],[9.271,42.437],[9.327,42.417],[9.324,42.411]]]}},{"type":"Feature","properties":{"code":"2B083","nom":"Castirla"},"geometry":{"type":"Polygon","coordinates":[[[9.166,42.371],[9.145,42.352],[9.117,42.35],[9.098,42.336],[9.083,42.349],[9.112,42.388],[9.152,42.395],[9.165,42.394],[9.166,42.371]]]}},{"type":"Feature","properties":{"code":"2B084","nom":"Cateri"},"geometry":{"type":"Polygon","coordinates":[[[8.916,42.569],[8.88,42.56],[8.877,42.561],[8.884,42.576],[8.899,42.574],[8.919,42.575],[8.917,42.571],[8.916,42.569]]]}},{"type":"Feature","properties":{"code":"2B086","nom":"Centuri"},"geometry":{"type":"Polygon","coordinates":[[[9.394,42.947],[9.35,42.961],[9.344,42.998],[9.361,42.975],[9.393,42.958],[9.394,42.947]]]}},{"type":"Feature","properties":{"code":"2B087","nom":"Cervione"},"geometry":{"type":"Polygon","coordinates":[[[9.47,42.334],[9.479,42.337],[9.543,42.328],[9.553,42.299],[9.513,42.319],[9.49,42.317],[9.47,42.334]]]}},{"type":"Feature","properties":{"code":"2B088","nom":"Chiatra"},"geometry":{"type":"Polygon","coordinates":[[[9.458,42.285],[9.468,42.3],[9.498,42.299],[9.515,42.271],[9.458,42.285]]]}},{"type":"Feature","properties":{"code":"2B093","nom":"Corbara"},"geometry":{"type":"Polygon","coordinates":[[[8.924,42.638],[8.924,42.626],[8.919,42.602],[8.881,42.607],[8.876,42.615],[8.924,42.638]]]}},{"type":"Feature","properties":{"code":"2B095","nom":"Corscia"},"geometry":{"type":"Polygon","coordinates":[[[8.978,42.392],[9.048,42.401],[9.074,42.417],[9.092,42.389],[9.112,42.388],[9.083,42.349],[9.098,42.336],[9.093,42.323],[9.076,42.314],[9.039,42.336],[9.025,42.353],[9.019,42.371],[8.978,42.392]]]}},{"type":"Feature","properties":{"code":"2B096","nom":"Corte"},"geometry":{"type":"Polygon","coordinates":[[[8.927,42.254],[8.958,42.254],[8.992,42.243],[9.039,42.296],[9.076,42.314],[9.093,42.323],[9.113,42.338],[9.155,42.339],[9.194,42.323],[9.188,42.294],[9.206,42.285],[9.18,42.275],[9.141,42.276],[9.124,42.239],[9.07,42.208],[9.046,42.208],[9.006,42.209],[8.98,42.224],[8.94,42.237],[8.927,42.254]]]}},{"type":"Feature","properties":{"code":"2B097","nom":"Costa"},"geometry":{"type":"Polygon","coordinates":[[[9.004,42.569],[8.993,42.574],[9,42.585],[9.004,42.569]]]}},{"type":"Feature","properties":{"code":"2B101","nom":"Croce"},"geometry":{"type":"Polygon","coordinates":[[[9.326,42.399],[9.326,42.402],[9.324,42.405],[9.324,42.411],[9.364,42.418],[9.389,42.408],[9.392,42.404],[9.389,42.398],[9.385,42.399],[9.34,42.402],[9.326,42.399]]]}},{"type":"Feature","properties":{"code":"2B102","nom":"Crocicchia"},"geometry":{"type":"Polygon","coordinates":[[[9.341,42.484],[9.371,42.485],[9.372,42.479],[9.365,42.47],[9.333,42.466],[9.341,42.484]]]}},{"type":"Feature","properties":{"code":"2B105","nom":"Erbajolo"},"geometry":{"type":"Polygon","coordinates":[[[9.245,42.228],[9.229,42.241],[9.232,42.25],[9.282,42.277],[9.299,42.265],[9.282,42.257],[9.258,42.227],[9.245,42.228]]]}},{"type":"Feature","properties":{"code":"2B106","nom":"Érone"},"geometry":{"type":"Polygon","coordinates":[[[9.28,42.364],[9.251,42.371],[9.259,42.387],[9.279,42.379],[9.28,42.364]]]}},{"type":"Feature","properties":{"code":"2B107","nom":"Ersa"},"geometry":{"type":"Polygon","coordinates":[[[9.393,42.958],[9.361,42.975],[9.344,42.998],[9.358,43.007],[9.405,43.006],[9.415,42.98],[9.393,42.958]]]}},{"type":"Feature","properties":{"code":"2B109","nom":"Farinole"},"geometry":{"type":"Polygon","coordinates":[[[9.388,42.748],[9.395,42.741],[9.396,42.728],[9.349,42.71],[9.33,42.719],[9.344,42.74],[9.388,42.748]]]}},{"type":"Feature","properties":{"code":"2B110","nom":"Favalello"},"geometry":{"type":"Polygon","coordinates":[[[9.274,42.303],[9.281,42.296],[9.236,42.277],[9.223,42.289],[9.229,42.295],[9.247,42.291],[9.274,42.303]]]}},{"type":"Feature","properties":{"code":"2B111","nom":"Felce"},"geometry":{"type":"Polygon","coordinates":[[[9.43,42.355],[9.445,42.341],[9.413,42.335],[9.411,42.356],[9.43,42.355]]]}},{"type":"Feature","properties":{"code":"2B112","nom":"Feliceto"},"geometry":{"type":"Polygon","coordinates":[[[8.952,42.573],[8.946,42.54],[8.966,42.531],[8.94,42.516],[8.932,42.52],[8.917,42.571],[8.919,42.575],[8.925,42.581],[8.949,42.587],[8.952,42.573]]]}},{"type":"Feature","properties":{"code":"2B113","nom":"Ficaja"},"geometry":{"type":"Polygon","coordinates":[[[9.389,42.408],[9.364,42.418],[9.397,42.427],[9.39,42.416],[9.389,42.408]]]}},{"type":"Feature","properties":{"code":"2B116","nom":"Focicchia"},"geometry":{"type":"Polygon","coordinates":[[[9.311,42.244],[9.279,42.241],[9.258,42.227],[9.282,42.257],[9.299,42.265],[9.314,42.257],[9.311,42.244]]]}},{"type":"Feature","properties":{"code":"2B120","nom":"Furiani"},"geometry":{"type":"Polygon","coordinates":[[[9.395,42.635],[9.392,42.638],[9.382,42.668],[9.393,42.675],[9.45,42.662],[9.463,42.639],[9.395,42.635]]]}},{"type":"Feature","properties":{"code":"2B121","nom":"Galéria"},"geometry":{"type":"Polygon","coordinates":[[[8.684,42.348],[8.641,42.374],[8.595,42.37],[8.573,42.382],[8.608,42.386],[8.609,42.417],[8.654,42.415],[8.679,42.467],[8.744,42.447],[8.763,42.461],[8.793,42.455],[8.8,42.435],[8.838,42.419],[8.815,42.402],[8.729,42.409],[8.744,42.368],[8.725,42.342],[8.684,42.348]]]}},{"type":"Feature","properties":{"code":"2B122","nom":"Gavignano"},"geometry":{"type":"Polygon","coordinates":[[[9.324,42.405],[9.326,42.402],[9.233,42.424],[9.209,42.433],[9.201,42.445],[9.22,42.444],[9.252,42.425],[9.309,42.415],[9.324,42.405]]]}},{"type":"Feature","properties":{"code":"2B123","nom":"Ghisonaccia"},"geometry":{"type":"Polygon","coordinates":[[[9.457,42.077],[9.472,42.078],[9.497,42.048],[9.442,41.99],[9.418,42.006],[9.38,42.017],[9.367,42.035],[9.367,42.049],[9.359,42.085],[9.341,42.093],[9.345,42.101],[9.39,42.083],[9.431,42.061],[9.457,42.077]]]}},{"type":"Feature","properties":{"code":"2B124","nom":"Ghisoni"},"geometry":{"type":"Polygon","coordinates":[[[9.228,42.045],[9.221,42.027],[9.16,42.027],[9.134,42.06],[9.134,42.091],[9.18,42.141],[9.219,42.163],[9.251,42.141],[9.28,42.11],[9.345,42.101],[9.341,42.093],[9.279,42.094],[9.275,42.076],[9.239,42.075],[9.228,42.045]]]}},{"type":"Feature","properties":{"code":"2B125","nom":"Giocatojo"},"geometry":{"type":"Polygon","coordinates":[[[9.36,42.444],[9.328,42.444],[9.358,42.452],[9.36,42.444]]]}},{"type":"Feature","properties":{"code":"2B126","nom":"Giuncaggio"},"geometry":{"type":"Polygon","coordinates":[[[9.453,42.144],[9.452,42.143],[9.414,42.176],[9.39,42.173],[9.355,42.194],[9.348,42.218],[9.364,42.224],[9.371,42.208],[9.403,42.196],[9.411,42.181],[9.453,42.144]]]}},{"type":"Feature","properties":{"code":"2B134","nom":"L'Île-Rousse"},"geometry":{"type":"Polygon","coordinates":[[[8.924,42.626],[8.924,42.638],[8.948,42.634],[8.935,42.622],[8.924,42.626]]]}},{"type":"Feature","properties":{"code":"2B135","nom":"Isolaccio-di-Fiumorbo"},"geometry":{"type":"Polygon","coordinates":[[[9.221,42.027],[9.228,42.045],[9.259,42.046],[9.279,42.034],[9.316,42.036],[9.308,42.015],[9.324,41.996],[9.297,41.986],[9.26,41.998],[9.22,41.99],[9.221,42.027]]]}},{"type":"Feature","properties":{"code":"2B136","nom":"Lama"},"geometry":{"type":"Polygon","coordinates":[[[9.135,42.608],[9.166,42.591],[9.21,42.595],[9.21,42.586],[9.212,42.579],[9.178,42.563],[9.134,42.57],[9.135,42.608]]]}},{"type":"Feature","properties":{"code":"2B137","nom":"Lano"},"geometry":{"type":"Polygon","coordinates":[[[9.229,42.359],[9.228,42.384],[9.209,42.395],[9.257,42.392],[9.259,42.387],[9.251,42.371],[9.234,42.355],[9.229,42.359]]]}},{"type":"Feature","properties":{"code":"2B138","nom":"Lavatoggio"},"geometry":{"type":"Polygon","coordinates":[[[8.877,42.561],[8.85,42.565],[8.853,42.591],[8.884,42.576],[8.877,42.561]]]}},{"type":"Feature","properties":{"code":"2B140","nom":"Lento"},"geometry":{"type":"Polygon","coordinates":[[[9.285,42.5],[9.267,42.52],[9.222,42.528],[9.229,42.549],[9.26,42.555],[9.29,42.549],[9.294,42.515],[9.306,42.503],[9.299,42.495],[9.285,42.5]]]}},{"type":"Feature","properties":{"code":"2B143","nom":"Linguizzetta"},"geometry":{"type":"Polygon","coordinates":[[[9.444,42.27],[9.444,42.27],[9.466,42.272],[9.527,42.244],[9.553,42.241],[9.559,42.196],[9.554,42.157],[9.52,42.168],[9.479,42.191],[9.473,42.222],[9.444,42.27]]]}},{"type":"Feature","properties":{"code":"2B145","nom":"Loreto-di-Casinca"},"geometry":{"type":"Polygon","coordinates":[[[9.408,42.463],[9.418,42.492],[9.445,42.487],[9.443,42.476],[9.436,42.464],[9.408,42.463]]]}},{"type":"Feature","properties":{"code":"2B147","nom":"Lozzi"},"geometry":{"type":"Polygon","coordinates":[[[8.93,42.373],[8.978,42.392],[9.019,42.371],[9.025,42.353],[8.998,42.334],[8.964,42.337],[8.95,42.362],[8.93,42.373]]]}},{"type":"Feature","properties":{"code":"2B148","nom":"Lucciana"},"geometry":{"type":"Polygon","coordinates":[[[9.427,42.519],[9.396,42.55],[9.466,42.552],[9.528,42.565],[9.534,42.523],[9.533,42.524],[9.513,42.534],[9.476,42.535],[9.453,42.525],[9.439,42.517],[9.429,42.514],[9.427,42.519]]]}},{"type":"Feature","properties":{"code":"2B149","nom":"Lugo-di-Nazza"},"geometry":{"type":"Polygon","coordinates":[[[9.341,42.093],[9.359,42.085],[9.367,42.049],[9.317,42.061],[9.275,42.076],[9.279,42.094],[9.341,42.093]]]}},{"type":"Feature","properties":{"code":"2B150","nom":"Lumio"},"geometry":{"type":"Polygon","coordinates":[[[8.81,42.553],[8.797,42.565],[8.812,42.605],[8.848,42.609],[8.856,42.598],[8.853,42.591],[8.85,42.565],[8.81,42.553]]]}},{"type":"Feature","properties":{"code":"2B152","nom":"Luri"},"geometry":{"type":"Polygon","coordinates":[[[9.477,42.882],[9.417,42.887],[9.404,42.863],[9.402,42.861],[9.361,42.89],[9.377,42.911],[9.39,42.921],[9.433,42.9],[9.474,42.9],[9.477,42.882]]]}},{"type":"Feature","properties":{"code":"2B153","nom":"Manso"},"geometry":{"type":"Polygon","coordinates":[[[8.771,42.325],[8.757,42.339],[8.725,42.342],[8.744,42.368],[8.729,42.409],[8.815,42.402],[8.838,42.419],[8.862,42.421],[8.911,42.41],[8.901,42.383],[8.914,42.375],[8.857,42.331],[8.828,42.319],[8.771,42.325]]]}},{"type":"Feature","properties":{"code":"2B155","nom":"Matra"},"geometry":{"type":"Polygon","coordinates":[[[9.379,42.3],[9.396,42.298],[9.397,42.266],[9.378,42.273],[9.379,42.3]]]}},{"type":"Feature","properties":{"code":"2B156","nom":"Mausoléo"},"geometry":{"type":"Polygon","coordinates":[[[8.922,42.492],[8.957,42.506],[8.977,42.504],[9.006,42.528],[9.022,42.511],[8.944,42.472],[8.917,42.467],[8.922,42.492]]]}},{"type":"Feature","properties":{"code":"2B157","nom":"Mazzola"},"geometry":{"type":"Polygon","coordinates":[[[9.345,42.328],[9.334,42.284],[9.306,42.301],[9.341,42.326],[9.345,42.328]]]}},{"type":"Feature","properties":{"code":"2B159","nom":"Meria"},"geometry":{"type":"Polygon","coordinates":[[[9.421,42.938],[9.469,42.937],[9.474,42.9],[9.433,42.9],[9.39,42.921],[9.403,42.939],[9.421,42.938]]]}},{"type":"Feature","properties":{"code":"2B161","nom":"Moïta"},"geometry":{"type":"Polygon","coordinates":[[[9.396,42.298],[9.421,42.289],[9.431,42.282],[9.404,42.263],[9.397,42.266],[9.396,42.298]]]}},{"type":"Feature","properties":{"code":"2B162","nom":"Moltifao"},"geometry":{"type":"Polygon","coordinates":[[[9.177,42.459],[9.15,42.452],[9.107,42.43],[9.079,42.428],[9.084,42.467],[9.057,42.489],[9.061,42.504],[9.078,42.507],[9.132,42.496],[9.155,42.51],[9.18,42.494],[9.192,42.483],[9.177,42.459]]]}},{"type":"Feature","properties":{"code":"2B164","nom":"Monacia-d'Orezza"},"geometry":{"type":"Polygon","coordinates":[[[9.394,42.373],[9.387,42.389],[9.389,42.39],[9.388,42.391],[9.42,42.385],[9.426,42.373],[9.402,42.373],[9.394,42.373]]]}},{"type":"Feature","properties":{"code":"2B165","nom":"Moncale"},"geometry":{"type":"Polygon","coordinates":[[[8.843,42.509],[8.83,42.497],[8.814,42.509],[8.838,42.52],[8.843,42.509]]]}},{"type":"Feature","properties":{"code":"2B166","nom":"Monte"},"geometry":{"type":"Polygon","coordinates":[[[9.392,42.449],[9.386,42.451],[9.372,42.479],[9.371,42.485],[9.381,42.503],[9.384,42.5],[9.399,42.487],[9.439,42.517],[9.453,42.525],[9.451,42.504],[9.418,42.492],[9.408,42.463],[9.397,42.455],[9.392,42.449]]]}},{"type":"Feature","properties":{"code":"2B167","nom":"Montegrosso"},"geometry":{"type":"Polygon","coordinates":[[[8.877,42.561],[8.88,42.56],[8.895,42.55],[8.907,42.538],[8.858,42.524],[8.815,42.537],[8.81,42.553],[8.85,42.565],[8.877,42.561]]]}},{"type":"Feature","properties":{"code":"2B168","nom":"Monticello"},"geometry":{"type":"Polygon","coordinates":[[[8.985,42.62],[8.975,42.614],[8.952,42.602],[8.935,42.622],[8.948,42.634],[8.98,42.639],[8.985,42.62]]]}},{"type":"Feature","properties":{"code":"2B169","nom":"Morosaglia"},"geometry":{"type":"Polygon","coordinates":[[[9.328,42.444],[9.327,42.435],[9.327,42.417],[9.327,42.417],[9.271,42.437],[9.22,42.444],[9.201,42.445],[9.177,42.459],[9.192,42.483],[9.21,42.472],[9.243,42.453],[9.275,42.445],[9.308,42.448],[9.325,42.446],[9.328,42.444]]]}},{"type":"Feature","properties":{"code":"2B170","nom":"Morsiglia"},"geometry":{"type":"Polygon","coordinates":[[[9.35,42.961],[9.394,42.947],[9.403,42.939],[9.39,42.921],[9.377,42.911],[9.36,42.923],[9.35,42.961]]]}},{"type":"Feature","properties":{"code":"2B171","nom":"Muracciole"},"geometry":{"type":"Polygon","coordinates":[[[9.219,42.163],[9.18,42.141],[9.18,42.169],[9.168,42.193],[9.175,42.2],[9.219,42.165],[9.219,42.163]]]}},{"type":"Feature","properties":{"code":"2B172","nom":"Murato"},"geometry":{"type":"Polygon","coordinates":[[[9.302,42.574],[9.316,42.599],[9.347,42.582],[9.367,42.555],[9.344,42.55],[9.321,42.545],[9.294,42.552],[9.302,42.574]]]}},{"type":"Feature","properties":{"code":"2B173","nom":"Muro"},"geometry":{"type":"Polygon","coordinates":[[[8.932,42.52],[8.907,42.538],[8.895,42.55],[8.916,42.569],[8.917,42.571],[8.932,42.52]]]}},{"type":"Feature","properties":{"code":"2B175","nom":"Nessa"},"geometry":{"type":"Polygon","coordinates":[[[8.966,42.531],[8.946,42.54],[8.952,42.573],[8.974,42.538],[8.966,42.531]]]}},{"type":"Feature","properties":{"code":"2B176","nom":"Nocario"},"geometry":{"type":"Polygon","coordinates":[[[9.367,42.396],[9.365,42.388],[9.35,42.383],[9.327,42.396],[9.326,42.399],[9.34,42.402],[9.367,42.396]]]}},{"type":"Feature","properties":{"code":"2B177","nom":"Noceta"},"geometry":{"type":"Polygon","coordinates":[[[9.175,42.2],[9.188,42.221],[9.245,42.228],[9.242,42.218],[9.227,42.203],[9.219,42.165],[9.175,42.2]]]}},{"type":"Feature","properties":{"code":"2B178","nom":"Nonza"},"geometry":{"type":"Polygon","coordinates":[[[9.359,42.807],[9.381,42.79],[9.34,42.761],[9.338,42.804],[9.359,42.807]]]}},{"type":"Feature","properties":{"code":"2B179","nom":"Novale"},"geometry":{"type":"Polygon","coordinates":[[[9.426,42.301],[9.421,42.289],[9.396,42.298],[9.403,42.315],[9.413,42.318],[9.426,42.301]]]}},{"type":"Feature","properties":{"code":"2B180","nom":"Novella"},"geometry":{"type":"Polygon","coordinates":[[[9.127,42.561],[9.094,42.565],[9.074,42.579],[9.072,42.596],[9.096,42.646],[9.135,42.608],[9.134,42.57],[9.127,42.561]]]}},{"type":"Feature","properties":{"code":"2B182","nom":"Occhiatana"},"geometry":{"type":"Polygon","coordinates":[[[9.02,42.552],[9.008,42.559],[9.004,42.569],[9,42.585],[8.985,42.62],[8.98,42.639],[9,42.642],[8.998,42.614],[9.016,42.578],[9.038,42.574],[9.02,42.552]]]}},{"type":"Feature","properties":{"code":"2B183","nom":"Ogliastro"},"geometry":{"type":"Polygon","coordinates":[[[9.385,42.835],[9.385,42.827],[9.359,42.807],[9.338,42.804],[9.326,42.812],[9.349,42.834],[9.385,42.835]]]}},{"type":"Feature","properties":{"code":"2B184","nom":"Olcani"},"geometry":{"type":"Polygon","coordinates":[[[9.418,42.789],[9.381,42.79],[9.359,42.807],[9.385,42.827],[9.416,42.796],[9.418,42.789]]]}},{"type":"Feature","properties":{"code":"2B185","nom":"Oletta"},"geometry":{"type":"Polygon","coordinates":[[[9.392,42.638],[9.395,42.635],[9.398,42.62],[9.302,42.627],[9.283,42.662],[9.324,42.67],[9.355,42.639],[9.392,42.638]]]}},{"type":"Feature","properties":{"code":"2B187","nom":"Olmeta-di-Capocorso"},"geometry":{"type":"Polygon","coordinates":[[[9.381,42.79],[9.418,42.789],[9.415,42.773],[9.388,42.748],[9.344,42.74],[9.34,42.761],[9.381,42.79]]]}},{"type":"Feature","properties":{"code":"2B188","nom":"Olmeta-di-Tuda"},"geometry":{"type":"Polygon","coordinates":[[[9.363,42.592],[9.311,42.618],[9.302,42.627],[9.398,42.62],[9.416,42.605],[9.363,42.592]]]}},{"type":"Feature","properties":{"code":"2B190","nom":"Olmi-Cappella"},"geometry":{"type":"Polygon","coordinates":[[[8.917,42.467],[8.944,42.472],[9.022,42.511],[9.006,42.528],[9.02,42.552],[9.038,42.574],[9.041,42.575],[9.074,42.579],[9.094,42.565],[9.075,42.538],[9.04,42.533],[9.036,42.495],[8.965,42.456],[8.919,42.46],[8.917,42.467]]]}},{"type":"Feature","properties":{"code":"2B192","nom":"Olmo"},"geometry":{"type":"Polygon","coordinates":[[[9.429,42.514],[9.439,42.517],[9.399,42.487],[9.384,42.5],[9.4,42.494],[9.429,42.514]]]}},{"type":"Feature","properties":{"code":"2B193","nom":"Omessa"},"geometry":{"type":"Polygon","coordinates":[[[9.209,42.395],[9.228,42.384],[9.229,42.359],[9.193,42.358],[9.166,42.371],[9.165,42.394],[9.199,42.421],[9.197,42.418],[9.209,42.395]]]}},{"type":"Feature","properties":{"code":"2B194","nom":"Ortale"},"geometry":{"type":"Polygon","coordinates":[[[9.426,42.301],[9.413,42.318],[9.456,42.316],[9.455,42.307],[9.426,42.301]]]}},{"type":"Feature","properties":{"code":"2B195","nom":"Ortiporio"},"geometry":{"type":"Polygon","coordinates":[[[9.331,42.455],[9.333,42.466],[9.365,42.47],[9.365,42.456],[9.358,42.452],[9.328,42.444],[9.325,42.446],[9.331,42.455]]]}},{"type":"Feature","properties":{"code":"2B199","nom":"Palasca"},"geometry":{"type":"Polygon","coordinates":[[[9.062,42.694],[9.106,42.656],[9.096,42.646],[9.072,42.596],[9.074,42.579],[9.041,42.575],[9.016,42.616],[9.018,42.642],[9.059,42.66],[9.062,42.694]]]}},{"type":"Feature","properties":{"code":"2B201","nom":"Pancheraccia"},"geometry":{"type":"Polygon","coordinates":[[[9.364,42.224],[9.382,42.234],[9.385,42.233],[9.42,42.203],[9.454,42.15],[9.453,42.144],[9.411,42.181],[9.403,42.196],[9.371,42.208],[9.364,42.224]]]}},{"type":"Feature","properties":{"code":"2B202","nom":"Parata"},"geometry":{"type":"Polygon","coordinates":[[[9.43,42.355],[9.402,42.373],[9.426,42.373],[9.433,42.364],[9.43,42.355]]]}},{"type":"Feature","properties":{"code":"2B205","nom":"Patrimonio"},"geometry":{"type":"Polygon","coordinates":[[[9.405,42.705],[9.398,42.693],[9.329,42.694],[9.322,42.696],[9.33,42.719],[9.349,42.71],[9.396,42.728],[9.405,42.705]]]}},{"type":"Feature","properties":{"code":"2B206","nom":"Penta-Acquatella"},"geometry":{"type":"Polygon","coordinates":[[[9.386,42.451],[9.365,42.456],[9.365,42.47],[9.372,42.479],[9.386,42.451]]]}},{"type":"Feature","properties":{"code":"2B207","nom":"Penta-di-Casinca"},"geometry":{"type":"Polygon","coordinates":[[[9.462,42.446],[9.436,42.461],[9.436,42.464],[9.464,42.476],[9.482,42.46],[9.536,42.47],[9.541,42.439],[9.462,42.446]]]}},{"type":"Feature","properties":{"code":"2B208","nom":"Perelli"},"geometry":{"type":"Polygon","coordinates":[[[9.379,42.3],[9.368,42.316],[9.402,42.332],[9.403,42.331],[9.408,42.325],[9.403,42.315],[9.396,42.298],[9.379,42.3]]]}},{"type":"Feature","properties":{"code":"2B210","nom":"Pero-Casevecchie"},"geometry":{"type":"Polygon","coordinates":[[[9.447,42.404],[9.462,42.43],[9.481,42.422],[9.472,42.411],[9.447,42.404]]]}},{"type":"Feature","properties":{"code":"2B213","nom":"Pianello"},"geometry":{"type":"Polygon","coordinates":[[[9.368,42.316],[9.379,42.3],[9.378,42.273],[9.358,42.273],[9.335,42.28],[9.334,42.284],[9.345,42.328],[9.347,42.33],[9.354,42.328],[9.368,42.316]]]}},{"type":"Feature","properties":{"code":"2B214","nom":"Piano"},"geometry":{"type":"Polygon","coordinates":[[[9.397,42.455],[9.409,42.447],[9.405,42.431],[9.397,42.427],[9.384,42.442],[9.392,42.449],[9.397,42.455]]]}},{"type":"Feature","properties":{"code":"2B216","nom":"Piazzali"},"geometry":{"type":"Polygon","coordinates":[[[9.413,42.318],[9.403,42.315],[9.408,42.325],[9.413,42.318]]]}},{"type":"Feature","properties":{"code":"2B217","nom":"Piazzole"},"geometry":{"type":"Polygon","coordinates":[[[9.424,42.391],[9.42,42.385],[9.388,42.391],[9.389,42.398],[9.392,42.404],[9.424,42.391]]]}},{"type":"Feature","properties":{"code":"2B218","nom":"Piedicorte-di-Gaggio"},"geometry":{"type":"Polygon","coordinates":[[[9.355,42.194],[9.317,42.181],[9.292,42.199],[9.311,42.244],[9.314,42.257],[9.331,42.255],[9.339,42.251],[9.348,42.218],[9.355,42.194]]]}},{"type":"Feature","properties":{"code":"2B219","nom":"Piedicroce"},"geometry":{"type":"Polygon","coordinates":[[[9.385,42.399],[9.385,42.399],[9.389,42.398],[9.388,42.391],[9.389,42.39],[9.376,42.39],[9.373,42.379],[9.36,42.37],[9.345,42.383],[9.35,42.383],[9.365,42.388],[9.385,42.399]]]}},{"type":"Feature","properties":{"code":"2B220","nom":"Piedigriggio"},"geometry":{"type":"Polygon","coordinates":[[[9.15,42.452],[9.177,42.459],[9.201,42.445],[9.209,42.433],[9.203,42.427],[9.164,42.441],[9.15,42.452]]]}},{"type":"Feature","properties":{"code":"2B221","nom":"Piedipartino"},"geometry":{"type":"Polygon","coordinates":[[[9.36,42.37],[9.365,42.371],[9.339,42.342],[9.331,42.36],[9.36,42.37]]]}},{"type":"Feature","properties":{"code":"2B222","nom":"Pie-d'Orezza"},"geometry":{"type":"Polygon","coordinates":[[[9.325,42.377],[9.327,42.391],[9.345,42.383],[9.36,42.37],[9.331,42.36],[9.329,42.363],[9.325,42.377]]]}},{"type":"Feature","properties":{"code":"2B223","nom":"Pietralba"},"geometry":{"type":"Polygon","coordinates":[[[9.229,42.549],[9.222,42.528],[9.193,42.506],[9.132,42.546],[9.127,42.561],[9.134,42.57],[9.178,42.563],[9.212,42.579],[9.22,42.56],[9.229,42.549]]]}},{"type":"Feature","properties":{"code":"2B224","nom":"Pietracorbara"},"geometry":{"type":"Polygon","coordinates":[[[9.487,42.827],[9.385,42.835],[9.392,42.845],[9.402,42.861],[9.404,42.863],[9.48,42.86],[9.487,42.827]]]}},{"type":"Feature","properties":{"code":"2B225","nom":"Pietra-di-Verde"},"geometry":{"type":"Polygon","coordinates":[[[9.421,42.289],[9.426,42.301],[9.455,42.307],[9.468,42.3],[9.458,42.285],[9.444,42.27],[9.431,42.282],[9.421,42.289]]]}},{"type":"Feature","properties":{"code":"2B226","nom":"Pietraserena"},"geometry":{"type":"Polygon","coordinates":[[[9.382,42.234],[9.364,42.224],[9.348,42.218],[9.339,42.251],[9.35,42.251],[9.36,42.245],[9.382,42.234]]]}},{"type":"Feature","properties":{"code":"2B227","nom":"Pietricaggio"},"geometry":{"type":"Polygon","coordinates":[[[9.368,42.316],[9.354,42.328],[9.39,42.34],[9.402,42.332],[9.368,42.316]]]}},{"type":"Feature","properties":{"code":"2B229","nom":"Pietroso"},"geometry":{"type":"Polygon","coordinates":[[[9.39,42.083],[9.345,42.101],[9.28,42.11],[9.251,42.141],[9.284,42.149],[9.329,42.114],[9.368,42.1],[9.39,42.083]]]}},{"type":"Feature","properties":{"code":"2B230","nom":"Piève"},"geometry":{"type":"Polygon","coordinates":[[[9.298,42.614],[9.264,42.652],[9.281,42.652],[9.309,42.61],[9.293,42.586],[9.302,42.574],[9.294,42.552],[9.29,42.549],[9.26,42.555],[9.229,42.549],[9.22,42.56],[9.251,42.562],[9.283,42.581],[9.283,42.596],[9.298,42.614]]]}},{"type":"Feature","properties":{"code":"2B231","nom":"Pigna"},"geometry":{"type":"Polygon","coordinates":[[[8.895,42.595],[8.881,42.607],[8.919,42.602],[8.917,42.598],[8.895,42.595]]]}},{"type":"Feature","properties":{"code":"2B233","nom":"Pino"},"geometry":{"type":"Polygon","coordinates":[[[9.377,42.911],[9.361,42.89],[9.326,42.901],[9.36,42.923],[9.377,42.911]]]}},{"type":"Feature","properties":{"code":"2B234","nom":"Piobetta"},"geometry":{"type":"Polygon","coordinates":[[[9.392,42.354],[9.39,42.34],[9.354,42.328],[9.347,42.33],[9.344,42.339],[9.373,42.347],[9.392,42.354]]]}},{"type":"Feature","properties":{"code":"2B235","nom":"Pioggiola"},"geometry":{"type":"Polygon","coordinates":[[[9.006,42.528],[8.977,42.504],[8.957,42.506],[8.922,42.492],[8.919,42.498],[8.94,42.516],[8.966,42.531],[8.974,42.538],[8.999,42.549],[9.008,42.559],[9.02,42.552],[9.006,42.528]]]}},{"type":"Feature","properties":{"code":"2B236","nom":"Poggio-di-Nazza"},"geometry":{"type":"Polygon","coordinates":[[[9.367,42.035],[9.316,42.036],[9.279,42.034],[9.259,42.046],[9.228,42.045],[9.239,42.075],[9.275,42.076],[9.317,42.061],[9.367,42.049],[9.367,42.035]]]}},{"type":"Feature","properties":{"code":"2B238","nom":"Poggio-di-Venaco"},"geometry":{"type":"Polygon","coordinates":[[[9.228,42.25],[9.182,42.257],[9.18,42.275],[9.206,42.285],[9.223,42.289],[9.236,42.277],[9.228,42.25]]]}},{"type":"Feature","properties":{"code":"2B239","nom":"Poggio-d'Oletta"},"geometry":{"type":"Polygon","coordinates":[[[9.382,42.668],[9.392,42.638],[9.355,42.639],[9.324,42.67],[9.338,42.678],[9.382,42.668]]]}},{"type":"Feature","properties":{"code":"2B241","nom":"Poggio-Marinaccio"},"geometry":{"type":"Polygon","coordinates":[[[9.327,42.435],[9.328,42.444],[9.36,42.444],[9.373,42.438],[9.327,42.435]]]}},{"type":"Feature","properties":{"code":"2B242","nom":"Poggio-Mezzana"},"geometry":{"type":"Polygon","coordinates":[[[9.488,42.39],[9.486,42.402],[9.513,42.416],[9.538,42.412],[9.535,42.394],[9.489,42.389],[9.488,42.39]]]}},{"type":"Feature","properties":{"code":"2B243","nom":"Polveroso"},"geometry":{"type":"Polygon","coordinates":[[[9.385,42.399],[9.367,42.396],[9.34,42.402],[9.385,42.399],[9.385,42.399]]]}},{"type":"Feature","properties":{"code":"2B244","nom":"Popolasca"},"geometry":{"type":"Polygon","coordinates":[[[9.15,42.452],[9.164,42.441],[9.147,42.422],[9.107,42.43],[9.15,42.452]]]}},{"type":"Feature","properties":{"code":"2B245","nom":"Porri"},"geometry":{"type":"Polygon","coordinates":[[[9.436,42.461],[9.462,42.446],[9.449,42.436],[9.435,42.441],[9.436,42.461]]]}},{"type":"Feature","properties":{"code":"2B246","nom":"La Porta"},"geometry":{"type":"Polygon","coordinates":[[[9.375,42.438],[9.384,42.442],[9.397,42.427],[9.364,42.418],[9.324,42.411],[9.327,42.417],[9.327,42.417],[9.375,42.438]]]}},{"type":"Feature","properties":{"code":"2B248","nom":"Prato-di-Giovellina"},"geometry":{"type":"Polygon","coordinates":[[[9.152,42.395],[9.147,42.422],[9.164,42.441],[9.203,42.427],[9.199,42.421],[9.165,42.394],[9.152,42.395]]]}},{"type":"Feature","properties":{"code":"2B250","nom":"Prunelli-di-Casacconi"},"geometry":{"type":"Polygon","coordinates":[[[9.384,42.5],[9.381,42.503],[9.385,42.51],[9.401,42.522],[9.427,42.519],[9.429,42.514],[9.4,42.494],[9.384,42.5]]]}},{"type":"Feature","properties":{"code":"2B251","nom":"Prunelli-di-Fiumorbo"},"geometry":{"type":"Polygon","coordinates":[[[9.324,41.996],[9.308,42.015],[9.316,42.036],[9.367,42.035],[9.38,42.017],[9.418,42.006],[9.442,41.99],[9.44,41.988],[9.398,41.976],[9.372,42.001],[9.324,41.996]]]}},{"type":"Feature","properties":{"code":"2B252","nom":"Pruno"},"geometry":{"type":"Polygon","coordinates":[[[9.462,42.446],[9.462,42.43],[9.447,42.404],[9.439,42.408],[9.432,42.426],[9.449,42.436],[9.462,42.446]]]}},{"type":"Feature","properties":{"code":"2B255","nom":"Quercitello"},"geometry":{"type":"Polygon","coordinates":[[[9.373,42.438],[9.375,42.438],[9.327,42.417],[9.327,42.435],[9.373,42.438]]]}},{"type":"Feature","properties":{"code":"2B256","nom":"Rapaggio"},"geometry":{"type":"Polygon","coordinates":[[[9.394,42.373],[9.381,42.365],[9.379,42.365],[9.375,42.369],[9.387,42.389],[9.394,42.373]]]}},{"type":"Feature","properties":{"code":"2B257","nom":"Rapale"},"geometry":{"type":"Polygon","coordinates":[[[9.316,42.599],[9.302,42.574],[9.293,42.586],[9.309,42.61],[9.281,42.652],[9.264,42.652],[9.266,42.666],[9.283,42.662],[9.302,42.627],[9.311,42.618],[9.316,42.599]]]}},{"type":"Feature","properties":{"code":"2B260","nom":"Riventosa"},"geometry":{"type":"Polygon","coordinates":[[[9.229,42.241],[9.177,42.25],[9.182,42.257],[9.228,42.25],[9.232,42.25],[9.229,42.241]]]}},{"type":"Feature","properties":{"code":"2B261","nom":"Rogliano"},"geometry":{"type":"Polygon","coordinates":[[[9.405,43.006],[9.418,43.011],[9.464,42.987],[9.455,42.957],[9.421,42.938],[9.403,42.939],[9.394,42.947],[9.393,42.958],[9.415,42.98],[9.405,43.006]]]}},{"type":"Feature","properties":{"code":"2B263","nom":"Rospigliani"},"geometry":{"type":"Polygon","coordinates":[[[9.242,42.218],[9.261,42.198],[9.219,42.165],[9.227,42.203],[9.242,42.218]]]}},{"type":"Feature","properties":{"code":"2B264","nom":"Rusio"},"geometry":{"type":"Polygon","coordinates":[[[9.238,42.352],[9.234,42.355],[9.251,42.371],[9.28,42.364],[9.279,42.361],[9.272,42.341],[9.258,42.329],[9.255,42.336],[9.238,42.352]]]}},{"type":"Feature","properties":{"code":"2B265","nom":"Rutali"},"geometry":{"type":"Polygon","coordinates":[[[9.375,42.556],[9.367,42.555],[9.347,42.582],[9.363,42.592],[9.416,42.605],[9.415,42.587],[9.382,42.56],[9.375,42.556]]]}},{"type":"Feature","properties":{"code":"2B267","nom":"Saliceto"},"geometry":{"type":"Polygon","coordinates":[[[9.197,42.418],[9.199,42.421],[9.203,42.427],[9.209,42.433],[9.233,42.424],[9.326,42.402],[9.326,42.399],[9.327,42.396],[9.305,42.392],[9.256,42.403],[9.232,42.418],[9.197,42.418]]]}},{"type":"Feature","properties":{"code":"2B273","nom":"Scata"},"geometry":{"type":"Polygon","coordinates":[[[9.39,42.416],[9.397,42.427],[9.405,42.431],[9.418,42.428],[9.415,42.417],[9.39,42.416]]]}},{"type":"Feature","properties":{"code":"2B274","nom":"Scolca"},"geometry":{"type":"Polygon","coordinates":[[[9.367,42.555],[9.375,42.556],[9.374,42.534],[9.391,42.522],[9.359,42.526],[9.346,42.545],[9.344,42.55],[9.367,42.555]]]}},{"type":"Feature","properties":{"code":"2B275","nom":"Sermano"},"geometry":{"type":"Polygon","coordinates":[[[9.272,42.341],[9.281,42.335],[9.278,42.319],[9.274,42.303],[9.247,42.291],[9.258,42.329],[9.272,42.341]]]}},{"type":"Feature","properties":{"code":"2B277","nom":"Serra-di-Fiumorbo"},"geometry":{"type":"Polygon","coordinates":[[[9.231,41.933],[9.277,41.978],[9.297,41.986],[9.324,41.996],[9.372,42.001],[9.398,41.976],[9.44,41.988],[9.417,41.961],[9.413,41.938],[9.408,41.968],[9.344,41.966],[9.294,41.95],[9.27,41.95],[9.231,41.933]]]}},{"type":"Feature","properties":{"code":"2B280","nom":"Silvareccio"},"geometry":{"type":"Polygon","coordinates":[[[9.397,42.455],[9.408,42.463],[9.436,42.464],[9.436,42.461],[9.435,42.441],[9.409,42.447],[9.397,42.455]]]}},{"type":"Feature","properties":{"code":"2B281","nom":"Sisco"},"geometry":{"type":"Polygon","coordinates":[[[9.385,42.835],[9.487,42.827],[9.491,42.798],[9.416,42.796],[9.385,42.827],[9.385,42.835]]]}},{"type":"Feature","properties":{"code":"2B283","nom":"Solaro"},"geometry":{"type":"Polygon","coordinates":[[[9.309,41.832],[9.269,41.84],[9.227,41.855],[9.236,41.876],[9.312,41.921],[9.35,41.922],[9.409,41.907],[9.397,41.874],[9.402,41.86],[9.371,41.865],[9.347,41.846],[9.309,41.832]]]}},{"type":"Feature","properties":{"code":"2B286","nom":"Sorbo-Ocagnano"},"geometry":{"type":"Polygon","coordinates":[[[9.464,42.476],[9.436,42.464],[9.443,42.476],[9.507,42.496],[9.53,42.496],[9.531,42.484],[9.485,42.473],[9.464,42.476]]]}},{"type":"Feature","properties":{"code":"2B287","nom":"Sorio"},"geometry":{"type":"Polygon","coordinates":[[[9.283,42.596],[9.283,42.581],[9.251,42.562],[9.22,42.56],[9.212,42.579],[9.21,42.586],[9.283,42.596]]]}},{"type":"Feature","properties":{"code":"2B289","nom":"Soveria"},"geometry":{"type":"Polygon","coordinates":[[[9.193,42.358],[9.155,42.339],[9.113,42.338],[9.093,42.323],[9.098,42.336],[9.117,42.35],[9.145,42.352],[9.166,42.371],[9.193,42.358]]]}},{"type":"Feature","properties":{"code":"2B290","nom":"Speloncato"},"geometry":{"type":"Polygon","coordinates":[[[8.975,42.614],[8.983,42.566],[8.999,42.549],[8.974,42.538],[8.952,42.573],[8.949,42.587],[8.952,42.602],[8.975,42.614]]]}},{"type":"Feature","properties":{"code":"2B291","nom":"Stazzona"},"geometry":{"type":"Polygon","coordinates":[[[9.365,42.371],[9.36,42.37],[9.373,42.379],[9.376,42.39],[9.389,42.39],[9.387,42.389],[9.375,42.369],[9.365,42.371]]]}},{"type":"Feature","properties":{"code":"2B292","nom":"Sant'Andréa-di-Bozio"},"geometry":{"type":"Polygon","coordinates":[[[9.236,42.277],[9.281,42.296],[9.294,42.301],[9.306,42.301],[9.334,42.284],[9.335,42.28],[9.331,42.255],[9.314,42.257],[9.299,42.265],[9.282,42.277],[9.232,42.25],[9.228,42.25],[9.236,42.277]]]}},{"type":"Feature","properties":{"code":"2B293","nom":"Sant'Andréa-di-Cotone"},"geometry":{"type":"Polygon","coordinates":[[[9.458,42.339],[9.47,42.334],[9.49,42.317],[9.498,42.299],[9.468,42.3],[9.455,42.307],[9.456,42.316],[9.458,42.339]]]}},{"type":"Feature","properties":{"code":"2B296","nom":"Sant'Antonino"},"geometry":{"type":"Polygon","coordinates":[[[8.925,42.581],[8.919,42.575],[8.899,42.574],[8.895,42.595],[8.917,42.598],[8.925,42.581]]]}},{"type":"Feature","properties":{"code":"2B297","nom":"San-Damiano"},"geometry":{"type":"Polygon","coordinates":[[[9.439,42.408],[9.447,42.404],[9.424,42.391],[9.392,42.404],[9.389,42.408],[9.39,42.416],[9.415,42.417],[9.439,42.408]]]}},{"type":"Feature","properties":{"code":"2B298","nom":"Saint-Florent"},"geometry":{"type":"Polygon","coordinates":[[[9.266,42.666],[9.262,42.692],[9.235,42.702],[9.234,42.72],[9.287,42.674],[9.322,42.696],[9.329,42.694],[9.338,42.678],[9.324,42.67],[9.283,42.662],[9.266,42.666]]]}},{"type":"Feature","properties":{"code":"2B299","nom":"San-Gavino-d'Ampugnani"},"geometry":{"type":"Polygon","coordinates":[[[9.439,42.408],[9.415,42.417],[9.418,42.428],[9.432,42.426],[9.439,42.408]]]}},{"type":"Feature","properties":{"code":"2B301","nom":"San-Gavino-di-Tenda"},"geometry":{"type":"Polygon","coordinates":[[[9.106,42.656],[9.062,42.694],[9.1,42.716],[9.136,42.692],[9.173,42.64],[9.247,42.599],[9.298,42.614],[9.283,42.596],[9.21,42.586],[9.21,42.595],[9.173,42.627],[9.106,42.656]]]}},{"type":"Feature","properties":{"code":"2B302","nom":"San-Giovanni-di-Moriani"},"geometry":{"type":"Polygon","coordinates":[[[9.433,42.364],[9.461,42.39],[9.488,42.39],[9.489,42.389],[9.487,42.374],[9.482,42.355],[9.48,42.353],[9.451,42.369],[9.433,42.364]]]}},{"type":"Feature","properties":{"code":"2B303","nom":"San-Giuliano"},"geometry":{"type":"Polygon","coordinates":[[[9.498,42.299],[9.49,42.317],[9.513,42.319],[9.553,42.299],[9.555,42.253],[9.515,42.271],[9.498,42.299]]]}},{"type":"Feature","properties":{"code":"2B304","nom":"San-Lorenzo"},"geometry":{"type":"Polygon","coordinates":[[[9.325,42.377],[9.279,42.379],[9.259,42.387],[9.257,42.392],[9.256,42.403],[9.305,42.392],[9.327,42.396],[9.327,42.391],[9.325,42.377]]]}},{"type":"Feature","properties":{"code":"2B305","nom":"San-Martino-di-Lota"},"geometry":{"type":"Polygon","coordinates":[[[9.396,42.728],[9.395,42.741],[9.461,42.74],[9.456,42.718],[9.396,42.728]]]}},{"type":"Feature","properties":{"code":"2B306","nom":"Santa-Lucia-di-Mercurio"},"geometry":{"type":"Polygon","coordinates":[[[9.194,42.323],[9.238,42.352],[9.255,42.336],[9.229,42.295],[9.223,42.289],[9.206,42.285],[9.188,42.294],[9.194,42.323]]]}},{"type":"Feature","properties":{"code":"2B307","nom":"Santa-Lucia-di-Moriani"},"geometry":{"type":"Polygon","coordinates":[[[9.487,42.374],[9.489,42.389],[9.535,42.394],[9.533,42.378],[9.487,42.374]]]}},{"type":"Feature","properties":{"code":"2B309","nom":"Santa-Maria-di-Lota"},"geometry":{"type":"Polygon","coordinates":[[[9.395,42.741],[9.388,42.748],[9.415,42.773],[9.468,42.753],[9.461,42.74],[9.395,42.741]]]}},{"type":"Feature","properties":{"code":"2B311","nom":"Santa-Maria-Poggio"},"geometry":{"type":"Polygon","coordinates":[[[9.541,42.337],[9.48,42.342],[9.48,42.353],[9.482,42.355],[9.535,42.359],[9.541,42.337]]]}},{"type":"Feature","properties":{"code":"2B313","nom":"San-Nicolao"},"geometry":{"type":"Polygon","coordinates":[[[9.482,42.355],[9.487,42.374],[9.533,42.378],[9.535,42.359],[9.482,42.355]]]}},{"type":"Feature","properties":{"code":"2B314","nom":"Santo-Pietro-di-Tenda"},"geometry":{"type":"Polygon","coordinates":[[[9.264,42.652],[9.298,42.614],[9.247,42.599],[9.173,42.64],[9.136,42.692],[9.1,42.716],[9.125,42.732],[9.161,42.736],[9.234,42.72],[9.235,42.702],[9.262,42.692],[9.266,42.666],[9.264,42.652]]]}},{"type":"Feature","properties":{"code":"2B315","nom":"Santo-Pietro-di-Venaco"},"geometry":{"type":"Polygon","coordinates":[[[9.177,42.25],[9.229,42.241],[9.191,42.236],[9.175,42.243],[9.124,42.239],[9.148,42.256],[9.177,42.25]]]}},{"type":"Feature","properties":{"code":"2B316","nom":"Santa-Reparata-di-Balagna"},"geometry":{"type":"Polygon","coordinates":[[[8.917,42.598],[8.919,42.602],[8.924,42.626],[8.935,42.622],[8.952,42.602],[8.949,42.587],[8.925,42.581],[8.917,42.598]]]}},{"type":"Feature","properties":{"code":"2B317","nom":"Santa-Reparata-di-Moriani"},"geometry":{"type":"Polygon","coordinates":[[[9.48,42.342],[9.479,42.337],[9.47,42.334],[9.458,42.339],[9.445,42.341],[9.43,42.355],[9.433,42.364],[9.451,42.369],[9.48,42.353],[9.48,42.342]]]}},{"type":"Feature","properties":{"code":"2B318","nom":"Taglio-Isolaccio"},"geometry":{"type":"Polygon","coordinates":[[[9.462,42.43],[9.462,42.446],[9.541,42.439],[9.543,42.429],[9.481,42.422],[9.462,42.43]]]}},{"type":"Feature","properties":{"code":"2B319","nom":"Talasani"},"geometry":{"type":"Polygon","coordinates":[[[9.472,42.411],[9.481,42.422],[9.543,42.429],[9.538,42.412],[9.513,42.416],[9.486,42.402],[9.472,42.411]]]}},{"type":"Feature","properties":{"code":"2B320","nom":"Tallone"},"geometry":{"type":"Polygon","coordinates":[[[9.411,42.249],[9.449,42.221],[9.473,42.222],[9.479,42.191],[9.52,42.168],[9.554,42.157],[9.556,42.142],[9.534,42.13],[9.454,42.15],[9.42,42.203],[9.385,42.233],[9.411,42.249]]]}},{"type":"Feature","properties":{"code":"2B321","nom":"Tarrano"},"geometry":{"type":"Polygon","coordinates":[[[9.39,42.34],[9.392,42.354],[9.411,42.356],[9.413,42.335],[9.403,42.331],[9.402,42.332],[9.39,42.34]]]}},{"type":"Feature","properties":{"code":"2B327","nom":"Tomino"},"geometry":{"type":"Polygon","coordinates":[[[9.469,42.937],[9.421,42.938],[9.455,42.957],[9.469,42.937]]]}},{"type":"Feature","properties":{"code":"2B328","nom":"Tox"},"geometry":{"type":"Polygon","coordinates":[[[9.473,42.222],[9.449,42.221],[9.411,42.249],[9.409,42.254],[9.444,42.27],[9.473,42.222]]]}},{"type":"Feature","properties":{"code":"2B329","nom":"Tralonca"},"geometry":{"type":"Polygon","coordinates":[[[9.238,42.352],[9.194,42.323],[9.155,42.339],[9.193,42.358],[9.229,42.359],[9.234,42.355],[9.238,42.352]]]}},{"type":"Feature","properties":{"code":"2B332","nom":"Urtaca"},"geometry":{"type":"Polygon","coordinates":[[[9.135,42.608],[9.096,42.646],[9.106,42.656],[9.173,42.627],[9.21,42.595],[9.166,42.591],[9.135,42.608]]]}},{"type":"Feature","properties":{"code":"2B333","nom":"Vallecalle"},"geometry":{"type":"Polygon","coordinates":[[[9.311,42.618],[9.363,42.592],[9.347,42.582],[9.316,42.599],[9.311,42.618]]]}},{"type":"Feature","properties":{"code":"2B334","nom":"Valle-d'Alesani"},"geometry":{"type":"Polygon","coordinates":[[[9.413,42.318],[9.408,42.325],[9.403,42.331],[9.413,42.335],[9.445,42.341],[9.458,42.339],[9.456,42.316],[9.413,42.318]]]}},{"type":"Feature","properties":{"code":"2B335","nom":"Valle-di-Campoloro"},"geometry":{"type":"Polygon","coordinates":[[[9.479,42.337],[9.48,42.342],[9.541,42.337],[9.543,42.328],[9.479,42.337]]]}},{"type":"Feature","properties":{"code":"2B337","nom":"Valle-di-Rostino"},"geometry":{"type":"Polygon","coordinates":[[[9.308,42.448],[9.275,42.445],[9.243,42.453],[9.21,42.472],[9.262,42.476],[9.293,42.467],[9.308,42.448]]]}},{"type":"Feature","properties":{"code":"2B338","nom":"Valle-d'Orezza"},"geometry":{"type":"Polygon","coordinates":[[[9.381,42.365],[9.394,42.373],[9.402,42.373],[9.43,42.355],[9.411,42.356],[9.392,42.354],[9.381,42.365]]]}},{"type":"Feature","properties":{"code":"2B339","nom":"Vallica"},"geometry":{"type":"Polygon","coordinates":[[[9.061,42.504],[9.036,42.495],[9.04,42.533],[9.075,42.538],[9.078,42.507],[9.061,42.504]]]}},{"type":"Feature","properties":{"code":"2B340","nom":"Velone-Orneto"},"geometry":{"type":"Polygon","coordinates":[[[9.42,42.385],[9.424,42.391],[9.447,42.404],[9.472,42.411],[9.486,42.402],[9.488,42.39],[9.461,42.39],[9.433,42.364],[9.426,42.373],[9.42,42.385]]]}},{"type":"Feature","properties":{"code":"2B341","nom":"Venaco"},"geometry":{"type":"Polygon","coordinates":[[[9.245,42.228],[9.188,42.221],[9.175,42.2],[9.168,42.193],[9.123,42.182],[9.049,42.193],[9.046,42.208],[9.07,42.208],[9.124,42.239],[9.175,42.243],[9.191,42.236],[9.229,42.241],[9.245,42.228],[9.245,42.228]]]}},{"type":"Feature","properties":{"code":"2B342","nom":"Ventiseri"},"geometry":{"type":"Polygon","coordinates":[[[9.409,41.907],[9.35,41.922],[9.312,41.921],[9.294,41.95],[9.344,41.966],[9.408,41.968],[9.413,41.938],[9.409,41.907]]]}},{"type":"Feature","properties":{"code":"2B343","nom":"Venzolasca"},"geometry":{"type":"Polygon","coordinates":[[[9.533,42.524],[9.534,42.523],[9.53,42.496],[9.507,42.496],[9.443,42.476],[9.445,42.487],[9.485,42.514],[9.533,42.524]]]}},{"type":"Feature","properties":{"code":"2B344","nom":"Verdèse"},"geometry":{"type":"Polygon","coordinates":[[[9.365,42.388],[9.367,42.396],[9.385,42.399],[9.365,42.388]]]}},{"type":"Feature","properties":{"code":"2B346","nom":"Vescovato"},"geometry":{"type":"Polygon","coordinates":[[[9.453,42.525],[9.476,42.535],[9.513,42.534],[9.533,42.524],[9.485,42.514],[9.445,42.487],[9.418,42.492],[9.451,42.504],[9.453,42.525]]]}},{"type":"Feature","properties":{"code":"2B347","nom":"Vezzani"},"geometry":{"type":"Polygon","coordinates":[[[9.219,42.163],[9.219,42.165],[9.261,42.198],[9.292,42.199],[9.317,42.181],[9.315,42.159],[9.344,42.145],[9.357,42.124],[9.368,42.1],[9.329,42.114],[9.284,42.149],[9.251,42.141],[9.219,42.163]]]}},{"type":"Feature","properties":{"code":"2B350","nom":"Vignale"},"geometry":{"type":"Polygon","coordinates":[[[9.396,42.55],[9.427,42.519],[9.401,42.522],[9.391,42.522],[9.374,42.534],[9.375,42.556],[9.382,42.56],[9.396,42.55]]]}},{"type":"Feature","properties":{"code":"2B352","nom":"Ville-di-Paraso"},"geometry":{"type":"Polygon","coordinates":[[[8.975,42.614],[8.985,42.62],[9,42.585],[8.993,42.574],[9.004,42.569],[9.008,42.559],[8.999,42.549],[8.983,42.566],[8.975,42.614]]]}},{"type":"Feature","properties":{"code":"2B353","nom":"Ville-di-Pietrabugno"},"geometry":{"type":"Polygon","coordinates":[[[9.405,42.705],[9.396,42.728],[9.456,42.718],[9.455,42.708],[9.405,42.705]]]}},{"type":"Feature","properties":{"code":"2B354","nom":"Vivario"},"geometry":{"type":"Polygon","coordinates":[[[9.048,42.176],[9.049,42.193],[9.123,42.182],[9.168,42.193],[9.18,42.169],[9.18,42.141],[9.134,42.091],[9.112,42.114],[9.071,42.13],[9.065,42.167],[9.048,42.176]]]}},{"type":"Feature","properties":{"code":"2B355","nom":"Volpajola"},"geometry":{"type":"Polygon","coordinates":[[[9.401,42.522],[9.385,42.51],[9.335,42.506],[9.334,42.537],[9.346,42.545],[9.359,42.526],[9.391,42.522],[9.401,42.522]]]}},{"type":"Feature","properties":{"code":"2B356","nom":"Zalana"},"geometry":{"type":"Polygon","coordinates":[[[9.382,42.234],[9.36,42.245],[9.357,42.262],[9.358,42.273],[9.378,42.273],[9.397,42.266],[9.404,42.263],[9.409,42.254],[9.411,42.249],[9.385,42.233],[9.382,42.234]]]}},{"type":"Feature","properties":{"code":"2B361","nom":"Zilia"},"geometry":{"type":"Polygon","coordinates":[[[8.907,42.538],[8.932,42.52],[8.94,42.516],[8.919,42.498],[8.858,42.524],[8.907,42.538]]]}},{"type":"Feature","properties":{"code":"2B364","nom":"Zuani"},"geometry":{"type":"Polygon","coordinates":[[[9.335,42.28],[9.358,42.273],[9.357,42.262],[9.35,42.251],[9.339,42.251],[9.331,42.255],[9.335,42.28]]]}},{"type":"Feature","properties":{"code":"2B365","nom":"San-Gavino-di-Fiumorbo"},"geometry":{"type":"Polygon","coordinates":[[[9.223,41.949],[9.22,41.99],[9.26,41.998],[9.297,41.986],[9.277,41.978],[9.231,41.933],[9.223,41.949]]]}},{"type":"Feature","properties":{"code":"2B366","nom":"Chisa"},"geometry":{"type":"Polygon","coordinates":[[[9.214,41.917],[9.231,41.933],[9.27,41.95],[9.294,41.95],[9.312,41.921],[9.236,41.876],[9.252,41.899],[9.214,41.917]]]}}]}