{"type":"FeatureCollection","features":[{"type":"Feature","properties":{"code":"34001","nom":"Abeilhan"},"geometry":{"type":"Polygon","coordinates":[[[3.278,43.461],[3.294,43.475],[3.303,43.475],[3.328,43.452],[3.285,43.445],[3.278,43.461]]]}},{"type":"Feature","properties":{"code":"34002","nom":"Adissan"},"geometry":{"type":"Polygon","coordinates":[[[3.44,43.541],[3.436,43.522],[3.415,43.525],[3.426,43.551],[3.44,43.541]]]}},{"type":"Feature","properties":{"code":"34003","nom":"Agde"},"geometry":{"type":"Polygon","coordinates":[[[3.456,43.341],[3.493,43.353],[3.521,43.316],[3.54,43.302],[3.517,43.277],[3.469,43.275],[3.429,43.29],[3.439,43.328],[3.456,43.341]]]}},{"type":"Feature","properties":{"code":"34004","nom":"Agel"},"geometry":{"type":"Polygon","coordinates":[[[2.846,43.326],[2.833,43.337],[2.839,43.372],[2.856,43.373],[2.87,43.36],[2.869,43.33],[2.846,43.326]]]}},{"type":"Feature","properties":{"code":"34005","nom":"Agonès"},"geometry":{"type":"Polygon","coordinates":[[[3.726,43.882],[3.721,43.911],[3.727,43.916],[3.737,43.913],[3.726,43.882]]]}},{"type":"Feature","properties":{"code":"34006","nom":"Aigne"},"geometry":{"type":"Polygon","coordinates":[[[2.818,43.324],[2.809,43.304],[2.8,43.306],[2.775,43.315],[2.766,43.335],[2.771,43.34],[2.8,43.344],[2.818,43.324]]]}},{"type":"Feature","properties":{"code":"34007","nom":"Aigues-Vives"},"geometry":{"type":"Polygon","coordinates":[[[2.846,43.326],[2.818,43.324],[2.8,43.344],[2.814,43.353],[2.815,43.379],[2.839,43.372],[2.833,43.337],[2.846,43.326]]]}},{"type":"Feature","properties":{"code":"34008","nom":"Les Aires"},"geometry":{"type":"Polygon","coordinates":[[[3.057,43.55],[3.021,43.556],[3.007,43.572],[3.031,43.578],[3.077,43.585],[3.108,43.587],[3.129,43.571],[3.087,43.557],[3.057,43.55]]]}},{"type":"Feature","properties":{"code":"34009","nom":"Alignan-du-Vent"},"geometry":{"type":"Polygon","coordinates":[[[3.373,43.474],[3.376,43.471],[3.34,43.441],[3.328,43.452],[3.303,43.475],[3.321,43.482],[3.337,43.494],[3.373,43.474]]]}},{"type":"Feature","properties":{"code":"34010","nom":"Aniane"},"geometry":{"type":"Polygon","coordinates":[[[3.619,43.648],[3.562,43.671],[3.574,43.685],[3.553,43.713],[3.554,43.72],[3.624,43.696],[3.629,43.679],[3.619,43.648]]]}},{"type":"Feature","properties":{"code":"34011","nom":"Arboras"},"geometry":{"type":"Polygon","coordinates":[[[3.462,43.738],[3.473,43.743],[3.49,43.719],[3.482,43.698],[3.454,43.729],[3.462,43.738]]]}},{"type":"Feature","properties":{"code":"34012","nom":"Argelliers"},"geometry":{"type":"Polygon","coordinates":[[[3.622,43.753],[3.666,43.789],[3.683,43.763],[3.676,43.733],[3.703,43.722],[3.719,43.738],[3.74,43.722],[3.721,43.691],[3.706,43.686],[3.667,43.678],[3.635,43.697],[3.656,43.716],[3.622,43.753]]]}},{"type":"Feature","properties":{"code":"34013","nom":"Aspiran"},"geometry":{"type":"Polygon","coordinates":[[[3.44,43.541],[3.426,43.551],[3.419,43.561],[3.426,43.573],[3.433,43.586],[3.464,43.585],[3.478,43.582],[3.479,43.562],[3.44,43.541]]]}},{"type":"Feature","properties":{"code":"34014","nom":"Assas"},"geometry":{"type":"Polygon","coordinates":[[[3.935,43.707],[3.901,43.678],[3.883,43.688],[3.879,43.7],[3.875,43.724],[3.873,43.733],[3.875,43.737],[3.897,43.746],[3.913,43.715],[3.935,43.707]]]}},{"type":"Feature","properties":{"code":"34015","nom":"Assignan"},"geometry":{"type":"Polygon","coordinates":[[[2.87,43.381],[2.869,43.383],[2.867,43.411],[2.866,43.416],[2.884,43.417],[2.909,43.396],[2.87,43.381]]]}},{"type":"Feature","properties":{"code":"34016","nom":"Aumelas"},"geometry":{"type":"Polygon","coordinates":[[[3.549,43.56],[3.6,43.576],[3.57,43.601],[3.589,43.613],[3.618,43.623],[3.649,43.625],[3.67,43.596],[3.657,43.569],[3.623,43.528],[3.606,43.53],[3.591,43.544],[3.54,43.55],[3.549,43.56]]]}},{"type":"Feature","properties":{"code":"34017","nom":"Aumes"},"geometry":{"type":"Polygon","coordinates":[[[3.494,43.453],[3.463,43.453],[3.446,43.475],[3.466,43.479],[3.494,43.453]]]}},{"type":"Feature","properties":{"code":"34018","nom":"Autignac"},"geometry":{"type":"Polygon","coordinates":[[[3.185,43.485],[3.156,43.483],[3.138,43.501],[3.164,43.519],[3.19,43.495],[3.185,43.485]]]}},{"type":"Feature","properties":{"code":"34019","nom":"Avène"},"geometry":{"type":"Polygon","coordinates":[[[3.056,43.755],[3.057,43.783],[3.091,43.796],[3.124,43.785],[3.17,43.752],[3.163,43.731],[3.128,43.726],[3.123,43.703],[3.077,43.707],[3.069,43.707],[3.055,43.715],[3.056,43.755]]]}},{"type":"Feature","properties":{"code":"34020","nom":"Azillanet"},"geometry":{"type":"Polygon","coordinates":[[[2.766,43.335],[2.775,43.315],[2.744,43.303],[2.726,43.305],[2.718,43.349],[2.766,43.335]]]}},{"type":"Feature","properties":{"code":"34021","nom":"Babeau-Bouldoux"},"geometry":{"type":"Polygon","coordinates":[[[2.88,43.464],[2.902,43.452],[2.922,43.461],[2.922,43.427],[2.884,43.417],[2.866,43.416],[2.88,43.464]]]}},{"type":"Feature","properties":{"code":"34022","nom":"Baillargues"},"geometry":{"type":"Polygon","coordinates":[[[4.013,43.639],[4.007,43.643],[3.986,43.654],[3.99,43.662],[4.023,43.671],[4.034,43.657],[4.013,43.639]]]}},{"type":"Feature","properties":{"code":"34023","nom":"Balaruc-les-Bains"},"geometry":{"type":"Polygon","coordinates":[[[3.672,43.43],[3.667,43.451],[3.72,43.462],[3.704,43.437],[3.672,43.43]]]}},{"type":"Feature","properties":{"code":"34024","nom":"Balaruc-le-Vieux"},"geometry":{"type":"Polygon","coordinates":[[[3.667,43.451],[3.666,43.458],[3.699,43.479],[3.728,43.471],[3.72,43.462],[3.667,43.451]]]}},{"type":"Feature","properties":{"code":"34025","nom":"Bassan"},"geometry":{"type":"Polygon","coordinates":[[[3.259,43.392],[3.241,43.399],[3.251,43.426],[3.256,43.425],[3.263,43.397],[3.259,43.392]]]}},{"type":"Feature","properties":{"code":"34026","nom":"Beaufort"},"geometry":{"type":"Polygon","coordinates":[[[2.8,43.306],[2.749,43.29],[2.744,43.303],[2.775,43.315],[2.8,43.306]]]}},{"type":"Feature","properties":{"code":"34027","nom":"Beaulieu"},"geometry":{"type":"Polygon","coordinates":[[[4.026,43.711],[4.013,43.71],[4.001,43.726],[4.003,43.734],[4.02,43.741],[4.037,43.748],[4.05,43.742],[4.026,43.711]]]}},{"type":"Feature","properties":{"code":"34028","nom":"Bédarieux"},"geometry":{"type":"Polygon","coordinates":[[[3.206,43.621],[3.198,43.594],[3.146,43.586],[3.122,43.594],[3.141,43.615],[3.137,43.63],[3.15,43.638],[3.196,43.636],[3.206,43.621]]]}},{"type":"Feature","properties":{"code":"34029","nom":"Bélarga"},"geometry":{"type":"Polygon","coordinates":[[[3.52,43.546],[3.504,43.547],[3.482,43.551],[3.48,43.56],[3.488,43.563],[3.509,43.563],[3.52,43.546]]]}},{"type":"Feature","properties":{"code":"34030","nom":"Berlou"},"geometry":{"type":"Polygon","coordinates":[[[2.91,43.512],[2.931,43.515],[2.966,43.505],[2.992,43.488],[2.968,43.487],[2.951,43.485],[2.904,43.51],[2.91,43.512]]]}},{"type":"Feature","properties":{"code":"34031","nom":"Bessan"},"geometry":{"type":"Polygon","coordinates":[[[3.389,43.34],[3.368,43.365],[3.372,43.374],[3.437,43.384],[3.456,43.341],[3.439,43.328],[3.389,43.34]]]}},{"type":"Feature","properties":{"code":"34032","nom":"Béziers"},"geometry":{"type":"Polygon","coordinates":[[[3.178,43.304],[3.148,43.331],[3.132,43.346],[3.131,43.361],[3.161,43.348],[3.177,43.369],[3.183,43.379],[3.219,43.394],[3.241,43.399],[3.259,43.392],[3.28,43.389],[3.332,43.378],[3.331,43.341],[3.306,43.343],[3.263,43.329],[3.252,43.313],[3.231,43.297],[3.191,43.299],[3.178,43.304]]]}},{"type":"Feature","properties":{"code":"34033","nom":"Boisseron"},"geometry":{"type":"Polygon","coordinates":[[[4.056,43.738],[4.05,43.742],[4.067,43.765],[4.099,43.75],[4.099,43.749],[4.086,43.741],[4.056,43.738]]]}},{"type":"Feature","properties":{"code":"34034","nom":"Boisset"},"geometry":{"type":"Polygon","coordinates":[[[2.676,43.381],[2.646,43.385],[2.676,43.408],[2.666,43.432],[2.684,43.43],[2.723,43.405],[2.723,43.392],[2.715,43.377],[2.676,43.381]]]}},{"type":"Feature","properties":{"code":"34035","nom":"La Boissière"},"geometry":{"type":"Polygon","coordinates":[[[3.624,43.696],[3.635,43.697],[3.667,43.678],[3.672,43.634],[3.649,43.625],[3.618,43.623],[3.619,43.648],[3.629,43.679],[3.624,43.696]]]}},{"type":"Feature","properties":{"code":"34036","nom":"Le Bosc"},"geometry":{"type":"Polygon","coordinates":[[[3.434,43.667],[3.394,43.665],[3.386,43.668],[3.37,43.682],[3.342,43.694],[3.342,43.699],[3.372,43.712],[3.369,43.733],[3.379,43.733],[3.408,43.711],[3.408,43.693],[3.433,43.68],[3.437,43.671],[3.434,43.667]]]}},{"type":"Feature","properties":{"code":"34037","nom":"Boujan-sur-Libron"},"geometry":{"type":"Polygon","coordinates":[[[3.259,43.392],[3.263,43.397],[3.28,43.389],[3.259,43.392]]]}},{"type":"Feature","properties":{"code":"34038","nom":"Le Bousquet-d'Orb"},"geometry":{"type":"Polygon","coordinates":[[[3.128,43.726],[3.169,43.717],[3.173,43.676],[3.133,43.694],[3.123,43.703],[3.128,43.726]]]}},{"type":"Feature","properties":{"code":"34039","nom":"Bouzigues"},"geometry":{"type":"Polygon","coordinates":[[[3.672,43.43],[3.662,43.425],[3.64,43.449],[3.651,43.464],[3.666,43.458],[3.667,43.451],[3.672,43.43]]]}},{"type":"Feature","properties":{"code":"34040","nom":"Brenas"},"geometry":{"type":"Polygon","coordinates":[[[3.23,43.65],[3.251,43.663],[3.27,43.656],[3.275,43.618],[3.238,43.629],[3.23,43.65]]]}},{"type":"Feature","properties":{"code":"34041","nom":"Brignac"},"geometry":{"type":"Polygon","coordinates":[[[3.474,43.637],[3.487,43.617],[3.474,43.607],[3.464,43.638],[3.474,43.637]]]}},{"type":"Feature","properties":{"code":"34042","nom":"Brissac"},"geometry":{"type":"Polygon","coordinates":[[[3.666,43.895],[3.701,43.912],[3.721,43.911],[3.726,43.882],[3.766,43.879],[3.762,43.871],[3.732,43.847],[3.724,43.827],[3.687,43.828],[3.672,43.842],[3.658,43.878],[3.666,43.895]]]}},{"type":"Feature","properties":{"code":"34043","nom":"Buzignargues"},"geometry":{"type":"Polygon","coordinates":[[[4.011,43.761],[3.997,43.761],[3.986,43.767],[3.976,43.785],[4.006,43.776],[4.011,43.761]]]}},{"type":"Feature","properties":{"code":"34044","nom":"Cabrerolles"},"geometry":{"type":"Polygon","coordinates":[[[3.132,43.57],[3.137,43.567],[3.134,43.552],[3.163,43.522],[3.164,43.519],[3.138,43.501],[3.123,43.504],[3.091,43.529],[3.087,43.557],[3.129,43.571],[3.132,43.57]]]}},{"type":"Feature","properties":{"code":"34045","nom":"Cabrières"},"geometry":{"type":"Polygon","coordinates":[[[3.376,43.604],[3.387,43.607],[3.387,43.596],[3.384,43.559],[3.351,43.548],[3.317,43.558],[3.306,43.583],[3.324,43.596],[3.376,43.604]]]}},{"type":"Feature","properties":{"code":"34046","nom":"Cambon-et-Salvergues"},"geometry":{"type":"Polygon","coordinates":[[[2.95,43.606],[2.934,43.593],[2.906,43.604],[2.849,43.598],[2.827,43.617],[2.828,43.637],[2.907,43.654],[2.941,43.653],[2.95,43.606]]]}},{"type":"Feature","properties":{"code":"34047","nom":"Campagnan"},"geometry":{"type":"Polygon","coordinates":[[[3.477,43.535],[3.482,43.551],[3.504,43.547],[3.477,43.535]]]}},{"type":"Feature","properties":{"code":"34048","nom":"Campagne"},"geometry":{"type":"Polygon","coordinates":[[[4.054,43.785],[4.052,43.778],[4.012,43.786],[4.031,43.799],[4.054,43.785]]]}},{"type":"Feature","properties":{"code":"34049","nom":"Camplong"},"geometry":{"type":"Polygon","coordinates":[[[3.114,43.669],[3.099,43.693],[3.077,43.707],[3.123,43.703],[3.133,43.694],[3.124,43.656],[3.114,43.669]]]}},{"type":"Feature","properties":{"code":"34050","nom":"Candillargues"},"geometry":{"type":"Polygon","coordinates":[[[4.082,43.61],[4.059,43.599],[4.048,43.623],[4.061,43.638],[4.082,43.61]]]}},{"type":"Feature","properties":{"code":"34051","nom":"Canet"},"geometry":{"type":"Polygon","coordinates":[[[3.5,43.612],[3.493,43.583],[3.478,43.582],[3.464,43.585],[3.464,43.597],[3.474,43.607],[3.487,43.617],[3.495,43.618],[3.5,43.612]]]}},{"type":"Feature","properties":{"code":"34052","nom":"Capestang"},"geometry":{"type":"Polygon","coordinates":[[[2.991,43.319],[3.026,43.351],[3.064,43.356],[3.109,43.337],[3.091,43.314],[3.083,43.29],[3.054,43.28],[3.035,43.303],[3.006,43.3],[2.991,43.319]]]}},{"type":"Feature","properties":{"code":"34053","nom":"Carlencas-et-Levas"},"geometry":{"type":"Polygon","coordinates":[[[3.238,43.629],[3.206,43.621],[3.196,43.636],[3.208,43.646],[3.23,43.65],[3.238,43.629]]]}},{"type":"Feature","properties":{"code":"34054","nom":"Cassagnoles"},"geometry":{"type":"Polygon","coordinates":[[[2.566,43.423],[2.603,43.431],[2.632,43.399],[2.629,43.378],[2.616,43.365],[2.569,43.382],[2.573,43.4],[2.566,43.423]]]}},{"type":"Feature","properties":{"code":"34055","nom":"Castanet-le-Haut"},"geometry":{"type":"Polygon","coordinates":[[[2.974,43.705],[2.991,43.676],[2.982,43.651],[2.941,43.653],[2.907,43.654],[2.919,43.687],[2.935,43.695],[2.958,43.699],[2.974,43.705]]]}},{"type":"Feature","properties":{"code":"34056","nom":"Castelnau-de-Guers"},"geometry":{"type":"Polygon","coordinates":[[[3.429,43.423],[3.428,43.436],[3.463,43.453],[3.494,43.453],[3.518,43.427],[3.489,43.416],[3.429,43.423]]]}},{"type":"Feature","properties":{"code":"34057","nom":"Castelnau-le-Lez"},"geometry":{"type":"Polygon","coordinates":[[[3.886,43.646],[3.902,43.655],[3.923,43.656],[3.937,43.631],[3.933,43.629],[3.898,43.627],[3.886,43.646]]]}},{"type":"Feature","properties":{"code":"34058","nom":"Castries"},"geometry":{"type":"Polygon","coordinates":[[[4.032,43.679],[4.023,43.671],[3.99,43.662],[3.946,43.677],[3.939,43.708],[3.943,43.721],[3.949,43.717],[3.964,43.714],[4.012,43.695],[4.032,43.679]]]}},{"type":"Feature","properties":{"code":"34059","nom":"La Caunette"},"geometry":{"type":"Polygon","coordinates":[[[2.815,43.379],[2.814,43.353],[2.8,43.344],[2.771,43.34],[2.76,43.38],[2.778,43.397],[2.815,43.379]]]}},{"type":"Feature","properties":{"code":"34060","nom":"Causse-de-la-Selle"},"geometry":{"type":"Polygon","coordinates":[[[3.666,43.789],[3.622,43.753],[3.593,43.75],[3.59,43.775],[3.574,43.787],[3.61,43.813],[3.643,43.833],[3.672,43.842],[3.687,43.828],[3.664,43.806],[3.666,43.789]]]}},{"type":"Feature","properties":{"code":"34061","nom":"Causses-et-Veyran"},"geometry":{"type":"Polygon","coordinates":[[[3.065,43.484],[3.078,43.494],[3.116,43.487],[3.1,43.438],[3.073,43.446],[3.06,43.477],[3.065,43.484]]]}},{"type":"Feature","properties":{"code":"34062","nom":"Caussiniojouls"},"geometry":{"type":"Polygon","coordinates":[[[3.137,43.567],[3.159,43.569],[3.183,43.54],[3.163,43.522],[3.134,43.552],[3.137,43.567]]]}},{"type":"Feature","properties":{"code":"34063","nom":"Caux"},"geometry":{"type":"Polygon","coordinates":[[[3.337,43.494],[3.33,43.518],[3.36,43.531],[3.385,43.52],[3.412,43.503],[3.373,43.474],[3.337,43.494]]]}},{"type":"Feature","properties":{"code":"34064","nom":"Le Caylar"},"geometry":{"type":"Polygon","coordinates":[[[3.343,43.854],[3.287,43.848],[3.277,43.897],[3.343,43.894],[3.343,43.854]]]}},{"type":"Feature","properties":{"code":"34065","nom":"Cazedarnes"},"geometry":{"type":"Polygon","coordinates":[[[3.003,43.431],[3.008,43.436],[3.043,43.437],[3.063,43.418],[3.031,43.408],[3.028,43.406],[2.996,43.423],[3.003,43.431]]]}},{"type":"Feature","properties":{"code":"34066","nom":"Cazevieille"},"geometry":{"type":"Polygon","coordinates":[[[3.819,43.778],[3.816,43.748],[3.774,43.745],[3.748,43.757],[3.78,43.767],[3.806,43.788],[3.819,43.778]]]}},{"type":"Feature","properties":{"code":"34067","nom":"Cazilhac"},"geometry":{"type":"Polygon","coordinates":[[[3.721,43.911],[3.701,43.912],[3.666,43.895],[3.663,43.912],[3.684,43.94],[3.69,43.939],[3.708,43.927],[3.727,43.916],[3.721,43.911]]]}},{"type":"Feature","properties":{"code":"34068","nom":"Cazouls-d'Hérault"},"geometry":{"type":"Polygon","coordinates":[[[3.448,43.514],[3.453,43.517],[3.466,43.512],[3.465,43.482],[3.446,43.507],[3.448,43.514]]]}},{"type":"Feature","properties":{"code":"34069","nom":"Cazouls-lès-Béziers"},"geometry":{"type":"Polygon","coordinates":[[[3.139,43.415],[3.152,43.398],[3.128,43.363],[3.108,43.365],[3.086,43.367],[3.066,43.394],[3.031,43.408],[3.063,43.418],[3.107,43.431],[3.139,43.415]]]}},{"type":"Feature","properties":{"code":"34070","nom":"Cébazan"},"geometry":{"type":"Polygon","coordinates":[[[2.958,43.394],[2.957,43.394],[2.958,43.404],[2.971,43.418],[2.996,43.423],[3.028,43.406],[3.004,43.389],[2.978,43.393],[2.958,43.394]]]}},{"type":"Feature","properties":{"code":"34071","nom":"Ceilhes-et-Rocozels"},"geometry":{"type":"Polygon","coordinates":[[[3.149,43.81],[3.124,43.785],[3.091,43.796],[3.057,43.783],[3.049,43.801],[3.065,43.836],[3.087,43.836],[3.151,43.814],[3.149,43.81]]]}},{"type":"Feature","properties":{"code":"34072","nom":"Celles"},"geometry":{"type":"Polygon","coordinates":[[[3.326,43.669],[3.37,43.682],[3.386,43.668],[3.331,43.654],[3.326,43.669]]]}},{"type":"Feature","properties":{"code":"34073","nom":"Cers"},"geometry":{"type":"Polygon","coordinates":[[[3.331,43.341],[3.339,43.335],[3.329,43.317],[3.302,43.318],[3.306,43.343],[3.331,43.341]]]}},{"type":"Feature","properties":{"code":"34074","nom":"Cessenon-sur-Orb"},"geometry":{"type":"Polygon","coordinates":[[[2.992,43.488],[3.047,43.472],[3.06,43.477],[3.073,43.446],[3.1,43.438],[3.107,43.431],[3.063,43.418],[3.043,43.437],[3.008,43.436],[3.006,43.46],[2.968,43.487],[2.992,43.488]]]}},{"type":"Feature","properties":{"code":"34075","nom":"Cesseras"},"geometry":{"type":"Polygon","coordinates":[[[2.726,43.305],[2.699,43.308],[2.688,43.323],[2.677,43.361],[2.718,43.349],[2.726,43.305]]]}},{"type":"Feature","properties":{"code":"34076","nom":"Ceyras"},"geometry":{"type":"Polygon","coordinates":[[[3.477,43.651],[3.474,43.637],[3.464,43.638],[3.449,43.646],[3.434,43.667],[3.437,43.671],[3.451,43.665],[3.477,43.651]]]}},{"type":"Feature","properties":{"code":"34077","nom":"Clapiers"},"geometry":{"type":"Polygon","coordinates":[[[3.883,43.687],[3.883,43.688],[3.901,43.678],[3.902,43.675],[3.902,43.655],[3.886,43.646],[3.871,43.648],[3.883,43.687]]]}},{"type":"Feature","properties":{"code":"34078","nom":"Claret"},"geometry":{"type":"Polygon","coordinates":[[[3.831,43.866],[3.857,43.877],[3.92,43.881],[3.922,43.858],[3.898,43.841],[3.859,43.833],[3.848,43.822],[3.835,43.84],[3.831,43.866]]]}},{"type":"Feature","properties":{"code":"34079","nom":"Clermont-l'Hérault"},"geometry":{"type":"Polygon","coordinates":[[[3.336,43.648],[3.331,43.654],[3.386,43.668],[3.394,43.665],[3.441,43.637],[3.449,43.646],[3.464,43.638],[3.474,43.607],[3.464,43.597],[3.419,43.615],[3.383,43.611],[3.382,43.621],[3.376,43.646],[3.336,43.648]]]}},{"type":"Feature","properties":{"code":"34080","nom":"Colombières-sur-Orb"},"geometry":{"type":"Polygon","coordinates":[[[3.007,43.572],[2.999,43.573],[2.984,43.594],[3.025,43.601],[3.029,43.584],[3.031,43.578],[3.007,43.572]]]}},{"type":"Feature","properties":{"code":"34081","nom":"Colombiers"},"geometry":{"type":"Polygon","coordinates":[[[3.148,43.331],[3.178,43.304],[3.152,43.302],[3.117,43.311],[3.148,43.331]]]}},{"type":"Feature","properties":{"code":"34082","nom":"Combaillaux"},"geometry":{"type":"Polygon","coordinates":[[[3.763,43.657],[3.759,43.665],[3.76,43.685],[3.78,43.692],[3.812,43.667],[3.763,43.657]]]}},{"type":"Feature","properties":{"code":"34083","nom":"Combes"},"geometry":{"type":"Polygon","coordinates":[[[3.025,43.601],[3.048,43.615],[3.079,43.606],[3.068,43.596],[3.029,43.584],[3.025,43.601]]]}},{"type":"Feature","properties":{"code":"34084","nom":"Corneilhan"},"geometry":{"type":"Polygon","coordinates":[[[3.219,43.394],[3.183,43.379],[3.166,43.396],[3.193,43.422],[3.203,43.426],[3.214,43.422],[3.219,43.394]]]}},{"type":"Feature","properties":{"code":"34085","nom":"Coulobres"},"geometry":{"type":"Polygon","coordinates":[[[3.285,43.445],[3.279,43.44],[3.262,43.45],[3.268,43.458],[3.278,43.461],[3.285,43.445]]]}},{"type":"Feature","properties":{"code":"34086","nom":"Courniou"},"geometry":{"type":"Polygon","coordinates":[[[2.658,43.517],[2.676,43.513],[2.704,43.52],[2.727,43.497],[2.733,43.473],[2.709,43.458],[2.668,43.47],[2.655,43.497],[2.658,43.517]]]}},{"type":"Feature","properties":{"code":"34087","nom":"Cournonsec"},"geometry":{"type":"Polygon","coordinates":[[[3.723,43.52],[3.712,43.517],[3.68,43.538],[3.681,43.557],[3.716,43.551],[3.73,43.534],[3.723,43.52]]]}},{"type":"Feature","properties":{"code":"34088","nom":"Cournonterral"},"geometry":{"type":"Polygon","coordinates":[[[3.681,43.557],[3.657,43.569],[3.67,43.596],[3.696,43.606],[3.704,43.586],[3.758,43.557],[3.73,43.534],[3.716,43.551],[3.681,43.557]]]}},{"type":"Feature","properties":{"code":"34089","nom":"Creissan"},"geometry":{"type":"Polygon","coordinates":[[[3.013,43.358],[2.98,43.373],[2.978,43.393],[3.004,43.389],[3.013,43.358]]]}},{"type":"Feature","properties":{"code":"34090","nom":"Le Crès"},"geometry":{"type":"Polygon","coordinates":[[[3.937,43.631],[3.923,43.656],[3.919,43.668],[3.949,43.669],[3.95,43.644],[3.937,43.631]]]}},{"type":"Feature","properties":{"code":"34091","nom":"Le Cros"},"geometry":{"type":"Polygon","coordinates":[[[3.37,43.852],[3.36,43.848],[3.343,43.854],[3.343,43.894],[3.358,43.914],[3.381,43.912],[3.372,43.888],[3.395,43.862],[3.37,43.852]]]}},{"type":"Feature","properties":{"code":"34092","nom":"Cruzy"},"geometry":{"type":"Polygon","coordinates":[[[2.889,43.352],[2.89,43.357],[2.957,43.394],[2.958,43.394],[2.95,43.377],[2.958,43.312],[2.946,43.312],[2.921,43.326],[2.923,43.343],[2.889,43.352]]]}},{"type":"Feature","properties":{"code":"34093","nom":"Dio-et-Valquières"},"geometry":{"type":"Polygon","coordinates":[[[3.188,43.657],[3.206,43.686],[3.248,43.683],[3.251,43.663],[3.23,43.65],[3.208,43.646],[3.188,43.657]]]}},{"type":"Feature","properties":{"code":"34094","nom":"Espondeilhan"},"geometry":{"type":"Polygon","coordinates":[[[3.256,43.425],[3.251,43.426],[3.239,43.432],[3.262,43.45],[3.279,43.44],[3.256,43.425]]]}},{"type":"Feature","properties":{"code":"34095","nom":"Fabrègues"},"geometry":{"type":"Polygon","coordinates":[[[3.723,43.52],[3.73,43.534],[3.758,43.557],[3.76,43.557],[3.781,43.568],[3.807,43.562],[3.824,43.552],[3.81,43.532],[3.793,43.532],[3.781,43.507],[3.754,43.494],[3.723,43.52]]]}},{"type":"Feature","properties":{"code":"34096","nom":"Faugères"},"geometry":{"type":"Polygon","coordinates":[[[3.183,43.54],[3.159,43.569],[3.137,43.567],[3.132,43.57],[3.146,43.586],[3.198,43.594],[3.216,43.577],[3.216,43.542],[3.183,43.54]]]}},{"type":"Feature","properties":{"code":"34097","nom":"Félines-Minervois"},"geometry":{"type":"Polygon","coordinates":[[[2.566,43.398],[2.573,43.4],[2.569,43.382],[2.616,43.365],[2.609,43.322],[2.6,43.314],[2.592,43.318],[2.586,43.333],[2.556,43.338],[2.54,43.346],[2.556,43.366],[2.566,43.398]]]}},{"type":"Feature","properties":{"code":"34098","nom":"Ferrals-les-Montagnes"},"geometry":{"type":"Polygon","coordinates":[[[2.609,43.44],[2.645,43.458],[2.666,43.432],[2.676,43.408],[2.646,43.385],[2.629,43.378],[2.632,43.399],[2.603,43.431],[2.609,43.44]]]}},{"type":"Feature","properties":{"code":"34099","nom":"Ferrières-les-Verreries"},"geometry":{"type":"Polygon","coordinates":[[[3.8,43.891],[3.831,43.866],[3.835,43.84],[3.823,43.855],[3.791,43.851],[3.762,43.871],[3.766,43.879],[3.778,43.888],[3.8,43.891]]]}},{"type":"Feature","properties":{"code":"34100","nom":"Ferrières-Poussarou"},"geometry":{"type":"Polygon","coordinates":[[[2.933,43.477],[2.93,43.467],[2.922,43.461],[2.902,43.452],[2.88,43.464],[2.86,43.488],[2.862,43.5],[2.904,43.51],[2.951,43.485],[2.933,43.477]]]}},{"type":"Feature","properties":{"code":"34101","nom":"Florensac"},"geometry":{"type":"Polygon","coordinates":[[[3.425,43.421],[3.429,43.423],[3.489,43.416],[3.489,43.408],[3.486,43.378],[3.502,43.371],[3.493,43.353],[3.456,43.341],[3.437,43.384],[3.425,43.421]]]}},{"type":"Feature","properties":{"code":"34102","nom":"Fontanès"},"geometry":{"type":"Polygon","coordinates":[[[3.946,43.803],[3.92,43.783],[3.902,43.78],[3.892,43.792],[3.913,43.805],[3.928,43.806],[3.946,43.803]]]}},{"type":"Feature","properties":{"code":"34103","nom":"Fontès"},"geometry":{"type":"Polygon","coordinates":[[[3.385,43.52],[3.36,43.531],[3.351,43.548],[3.384,43.559],[3.419,43.561],[3.426,43.551],[3.415,43.525],[3.385,43.52]]]}},{"type":"Feature","properties":{"code":"34104","nom":"Fos"},"geometry":{"type":"Polygon","coordinates":[[[3.239,43.549],[3.226,43.575],[3.264,43.571],[3.239,43.549]]]}},{"type":"Feature","properties":{"code":"34105","nom":"Fouzilhon"},"geometry":{"type":"Polygon","coordinates":[[[3.233,43.526],[3.234,43.526],[3.259,43.495],[3.223,43.504],[3.233,43.526]]]}},{"type":"Feature","properties":{"code":"34106","nom":"Fozières"},"geometry":{"type":"Polygon","coordinates":[[[3.33,43.743],[3.341,43.759],[3.363,43.762],[3.38,43.749],[3.368,43.742],[3.33,43.743]]]}},{"type":"Feature","properties":{"code":"34107","nom":"Fraisse-sur-Agout"},"geometry":{"type":"Polygon","coordinates":[[[2.802,43.63],[2.828,43.637],[2.827,43.617],[2.849,43.598],[2.871,43.581],[2.836,43.57],[2.821,43.564],[2.794,43.552],[2.766,43.558],[2.762,43.572],[2.73,43.577],[2.755,43.614],[2.802,43.63]]]}},{"type":"Feature","properties":{"code":"34108","nom":"Frontignan"},"geometry":{"type":"Polygon","coordinates":[[[3.826,43.467],[3.826,43.467],[3.796,43.441],[3.725,43.416],[3.672,43.43],[3.704,43.437],[3.72,43.462],[3.728,43.471],[3.749,43.484],[3.79,43.458],[3.826,43.467]]]}},{"type":"Feature","properties":{"code":"34109","nom":"Gabian"},"geometry":{"type":"Polygon","coordinates":[[[3.274,43.543],[3.278,43.54],[3.291,43.525],[3.287,43.496],[3.259,43.495],[3.259,43.495],[3.234,43.526],[3.244,43.54],[3.274,43.543]]]}},{"type":"Feature","properties":{"code":"34110","nom":"Galargues"},"geometry":{"type":"Polygon","coordinates":[[[3.996,43.81],[4.012,43.786],[4.052,43.778],[4.052,43.774],[4.033,43.763],[4.011,43.761],[4.006,43.776],[3.976,43.785],[3.974,43.801],[3.996,43.81]]]}},{"type":"Feature","properties":{"code":"34111","nom":"Ganges"},"geometry":{"type":"Polygon","coordinates":[[[3.699,43.958],[3.717,43.961],[3.723,43.936],[3.708,43.927],[3.69,43.939],[3.699,43.958]]]}},{"type":"Feature","properties":{"code":"34112","nom":"Garrigues"},"geometry":{"type":"Polygon","coordinates":[[[4.001,43.813],[4.031,43.799],[4.012,43.786],[3.996,43.81],[4.001,43.813]]]}},{"type":"Feature","properties":{"code":"34113","nom":"Gigean"},"geometry":{"type":"Polygon","coordinates":[[[3.754,43.494],[3.749,43.484],[3.728,43.471],[3.699,43.479],[3.699,43.495],[3.712,43.517],[3.723,43.52],[3.754,43.494]]]}},{"type":"Feature","properties":{"code":"34114","nom":"Gignac"},"geometry":{"type":"Polygon","coordinates":[[[3.562,43.671],[3.619,43.648],[3.618,43.623],[3.589,43.613],[3.55,43.627],[3.521,43.629],[3.511,43.632],[3.534,43.649],[3.534,43.664],[3.547,43.665],[3.562,43.671]]]}},{"type":"Feature","properties":{"code":"34115","nom":"Gorniès"},"geometry":{"type":"Polygon","coordinates":[[[3.624,43.917],[3.663,43.912],[3.666,43.895],[3.658,43.878],[3.611,43.855],[3.6,43.853],[3.575,43.865],[3.602,43.896],[3.624,43.917]]]}},{"type":"Feature","properties":{"code":"34116","nom":"Grabels"},"geometry":{"type":"Polygon","coordinates":[[[3.761,43.636],[3.748,43.635],[3.748,43.64],[3.763,43.657],[3.812,43.667],[3.828,43.666],[3.839,43.65],[3.808,43.639],[3.761,43.636]]]}},{"type":"Feature","properties":{"code":"34117","nom":"Graissessac"},"geometry":{"type":"Polygon","coordinates":[[[3.077,43.707],[3.099,43.693],[3.114,43.669],[3.092,43.669],[3.061,43.693],[3.069,43.707],[3.077,43.707]]]}},{"type":"Feature","properties":{"code":"34118","nom":"Guzargues"},"geometry":{"type":"Polygon","coordinates":[[[3.939,43.708],[3.935,43.707],[3.913,43.715],[3.897,43.746],[3.901,43.749],[3.949,43.74],[3.943,43.721],[3.939,43.708]]]}},{"type":"Feature","properties":{"code":"34119","nom":"Hérépian"},"geometry":{"type":"Polygon","coordinates":[[[3.132,43.57],[3.129,43.571],[3.108,43.587],[3.093,43.612],[3.106,43.614],[3.122,43.594],[3.146,43.586],[3.132,43.57]]]}},{"type":"Feature","properties":{"code":"34120","nom":"Jacou"},"geometry":{"type":"Polygon","coordinates":[[[3.923,43.656],[3.902,43.655],[3.902,43.675],[3.919,43.668],[3.923,43.656]]]}},{"type":"Feature","properties":{"code":"34121","nom":"Joncels"},"geometry":{"type":"Polygon","coordinates":[[[3.246,43.749],[3.207,43.728],[3.163,43.731],[3.17,43.752],[3.124,43.785],[3.149,43.81],[3.179,43.802],[3.19,43.776],[3.238,43.77],[3.246,43.749]]]}},{"type":"Feature","properties":{"code":"34122","nom":"Jonquières"},"geometry":{"type":"Polygon","coordinates":[[[3.487,43.667],[3.466,43.67],[3.472,43.679],[3.487,43.68],[3.487,43.667]]]}},{"type":"Feature","properties":{"code":"34123","nom":"Juvignac"},"geometry":{"type":"Polygon","coordinates":[[[3.816,43.591],[3.806,43.599],[3.761,43.636],[3.808,43.639],[3.816,43.591]]]}},{"type":"Feature","properties":{"code":"34124","nom":"Lacoste"},"geometry":{"type":"Polygon","coordinates":[[[3.394,43.665],[3.434,43.667],[3.449,43.646],[3.441,43.637],[3.394,43.665]]]}},{"type":"Feature","properties":{"code":"34125","nom":"Lagamas"},"geometry":{"type":"Polygon","coordinates":[[[3.547,43.665],[3.534,43.664],[3.513,43.674],[3.531,43.687],[3.547,43.665]]]}},{"type":"Feature","properties":{"code":"34126","nom":"Lamalou-les-Bains"},"geometry":{"type":"Polygon","coordinates":[[[3.079,43.606],[3.093,43.612],[3.108,43.587],[3.077,43.585],[3.068,43.596],[3.079,43.606]]]}},{"type":"Feature","properties":{"code":"34127","nom":"Lansargues"},"geometry":{"type":"Polygon","coordinates":[[[4.089,43.658],[4.101,43.641],[4.111,43.616],[4.086,43.598],[4.082,43.61],[4.061,43.638],[4.047,43.651],[4.054,43.659],[4.078,43.663],[4.089,43.658]]]}},{"type":"Feature","properties":{"code":"34128","nom":"Laroque"},"geometry":{"type":"Polygon","coordinates":[[[3.758,43.926],[3.737,43.913],[3.727,43.916],[3.708,43.927],[3.723,43.936],[3.758,43.926]]]}},{"type":"Feature","properties":{"code":"34129","nom":"Lattes"},"geometry":{"type":"Polygon","coordinates":[[[3.848,43.553],[3.861,43.567],[3.906,43.592],[3.939,43.596],[3.939,43.584],[3.95,43.552],[3.933,43.538],[3.9,43.54],[3.848,43.553]]]}},{"type":"Feature","properties":{"code":"34130","nom":"Laurens"},"geometry":{"type":"Polygon","coordinates":[[[3.216,43.542],[3.233,43.526],[3.223,43.504],[3.19,43.495],[3.164,43.519],[3.163,43.522],[3.183,43.54],[3.216,43.542]]]}},{"type":"Feature","properties":{"code":"34131","nom":"Lauret"},"geometry":{"type":"Polygon","coordinates":[[[3.859,43.833],[3.898,43.841],[3.899,43.823],[3.859,43.833]]]}},{"type":"Feature","properties":{"code":"34132","nom":"Lauroux"},"geometry":{"type":"Polygon","coordinates":[[[3.248,43.814],[3.287,43.83],[3.292,43.816],[3.3,43.785],[3.314,43.764],[3.305,43.753],[3.267,43.77],[3.243,43.792],[3.244,43.804],[3.248,43.814]]]}},{"type":"Feature","properties":{"code":"34133","nom":"Lavalette"},"geometry":{"type":"Polygon","coordinates":[[[3.287,43.676],[3.248,43.689],[3.261,43.711],[3.277,43.714],[3.291,43.687],[3.287,43.676]]]}},{"type":"Feature","properties":{"code":"34134","nom":"Lavérune"},"geometry":{"type":"Polygon","coordinates":[[[3.783,43.599],[3.806,43.599],[3.816,43.591],[3.805,43.567],[3.785,43.578],[3.783,43.599]]]}},{"type":"Feature","properties":{"code":"34135","nom":"Lespignan"},"geometry":{"type":"Polygon","coordinates":[[[3.141,43.259],[3.141,43.259],[3.152,43.302],[3.178,43.304],[3.191,43.299],[3.193,43.25],[3.157,43.242],[3.141,43.259]]]}},{"type":"Feature","properties":{"code":"34136","nom":"Lézignan-la-Cèbe"},"geometry":{"type":"Polygon","coordinates":[[[3.465,43.482],[3.449,43.479],[3.416,43.5],[3.446,43.507],[3.465,43.482]]]}},{"type":"Feature","properties":{"code":"34137","nom":"Liausson"},"geometry":{"type":"Polygon","coordinates":[[[3.34,43.64],[3.336,43.648],[3.376,43.646],[3.382,43.621],[3.34,43.64]]]}},{"type":"Feature","properties":{"code":"34138","nom":"Lieuran-Cabrières"},"geometry":{"type":"Polygon","coordinates":[[[3.426,43.573],[3.387,43.596],[3.387,43.607],[3.407,43.603],[3.433,43.586],[3.426,43.573]]]}},{"type":"Feature","properties":{"code":"34139","nom":"Lieuran-lès-Béziers"},"geometry":{"type":"Polygon","coordinates":[[[3.219,43.394],[3.214,43.422],[3.229,43.431],[3.239,43.432],[3.251,43.426],[3.241,43.399],[3.219,43.394]]]}},{"type":"Feature","properties":{"code":"34140","nom":"Lignan-sur-Orb"},"geometry":{"type":"Polygon","coordinates":[[[3.166,43.396],[3.183,43.379],[3.177,43.369],[3.162,43.39],[3.166,43.396]]]}},{"type":"Feature","properties":{"code":"34141","nom":"La Livinière"},"geometry":{"type":"Polygon","coordinates":[[[2.646,43.385],[2.676,43.381],[2.663,43.367],[2.641,43.347],[2.653,43.307],[2.644,43.294],[2.617,43.284],[2.601,43.298],[2.6,43.314],[2.609,43.322],[2.616,43.365],[2.629,43.378],[2.646,43.385]]]}},{"type":"Feature","properties":{"code":"34142","nom":"Lodève"},"geometry":{"type":"Polygon","coordinates":[[[3.342,43.694],[3.329,43.7],[3.303,43.719],[3.277,43.714],[3.261,43.711],[3.253,43.732],[3.293,43.737],[3.305,43.753],[3.314,43.764],[3.33,43.762],[3.341,43.759],[3.33,43.743],[3.342,43.699],[3.342,43.694]]]}},{"type":"Feature","properties":{"code":"34143","nom":"Loupian"},"geometry":{"type":"Polygon","coordinates":[[[3.626,43.487],[3.651,43.464],[3.64,43.449],[3.662,43.425],[3.643,43.415],[3.616,43.431],[3.594,43.459],[3.626,43.487]]]}},{"type":"Feature","properties":{"code":"34144","nom":"Lunas"},"geometry":{"type":"Polygon","coordinates":[[[3.248,43.683],[3.206,43.686],[3.188,43.657],[3.173,43.676],[3.169,43.717],[3.128,43.726],[3.163,43.731],[3.207,43.728],[3.246,43.749],[3.253,43.732],[3.261,43.711],[3.248,43.689],[3.248,43.683]]]}},{"type":"Feature","properties":{"code":"34145","nom":"Lunel"},"geometry":{"type":"Polygon","coordinates":[[[4.164,43.693],[4.164,43.69],[4.16,43.663],[4.134,43.641],[4.133,43.643],[4.103,43.67],[4.109,43.7],[4.132,43.709],[4.154,43.715],[4.164,43.693]]]}},{"type":"Feature","properties":{"code":"34146","nom":"Lunel-Viel"},"geometry":{"type":"Polygon","coordinates":[[[4.055,43.685],[4.065,43.698],[4.111,43.702],[4.109,43.7],[4.103,43.67],[4.089,43.658],[4.078,43.663],[4.055,43.685]]]}},{"type":"Feature","properties":{"code":"34147","nom":"Magalas"},"geometry":{"type":"Polygon","coordinates":[[[3.259,43.495],[3.259,43.495],[3.252,43.479],[3.207,43.451],[3.189,43.454],[3.185,43.485],[3.19,43.495],[3.223,43.504],[3.259,43.495]]]}},{"type":"Feature","properties":{"code":"34148","nom":"Maraussan"},"geometry":{"type":"Polygon","coordinates":[[[3.131,43.361],[3.128,43.363],[3.152,43.398],[3.162,43.39],[3.177,43.369],[3.161,43.348],[3.131,43.361]]]}},{"type":"Feature","properties":{"code":"34149","nom":"Margon"},"geometry":{"type":"Polygon","coordinates":[[[3.289,43.495],[3.321,43.482],[3.303,43.475],[3.294,43.475],[3.289,43.495]]]}},{"type":"Feature","properties":{"code":"34150","nom":"Marseillan"},"geometry":{"type":"Polygon","coordinates":[[[3.55,43.406],[3.594,43.389],[3.607,43.376],[3.553,43.338],[3.566,43.326],[3.54,43.302],[3.521,43.316],[3.493,43.353],[3.502,43.371],[3.55,43.406]]]}},{"type":"Feature","properties":{"code":"34151","nom":"Marsillargues"},"geometry":{"type":"Polygon","coordinates":[[[4.111,43.616],[4.134,43.641],[4.16,43.663],[4.164,43.69],[4.194,43.652],[4.194,43.642],[4.15,43.585],[4.075,43.589],[4.086,43.598],[4.111,43.616]]]}},{"type":"Feature","properties":{"code":"34152","nom":"Mas-de-Londres"},"geometry":{"type":"Polygon","coordinates":[[[3.746,43.765],[3.738,43.784],[3.758,43.806],[3.784,43.814],[3.814,43.798],[3.806,43.788],[3.78,43.767],[3.748,43.757],[3.746,43.765]]]}},{"type":"Feature","properties":{"code":"34153","nom":"Les Matelles"},"geometry":{"type":"Polygon","coordinates":[[[3.848,43.716],[3.833,43.713],[3.787,43.71],[3.77,43.731],[3.774,43.745],[3.816,43.748],[3.831,43.73],[3.846,43.724],[3.848,43.716]]]}},{"type":"Feature","properties":{"code":"34154","nom":"Mauguio"},"geometry":{"type":"Polygon","coordinates":[[[4.048,43.623],[4.059,43.599],[4.082,43.61],[4.086,43.598],[4.075,43.589],[4.037,43.556],[3.969,43.54],[3.97,43.548],[3.969,43.565],[3.939,43.584],[3.939,43.596],[3.939,43.614],[4.007,43.643],[4.013,43.639],[4.048,43.623]]]}},{"type":"Feature","properties":{"code":"34155","nom":"Maureilhan"},"geometry":{"type":"Polygon","coordinates":[[[3.128,43.363],[3.131,43.361],[3.132,43.346],[3.109,43.337],[3.064,43.356],[3.108,43.365],[3.128,43.363]]]}},{"type":"Feature","properties":{"code":"34156","nom":"Mérifons"},"geometry":{"type":"Polygon","coordinates":[[[3.28,43.617],[3.275,43.618],[3.27,43.656],[3.305,43.629],[3.282,43.617],[3.28,43.617]]]}},{"type":"Feature","properties":{"code":"34157","nom":"Mèze"},"geometry":{"type":"Polygon","coordinates":[[[3.594,43.389],[3.55,43.406],[3.526,43.43],[3.553,43.468],[3.568,43.475],[3.594,43.459],[3.616,43.431],[3.643,43.415],[3.594,43.389]]]}},{"type":"Feature","properties":{"code":"34158","nom":"Minerve"},"geometry":{"type":"Polygon","coordinates":[[[2.663,43.367],[2.676,43.381],[2.715,43.377],[2.76,43.38],[2.771,43.34],[2.766,43.335],[2.718,43.349],[2.677,43.361],[2.663,43.367]]]}},{"type":"Feature","properties":{"code":"34159","nom":"Mireval"},"geometry":{"type":"Polygon","coordinates":[[[3.832,43.507],[3.807,43.499],[3.781,43.507],[3.793,43.532],[3.81,43.532],[3.832,43.507]]]}},{"type":"Feature","properties":{"code":"34160","nom":"Mons"},"geometry":{"type":"Polygon","coordinates":[[[2.999,43.573],[3.007,43.572],[3.021,43.556],[2.972,43.556],[2.949,43.537],[2.94,43.564],[2.934,43.593],[2.95,43.606],[2.974,43.6],[2.981,43.574],[2.999,43.573]]]}},{"type":"Feature","properties":{"code":"34161","nom":"Montady"},"geometry":{"type":"Polygon","coordinates":[[[3.108,43.309],[3.091,43.314],[3.109,43.337],[3.132,43.346],[3.148,43.331],[3.117,43.311],[3.108,43.309]]]}},{"type":"Feature","properties":{"code":"34162","nom":"Montagnac"},"geometry":{"type":"Polygon","coordinates":[[[3.548,43.494],[3.568,43.475],[3.553,43.468],[3.526,43.43],[3.518,43.427],[3.494,43.453],[3.466,43.479],[3.446,43.475],[3.449,43.479],[3.465,43.482],[3.466,43.512],[3.471,43.515],[3.525,43.492],[3.548,43.494]]]}},{"type":"Feature","properties":{"code":"34163","nom":"Montarnaud"},"geometry":{"type":"Polygon","coordinates":[[[3.748,43.635],[3.746,43.629],[3.71,43.613],[3.672,43.634],[3.667,43.678],[3.706,43.686],[3.699,43.659],[3.714,43.646],[3.748,43.64],[3.748,43.635]]]}},{"type":"Feature","properties":{"code":"34164","nom":"Montaud"},"geometry":{"type":"Polygon","coordinates":[[[3.949,43.717],[3.943,43.721],[3.949,43.74],[3.901,43.749],[3.901,43.751],[3.921,43.747],[3.986,43.767],[3.997,43.761],[4,43.757],[3.994,43.749],[3.959,43.737],[3.949,43.717]]]}},{"type":"Feature","properties":{"code":"34165","nom":"Montbazin"},"geometry":{"type":"Polygon","coordinates":[[[3.657,43.569],[3.681,43.557],[3.68,43.538],[3.712,43.517],[3.699,43.495],[3.641,43.537],[3.638,43.51],[3.623,43.528],[3.657,43.569]]]}},{"type":"Feature","properties":{"code":"34166","nom":"Montblanc"},"geometry":{"type":"Polygon","coordinates":[[[3.339,43.335],[3.331,43.341],[3.332,43.378],[3.347,43.411],[3.379,43.411],[3.368,43.365],[3.389,43.34],[3.346,43.332],[3.339,43.335]]]}},{"type":"Feature","properties":{"code":"34167","nom":"Montels"},"geometry":{"type":"Polygon","coordinates":[[[3.006,43.3],[3.035,43.303],[3.054,43.28],[3.012,43.28],[3.006,43.3]]]}},{"type":"Feature","properties":{"code":"34168","nom":"Montesquieu"},"geometry":{"type":"Polygon","coordinates":[[[3.291,43.593],[3.303,43.583],[3.274,43.543],[3.244,43.54],[3.239,43.549],[3.264,43.571],[3.291,43.593]]]}},{"type":"Feature","properties":{"code":"34169","nom":"Montferrier-sur-Lez"},"geometry":{"type":"Polygon","coordinates":[[[3.883,43.687],[3.871,43.648],[3.857,43.653],[3.842,43.671],[3.862,43.682],[3.883,43.687]]]}},{"type":"Feature","properties":{"code":"34170","nom":"Montouliers"},"geometry":{"type":"Polygon","coordinates":[[[2.895,43.326],[2.889,43.352],[2.923,43.343],[2.921,43.326],[2.895,43.326]]]}},{"type":"Feature","properties":{"code":"34171","nom":"Montoulieu"},"geometry":{"type":"Polygon","coordinates":[[[3.82,43.942],[3.824,43.918],[3.8,43.891],[3.778,43.888],[3.789,43.908],[3.775,43.928],[3.796,43.942],[3.82,43.942]]]}},{"type":"Feature","properties":{"code":"34172","nom":"Montpellier"},"geometry":{"type":"Polygon","coordinates":[[[3.808,43.639],[3.839,43.65],[3.857,43.653],[3.871,43.648],[3.886,43.646],[3.898,43.627],[3.933,43.629],[3.939,43.614],[3.939,43.596],[3.906,43.592],[3.861,43.567],[3.836,43.595],[3.816,43.591],[3.808,43.639]]]}},{"type":"Feature","properties":{"code":"34173","nom":"Montpeyroux"},"geometry":{"type":"Polygon","coordinates":[[[3.489,43.749],[3.495,43.749],[3.518,43.728],[3.531,43.687],[3.513,43.674],[3.488,43.68],[3.482,43.698],[3.49,43.719],[3.473,43.743],[3.489,43.749]]]}},{"type":"Feature","properties":{"code":"34174","nom":"Moulès-et-Baucels"},"geometry":{"type":"Polygon","coordinates":[[[3.717,43.961],[3.788,43.967],[3.796,43.942],[3.775,43.928],[3.758,43.926],[3.723,43.936],[3.717,43.961]]]}},{"type":"Feature","properties":{"code":"34175","nom":"Mourèze"},"geometry":{"type":"Polygon","coordinates":[[[3.34,43.64],[3.382,43.621],[3.383,43.611],[3.376,43.604],[3.324,43.596],[3.311,43.609],[3.335,43.612],[3.334,43.635],[3.34,43.64]]]}},{"type":"Feature","properties":{"code":"34176","nom":"Mudaison"},"geometry":{"type":"Polygon","coordinates":[[[4.034,43.657],[4.047,43.651],[4.061,43.638],[4.048,43.623],[4.013,43.639],[4.034,43.657]]]}},{"type":"Feature","properties":{"code":"34177","nom":"Murles"},"geometry":{"type":"Polygon","coordinates":[[[3.759,43.665],[3.721,43.691],[3.74,43.722],[3.77,43.731],[3.787,43.71],[3.78,43.692],[3.76,43.685],[3.759,43.665]]]}},{"type":"Feature","properties":{"code":"34178","nom":"Murviel-lès-Béziers"},"geometry":{"type":"Polygon","coordinates":[[[3.156,43.483],[3.154,43.466],[3.174,43.451],[3.166,43.435],[3.139,43.415],[3.107,43.431],[3.1,43.438],[3.116,43.487],[3.123,43.504],[3.138,43.501],[3.156,43.483]]]}},{"type":"Feature","properties":{"code":"34179","nom":"Murviel-lès-Montpellier"},"geometry":{"type":"Polygon","coordinates":[[[3.771,43.607],[3.731,43.595],[3.716,43.6],[3.71,43.613],[3.746,43.629],[3.771,43.607]]]}},{"type":"Feature","properties":{"code":"34180","nom":"Nébian"},"geometry":{"type":"Polygon","coordinates":[[[3.464,43.597],[3.464,43.585],[3.433,43.586],[3.407,43.603],[3.419,43.615],[3.464,43.597]]]}},{"type":"Feature","properties":{"code":"34181","nom":"Neffiès"},"geometry":{"type":"Polygon","coordinates":[[[3.36,43.531],[3.33,43.518],[3.313,43.533],[3.317,43.558],[3.351,43.548],[3.36,43.531]]]}},{"type":"Feature","properties":{"code":"34182","nom":"Nézignan-l'Évêque"},"geometry":{"type":"Polygon","coordinates":[[[3.4,43.435],[3.421,43.421],[3.39,43.415],[3.391,43.419],[3.4,43.435]]]}},{"type":"Feature","properties":{"code":"34183","nom":"Nissan-lez-Enserune"},"geometry":{"type":"Polygon","coordinates":[[[3.152,43.302],[3.141,43.259],[3.097,43.258],[3.054,43.28],[3.083,43.29],[3.108,43.309],[3.117,43.311],[3.152,43.302]]]}},{"type":"Feature","properties":{"code":"34184","nom":"Nizas"},"geometry":{"type":"Polygon","coordinates":[[[3.436,43.522],[3.448,43.514],[3.446,43.507],[3.416,43.5],[3.412,43.503],[3.385,43.52],[3.415,43.525],[3.436,43.522]]]}},{"type":"Feature","properties":{"code":"34185","nom":"Notre-Dame-de-Londres"},"geometry":{"type":"Polygon","coordinates":[[[3.758,43.806],[3.719,43.814],[3.724,43.827],[3.732,43.847],[3.762,43.871],[3.791,43.851],[3.784,43.814],[3.758,43.806]]]}},{"type":"Feature","properties":{"code":"34186","nom":"Octon"},"geometry":{"type":"Polygon","coordinates":[[[3.331,43.654],[3.336,43.648],[3.34,43.64],[3.334,43.635],[3.305,43.629],[3.27,43.656],[3.251,43.663],[3.248,43.683],[3.248,43.689],[3.287,43.676],[3.326,43.669],[3.331,43.654]]]}},{"type":"Feature","properties":{"code":"34187","nom":"Olargues"},"geometry":{"type":"Polygon","coordinates":[[[2.91,43.512],[2.895,43.535],[2.885,43.55],[2.905,43.566],[2.94,43.564],[2.949,43.537],[2.938,43.527],[2.931,43.515],[2.91,43.512]]]}},{"type":"Feature","properties":{"code":"34188","nom":"Olmet-et-Villecun"},"geometry":{"type":"Polygon","coordinates":[[[3.329,43.7],[3.291,43.687],[3.277,43.714],[3.303,43.719],[3.329,43.7]]]}},{"type":"Feature","properties":{"code":"34189","nom":"Olonzac"},"geometry":{"type":"Polygon","coordinates":[[[2.787,43.274],[2.78,43.265],[2.772,43.258],[2.752,43.255],[2.741,43.265],[2.709,43.274],[2.703,43.277],[2.699,43.308],[2.726,43.305],[2.744,43.303],[2.749,43.29],[2.763,43.272],[2.787,43.274]]]}},{"type":"Feature","properties":{"code":"34190","nom":"Oupia"},"geometry":{"type":"Polygon","coordinates":[[[2.749,43.29],[2.8,43.306],[2.809,43.304],[2.801,43.3],[2.787,43.274],[2.763,43.272],[2.749,43.29]]]}},{"type":"Feature","properties":{"code":"34191","nom":"Pailhès"},"geometry":{"type":"Polygon","coordinates":[[[3.203,43.426],[3.193,43.422],[3.166,43.435],[3.174,43.451],[3.189,43.452],[3.203,43.426]]]}},{"type":"Feature","properties":{"code":"34192","nom":"Palavas-les-Flots"},"geometry":{"type":"Polygon","coordinates":[[[3.907,43.517],[3.9,43.54],[3.933,43.538],[3.97,43.548],[3.969,43.54],[3.907,43.517]]]}},{"type":"Feature","properties":{"code":"34193","nom":"Pardailhan"},"geometry":{"type":"Polygon","coordinates":[[[2.866,43.416],[2.867,43.411],[2.809,43.413],[2.777,43.439],[2.817,43.456],[2.823,43.477],[2.86,43.488],[2.88,43.464],[2.866,43.416]]]}},{"type":"Feature","properties":{"code":"34194","nom":"Paulhan"},"geometry":{"type":"Polygon","coordinates":[[[3.479,43.562],[3.48,43.56],[3.482,43.551],[3.477,43.535],[3.478,43.532],[3.453,43.517],[3.448,43.514],[3.436,43.522],[3.44,43.541],[3.479,43.562]]]}},{"type":"Feature","properties":{"code":"34195","nom":"Pégairolles-de-Buèges"},"geometry":{"type":"Polygon","coordinates":[[[3.574,43.787],[3.538,43.791],[3.573,43.824],[3.61,43.813],[3.574,43.787]]]}},{"type":"Feature","properties":{"code":"34196","nom":"Pégairolles-de-l'Escalette"},"geometry":{"type":"Polygon","coordinates":[[[3.323,43.776],[3.3,43.785],[3.292,43.816],[3.327,43.827],[3.36,43.848],[3.37,43.852],[3.377,43.825],[3.368,43.805],[3.338,43.793],[3.323,43.776]]]}},{"type":"Feature","properties":{"code":"34197","nom":"Péret"},"geometry":{"type":"Polygon","coordinates":[[[3.387,43.596],[3.426,43.573],[3.419,43.561],[3.384,43.559],[3.387,43.596]]]}},{"type":"Feature","properties":{"code":"34198","nom":"Pérols"},"geometry":{"type":"Polygon","coordinates":[[[3.939,43.584],[3.969,43.565],[3.97,43.548],[3.933,43.538],[3.95,43.552],[3.939,43.584]]]}},{"type":"Feature","properties":{"code":"34199","nom":"Pézenas"},"geometry":{"type":"Polygon","coordinates":[[[3.463,43.453],[3.428,43.436],[3.429,43.423],[3.425,43.421],[3.421,43.421],[3.4,43.435],[3.376,43.471],[3.373,43.474],[3.412,43.503],[3.416,43.5],[3.449,43.479],[3.446,43.475],[3.463,43.453]]]}},{"type":"Feature","properties":{"code":"34200","nom":"Pézènes-les-Mines"},"geometry":{"type":"Polygon","coordinates":[[[3.275,43.618],[3.28,43.617],[3.291,43.593],[3.264,43.571],[3.226,43.575],[3.216,43.577],[3.198,43.594],[3.206,43.621],[3.238,43.629],[3.275,43.618]]]}},{"type":"Feature","properties":{"code":"34201","nom":"Pierrerue"},"geometry":{"type":"Polygon","coordinates":[[[2.93,43.467],[2.933,43.477],[2.964,43.441],[3.003,43.431],[2.996,43.423],[2.971,43.418],[2.93,43.467]]]}},{"type":"Feature","properties":{"code":"34202","nom":"Pignan"},"geometry":{"type":"Polygon","coordinates":[[[3.716,43.6],[3.731,43.595],[3.771,43.607],[3.783,43.599],[3.785,43.578],[3.76,43.557],[3.758,43.557],[3.704,43.586],[3.696,43.606],[3.716,43.6]]]}},{"type":"Feature","properties":{"code":"34203","nom":"Pinet"},"geometry":{"type":"Polygon","coordinates":[[[3.489,43.408],[3.489,43.416],[3.518,43.427],[3.516,43.393],[3.489,43.408]]]}},{"type":"Feature","properties":{"code":"34204","nom":"Plaissan"},"geometry":{"type":"Polygon","coordinates":[[[3.523,43.574],[3.549,43.56],[3.54,43.55],[3.52,43.546],[3.509,43.563],[3.519,43.569],[3.523,43.574]]]}},{"type":"Feature","properties":{"code":"34205","nom":"Les Plans"},"geometry":{"type":"Polygon","coordinates":[[[3.305,43.753],[3.293,43.737],[3.253,43.732],[3.246,43.749],[3.238,43.77],[3.243,43.792],[3.267,43.77],[3.305,43.753]]]}},{"type":"Feature","properties":{"code":"34206","nom":"Poilhes"},"geometry":{"type":"Polygon","coordinates":[[[3.091,43.314],[3.108,43.309],[3.083,43.29],[3.091,43.314]]]}},{"type":"Feature","properties":{"code":"34207","nom":"Pomérols"},"geometry":{"type":"Polygon","coordinates":[[[3.526,43.43],[3.55,43.406],[3.502,43.371],[3.486,43.378],[3.489,43.408],[3.516,43.393],[3.518,43.427],[3.526,43.43]]]}},{"type":"Feature","properties":{"code":"34208","nom":"Popian"},"geometry":{"type":"Polygon","coordinates":[[[3.519,43.613],[3.521,43.629],[3.55,43.627],[3.534,43.607],[3.519,43.613]]]}},{"type":"Feature","properties":{"code":"34209","nom":"Portiragnes"},"geometry":{"type":"Polygon","coordinates":[[[3.346,43.332],[3.373,43.311],[3.365,43.277],[3.345,43.269],[3.318,43.296],[3.329,43.317],[3.339,43.335],[3.346,43.332]]]}},{"type":"Feature","properties":{"code":"34210","nom":"Le Pouget"},"geometry":{"type":"Polygon","coordinates":[[[3.493,43.583],[3.5,43.612],[3.519,43.613],[3.534,43.607],[3.548,43.595],[3.523,43.574],[3.519,43.569],[3.504,43.575],[3.493,43.583]]]}},{"type":"Feature","properties":{"code":"34211","nom":"Le Poujol-sur-Orb"},"geometry":{"type":"Polygon","coordinates":[[[3.031,43.578],[3.029,43.584],[3.068,43.596],[3.077,43.585],[3.031,43.578]]]}},{"type":"Feature","properties":{"code":"34212","nom":"Poujols"},"geometry":{"type":"Polygon","coordinates":[[[3.3,43.785],[3.323,43.776],[3.33,43.762],[3.314,43.764],[3.3,43.785]]]}},{"type":"Feature","properties":{"code":"34213","nom":"Poussan"},"geometry":{"type":"Polygon","coordinates":[[[3.651,43.464],[3.626,43.487],[3.638,43.51],[3.641,43.537],[3.699,43.495],[3.699,43.479],[3.666,43.458],[3.651,43.464]]]}},{"type":"Feature","properties":{"code":"34214","nom":"Pouzolles"},"geometry":{"type":"Polygon","coordinates":[[[3.278,43.461],[3.268,43.458],[3.252,43.479],[3.259,43.495],[3.287,43.496],[3.289,43.495],[3.294,43.475],[3.278,43.461]]]}},{"type":"Feature","properties":{"code":"34215","nom":"Pouzols"},"geometry":{"type":"Polygon","coordinates":[[[3.495,43.618],[3.511,43.632],[3.521,43.629],[3.519,43.613],[3.5,43.612],[3.495,43.618]]]}},{"type":"Feature","properties":{"code":"34216","nom":"Le Pradal"},"geometry":{"type":"Polygon","coordinates":[[[3.099,43.647],[3.101,43.644],[3.104,43.62],[3.099,43.647]]]}},{"type":"Feature","properties":{"code":"34217","nom":"Prades-le-Lez"},"geometry":{"type":"Polygon","coordinates":[[[3.883,43.688],[3.883,43.687],[3.862,43.682],[3.848,43.716],[3.846,43.724],[3.873,43.733],[3.875,43.724],[3.868,43.705],[3.879,43.7],[3.883,43.688]]]}},{"type":"Feature","properties":{"code":"34218","nom":"Prades-sur-Vernazobre"},"geometry":{"type":"Polygon","coordinates":[[[3.008,43.436],[3.003,43.431],[2.964,43.441],[2.933,43.477],[2.951,43.485],[2.968,43.487],[3.006,43.46],[3.008,43.436]]]}},{"type":"Feature","properties":{"code":"34219","nom":"Prémian"},"geometry":{"type":"Polygon","coordinates":[[[2.821,43.564],[2.846,43.544],[2.842,43.511],[2.807,43.529],[2.794,43.552],[2.821,43.564]]]}},{"type":"Feature","properties":{"code":"34220","nom":"Le Puech"},"geometry":{"type":"Polygon","coordinates":[[[3.37,43.682],[3.326,43.669],[3.287,43.676],[3.291,43.687],[3.329,43.7],[3.342,43.694],[3.37,43.682]]]}},{"type":"Feature","properties":{"code":"34221","nom":"Puéchabon"},"geometry":{"type":"Polygon","coordinates":[[[3.593,43.75],[3.622,43.753],[3.656,43.716],[3.635,43.697],[3.624,43.696],[3.554,43.72],[3.56,43.742],[3.593,43.75]]]}},{"type":"Feature","properties":{"code":"34222","nom":"Puilacher"},"geometry":{"type":"Polygon","coordinates":[[[3.488,43.563],[3.504,43.575],[3.519,43.569],[3.509,43.563],[3.488,43.563]]]}},{"type":"Feature","properties":{"code":"34223","nom":"Puimisson"},"geometry":{"type":"Polygon","coordinates":[[[3.189,43.452],[3.189,43.454],[3.207,43.451],[3.229,43.431],[3.214,43.422],[3.203,43.426],[3.189,43.452]]]}},{"type":"Feature","properties":{"code":"34224","nom":"Puissalicon"},"geometry":{"type":"Polygon","coordinates":[[[3.229,43.431],[3.207,43.451],[3.252,43.479],[3.268,43.458],[3.262,43.45],[3.239,43.432],[3.229,43.431]]]}},{"type":"Feature","properties":{"code":"34225","nom":"Puisserguier"},"geometry":{"type":"Polygon","coordinates":[[[3.031,43.408],[3.066,43.394],[3.086,43.367],[3.108,43.365],[3.064,43.356],[3.026,43.351],[3.013,43.358],[3.004,43.389],[3.028,43.406],[3.031,43.408]]]}},{"type":"Feature","properties":{"code":"34226","nom":"Quarante"},"geometry":{"type":"Polygon","coordinates":[[[3.026,43.351],[2.991,43.319],[2.958,43.312],[2.95,43.377],[2.958,43.394],[2.978,43.393],[2.98,43.373],[3.013,43.358],[3.026,43.351]]]}},{"type":"Feature","properties":{"code":"34227","nom":"Restinclières"},"geometry":{"type":"Polygon","coordinates":[[[4.05,43.742],[4.056,43.738],[4.05,43.716],[4.026,43.711],[4.05,43.742]]]}},{"type":"Feature","properties":{"code":"34228","nom":"Rieussec"},"geometry":{"type":"Polygon","coordinates":[[[2.759,43.413],[2.723,43.392],[2.723,43.405],[2.684,43.43],[2.72,43.445],[2.777,43.439],[2.759,43.413]]]}},{"type":"Feature","properties":{"code":"34229","nom":"Riols"},"geometry":{"type":"Polygon","coordinates":[[[2.777,43.439],[2.775,43.471],[2.796,43.492],[2.757,43.505],[2.736,43.527],[2.751,43.545],[2.766,43.558],[2.794,43.552],[2.807,43.529],[2.842,43.511],[2.862,43.5],[2.86,43.488],[2.823,43.477],[2.817,43.456],[2.777,43.439]]]}},{"type":"Feature","properties":{"code":"34230","nom":"Les Rives"},"geometry":{"type":"Polygon","coordinates":[[[3.287,43.83],[3.248,43.814],[3.249,43.83],[3.234,43.858],[3.263,43.891],[3.277,43.897],[3.287,43.848],[3.287,43.83]]]}},{"type":"Feature","properties":{"code":"34231","nom":"Romiguières"},"geometry":{"type":"Polygon","coordinates":[[[3.223,43.818],[3.237,43.827],[3.249,43.83],[3.248,43.814],[3.244,43.804],[3.223,43.818]]]}},{"type":"Feature","properties":{"code":"34232","nom":"Roquebrun"},"geometry":{"type":"Polygon","coordinates":[[[3.06,43.477],[3.047,43.472],[2.992,43.488],[2.966,43.505],[2.931,43.515],[2.938,43.527],[2.982,43.528],[3.004,43.517],[3.045,43.541],[3.048,43.511],[3.065,43.484],[3.06,43.477]]]}},{"type":"Feature","properties":{"code":"34233","nom":"Roqueredonde"},"geometry":{"type":"Polygon","coordinates":[[[3.151,43.814],[3.223,43.818],[3.244,43.804],[3.243,43.792],[3.238,43.77],[3.19,43.776],[3.179,43.802],[3.149,43.81],[3.151,43.814],[3.151,43.814]]]}},{"type":"Feature","properties":{"code":"34234","nom":"Roquessels"},"geometry":{"type":"Polygon","coordinates":[[[3.234,43.526],[3.233,43.526],[3.216,43.542],[3.216,43.577],[3.226,43.575],[3.239,43.549],[3.244,43.54],[3.234,43.526]]]}},{"type":"Feature","properties":{"code":"34235","nom":"Rosis"},"geometry":{"type":"Polygon","coordinates":[[[3.048,43.615],[3.025,43.601],[2.984,43.594],[2.974,43.6],[2.95,43.606],[2.941,43.653],[2.982,43.651],[2.991,43.676],[3.021,43.667],[3.057,43.639],[3.048,43.615]]]}},{"type":"Feature","properties":{"code":"34236","nom":"Rouet"},"geometry":{"type":"Polygon","coordinates":[[[3.835,43.84],[3.848,43.822],[3.839,43.796],[3.814,43.798],[3.784,43.814],[3.791,43.851],[3.823,43.855],[3.835,43.84]]]}},{"type":"Feature","properties":{"code":"34237","nom":"Roujan"},"geometry":{"type":"Polygon","coordinates":[[[3.321,43.482],[3.289,43.495],[3.287,43.496],[3.291,43.525],[3.278,43.54],[3.313,43.533],[3.33,43.518],[3.337,43.494],[3.321,43.482]]]}},{"type":"Feature","properties":{"code":"34238","nom":"Saint-André-de-Buèges"},"geometry":{"type":"Polygon","coordinates":[[[3.658,43.878],[3.672,43.842],[3.643,43.833],[3.611,43.855],[3.658,43.878]]]}},{"type":"Feature","properties":{"code":"34239","nom":"Saint-André-de-Sangonis"},"geometry":{"type":"Polygon","coordinates":[[[3.511,43.632],[3.495,43.618],[3.487,43.617],[3.474,43.637],[3.477,43.651],[3.487,43.667],[3.487,43.68],[3.488,43.68],[3.513,43.674],[3.534,43.664],[3.534,43.649],[3.511,43.632]]]}},{"type":"Feature","properties":{"code":"34240","nom":"Saint-Aunès"},"geometry":{"type":"Polygon","coordinates":[[[3.933,43.629],[3.937,43.631],[3.95,43.644],[3.986,43.654],[4.007,43.643],[3.939,43.614],[3.933,43.629]]]}},{"type":"Feature","properties":{"code":"34241","nom":"Saint-Bauzille-de-la-Sylve"},"geometry":{"type":"Polygon","coordinates":[[[3.589,43.613],[3.57,43.601],[3.548,43.595],[3.534,43.607],[3.55,43.627],[3.589,43.613]]]}},{"type":"Feature","properties":{"code":"34242","nom":"Saint-Bauzille-de-Montmel"},"geometry":{"type":"Polygon","coordinates":[[[3.946,43.803],[3.959,43.805],[3.974,43.801],[3.976,43.785],[3.986,43.767],[3.921,43.747],[3.901,43.751],[3.902,43.752],[3.928,43.77],[3.92,43.783],[3.946,43.803]]]}},{"type":"Feature","properties":{"code":"34243","nom":"Saint-Bauzille-de-Putois"},"geometry":{"type":"Polygon","coordinates":[[[3.778,43.888],[3.766,43.879],[3.726,43.882],[3.737,43.913],[3.758,43.926],[3.775,43.928],[3.789,43.908],[3.778,43.888]]]}},{"type":"Feature","properties":{"code":"34244","nom":"Saint-Brès"},"geometry":{"type":"Polygon","coordinates":[[[4.032,43.679],[4.036,43.68],[4.054,43.659],[4.047,43.651],[4.034,43.657],[4.023,43.671],[4.032,43.679]]]}},{"type":"Feature","properties":{"code":"34245","nom":"Saint-Chinian"},"geometry":{"type":"Polygon","coordinates":[[[2.958,43.404],[2.909,43.396],[2.884,43.417],[2.922,43.427],[2.922,43.461],[2.93,43.467],[2.971,43.418],[2.958,43.404]]]}},{"type":"Feature","properties":{"code":"34246","nom":"Entre-Vignes"},"geometry":{"type":"Polygon","coordinates":[[[4.086,43.741],[4.102,43.724],[4.111,43.702],[4.065,43.698],[4.05,43.716],[4.056,43.738],[4.086,43.741]]]}},{"type":"Feature","properties":{"code":"34247","nom":"Saint-Clément-de-Rivière"},"geometry":{"type":"Polygon","coordinates":[[[3.833,43.713],[3.848,43.716],[3.862,43.682],[3.842,43.671],[3.857,43.653],[3.839,43.65],[3.828,43.666],[3.833,43.713]]]}},{"type":"Feature","properties":{"code":"34248","nom":"Sainte-Croix-de-Quintillargues"},"geometry":{"type":"Polygon","coordinates":[[[3.902,43.78],[3.92,43.783],[3.928,43.77],[3.902,43.752],[3.902,43.78]]]}},{"type":"Feature","properties":{"code":"34249","nom":"Saint-Drézéry"},"geometry":{"type":"Polygon","coordinates":[[[4.003,43.734],[4.001,43.726],[3.964,43.714],[3.949,43.717],[3.959,43.737],[3.994,43.749],[4.003,43.734]]]}},{"type":"Feature","properties":{"code":"34250","nom":"Saint-Étienne-d'Albagnan"},"geometry":{"type":"Polygon","coordinates":[[[2.842,43.511],[2.846,43.544],[2.821,43.564],[2.836,43.57],[2.872,43.537],[2.895,43.535],[2.91,43.512],[2.904,43.51],[2.862,43.5],[2.842,43.511]]]}},{"type":"Feature","properties":{"code":"34251","nom":"Saint-Étienne-de-Gourgas"},"geometry":{"type":"Polygon","coordinates":[[[3.389,43.816],[3.408,43.766],[3.38,43.749],[3.363,43.762],[3.376,43.789],[3.368,43.805],[3.377,43.825],[3.389,43.816]]]}},{"type":"Feature","properties":{"code":"34252","nom":"Saint-Étienne-Estréchoux"},"geometry":{"type":"Polygon","coordinates":[[[3.124,43.656],[3.097,43.652],[3.086,43.659],[3.092,43.669],[3.114,43.669],[3.124,43.656]]]}},{"type":"Feature","properties":{"code":"34253","nom":"Saint-Félix-de-l'Héras"},"geometry":{"type":"Polygon","coordinates":[[[3.287,43.848],[3.343,43.854],[3.36,43.848],[3.327,43.827],[3.292,43.816],[3.287,43.83],[3.287,43.848]]]}},{"type":"Feature","properties":{"code":"34254","nom":"Saint-Félix-de-Lodez"},"geometry":{"type":"Polygon","coordinates":[[[3.466,43.67],[3.487,43.667],[3.477,43.651],[3.451,43.665],[3.466,43.67]]]}},{"type":"Feature","properties":{"code":"34255","nom":"Saint-Gély-du-Fesc"},"geometry":{"type":"Polygon","coordinates":[[[3.78,43.692],[3.787,43.71],[3.833,43.713],[3.828,43.666],[3.812,43.667],[3.78,43.692]]]}},{"type":"Feature","properties":{"code":"34256","nom":"Saint-Geniès-des-Mourgues"},"geometry":{"type":"Polygon","coordinates":[[[4.036,43.68],[4.032,43.679],[4.012,43.695],[4.013,43.71],[4.026,43.711],[4.05,43.716],[4.065,43.698],[4.055,43.685],[4.036,43.68]]]}},{"type":"Feature","properties":{"code":"34257","nom":"Saint-Geniès-de-Varensal"},"geometry":{"type":"Polygon","coordinates":[[[2.991,43.676],[2.974,43.705],[3.019,43.696],[3.021,43.667],[2.991,43.676]]]}},{"type":"Feature","properties":{"code":"34258","nom":"Saint-Geniès-de-Fontedit"},"geometry":{"type":"Polygon","coordinates":[[[3.189,43.454],[3.189,43.452],[3.174,43.451],[3.154,43.466],[3.156,43.483],[3.185,43.485],[3.189,43.454]]]}},{"type":"Feature","properties":{"code":"34259","nom":"Saint-Georges-d'Orques"},"geometry":{"type":"Polygon","coordinates":[[[3.746,43.629],[3.748,43.635],[3.761,43.636],[3.806,43.599],[3.783,43.599],[3.771,43.607],[3.746,43.629]]]}},{"type":"Feature","properties":{"code":"34260","nom":"Saint-Gervais-sur-Mare"},"geometry":{"type":"Polygon","coordinates":[[[3.086,43.659],[3.057,43.639],[3.021,43.667],[3.019,43.696],[3.061,43.693],[3.092,43.669],[3.086,43.659]]]}},{"type":"Feature","properties":{"code":"34261","nom":"Saint-Guilhem-le-Désert"},"geometry":{"type":"Polygon","coordinates":[[[3.534,43.788],[3.538,43.791],[3.574,43.787],[3.59,43.775],[3.593,43.75],[3.56,43.742],[3.554,43.72],[3.553,43.713],[3.518,43.728],[3.495,43.749],[3.534,43.788]]]}},{"type":"Feature","properties":{"code":"34262","nom":"Saint-Guiraud"},"geometry":{"type":"Polygon","coordinates":[[[3.437,43.671],[3.433,43.68],[3.449,43.695],[3.472,43.679],[3.466,43.67],[3.451,43.665],[3.437,43.671]]]}},{"type":"Feature","properties":{"code":"34263","nom":"Saint-Hilaire-de-Beauvoir"},"geometry":{"type":"Polygon","coordinates":[[[3.997,43.761],[4.011,43.761],[4.033,43.763],[4.037,43.748],[4.02,43.741],[4,43.757],[3.997,43.761]]]}},{"type":"Feature","properties":{"code":"34264","nom":"Saint-Jean-de-Buèges"},"geometry":{"type":"Polygon","coordinates":[[[3.578,43.844],[3.6,43.853],[3.611,43.855],[3.643,43.833],[3.61,43.813],[3.573,43.824],[3.578,43.844]]]}},{"type":"Feature","properties":{"code":"34265","nom":"Saint-Jean-de-Cornies"},"geometry":{"type":"Polygon","coordinates":[[[4,43.757],[4.02,43.741],[4.003,43.734],[3.994,43.749],[4,43.757]]]}},{"type":"Feature","properties":{"code":"34266","nom":"Saint-Jean-de-Cuculles"},"geometry":{"type":"Polygon","coordinates":[[[3.819,43.778],[3.824,43.776],[3.854,43.749],[3.831,43.73],[3.816,43.748],[3.819,43.778]]]}},{"type":"Feature","properties":{"code":"34267","nom":"Saint-Jean-de-Fos"},"geometry":{"type":"Polygon","coordinates":[[[3.531,43.687],[3.518,43.728],[3.553,43.713],[3.574,43.685],[3.562,43.671],[3.547,43.665],[3.531,43.687]]]}},{"type":"Feature","properties":{"code":"34268","nom":"Saint-Jean-de-la-Blaquière"},"geometry":{"type":"Polygon","coordinates":[[[3.449,43.73],[3.449,43.695],[3.433,43.68],[3.408,43.693],[3.408,43.711],[3.414,43.736],[3.449,43.73]]]}},{"type":"Feature","properties":{"code":"34269","nom":"Saint-Jean-de-Minervois"},"geometry":{"type":"Polygon","coordinates":[[[2.759,43.413],[2.777,43.439],[2.809,43.413],[2.867,43.411],[2.869,43.383],[2.856,43.373],[2.839,43.372],[2.815,43.379],[2.778,43.397],[2.759,43.413]]]}},{"type":"Feature","properties":{"code":"34270","nom":"Saint-Jean-de-Védas"},"geometry":{"type":"Polygon","coordinates":[[[3.816,43.591],[3.836,43.595],[3.861,43.567],[3.848,43.553],[3.824,43.552],[3.807,43.562],[3.805,43.567],[3.816,43.591]]]}},{"type":"Feature","properties":{"code":"34271","nom":"Saint-Julien"},"geometry":{"type":"Polygon","coordinates":[[[2.871,43.581],[2.849,43.598],[2.906,43.604],[2.934,43.593],[2.94,43.564],[2.905,43.566],[2.871,43.581]]]}},{"type":"Feature","properties":{"code":"34272","nom":"Saint-Just"},"geometry":{"type":"Polygon","coordinates":[[[4.101,43.641],[4.089,43.658],[4.103,43.67],[4.133,43.643],[4.101,43.641]]]}},{"type":"Feature","properties":{"code":"34273","nom":"Saint-Martin-de-l'Arçon"},"geometry":{"type":"Polygon","coordinates":[[[2.974,43.6],[2.984,43.594],[2.999,43.573],[2.981,43.574],[2.974,43.6]]]}},{"type":"Feature","properties":{"code":"34274","nom":"Saint-Martin-de-Londres"},"geometry":{"type":"Polygon","coordinates":[[[3.706,43.759],[3.683,43.763],[3.666,43.789],[3.664,43.806],[3.687,43.828],[3.724,43.827],[3.719,43.814],[3.758,43.806],[3.738,43.784],[3.746,43.765],[3.706,43.759]]]}},{"type":"Feature","properties":{"code":"34276","nom":"Saint-Mathieu-de-Tréviers"},"geometry":{"type":"Polygon","coordinates":[[[3.892,43.792],[3.902,43.78],[3.902,43.752],[3.901,43.751],[3.901,43.749],[3.897,43.746],[3.875,43.737],[3.854,43.749],[3.824,43.776],[3.843,43.787],[3.892,43.792]]]}},{"type":"Feature","properties":{"code":"34277","nom":"Saint-Maurice-Navacelles"},"geometry":{"type":"Polygon","coordinates":[[[3.538,43.791],[3.534,43.788],[3.51,43.814],[3.44,43.839],[3.436,43.863],[3.492,43.891],[3.524,43.886],[3.528,43.854],[3.578,43.844],[3.573,43.824],[3.538,43.791]]]}},{"type":"Feature","properties":{"code":"34278","nom":"Saint-Michel"},"geometry":{"type":"Polygon","coordinates":[[[3.422,43.873],[3.436,43.863],[3.44,43.839],[3.434,43.822],[3.389,43.816],[3.377,43.825],[3.37,43.852],[3.395,43.862],[3.422,43.873]]]}},{"type":"Feature","properties":{"code":"34279","nom":"Saint-Nazaire-de-Ladarez"},"geometry":{"type":"Polygon","coordinates":[[[3.045,43.541],[3.057,43.55],[3.087,43.557],[3.091,43.529],[3.123,43.504],[3.116,43.487],[3.078,43.494],[3.065,43.484],[3.048,43.511],[3.045,43.541]]]}},{"type":"Feature","properties":{"code":"34280","nom":"Saint-Nazaire-de-Pézan"},"geometry":{"type":"Polygon","coordinates":[[[4.134,43.641],[4.111,43.616],[4.101,43.641],[4.133,43.643],[4.134,43.641]]]}},{"type":"Feature","properties":{"code":"34281","nom":"Saint-Pargoire"},"geometry":{"type":"Polygon","coordinates":[[[3.551,43.503],[3.493,43.53],[3.48,43.524],[3.478,43.532],[3.477,43.535],[3.504,43.547],[3.52,43.546],[3.54,43.55],[3.591,43.544],[3.606,43.53],[3.58,43.529],[3.551,43.503]]]}},{"type":"Feature","properties":{"code":"34282","nom":"Saint-Paul-et-Valmalle"},"geometry":{"type":"Polygon","coordinates":[[[3.67,43.596],[3.649,43.625],[3.672,43.634],[3.71,43.613],[3.716,43.6],[3.696,43.606],[3.67,43.596]]]}},{"type":"Feature","properties":{"code":"34283","nom":"Saint-Pierre-de-la-Fage"},"geometry":{"type":"Polygon","coordinates":[[[3.408,43.766],[3.389,43.816],[3.434,43.822],[3.452,43.801],[3.442,43.777],[3.408,43.766]]]}},{"type":"Feature","properties":{"code":"34284","nom":"Saint-Pons-de-Thomières"},"geometry":{"type":"Polygon","coordinates":[[[2.736,43.527],[2.757,43.505],[2.796,43.492],[2.775,43.471],[2.777,43.439],[2.72,43.445],[2.709,43.458],[2.733,43.473],[2.727,43.497],[2.704,43.52],[2.736,43.527]]]}},{"type":"Feature","properties":{"code":"34285","nom":"Saint-Pons-de-Mauchiens"},"geometry":{"type":"Polygon","coordinates":[[[3.48,43.524],[3.493,43.53],[3.551,43.503],[3.548,43.494],[3.525,43.492],[3.471,43.515],[3.48,43.524]]]}},{"type":"Feature","properties":{"code":"34286","nom":"Saint-Privat"},"geometry":{"type":"Polygon","coordinates":[[[3.473,43.743],[3.462,43.738],[3.449,43.73],[3.414,43.736],[3.379,43.733],[3.369,43.733],[3.368,43.742],[3.38,43.749],[3.408,43.766],[3.442,43.777],[3.489,43.749],[3.473,43.743]]]}},{"type":"Feature","properties":{"code":"34287","nom":"Saint-Saturnin-de-Lucian"},"geometry":{"type":"Polygon","coordinates":[[[3.488,43.68],[3.487,43.68],[3.472,43.679],[3.449,43.695],[3.449,43.73],[3.462,43.738],[3.454,43.729],[3.482,43.698],[3.488,43.68]]]}},{"type":"Feature","properties":{"code":"34288","nom":"Saint-Sériès"},"geometry":{"type":"Polygon","coordinates":[[[4.102,43.724],[4.086,43.741],[4.099,43.749],[4.112,43.74],[4.122,43.737],[4.127,43.731],[4.102,43.724]]]}},{"type":"Feature","properties":{"code":"34289","nom":"Saint-Thibéry"},"geometry":{"type":"Polygon","coordinates":[[[3.421,43.421],[3.425,43.421],[3.437,43.384],[3.372,43.374],[3.368,43.365],[3.379,43.411],[3.39,43.415],[3.421,43.421]]]}},{"type":"Feature","properties":{"code":"34290","nom":"Saint-Vincent-de-Barbeyrargues"},"geometry":{"type":"Polygon","coordinates":[[[3.879,43.7],[3.868,43.705],[3.875,43.724],[3.879,43.7]]]}},{"type":"Feature","properties":{"code":"34291","nom":"Saint-Vincent-d'Olargues"},"geometry":{"type":"Polygon","coordinates":[[[2.895,43.535],[2.872,43.537],[2.836,43.57],[2.871,43.581],[2.905,43.566],[2.885,43.55],[2.895,43.535]]]}},{"type":"Feature","properties":{"code":"34292","nom":"Salasc"},"geometry":{"type":"Polygon","coordinates":[[[3.282,43.617],[3.305,43.629],[3.334,43.635],[3.335,43.612],[3.311,43.609],[3.282,43.617]]]}},{"type":"Feature","properties":{"code":"34293","nom":"La Salvetat-sur-Agout"},"geometry":{"type":"Polygon","coordinates":[[[2.646,43.66],[2.685,43.654],[2.723,43.644],[2.755,43.614],[2.73,43.577],[2.762,43.572],[2.766,43.558],[2.751,43.545],[2.737,43.559],[2.701,43.566],[2.617,43.566],[2.621,43.592],[2.646,43.66]]]}},{"type":"Feature","properties":{"code":"34294","nom":"Saturargues"},"geometry":{"type":"Polygon","coordinates":[[[4.127,43.731],[4.132,43.709],[4.109,43.7],[4.111,43.702],[4.102,43.724],[4.127,43.731]]]}},{"type":"Feature","properties":{"code":"34295","nom":"Saussan"},"geometry":{"type":"Polygon","coordinates":[[[3.807,43.562],[3.781,43.568],[3.76,43.557],[3.785,43.578],[3.805,43.567],[3.807,43.562]]]}},{"type":"Feature","properties":{"code":"34296","nom":"Saussines"},"geometry":{"type":"Polygon","coordinates":[[[4.052,43.774],[4.067,43.765],[4.05,43.742],[4.037,43.748],[4.033,43.763],[4.052,43.774]]]}},{"type":"Feature","properties":{"code":"34297","nom":"Sauteyrargues"},"geometry":{"type":"Polygon","coordinates":[[[3.938,43.853],[3.94,43.83],[3.928,43.806],[3.913,43.805],[3.899,43.823],[3.898,43.841],[3.922,43.858],[3.938,43.853]]]}},{"type":"Feature","properties":{"code":"34298","nom":"Sauvian"},"geometry":{"type":"Polygon","coordinates":[[[3.252,43.313],[3.276,43.301],[3.26,43.261],[3.231,43.282],[3.231,43.297],[3.252,43.313]]]}},{"type":"Feature","properties":{"code":"34299","nom":"Sérignan"},"geometry":{"type":"Polygon","coordinates":[[[3.276,43.301],[3.318,43.296],[3.345,43.269],[3.312,43.254],[3.298,43.258],[3.269,43.236],[3.26,43.261],[3.276,43.301]]]}},{"type":"Feature","properties":{"code":"34300","nom":"Servian"},"geometry":{"type":"Polygon","coordinates":[[[3.279,43.44],[3.285,43.445],[3.328,43.452],[3.34,43.441],[3.345,43.431],[3.347,43.411],[3.332,43.378],[3.28,43.389],[3.263,43.397],[3.256,43.425],[3.279,43.44]]]}},{"type":"Feature","properties":{"code":"34301","nom":"Sète"},"geometry":{"type":"Polygon","coordinates":[[[3.662,43.425],[3.672,43.43],[3.725,43.416],[3.692,43.392],[3.661,43.393],[3.63,43.375],[3.566,43.326],[3.553,43.338],[3.607,43.376],[3.594,43.389],[3.643,43.415],[3.662,43.425]]]}},{"type":"Feature","properties":{"code":"34302","nom":"Siran"},"geometry":{"type":"Polygon","coordinates":[[[2.659,43.293],[2.644,43.294],[2.653,43.307],[2.641,43.347],[2.663,43.367],[2.677,43.361],[2.688,43.323],[2.659,43.293]]]}},{"type":"Feature","properties":{"code":"34303","nom":"Sorbs"},"geometry":{"type":"Polygon","coordinates":[[[3.424,43.912],[3.438,43.901],[3.422,43.873],[3.395,43.862],[3.372,43.888],[3.381,43.912],[3.424,43.912]]]}},{"type":"Feature","properties":{"code":"34304","nom":"Soubès"},"geometry":{"type":"Polygon","coordinates":[[[3.368,43.805],[3.376,43.789],[3.363,43.762],[3.341,43.759],[3.33,43.762],[3.323,43.776],[3.338,43.793],[3.368,43.805]]]}},{"type":"Feature","properties":{"code":"34305","nom":"Le Soulié"},"geometry":{"type":"Polygon","coordinates":[[[2.751,43.545],[2.736,43.527],[2.704,43.52],[2.676,43.513],[2.617,43.566],[2.701,43.566],[2.737,43.559],[2.751,43.545]]]}},{"type":"Feature","properties":{"code":"34306","nom":"Soumont"},"geometry":{"type":"Polygon","coordinates":[[[3.369,43.733],[3.372,43.712],[3.342,43.699],[3.33,43.743],[3.368,43.742],[3.369,43.733]]]}},{"type":"Feature","properties":{"code":"34307","nom":"Sussargues"},"geometry":{"type":"Polygon","coordinates":[[[4.001,43.726],[4.013,43.71],[4.012,43.695],[3.964,43.714],[4.001,43.726]]]}},{"type":"Feature","properties":{"code":"34308","nom":"Taussac-la-Billière"},"geometry":{"type":"Polygon","coordinates":[[[3.097,43.652],[3.099,43.647],[3.104,43.62],[3.106,43.614],[3.093,43.612],[3.079,43.606],[3.048,43.615],[3.057,43.639],[3.086,43.659],[3.097,43.652]]]}},{"type":"Feature","properties":{"code":"34309","nom":"Teyran"},"geometry":{"type":"Polygon","coordinates":[[[3.935,43.707],[3.939,43.708],[3.946,43.677],[3.949,43.669],[3.919,43.668],[3.902,43.675],[3.901,43.678],[3.935,43.707]]]}},{"type":"Feature","properties":{"code":"34310","nom":"Thézan-lès-Béziers"},"geometry":{"type":"Polygon","coordinates":[[[3.152,43.398],[3.139,43.415],[3.166,43.435],[3.193,43.422],[3.166,43.396],[3.162,43.39],[3.152,43.398]]]}},{"type":"Feature","properties":{"code":"34311","nom":"Tourbes"},"geometry":{"type":"Polygon","coordinates":[[[3.391,43.419],[3.345,43.431],[3.34,43.441],[3.376,43.471],[3.4,43.435],[3.391,43.419]]]}},{"type":"Feature","properties":{"code":"34312","nom":"La Tour-sur-Orb"},"geometry":{"type":"Polygon","coordinates":[[[3.099,43.647],[3.097,43.652],[3.124,43.656],[3.133,43.694],[3.173,43.676],[3.188,43.657],[3.208,43.646],[3.196,43.636],[3.15,43.638],[3.137,43.63],[3.101,43.644],[3.099,43.647]]]}},{"type":"Feature","properties":{"code":"34313","nom":"Tressan"},"geometry":{"type":"Polygon","coordinates":[[[3.48,43.56],[3.479,43.562],[3.478,43.582],[3.493,43.583],[3.504,43.575],[3.488,43.563],[3.48,43.56]]]}},{"type":"Feature","properties":{"code":"34314","nom":"Le Triadou"},"geometry":{"type":"Polygon","coordinates":[[[3.846,43.724],[3.831,43.73],[3.854,43.749],[3.875,43.737],[3.873,43.733],[3.846,43.724]]]}},{"type":"Feature","properties":{"code":"34315","nom":"Usclas-d'Hérault"},"geometry":{"type":"Polygon","coordinates":[[[3.48,43.524],[3.471,43.515],[3.466,43.512],[3.453,43.517],[3.478,43.532],[3.48,43.524]]]}},{"type":"Feature","properties":{"code":"34316","nom":"Usclas-du-Bosc"},"geometry":{"type":"Polygon","coordinates":[[[3.408,43.711],[3.379,43.733],[3.414,43.736],[3.408,43.711]]]}},{"type":"Feature","properties":{"code":"34317","nom":"La Vacquerie-et-Saint-Martin-de-Castries"},"geometry":{"type":"Polygon","coordinates":[[[3.495,43.749],[3.489,43.749],[3.442,43.777],[3.452,43.801],[3.434,43.822],[3.44,43.839],[3.51,43.814],[3.534,43.788],[3.495,43.749]]]}},{"type":"Feature","properties":{"code":"34318","nom":"Vacquières"},"geometry":{"type":"Polygon","coordinates":[[[3.928,43.806],[3.94,43.83],[3.938,43.853],[3.958,43.854],[3.981,43.843],[3.959,43.805],[3.946,43.803],[3.928,43.806]]]}},{"type":"Feature","properties":{"code":"34319","nom":"Vailhan"},"geometry":{"type":"Polygon","coordinates":[[[3.278,43.54],[3.274,43.543],[3.303,43.583],[3.306,43.583],[3.317,43.558],[3.313,43.533],[3.278,43.54]]]}},{"type":"Feature","properties":{"code":"34320","nom":"Vailhauquès"},"geometry":{"type":"Polygon","coordinates":[[[3.759,43.665],[3.763,43.657],[3.748,43.64],[3.714,43.646],[3.699,43.659],[3.706,43.686],[3.721,43.691],[3.759,43.665]]]}},{"type":"Feature","properties":{"code":"34321","nom":"Valergues"},"geometry":{"type":"Polygon","coordinates":[[[4.055,43.685],[4.078,43.663],[4.054,43.659],[4.036,43.68],[4.055,43.685]]]}},{"type":"Feature","properties":{"code":"34322","nom":"Valflaunès"},"geometry":{"type":"Polygon","coordinates":[[[3.824,43.776],[3.819,43.778],[3.806,43.788],[3.814,43.798],[3.839,43.796],[3.848,43.822],[3.859,43.833],[3.899,43.823],[3.913,43.805],[3.892,43.792],[3.843,43.787],[3.824,43.776]]]}},{"type":"Feature","properties":{"code":"34323","nom":"Valmascle"},"geometry":{"type":"Polygon","coordinates":[[[3.306,43.583],[3.303,43.583],[3.291,43.593],[3.28,43.617],[3.282,43.617],[3.311,43.609],[3.324,43.596],[3.306,43.583]]]}},{"type":"Feature","properties":{"code":"34324","nom":"Valras-Plage"},"geometry":{"type":"Polygon","coordinates":[[[3.312,43.254],[3.271,43.234],[3.269,43.236],[3.298,43.258],[3.312,43.254]]]}},{"type":"Feature","properties":{"code":"34325","nom":"Valros"},"geometry":{"type":"Polygon","coordinates":[[[3.345,43.431],[3.391,43.419],[3.39,43.415],[3.379,43.411],[3.347,43.411],[3.345,43.431]]]}},{"type":"Feature","properties":{"code":"34326","nom":"Vélieux"},"geometry":{"type":"Polygon","coordinates":[[[2.723,43.392],[2.759,43.413],[2.778,43.397],[2.76,43.38],[2.715,43.377],[2.723,43.392]]]}},{"type":"Feature","properties":{"code":"34327","nom":"Vendargues"},"geometry":{"type":"Polygon","coordinates":[[[3.949,43.669],[3.946,43.677],[3.99,43.662],[3.986,43.654],[3.95,43.644],[3.949,43.669]]]}},{"type":"Feature","properties":{"code":"34328","nom":"Vendémian"},"geometry":{"type":"Polygon","coordinates":[[[3.57,43.601],[3.6,43.576],[3.549,43.56],[3.523,43.574],[3.548,43.595],[3.57,43.601]]]}},{"type":"Feature","properties":{"code":"34329","nom":"Vendres"},"geometry":{"type":"Polygon","coordinates":[[[3.24,43.213],[3.193,43.25],[3.191,43.299],[3.231,43.297],[3.231,43.282],[3.26,43.261],[3.269,43.236],[3.271,43.234],[3.24,43.213]]]}},{"type":"Feature","properties":{"code":"34331","nom":"Verreries-de-Moussans"},"geometry":{"type":"Polygon","coordinates":[[[2.645,43.458],[2.668,43.47],[2.709,43.458],[2.72,43.445],[2.684,43.43],[2.666,43.432],[2.645,43.458]]]}},{"type":"Feature","properties":{"code":"34332","nom":"Vias"},"geometry":{"type":"Polygon","coordinates":[[[3.365,43.277],[3.373,43.311],[3.346,43.332],[3.389,43.34],[3.439,43.328],[3.429,43.29],[3.365,43.277]]]}},{"type":"Feature","properties":{"code":"34333","nom":"Vic-la-Gardiole"},"geometry":{"type":"Polygon","coordinates":[[[3.749,43.484],[3.754,43.494],[3.781,43.507],[3.807,43.499],[3.832,43.507],[3.859,43.494],[3.83,43.471],[3.83,43.47],[3.826,43.467],[3.79,43.458],[3.749,43.484]]]}},{"type":"Feature","properties":{"code":"34334","nom":"Vieussan"},"geometry":{"type":"Polygon","coordinates":[[[3.021,43.556],[3.057,43.55],[3.045,43.541],[3.004,43.517],[2.982,43.528],[2.938,43.527],[2.949,43.537],[2.972,43.556],[3.021,43.556]]]}},{"type":"Feature","properties":{"code":"34335","nom":"Villemagne-l'Argentière"},"geometry":{"type":"Polygon","coordinates":[[[3.106,43.614],[3.104,43.62],[3.101,43.644],[3.137,43.63],[3.141,43.615],[3.122,43.594],[3.106,43.614]]]}},{"type":"Feature","properties":{"code":"34336","nom":"Villeneuve-lès-Béziers"},"geometry":{"type":"Polygon","coordinates":[[[3.318,43.296],[3.276,43.301],[3.252,43.313],[3.263,43.329],[3.306,43.343],[3.302,43.318],[3.329,43.317],[3.318,43.296]]]}},{"type":"Feature","properties":{"code":"34337","nom":"Villeneuve-lès-Maguelone"},"geometry":{"type":"MultiPolygon","coordinates":[[[[3.9,43.54],[3.907,43.517],[3.83,43.471],[3.859,43.494],[3.832,43.507],[3.81,43.532],[3.824,43.552],[3.848,43.553],[3.9,43.54]]],[[[3.826,43.467],[3.826,43.467],[3.83,43.47],[3.826,43.467]]]]}},{"type":"Feature","properties":{"code":"34338","nom":"Villeneuvette"},"geometry":{"type":"Polygon","coordinates":[[[3.387,43.607],[3.376,43.604],[3.383,43.611],[3.419,43.615],[3.407,43.603],[3.387,43.607]]]}},{"type":"Feature","properties":{"code":"34339","nom":"Villespassans"},"geometry":{"type":"Polygon","coordinates":[[[2.89,43.357],[2.87,43.381],[2.909,43.396],[2.958,43.404],[2.957,43.394],[2.89,43.357]]]}},{"type":"Feature","properties":{"code":"34340","nom":"Villetelle"},"geometry":{"type":"Polygon","coordinates":[[[4.132,43.709],[4.127,43.731],[4.122,43.737],[4.145,43.732],[4.154,43.715],[4.132,43.709]]]}},{"type":"Feature","properties":{"code":"34341","nom":"Villeveyrac"},"geometry":{"type":"Polygon","coordinates":[[[3.606,43.53],[3.623,43.528],[3.638,43.51],[3.626,43.487],[3.594,43.459],[3.568,43.475],[3.548,43.494],[3.551,43.503],[3.58,43.529],[3.606,43.53]]]}},{"type":"Feature","properties":{"code":"34342","nom":"Viols-en-Laval"},"geometry":{"type":"Polygon","coordinates":[[[3.74,43.722],[3.719,43.738],[3.706,43.759],[3.746,43.765],[3.748,43.757],[3.774,43.745],[3.77,43.731],[3.74,43.722]]]}},{"type":"Feature","properties":{"code":"34343","nom":"Viols-le-Fort"},"geometry":{"type":"Polygon","coordinates":[[[3.683,43.763],[3.706,43.759],[3.719,43.738],[3.703,43.722],[3.676,43.733],[3.683,43.763]]]}},{"type":"Feature","properties":{"code":"34344","nom":"La Grande-Motte"},"geometry":{"type":"Polygon","coordinates":[[[4.075,43.589],[4.109,43.569],[4.101,43.555],[4.037,43.556],[4.075,43.589]]]}}]}