{"type":"FeatureCollection","features":[{"type":"Feature","properties":{"code":"37001","nom":"Abilly","pop":1116},"geometry":{"type":"Polygon","coordinates":[[[0.704,46.909],[0.703,46.926],[0.696,46.959],[0.695,46.962],[0.752,46.97],[0.786,46.944],[0.76,46.914],[0.724,46.906],[0.704,46.909]]]}},{"type":"Feature","properties":{"code":"37002","nom":"Ambillou","pop":1746},"geometry":{"type":"Polygon","coordinates":[[[0.5,47.429],[0.492,47.423],[0.463,47.412],[0.416,47.414],[0.397,47.434],[0.412,47.488],[0.407,47.494],[0.436,47.493],[0.505,47.472],[0.483,47.447],[0.5,47.429]]]}},{"type":"Feature","properties":{"code":"37003","nom":"Amboise","pop":12937},"geometry":{"type":"Polygon","coordinates":[[[0.954,47.37],[0.943,47.379],[0.934,47.404],[0.98,47.423],[1.011,47.429],[1.03,47.417],[1.055,47.398],[1.059,47.373],[1.025,47.364],[0.985,47.366],[0.954,47.37]]]}},{"type":"Feature","properties":{"code":"37004","nom":"Anché","pop":426},"geometry":{"type":"Polygon","coordinates":[[[0.305,47.114],[0.291,47.136],[0.29,47.145],[0.332,47.141],[0.318,47.121],[0.305,47.114]]]}},{"type":"Feature","properties":{"code":"37005","nom":"Antogny-le-Tillac","pop":485},"geometry":{"type":"Polygon","coordinates":[[[0.574,46.983],[0.602,46.959],[0.554,46.958],[0.505,46.96],[0.516,46.976],[0.574,46.983]]]}},{"type":"Feature","properties":{"code":"37006","nom":"Artannes-sur-Indre","pop":2795},"geometry":{"type":"Polygon","coordinates":[[[0.615,47.305],[0.604,47.279],[0.638,47.249],[0.616,47.242],[0.587,47.255],[0.573,47.277],[0.546,47.278],[0.579,47.306],[0.61,47.305],[0.615,47.305]]]}},{"type":"Feature","properties":{"code":"37007","nom":"Assay","pop":177},"geometry":{"type":"Polygon","coordinates":[[[0.235,47.069],[0.244,47.086],[0.304,47.078],[0.305,47.074],[0.298,47.054],[0.264,47.046],[0.268,47.068],[0.235,47.069]]]}},{"type":"Feature","properties":{"code":"37008","nom":"Athée-sur-Cher","pop":2855},"geometry":{"type":"Polygon","coordinates":[[[0.942,47.294],[0.924,47.282],[0.889,47.292],[0.846,47.309],[0.869,47.32],[0.88,47.348],[0.931,47.338],[0.947,47.334],[0.942,47.294]]]}},{"type":"Feature","properties":{"code":"37009","nom":"Autrèche","pop":419},"geometry":{"type":"Polygon","coordinates":[[[0.966,47.514],[0.965,47.528],[0.988,47.546],[1.025,47.536],[1.036,47.528],[1.037,47.508],[0.999,47.496],[0.966,47.514]]]}},{"type":"Feature","properties":{"code":"37010","nom":"Auzouer-en-Touraine","pop":2159},"geometry":{"type":"Polygon","coordinates":[[[0.965,47.528],[0.915,47.525],[0.889,47.552],[0.9,47.582],[0.925,47.59],[0.936,47.576],[0.976,47.567],[0.988,47.546],[0.965,47.528]]]}},{"type":"Feature","properties":{"code":"37011","nom":"Avoine","pop":2067},"geometry":{"type":"Polygon","coordinates":[[[0.221,47.219],[0.179,47.208],[0.163,47.217],[0.153,47.237],[0.161,47.237],[0.22,47.239],[0.221,47.219]]]}},{"type":"Feature","properties":{"code":"37012","nom":"Avon-les-Roches","pop":534},"geometry":{"type":"Polygon","coordinates":[[[0.497,47.199],[0.496,47.197],[0.474,47.146],[0.437,47.137],[0.428,47.194],[0.437,47.215],[0.477,47.228],[0.497,47.199]]]}},{"type":"Feature","properties":{"code":"37013","nom":"Avrillé-les-Ponceaux","pop":479},"geometry":{"type":"Polygon","coordinates":[[[0.368,47.408],[0.373,47.393],[0.344,47.383],[0.313,47.387],[0.289,47.351],[0.252,47.379],[0.247,47.399],[0.27,47.396],[0.33,47.414],[0.351,47.418],[0.368,47.408]]]}},{"type":"Feature","properties":{"code":"37014","nom":"Azay-le-Rideau","pop":3438},"geometry":{"type":"Polygon","coordinates":[[[0.446,47.293],[0.492,47.285],[0.527,47.272],[0.498,47.255],[0.393,47.275],[0.386,47.282],[0.446,47.293]]]}},{"type":"Feature","properties":{"code":"37015","nom":"Azay-sur-Cher","pop":3243},"geometry":{"type":"Polygon","coordinates":[[[0.8,47.327],[0.847,47.364],[0.862,47.361],[0.88,47.348],[0.869,47.32],[0.846,47.309],[0.827,47.31],[0.8,47.327]]]}},{"type":"Feature","properties":{"code":"37016","nom":"Azay-sur-Indre","pop":363},"geometry":{"type":"Polygon","coordinates":[[[0.907,47.193],[0.926,47.216],[0.965,47.221],[0.972,47.2],[0.916,47.187],[0.907,47.193]]]}},{"type":"Feature","properties":{"code":"37018","nom":"Ballan-Miré","pop":8477},"geometry":{"type":"Polygon","coordinates":[[[0.61,47.305],[0.579,47.306],[0.556,47.322],[0.594,47.353],[0.59,47.365],[0.61,47.368],[0.641,47.373],[0.622,47.345],[0.61,47.305]]]}},{"type":"Feature","properties":{"code":"37019","nom":"Barrou","pop":478},"geometry":{"type":"Polygon","coordinates":[[[0.766,46.856],[0.744,46.872],[0.724,46.906],[0.76,46.914],[0.814,46.889],[0.825,46.865],[0.797,46.847],[0.766,46.856]]]}},{"type":"Feature","properties":{"code":"37020","nom":"Beaulieu-lès-Loches","pop":1733},"geometry":{"type":"Polygon","coordinates":[[[1.038,47.126],[1.013,47.116],[1.016,47.139],[1.038,47.126]]]}},{"type":"Feature","properties":{"code":"37021","nom":"Beaumont-Louestault","pop":1813},"geometry":{"type":"Polygon","coordinates":[[[0.639,47.626],[0.661,47.625],[0.692,47.604],[0.729,47.6],[0.713,47.56],[0.688,47.535],[0.653,47.553],[0.614,47.55],[0.604,47.566],[0.638,47.588],[0.625,47.615],[0.639,47.626]]]}},{"type":"Feature","properties":{"code":"37022","nom":"Beaumont-en-Véron","pop":2717},"geometry":{"type":"Polygon","coordinates":[[[0.163,47.217],[0.179,47.208],[0.221,47.219],[0.22,47.208],[0.221,47.187],[0.19,47.173],[0.167,47.176],[0.158,47.179],[0.139,47.182],[0.159,47.195],[0.163,47.217]]]}},{"type":"Feature","properties":{"code":"37023","nom":"Beaumont-Village","pop":239},"geometry":{"type":"Polygon","coordinates":[[[1.192,47.155],[1.169,47.187],[1.186,47.215],[1.244,47.175],[1.212,47.149],[1.192,47.155]]]}},{"type":"Feature","properties":{"code":"37024","nom":"Benais","pop":945},"geometry":{"type":"Polygon","coordinates":[[[0.253,47.328],[0.227,47.288],[0.195,47.289],[0.195,47.348],[0.253,47.328]]]}},{"type":"Feature","properties":{"code":"37025","nom":"Berthenay","pop":707},"geometry":{"type":"Polygon","coordinates":[[[0.495,47.359],[0.522,47.367],[0.564,47.374],[0.566,47.365],[0.521,47.354],[0.48,47.344],[0.495,47.359]]]}},{"type":"Feature","properties":{"code":"37026","nom":"Betz-le-Château","pop":499},"geometry":{"type":"Polygon","coordinates":[[[0.922,47.029],[0.977,47.032],[1.022,46.999],[0.994,46.974],[0.955,46.971],[0.889,46.971],[0.905,46.99],[0.905,47.016],[0.922,47.029]]]}},{"type":"Feature","properties":{"code":"37027","nom":"Bléré","pop":5352},"geometry":{"type":"Polygon","coordinates":[[[0.947,47.334],[0.961,47.331],[1.004,47.329],[1.028,47.328],[1.033,47.292],[1.012,47.268],[1.008,47.282],[0.963,47.289],[0.942,47.294],[0.947,47.334]]]}},{"type":"Feature","properties":{"code":"37028","nom":"Bossay-sur-Claise","pop":733},"geometry":{"type":"Polygon","coordinates":[[[0.917,46.816],[0.939,46.821],[0.935,46.854],[0.952,46.877],[1.025,46.88],[1.025,46.88],[1.023,46.846],[0.987,46.798],[1.01,46.769],[1.012,46.758],[0.98,46.756],[0.945,46.791],[0.917,46.816]]]}},{"type":"Feature","properties":{"code":"37029","nom":"Bossée","pop":327},"geometry":{"type":"Polygon","coordinates":[[[0.704,47.124],[0.714,47.131],[0.757,47.13],[0.765,47.116],[0.751,47.097],[0.713,47.081],[0.704,47.124]]]}},{"type":"Feature","properties":{"code":"37030","nom":"Le Boulay","pop":810},"geometry":{"type":"Polygon","coordinates":[[[0.853,47.613],[0.861,47.599],[0.899,47.604],[0.904,47.596],[0.891,47.586],[0.83,47.579],[0.821,47.568],[0.8,47.596],[0.821,47.613],[0.853,47.613]]]}},{"type":"Feature","properties":{"code":"37031","nom":"Bourgueil","pop":3631},"geometry":{"type":"Polygon","coordinates":[[[0.2,47.259],[0.164,47.256],[0.156,47.278],[0.165,47.32],[0.147,47.346],[0.14,47.362],[0.154,47.364],[0.196,47.349],[0.195,47.348],[0.195,47.289],[0.2,47.259]]]}},{"type":"Feature","properties":{"code":"37032","nom":"Bournan","pop":277},"geometry":{"type":"Polygon","coordinates":[[[0.748,47.049],[0.698,47.05],[0.713,47.081],[0.751,47.097],[0.755,47.054],[0.748,47.049]]]}},{"type":"Feature","properties":{"code":"37033","nom":"Boussay","pop":237},"geometry":{"type":"Polygon","coordinates":[[[0.923,46.883],[0.927,46.847],[0.908,46.833],[0.914,46.816],[0.885,46.826],[0.842,46.823],[0.853,46.851],[0.872,46.857],[0.885,46.883],[0.923,46.883]]]}},{"type":"Feature","properties":{"code":"37034","nom":"Braslou","pop":319},"geometry":{"type":"Polygon","coordinates":[[[0.37,47.002],[0.382,47.013],[0.429,47.018],[0.456,46.989],[0.439,46.982],[0.366,46.991],[0.37,47.002]]]}},{"type":"Feature","properties":{"code":"37035","nom":"Braye-sous-Faye","pop":281},"geometry":{"type":"Polygon","coordinates":[[[0.291,46.99],[0.308,47],[0.323,46.997],[0.37,47.002],[0.366,46.991],[0.351,46.978],[0.33,46.96],[0.302,46.955],[0.298,46.971],[0.291,46.99]]]}},{"type":"Feature","properties":{"code":"37036","nom":"Braye-sur-Maulne","pop":199},"geometry":{"type":"Polygon","coordinates":[[[0.289,47.547],[0.257,47.54],[0.235,47.563],[0.238,47.577],[0.288,47.561],[0.289,47.547]]]}},{"type":"Feature","properties":{"code":"37037","nom":"Brèches","pop":239},"geometry":{"type":"Polygon","coordinates":[[[0.438,47.552],[0.437,47.551],[0.402,47.547],[0.378,47.568],[0.402,47.578],[0.438,47.552]]]}},{"type":"Feature","properties":{"code":"37038","nom":"Bréhémont","pop":737},"geometry":{"type":"Polygon","coordinates":[[[0.393,47.275],[0.39,47.274],[0.359,47.285],[0.327,47.263],[0.315,47.274],[0.368,47.302],[0.392,47.314],[0.403,47.303],[0.386,47.282],[0.393,47.275]]]}},{"type":"Feature","properties":{"code":"37039","nom":"Bridoré","pop":491},"geometry":{"type":"Polygon","coordinates":[[[1.11,47.029],[1.078,47.016],[1.05,47.024],[1.058,47.049],[1.084,47.063],[1.11,47.029]]]}},{"type":"Feature","properties":{"code":"37040","nom":"Brizay","pop":256},"geometry":{"type":"Polygon","coordinates":[[[0.412,47.117],[0.419,47.114],[0.403,47.087],[0.375,47.074],[0.359,47.108],[0.412,47.117]]]}},{"type":"Feature","properties":{"code":"37041","nom":"Bueil-en-Touraine","pop":323},"geometry":{"type":"Polygon","coordinates":[[[0.586,47.647],[0.532,47.599],[0.525,47.605],[0.522,47.628],[0.563,47.657],[0.586,47.647]]]}},{"type":"Feature","properties":{"code":"37042","nom":"Candes-Saint-Martin","pop":180},"geometry":{"type":"Polygon","coordinates":[[[0.067,47.19],[0.054,47.199],[0.075,47.214],[0.095,47.206],[0.094,47.201],[0.067,47.19]]]}},{"type":"Feature","properties":{"code":"37043","nom":"Cangey","pop":1021},"geometry":{"type":"Polygon","coordinates":[[[1.036,47.528],[1.045,47.532],[1.07,47.522],[1.082,47.488],[1.093,47.471],[1.087,47.462],[1.064,47.448],[1.036,47.49],[1.037,47.508],[1.036,47.528]]]}},{"type":"Feature","properties":{"code":"37044","nom":"La Celle-Guenand","pop":379},"geometry":{"type":"Polygon","coordinates":[[[0.95,46.945],[0.903,46.933],[0.864,46.913],[0.847,46.95],[0.861,46.966],[0.889,46.971],[0.955,46.971],[0.972,46.966],[0.95,46.945]]]}},{"type":"Feature","properties":{"code":"37045","nom":"La Celle-Saint-Avant","pop":1079},"geometry":{"type":"Polygon","coordinates":[[[0.622,46.999],[0.591,47.007],[0.572,47.025],[0.612,47.047],[0.636,47.038],[0.659,47.01],[0.622,46.999]]]}},{"type":"Feature","properties":{"code":"37046","nom":"Céré-la-Ronde","pop":418},"geometry":{"type":"Polygon","coordinates":[[[1.162,47.272],[1.174,47.289],[1.216,47.293],[1.224,47.294],[1.244,47.284],[1.243,47.278],[1.242,47.276],[1.183,47.219],[1.144,47.22],[1.112,47.253],[1.162,47.272]]]}},{"type":"Feature","properties":{"code":"37047","nom":"Cerelles","pop":1252},"geometry":{"type":"Polygon","coordinates":[[[0.663,47.482],[0.654,47.503],[0.686,47.527],[0.72,47.5],[0.663,47.482]]]}},{"type":"Feature","properties":{"code":"37048","nom":"Chambon","pop":311},"geometry":{"type":"Polygon","coordinates":[[[0.842,46.823],[0.81,46.816],[0.797,46.847],[0.825,46.865],[0.853,46.851],[0.842,46.823]]]}},{"type":"Feature","properties":{"code":"37049","nom":"Chambourg-sur-Indre","pop":1265},"geometry":{"type":"Polygon","coordinates":[[[0.972,47.2],[1.003,47.184],[1.016,47.178],[1.012,47.161],[0.99,47.149],[0.927,47.158],[0.916,47.187],[0.972,47.2]]]}},{"type":"Feature","properties":{"code":"37050","nom":"Chambray-lès-Tours","pop":12720},"geometry":{"type":"Polygon","coordinates":[[[0.764,47.339],[0.766,47.331],[0.751,47.319],[0.691,47.313],[0.677,47.341],[0.699,47.354],[0.704,47.349],[0.764,47.339]]]}},{"type":"Feature","properties":{"code":"37051","nom":"Champigny-sur-Veude","pop":809},"geometry":{"type":"Polygon","coordinates":[[[0.329,47.031],[0.31,47.028],[0.298,47.054],[0.305,47.074],[0.347,47.08],[0.359,47.066],[0.364,47.059],[0.333,47.046],[0.329,47.031]]]}},{"type":"Feature","properties":{"code":"37052","nom":"Chançay","pop":1122},"geometry":{"type":"Polygon","coordinates":[[[0.846,47.466],[0.901,47.462],[0.919,47.454],[0.917,47.442],[0.87,47.428],[0.846,47.466]]]}},{"type":"Feature","properties":{"code":"37053","nom":"Chanceaux-près-Loches","pop":109},"geometry":{"type":"Polygon","coordinates":[[[0.933,47.123],[0.904,47.134],[0.927,47.158],[0.99,47.149],[0.933,47.123]]]}},{"type":"Feature","properties":{"code":"37054","nom":"Chanceaux-sur-Choisille","pop":3499},"geometry":{"type":"Polygon","coordinates":[[[0.742,47.48],[0.733,47.471],[0.706,47.47],[0.686,47.452],[0.663,47.482],[0.663,47.482],[0.72,47.5],[0.734,47.497],[0.742,47.48]]]}},{"type":"Feature","properties":{"code":"37055","nom":"Channay-sur-Lathan","pop":803},"geometry":{"type":"Polygon","coordinates":[[[0.22,47.502],[0.255,47.49],[0.277,47.505],[0.297,47.487],[0.293,47.465],[0.292,47.455],[0.269,47.453],[0.199,47.477],[0.22,47.502]]]}},{"type":"Feature","properties":{"code":"37056","nom":"La Chapelle-aux-Naux","pop":562},"geometry":{"type":"Polygon","coordinates":[[[0.445,47.318],[0.437,47.311],[0.403,47.303],[0.392,47.314],[0.442,47.323],[0.445,47.318]]]}},{"type":"Feature","properties":{"code":"37057","nom":"La Chapelle-Blanche-Saint-Martin","pop":688},"geometry":{"type":"Polygon","coordinates":[[[0.765,47.116],[0.79,47.117],[0.811,47.103],[0.83,47.069],[0.755,47.054],[0.751,47.097],[0.765,47.116]]]}},{"type":"Feature","properties":{"code":"37058","nom":"La Chapelle-sur-Loire","pop":1468},"geometry":{"type":"Polygon","coordinates":[[[0.164,47.256],[0.2,47.259],[0.267,47.27],[0.281,47.262],[0.272,47.262],[0.22,47.239],[0.161,47.237],[0.164,47.256]]]}},{"type":"Feature","properties":{"code":"37059","nom":"Charentilly","pop":1365},"geometry":{"type":"Polygon","coordinates":[[[0.582,47.448],[0.568,47.465],[0.582,47.486],[0.606,47.492],[0.627,47.465],[0.622,47.463],[0.604,47.447],[0.582,47.448]]]}},{"type":"Feature","properties":{"code":"37060","nom":"Chargé","pop":1359},"geometry":{"type":"Polygon","coordinates":[[[1.051,47.421],[1.03,47.417],[1.011,47.429],[1.013,47.43],[1.064,47.448],[1.073,47.436],[1.051,47.421]]]}},{"type":"Feature","properties":{"code":"37061","nom":"Charnizay","pop":461},"geometry":{"type":"Polygon","coordinates":[[[0.94,46.884],[0.955,46.908],[0.95,46.945],[0.972,46.966],[0.987,46.955],[1.037,46.942],[1.025,46.88],[0.952,46.877],[0.94,46.884]]]}},{"type":"Feature","properties":{"code":"37062","nom":"Château-la-Vallière","pop":1734},"geometry":{"type":"Polygon","coordinates":[[[0.362,47.525],[0.36,47.506],[0.28,47.506],[0.315,47.515],[0.294,47.538],[0.302,47.547],[0.318,47.559],[0.362,47.525]]]}},{"type":"Feature","properties":{"code":"37063","nom":"Château-Renault","pop":4392},"geometry":{"type":"Polygon","coordinates":[[[0.923,47.604],[0.925,47.59],[0.9,47.582],[0.891,47.586],[0.904,47.596],[0.923,47.604]]]}},{"type":"Feature","properties":{"code":"37064","nom":"Chaumussay","pop":199},"geometry":{"type":"Polygon","coordinates":[[[0.853,46.851],[0.825,46.865],[0.814,46.889],[0.867,46.896],[0.885,46.883],[0.872,46.857],[0.853,46.851]]]}},{"type":"Feature","properties":{"code":"37065","nom":"Chaveignes","pop":581},"geometry":{"type":"Polygon","coordinates":[[[0.382,47.013],[0.37,47.002],[0.323,46.997],[0.329,47.031],[0.333,47.046],[0.364,47.059],[0.375,47.05],[0.365,47.026],[0.382,47.013]]]}},{"type":"Feature","properties":{"code":"37066","nom":"Chédigny","pop":566},"geometry":{"type":"Polygon","coordinates":[[[1.011,47.246],[1.003,47.184],[0.972,47.2],[0.965,47.221],[0.958,47.242],[0.986,47.251],[1.011,47.246]]]}},{"type":"Feature","properties":{"code":"37067","nom":"Cheillé","pop":1907},"geometry":{"type":"Polygon","coordinates":[[[0.397,47.202],[0.382,47.214],[0.37,47.248],[0.39,47.274],[0.393,47.275],[0.498,47.255],[0.49,47.245],[0.477,47.228],[0.437,47.215],[0.397,47.202]]]}},{"type":"Feature","properties":{"code":"37068","nom":"Chemillé-sur-Dême","pop":707},"geometry":{"type":"Polygon","coordinates":[[[0.612,47.657],[0.654,47.685],[0.675,47.699],[0.712,47.682],[0.699,47.669],[0.73,47.655],[0.69,47.645],[0.661,47.625],[0.639,47.626],[0.621,47.631],[0.612,47.657]]]}},{"type":"Feature","properties":{"code":"37069","nom":"Chemillé-sur-Indrois","pop":227},"geometry":{"type":"Polygon","coordinates":[[[1.169,47.187],[1.192,47.155],[1.199,47.148],[1.175,47.132],[1.146,47.127],[1.111,47.139],[1.147,47.181],[1.169,47.187]]]}},{"type":"Feature","properties":{"code":"37070","nom":"Chenonceaux","pop":334},"geometry":{"type":"Polygon","coordinates":[[[1.078,47.364],[1.081,47.364],[1.079,47.326],[1.06,47.323],[1.058,47.339],[1.078,47.364]]]}},{"type":"Feature","properties":{"code":"37071","nom":"Chezelles","pop":130},"geometry":{"type":"Polygon","coordinates":[[[0.476,47.066],[0.475,47.058],[0.434,47.041],[0.426,47.044],[0.41,47.063],[0.42,47.082],[0.45,47.084],[0.476,47.066]]]}},{"type":"Feature","properties":{"code":"37072","nom":"Chinon","pop":8144},"geometry":{"type":"Polygon","coordinates":[[[0.242,47.132],[0.209,47.143],[0.191,47.167],[0.19,47.173],[0.221,47.187],[0.22,47.208],[0.277,47.201],[0.298,47.175],[0.283,47.147],[0.257,47.154],[0.242,47.132]]]}},{"type":"Feature","properties":{"code":"37073","nom":"Chisseaux","pop":610},"geometry":{"type":"Polygon","coordinates":[[[1.106,47.331],[1.095,47.329],[1.079,47.326],[1.081,47.364],[1.107,47.373],[1.123,47.354],[1.106,47.331]]]}},{"type":"Feature","properties":{"code":"37074","nom":"Chouzé-sur-Loire","pop":2132},"geometry":{"type":"Polygon","coordinates":[[[0.161,47.237],[0.153,47.237],[0.075,47.214],[0.072,47.22],[0.08,47.272],[0.089,47.275],[0.164,47.256],[0.161,47.237]]]}},{"type":"Feature","properties":{"code":"37075","nom":"Cigogné","pop":460},"geometry":{"type":"Polygon","coordinates":[[[0.924,47.282],[0.942,47.294],[0.963,47.289],[0.986,47.251],[0.958,47.242],[0.91,47.25],[0.924,47.282]]]}},{"type":"Feature","properties":{"code":"37076","nom":"Cinais","pop":372},"geometry":{"type":"Polygon","coordinates":[[[0.193,47.144],[0.153,47.155],[0.167,47.176],[0.19,47.173],[0.191,47.167],[0.193,47.144]]]}},{"type":"Feature","properties":{"code":"37077","nom":"Cinq-Mars-la-Pile","pop":4015},"geometry":{"type":"Polygon","coordinates":[[[0.442,47.323],[0.418,47.368],[0.488,47.371],[0.495,47.359],[0.48,47.344],[0.442,47.323]]]}},{"type":"Feature","properties":{"code":"37078","nom":"Ciran","pop":425},"geometry":{"type":"Polygon","coordinates":[[[0.887,47.071],[0.903,47.048],[0.873,47.024],[0.867,47.026],[0.847,47.064],[0.875,47.077],[0.887,47.071]]]}},{"type":"Feature","properties":{"code":"37079","nom":"Civray-de-Touraine","pop":1819},"geometry":{"type":"Polygon","coordinates":[[[1.059,47.373],[1.078,47.364],[1.058,47.339],[1.06,47.323],[1.05,47.306],[1.033,47.292],[1.028,47.328],[1.004,47.329],[1.025,47.364],[1.059,47.373]]]}},{"type":"Feature","properties":{"code":"37080","nom":"Civray-sur-Esves","pop":212},"geometry":{"type":"Polygon","coordinates":[[[0.698,47.05],[0.748,47.049],[0.748,47.046],[0.718,47.018],[0.683,47.029],[0.677,47.043],[0.698,47.05]]]}},{"type":"Feature","properties":{"code":"37081","nom":"Cléré-les-Pins","pop":1429},"geometry":{"type":"Polygon","coordinates":[[[0.416,47.414],[0.368,47.408],[0.351,47.418],[0.349,47.47],[0.398,47.488],[0.407,47.494],[0.412,47.488],[0.397,47.434],[0.416,47.414]]]}},{"type":"Feature","properties":{"code":"37082","nom":"Continvoir","pop":469},"geometry":{"type":"Polygon","coordinates":[[[0.196,47.349],[0.199,47.381],[0.214,47.39],[0.205,47.425],[0.231,47.425],[0.247,47.399],[0.252,47.379],[0.289,47.351],[0.284,47.344],[0.282,47.331],[0.253,47.328],[0.195,47.348],[0.196,47.349]]]}},{"type":"Feature","properties":{"code":"37083","nom":"Cormery","pop":1905},"geometry":{"type":"Polygon","coordinates":[[[0.863,47.264],[0.857,47.242],[0.835,47.262],[0.819,47.26],[0.818,47.275],[0.863,47.264]]]}},{"type":"Feature","properties":{"code":"37084","nom":"Couesmes","pop":543},"geometry":{"type":"Polygon","coordinates":[[[0.339,47.58],[0.378,47.568],[0.402,47.547],[0.362,47.525],[0.318,47.559],[0.339,47.58]]]}},{"type":"Feature","properties":{"code":"37085","nom":"Courçay","pop":792},"geometry":{"type":"Polygon","coordinates":[[[0.889,47.292],[0.924,47.282],[0.91,47.25],[0.867,47.211],[0.857,47.242],[0.863,47.264],[0.889,47.292]]]}},{"type":"Feature","properties":{"code":"37086","nom":"Courcelles-de-Touraine","pop":483},"geometry":{"type":"Polygon","coordinates":[[[0.277,47.505],[0.28,47.506],[0.36,47.506],[0.398,47.488],[0.349,47.47],[0.328,47.476],[0.293,47.465],[0.297,47.487],[0.277,47.505]]]}},{"type":"Feature","properties":{"code":"37087","nom":"Courcoué","pop":235},"geometry":{"type":"Polygon","coordinates":[[[0.426,47.044],[0.434,47.041],[0.433,47.029],[0.429,47.018],[0.382,47.013],[0.365,47.026],[0.375,47.05],[0.426,47.044]]]}},{"type":"Feature","properties":{"code":"37088","nom":"Couziers","pop":121},"geometry":{"type":"Polygon","coordinates":[[[0.078,47.146],[0.054,47.164],[0.067,47.19],[0.094,47.201],[0.08,47.182],[0.102,47.162],[0.078,47.146]]]}},{"type":"Feature","properties":{"code":"37089","nom":"Cravant-les-Côteaux","pop":699},"geometry":{"type":"Polygon","coordinates":[[[0.29,47.145],[0.283,47.147],[0.298,47.175],[0.315,47.195],[0.365,47.204],[0.394,47.201],[0.366,47.136],[0.332,47.141],[0.29,47.145]]]}},{"type":"Feature","properties":{"code":"37090","nom":"Crissay-sur-Manse","pop":107},"geometry":{"type":"Polygon","coordinates":[[[0.505,47.145],[0.474,47.146],[0.496,47.197],[0.494,47.169],[0.512,47.163],[0.505,47.145]]]}},{"type":"Feature","properties":{"code":"37091","nom":"La Croix-en-Touraine","pop":2543},"geometry":{"type":"Polygon","coordinates":[[[0.985,47.366],[1.025,47.364],[1.004,47.329],[0.961,47.331],[0.985,47.366]]]}},{"type":"Feature","properties":{"code":"37092","nom":"Crotelles","pop":649},"geometry":{"type":"Polygon","coordinates":[[[0.833,47.514],[0.816,47.516],[0.799,47.546],[0.806,47.56],[0.821,47.568],[0.843,47.551],[0.847,47.517],[0.833,47.514]]]}},{"type":"Feature","properties":{"code":"37093","nom":"Crouzilles","pop":528},"geometry":{"type":"Polygon","coordinates":[[[0.474,47.146],[0.505,47.145],[0.497,47.134],[0.487,47.115],[0.445,47.12],[0.435,47.119],[0.432,47.134],[0.437,47.137],[0.474,47.146]]]}},{"type":"Feature","properties":{"code":"37094","nom":"Cussay","pop":571},"geometry":{"type":"Polygon","coordinates":[[[0.787,47],[0.753,46.992],[0.718,47.018],[0.748,47.046],[0.811,47.025],[0.819,47.01],[0.787,47]]]}},{"type":"Feature","properties":{"code":"37095","nom":"Dame-Marie-les-Bois","pop":343},"geometry":{"type":"Polygon","coordinates":[[[1.045,47.532],[1.036,47.528],[1.025,47.536],[1.036,47.558],[1.064,47.566],[1.077,47.572],[1.047,47.537],[1.045,47.532]]]}},{"type":"Feature","properties":{"code":"37096","nom":"Dierre","pop":645},"geometry":{"type":"Polygon","coordinates":[[[0.961,47.331],[0.947,47.334],[0.931,47.338],[0.954,47.37],[0.985,47.366],[0.961,47.331]]]}},{"type":"Feature","properties":{"code":"37097","nom":"Dolus-le-Sec","pop":651},"geometry":{"type":"Polygon","coordinates":[[[0.904,47.134],[0.883,47.127],[0.853,47.165],[0.879,47.194],[0.907,47.193],[0.916,47.187],[0.927,47.158],[0.904,47.134]]]}},{"type":"Feature","properties":{"code":"37098","nom":"Draché","pop":698},"geometry":{"type":"Polygon","coordinates":[[[0.612,47.047],[0.604,47.074],[0.657,47.096],[0.654,47.05],[0.636,47.038],[0.612,47.047]]]}},{"type":"Feature","properties":{"code":"37099","nom":"Druye","pop":1024},"geometry":{"type":"Polygon","coordinates":[[[0.539,47.275],[0.527,47.272],[0.492,47.285],[0.508,47.31],[0.538,47.323],[0.556,47.322],[0.579,47.306],[0.546,47.278],[0.539,47.275]]]}},{"type":"Feature","properties":{"code":"37100","nom":"Épeigné-les-Bois","pop":401},"geometry":{"type":"Polygon","coordinates":[[[1.108,47.299],[1.133,47.294],[1.162,47.272],[1.112,47.253],[1.095,47.289],[1.108,47.299]]]}},{"type":"Feature","properties":{"code":"37101","nom":"Épeigné-sur-Dême","pop":162},"geometry":{"type":"Polygon","coordinates":[[[0.654,47.685],[0.612,47.657],[0.586,47.647],[0.563,47.657],[0.559,47.666],[0.558,47.671],[0.597,47.673],[0.615,47.694],[0.654,47.685]]]}},{"type":"Feature","properties":{"code":"37103","nom":"Esves-le-Moutier","pop":159},"geometry":{"type":"Polygon","coordinates":[[[0.873,47.024],[0.903,47.048],[0.919,47.051],[0.922,47.029],[0.905,47.016],[0.873,47.024]]]}},{"type":"Feature","properties":{"code":"37104","nom":"Esvres","pop":6294},"geometry":{"type":"Polygon","coordinates":[[[0.792,47.327],[0.8,47.327],[0.827,47.31],[0.818,47.275],[0.819,47.26],[0.769,47.262],[0.751,47.289],[0.751,47.319],[0.766,47.331],[0.792,47.327]]]}},{"type":"Feature","properties":{"code":"37105","nom":"Faye-la-Vineuse","pop":272},"geometry":{"type":"Polygon","coordinates":[[[0.348,46.937],[0.325,46.931],[0.302,46.955],[0.33,46.96],[0.351,46.978],[0.387,46.952],[0.388,46.944],[0.348,46.937]]]}},{"type":"Feature","properties":{"code":"37106","nom":"La Ferrière","pop":306},"geometry":{"type":"Polygon","coordinates":[[[0.738,47.644],[0.774,47.639],[0.784,47.61],[0.77,47.597],[0.737,47.61],[0.738,47.644]]]}},{"type":"Feature","properties":{"code":"37107","nom":"Ferrière-Larçon","pop":242},"geometry":{"type":"Polygon","coordinates":[[[0.842,47.016],[0.867,47.026],[0.873,47.024],[0.905,47.016],[0.905,46.99],[0.889,46.971],[0.861,46.966],[0.847,46.983],[0.842,47.016]]]}},{"type":"Feature","properties":{"code":"37108","nom":"Ferrière-sur-Beaulieu","pop":703},"geometry":{"type":"Polygon","coordinates":[[[1.095,47.134],[1.067,47.123],[1.038,47.126],[1.016,47.139],[1.012,47.161],[1.016,47.178],[1.036,47.168],[1.095,47.134]]]}},{"type":"Feature","properties":{"code":"37109","nom":"Fondettes","pop":10954},"geometry":{"type":"Polygon","coordinates":[[[0.566,47.435],[0.582,47.448],[0.604,47.447],[0.635,47.427],[0.648,47.392],[0.606,47.383],[0.577,47.377],[0.581,47.397],[0.566,47.435]]]}},{"type":"Feature","properties":{"code":"37110","nom":"Francueil","pop":1461},"geometry":{"type":"Polygon","coordinates":[[[1.095,47.329],[1.108,47.299],[1.095,47.289],[1.05,47.306],[1.06,47.323],[1.079,47.326],[1.095,47.329]]]}},{"type":"Feature","properties":{"code":"37111","nom":"Genillé","pop":1503},"geometry":{"type":"Polygon","coordinates":[[[1.073,47.226],[1.091,47.216],[1.144,47.22],[1.183,47.219],[1.186,47.215],[1.169,47.187],[1.147,47.181],[1.111,47.139],[1.095,47.134],[1.036,47.168],[1.074,47.207],[1.065,47.228],[1.073,47.226]]]}},{"type":"Feature","properties":{"code":"37112","nom":"Gizeux","pop":382},"geometry":{"type":"Polygon","coordinates":[[[0.185,47.426],[0.205,47.425],[0.214,47.39],[0.199,47.381],[0.196,47.349],[0.154,47.364],[0.183,47.38],[0.153,47.399],[0.185,47.426]]]}},{"type":"Feature","properties":{"code":"37113","nom":"Le Grand-Pressigny","pop":872},"geometry":{"type":"Polygon","coordinates":[[[0.76,46.914],[0.786,46.944],[0.821,46.949],[0.847,46.95],[0.864,46.913],[0.867,46.896],[0.814,46.889],[0.76,46.914]]]}},{"type":"Feature","properties":{"code":"37114","nom":"La Guerche","pop":174},"geometry":{"type":"Polygon","coordinates":[[[0.704,46.909],[0.724,46.906],[0.744,46.872],[0.729,46.883],[0.704,46.909]]]}},{"type":"Feature","properties":{"code":"37115","nom":"Descartes","pop":3369},"geometry":{"type":"Polygon","coordinates":[[[0.695,46.962],[0.694,46.973],[0.638,46.985],[0.624,46.994],[0.622,46.999],[0.659,47.01],[0.683,47.029],[0.718,47.018],[0.753,46.992],[0.752,46.97],[0.695,46.962]]]}},{"type":"Feature","properties":{"code":"37116","nom":"Les Hermites","pop":583},"geometry":{"type":"Polygon","coordinates":[[[0.737,47.695],[0.788,47.68],[0.812,47.682],[0.834,47.677],[0.789,47.655],[0.774,47.639],[0.738,47.644],[0.73,47.655],[0.699,47.669],[0.712,47.682],[0.737,47.695]]]}},{"type":"Feature","properties":{"code":"37117","nom":"Hommes","pop":865},"geometry":{"type":"Polygon","coordinates":[[[0.292,47.455],[0.327,47.433],[0.33,47.414],[0.27,47.396],[0.247,47.399],[0.231,47.425],[0.252,47.427],[0.269,47.453],[0.292,47.455]]]}},{"type":"Feature","properties":{"code":"37118","nom":"Huismes","pop":1498},"geometry":{"type":"Polygon","coordinates":[[[0.277,47.201],[0.22,47.208],[0.221,47.219],[0.22,47.239],[0.272,47.262],[0.287,47.228],[0.277,47.201]]]}},{"type":"Feature","properties":{"code":"37119","nom":"L'Île-Bouchard","pop":1606},"geometry":{"type":"Polygon","coordinates":[[[0.419,47.114],[0.412,47.117],[0.402,47.123],[0.432,47.134],[0.435,47.119],[0.419,47.114]]]}},{"type":"Feature","properties":{"code":"37121","nom":"Jaulnay","pop":243},"geometry":{"type":"Polygon","coordinates":[[[0.445,46.941],[0.439,46.929],[0.405,46.936],[0.388,46.944],[0.387,46.952],[0.439,46.982],[0.456,46.989],[0.438,46.955],[0.445,46.941]]]}},{"type":"Feature","properties":{"code":"37122","nom":"Joué-lès-Tours","pop":38423},"geometry":{"type":"Polygon","coordinates":[[[0.699,47.354],[0.677,47.341],[0.691,47.313],[0.676,47.306],[0.615,47.305],[0.61,47.305],[0.622,47.345],[0.641,47.373],[0.66,47.375],[0.699,47.354]]]}},{"type":"Feature","properties":{"code":"37123","nom":"Langeais","pop":4367},"geometry":{"type":"Polygon","coordinates":[[[0.418,47.368],[0.442,47.323],[0.392,47.314],[0.368,47.302],[0.324,47.345],[0.284,47.344],[0.289,47.351],[0.313,47.387],[0.344,47.383],[0.373,47.393],[0.395,47.367],[0.418,47.368]]]}},{"type":"Feature","properties":{"code":"37124","nom":"Larçay","pop":2657},"geometry":{"type":"Polygon","coordinates":[[[0.766,47.371],[0.789,47.374],[0.797,47.372],[0.783,47.345],[0.792,47.327],[0.766,47.331],[0.764,47.339],[0.762,47.37],[0.766,47.371]]]}},{"type":"Feature","properties":{"code":"37125","nom":"Lémeré","pop":401},"geometry":{"type":"Polygon","coordinates":[[[0.359,47.108],[0.375,47.074],[0.359,47.066],[0.347,47.08],[0.305,47.074],[0.304,47.078],[0.305,47.114],[0.318,47.121],[0.363,47.117],[0.359,47.108]]]}},{"type":"Feature","properties":{"code":"37126","nom":"Lerné","pop":351},"geometry":{"type":"Polygon","coordinates":[[[0.084,47.118],[0.078,47.146],[0.102,47.162],[0.115,47.163],[0.143,47.151],[0.141,47.125],[0.105,47.121],[0.084,47.118]]]}},{"type":"Feature","properties":{"code":"37127","nom":"Le Liège","pop":326},"geometry":{"type":"Polygon","coordinates":[[[1.073,47.226],[1.112,47.253],[1.144,47.22],[1.091,47.216],[1.073,47.226]]]}},{"type":"Feature","properties":{"code":"37128","nom":"Lignières-de-Touraine","pop":1318},"geometry":{"type":"Polygon","coordinates":[[[0.386,47.282],[0.403,47.303],[0.437,47.311],[0.446,47.293],[0.386,47.282]]]}},{"type":"Feature","properties":{"code":"37129","nom":"Ligré","pop":1068},"geometry":{"type":"Polygon","coordinates":[[[0.242,47.132],[0.255,47.145],[0.291,47.136],[0.305,47.114],[0.304,47.078],[0.244,47.086],[0.238,47.101],[0.242,47.132]]]}},{"type":"Feature","properties":{"code":"37130","nom":"Ligueil","pop":2105},"geometry":{"type":"Polygon","coordinates":[[[0.867,47.026],[0.842,47.016],[0.819,47.01],[0.811,47.025],[0.748,47.046],[0.748,47.049],[0.755,47.054],[0.83,47.069],[0.847,47.064],[0.867,47.026]]]}},{"type":"Feature","properties":{"code":"37131","nom":"Limeray","pop":1252},"geometry":{"type":"Polygon","coordinates":[[[1.036,47.49],[1.064,47.448],[1.013,47.43],[1.011,47.461],[1.036,47.49]]]}},{"type":"Feature","properties":{"code":"37132","nom":"Loches","pop":6234},"geometry":{"type":"Polygon","coordinates":[[[0.935,47.084],[0.941,47.101],[0.933,47.123],[0.99,47.149],[1.012,47.161],[1.016,47.139],[1.013,47.116],[0.96,47.086],[0.935,47.084]]]}},{"type":"Feature","properties":{"code":"37133","nom":"Loché-sur-Indrois","pop":482},"geometry":{"type":"Polygon","coordinates":[[[1.193,47.032],[1.181,47.041],[1.182,47.061],[1.152,47.084],[1.124,47.085],[1.146,47.127],[1.175,47.132],[1.192,47.114],[1.235,47.12],[1.269,47.093],[1.284,47.078],[1.207,47.028],[1.193,47.032]]]}},{"type":"Feature","properties":{"code":"37134","nom":"Louans","pop":709},"geometry":{"type":"Polygon","coordinates":[[[0.69,47.171],[0.751,47.204],[0.775,47.198],[0.794,47.184],[0.752,47.168],[0.709,47.161],[0.69,47.171]]]}},{"type":"Feature","properties":{"code":"37136","nom":"Le Louroux","pop":533},"geometry":{"type":"Polygon","coordinates":[[[0.828,47.174],[0.794,47.148],[0.757,47.13],[0.714,47.131],[0.71,47.14],[0.709,47.161],[0.752,47.168],[0.794,47.184],[0.828,47.174]]]}},{"type":"Feature","properties":{"code":"37137","nom":"Lublé","pop":141},"geometry":{"type":"Polygon","coordinates":[[[0.289,47.547],[0.302,47.547],[0.294,47.538],[0.262,47.517],[0.22,47.502],[0.225,47.527],[0.257,47.54],[0.289,47.547]]]}},{"type":"Feature","properties":{"code":"37138","nom":"Lussault-sur-Loire","pop":886},"geometry":{"type":"Polygon","coordinates":[[[0.943,47.379],[0.898,47.378],[0.893,47.398],[0.934,47.404],[0.943,47.379]]]}},{"type":"Feature","properties":{"code":"37139","nom":"Luynes","pop":5062},"geometry":{"type":"Polygon","coordinates":[[[0.577,47.377],[0.564,47.374],[0.522,47.367],[0.525,47.402],[0.492,47.423],[0.5,47.429],[0.533,47.439],[0.56,47.458],[0.566,47.435],[0.581,47.397],[0.577,47.377]]]}},{"type":"Feature","properties":{"code":"37140","nom":"Luzé","pop":276},"geometry":{"type":"Polygon","coordinates":[[[0.429,47.018],[0.433,47.029],[0.48,47.036],[0.503,47.035],[0.514,47.017],[0.499,47.013],[0.456,46.989],[0.429,47.018]]]}},{"type":"Feature","properties":{"code":"37141","nom":"Luzillé","pop":987},"geometry":{"type":"Polygon","coordinates":[[[1.112,47.253],[1.073,47.226],[1.065,47.228],[1.021,47.253],[1.012,47.268],[1.033,47.292],[1.05,47.306],[1.095,47.289],[1.112,47.253]]]}},{"type":"Feature","properties":{"code":"37142","nom":"Maillé","pop":557},"geometry":{"type":"Polygon","coordinates":[[[0.604,47.074],[0.612,47.047],[0.572,47.025],[0.56,47.062],[0.592,47.079],[0.604,47.074]]]}},{"type":"Feature","properties":{"code":"37143","nom":"Manthelan","pop":1378},"geometry":{"type":"Polygon","coordinates":[[[0.757,47.13],[0.794,47.148],[0.828,47.174],[0.853,47.165],[0.883,47.127],[0.869,47.121],[0.848,47.122],[0.811,47.103],[0.79,47.117],[0.765,47.116],[0.757,47.13]]]}},{"type":"Feature","properties":{"code":"37144","nom":"Marçay","pop":465},"geometry":{"type":"Polygon","coordinates":[[[0.244,47.086],[0.235,47.069],[0.208,47.053],[0.176,47.061],[0.201,47.091],[0.182,47.115],[0.181,47.116],[0.238,47.101],[0.244,47.086]]]}},{"type":"Feature","properties":{"code":"37145","nom":"Marcé-sur-Esves","pop":251},"geometry":{"type":"Polygon","coordinates":[[[0.683,47.029],[0.659,47.01],[0.636,47.038],[0.654,47.05],[0.677,47.043],[0.683,47.029]]]}},{"type":"Feature","properties":{"code":"37146","nom":"Marcilly-sur-Maulne","pop":222},"geometry":{"type":"Polygon","coordinates":[[[0.257,47.54],[0.225,47.527],[0.199,47.541],[0.215,47.573],[0.234,47.578],[0.238,47.577],[0.235,47.563],[0.257,47.54]]]}},{"type":"Feature","properties":{"code":"37147","nom":"Marcilly-sur-Vienne","pop":550},"geometry":{"type":"Polygon","coordinates":[[[0.528,47.069],[0.547,47.065],[0.543,47.036],[0.514,47.017],[0.503,47.035],[0.528,47.069]]]}},{"type":"Feature","properties":{"code":"37148","nom":"Marigny-Marmande","pop":601},"geometry":{"type":"Polygon","coordinates":[[[0.516,46.976],[0.505,46.96],[0.491,46.955],[0.445,46.941],[0.438,46.955],[0.456,46.989],[0.499,47.013],[0.532,46.996],[0.516,46.976]]]}},{"type":"Feature","properties":{"code":"37149","nom":"Marray","pop":496},"geometry":{"type":"Polygon","coordinates":[[[0.729,47.6],[0.692,47.604],[0.661,47.625],[0.69,47.645],[0.73,47.655],[0.738,47.644],[0.737,47.61],[0.729,47.6]]]}},{"type":"Feature","properties":{"code":"37150","nom":"Mazières-de-Touraine","pop":1488},"geometry":{"type":"Polygon","coordinates":[[[0.463,47.412],[0.48,47.399],[0.488,47.371],[0.418,47.368],[0.395,47.367],[0.373,47.393],[0.368,47.408],[0.416,47.414],[0.463,47.412]]]}},{"type":"Feature","properties":{"code":"37151","nom":"La Membrolle-sur-Choisille","pop":3290},"geometry":{"type":"Polygon","coordinates":[[[0.635,47.427],[0.604,47.447],[0.622,47.463],[0.652,47.441],[0.635,47.427]]]}},{"type":"Feature","properties":{"code":"37152","nom":"Mettray","pop":2070},"geometry":{"type":"Polygon","coordinates":[[[0.686,47.452],[0.691,47.439],[0.675,47.436],[0.652,47.441],[0.622,47.463],[0.627,47.465],[0.663,47.482],[0.686,47.452]]]}},{"type":"Feature","properties":{"code":"37153","nom":"Monnaie","pop":4833},"geometry":{"type":"Polygon","coordinates":[[[0.799,47.546],[0.816,47.516],[0.833,47.514],[0.821,47.487],[0.819,47.46],[0.794,47.467],[0.768,47.465],[0.742,47.48],[0.734,47.497],[0.754,47.506],[0.799,47.546]]]}},{"type":"Feature","properties":{"code":"37154","nom":"Montbazon","pop":4874},"geometry":{"type":"Polygon","coordinates":[[[0.68,47.275],[0.682,47.284],[0.704,47.3],[0.726,47.285],[0.718,47.269],[0.68,47.275]]]}},{"type":"Feature","properties":{"code":"37155","nom":"Monthodon","pop":643},"geometry":{"type":"Polygon","coordinates":[[[0.868,47.687],[0.862,47.677],[0.844,47.645],[0.859,47.638],[0.853,47.613],[0.821,47.613],[0.784,47.61],[0.774,47.639],[0.789,47.655],[0.834,47.677],[0.844,47.682],[0.868,47.687]]]}},{"type":"Feature","properties":{"code":"37156","nom":"Montlouis-sur-Loire","pop":11335},"geometry":{"type":"Polygon","coordinates":[[[0.862,47.361],[0.847,47.364],[0.797,47.372],[0.789,47.374],[0.791,47.405],[0.833,47.393],[0.87,47.398],[0.893,47.398],[0.898,47.378],[0.862,47.361]]]}},{"type":"Feature","properties":{"code":"37157","nom":"Montrésor","pop":309},"geometry":{"type":"Polygon","coordinates":[[[1.199,47.148],[1.192,47.155],[1.212,47.149],[1.199,47.148]]]}},{"type":"Feature","properties":{"code":"37158","nom":"Montreuil-en-Touraine","pop":740},"geometry":{"type":"Polygon","coordinates":[[[0.966,47.514],[0.999,47.496],[0.957,47.462],[0.954,47.457],[0.928,47.461],[0.916,47.486],[0.919,47.501],[0.966,47.514]]]}},{"type":"Feature","properties":{"code":"37159","nom":"Monts","pop":8080},"geometry":{"type":"Polygon","coordinates":[[[0.638,47.249],[0.604,47.279],[0.615,47.305],[0.676,47.306],[0.682,47.284],[0.68,47.275],[0.645,47.24],[0.638,47.249]]]}},{"type":"Feature","properties":{"code":"37160","nom":"Morand","pop":351},"geometry":{"type":"Polygon","coordinates":[[[0.997,47.584],[1.004,47.585],[1.034,47.577],[1.036,47.558],[1.025,47.536],[0.988,47.546],[0.976,47.567],[0.997,47.584]]]}},{"type":"Feature","properties":{"code":"37161","nom":"Mosnes","pop":812},"geometry":{"type":"Polygon","coordinates":[[[1.087,47.462],[1.113,47.466],[1.133,47.449],[1.114,47.428],[1.085,47.43],[1.073,47.436],[1.064,47.448],[1.087,47.462]]]}},{"type":"Feature","properties":{"code":"37162","nom":"Mouzay","pop":460},"geometry":{"type":"Polygon","coordinates":[[[0.883,47.127],[0.904,47.134],[0.933,47.123],[0.941,47.101],[0.899,47.085],[0.887,47.071],[0.875,47.077],[0.869,47.121],[0.883,47.127]]]}},{"type":"Feature","properties":{"code":"37163","nom":"Nazelles-Négron","pop":3776},"geometry":{"type":"Polygon","coordinates":[[[0.98,47.423],[0.934,47.404],[0.917,47.442],[0.919,47.454],[0.928,47.461],[0.954,47.457],[0.98,47.44],[0.98,47.423]]]}},{"type":"Feature","properties":{"code":"37165","nom":"Neuil","pop":413},"geometry":{"type":"Polygon","coordinates":[[[0.496,47.197],[0.497,47.199],[0.527,47.204],[0.564,47.212],[0.559,47.189],[0.552,47.172],[0.512,47.163],[0.494,47.169],[0.496,47.197]]]}},{"type":"Feature","properties":{"code":"37166","nom":"Neuillé-le-Lierre","pop":753},"geometry":{"type":"Polygon","coordinates":[[[0.965,47.528],[0.966,47.514],[0.919,47.501],[0.916,47.486],[0.869,47.514],[0.915,47.525],[0.965,47.528]]]}},{"type":"Feature","properties":{"code":"37167","nom":"Neuillé-Pont-Pierre","pop":2252},"geometry":{"type":"Polygon","coordinates":[[[0.496,47.55],[0.528,47.58],[0.604,47.566],[0.614,47.55],[0.598,47.539],[0.571,47.527],[0.546,47.535],[0.531,47.513],[0.508,47.526],[0.496,47.55]]]}},{"type":"Feature","properties":{"code":"37168","nom":"Neuilly-le-Brignon","pop":278},"geometry":{"type":"Polygon","coordinates":[[[0.786,46.944],[0.752,46.97],[0.753,46.992],[0.787,47],[0.802,46.967],[0.821,46.949],[0.786,46.944]]]}},{"type":"Feature","properties":{"code":"37169","nom":"Neuville-sur-Brenne","pop":872},"geometry":{"type":"Polygon","coordinates":[[[0.899,47.604],[0.919,47.633],[0.937,47.628],[0.923,47.604],[0.904,47.596],[0.899,47.604]]]}},{"type":"Feature","properties":{"code":"37170","nom":"Neuvy-le-Roi","pop":1048},"geometry":{"type":"Polygon","coordinates":[[[0.532,47.599],[0.586,47.647],[0.612,47.657],[0.621,47.631],[0.639,47.626],[0.625,47.615],[0.638,47.588],[0.604,47.566],[0.528,47.58],[0.532,47.599]]]}},{"type":"Feature","properties":{"code":"37171","nom":"Noizay","pop":1168},"geometry":{"type":"Polygon","coordinates":[[[0.917,47.442],[0.934,47.404],[0.893,47.398],[0.87,47.398],[0.87,47.428],[0.917,47.442]]]}},{"type":"Feature","properties":{"code":"37172","nom":"Notre-Dame-d'Oé","pop":4515},"geometry":{"type":"Polygon","coordinates":[[[0.691,47.439],[0.686,47.452],[0.706,47.47],[0.733,47.471],[0.71,47.439],[0.691,47.439]]]}},{"type":"Feature","properties":{"code":"37173","nom":"Nouans-les-Fontaines","pop":672},"geometry":{"type":"Polygon","coordinates":[[[1.363,47.135],[1.356,47.109],[1.318,47.104],[1.312,47.072],[1.293,47.072],[1.284,47.078],[1.269,47.093],[1.286,47.112],[1.266,47.125],[1.271,47.166],[1.322,47.194],[1.327,47.186],[1.343,47.174],[1.363,47.135]]]}},{"type":"Feature","properties":{"code":"37174","nom":"Nouâtre","pop":786},"geometry":{"type":"Polygon","coordinates":[[[0.591,47.007],[0.568,47.007],[0.543,47.036],[0.547,47.065],[0.56,47.062],[0.572,47.025],[0.591,47.007]]]}},{"type":"Feature","properties":{"code":"37175","nom":"Nouzilly","pop":1234},"geometry":{"type":"Polygon","coordinates":[[[0.713,47.56],[0.806,47.56],[0.799,47.546],[0.754,47.506],[0.734,47.497],[0.72,47.5],[0.686,47.527],[0.688,47.535],[0.713,47.56]]]}},{"type":"Feature","properties":{"code":"37176","nom":"Noyant-de-Touraine","pop":1160},"geometry":{"type":"Polygon","coordinates":[[[0.541,47.11],[0.559,47.126],[0.584,47.118],[0.585,47.083],[0.551,47.085],[0.541,47.11]]]}},{"type":"Feature","properties":{"code":"37177","nom":"Orbigny","pop":712},"geometry":{"type":"Polygon","coordinates":[[[1.303,47.22],[1.322,47.194],[1.271,47.166],[1.244,47.175],[1.186,47.215],[1.183,47.219],[1.242,47.276],[1.288,47.241],[1.303,47.22]]]}},{"type":"Feature","properties":{"code":"37178","nom":"Panzoult","pop":585},"geometry":{"type":"Polygon","coordinates":[[[0.394,47.201],[0.397,47.202],[0.437,47.215],[0.428,47.194],[0.437,47.137],[0.432,47.134],[0.402,47.123],[0.383,47.133],[0.366,47.136],[0.394,47.201]]]}},{"type":"Feature","properties":{"code":"37179","nom":"Parçay-Meslay","pop":2574},"geometry":{"type":"Polygon","coordinates":[[[0.768,47.465],[0.755,47.434],[0.734,47.429],[0.71,47.439],[0.733,47.471],[0.742,47.48],[0.768,47.465]]]}},{"type":"Feature","properties":{"code":"37180","nom":"Parçay-sur-Vienne","pop":616},"geometry":{"type":"Polygon","coordinates":[[[0.52,47.073],[0.476,47.066],[0.45,47.084],[0.445,47.12],[0.487,47.115],[0.511,47.089],[0.52,47.073]]]}},{"type":"Feature","properties":{"code":"37181","nom":"Paulmy","pop":238},"geometry":{"type":"Polygon","coordinates":[[[0.847,46.95],[0.821,46.949],[0.802,46.967],[0.787,47],[0.819,47.01],[0.842,47.016],[0.847,46.983],[0.861,46.966],[0.847,46.95]]]}},{"type":"Feature","properties":{"code":"37182","nom":"Pernay","pop":1609},"geometry":{"type":"Polygon","coordinates":[[[0.5,47.429],[0.483,47.447],[0.505,47.472],[0.532,47.476],[0.556,47.463],[0.56,47.458],[0.533,47.439],[0.5,47.429]]]}},{"type":"Feature","properties":{"code":"37183","nom":"Perrusson","pop":1399},"geometry":{"type":"Polygon","coordinates":[[[1.004,47.059],[0.994,47.05],[0.96,47.086],[1.013,47.116],[1.038,47.126],[1.067,47.123],[1.068,47.11],[1.025,47.093],[1.004,47.059]]]}},{"type":"Feature","properties":{"code":"37184","nom":"Le Petit-Pressigny","pop":305},"geometry":{"type":"Polygon","coordinates":[[[0.864,46.913],[0.903,46.933],[0.95,46.945],[0.955,46.908],[0.94,46.884],[0.923,46.883],[0.885,46.883],[0.867,46.896],[0.864,46.913]]]}},{"type":"Feature","properties":{"code":"37185","nom":"Pocé-sur-Cisse","pop":1711},"geometry":{"type":"Polygon","coordinates":[[[0.98,47.423],[0.98,47.44],[0.954,47.457],[0.957,47.462],[1.011,47.461],[1.013,47.43],[1.011,47.429],[0.98,47.423]]]}},{"type":"Feature","properties":{"code":"37186","nom":"Pont-de-Ruan","pop":1214},"geometry":{"type":"Polygon","coordinates":[[[0.539,47.275],[0.546,47.278],[0.573,47.277],[0.587,47.255],[0.574,47.244],[0.539,47.275]]]}},{"type":"Feature","properties":{"code":"37187","nom":"Ports-sur-Vienne","pop":352},"geometry":{"type":"Polygon","coordinates":[[[0.568,47.007],[0.567,47.003],[0.532,46.996],[0.499,47.013],[0.514,47.017],[0.543,47.036],[0.568,47.007]]]}},{"type":"Feature","properties":{"code":"37188","nom":"Pouzay","pop":867},"geometry":{"type":"Polygon","coordinates":[[[0.585,47.083],[0.592,47.079],[0.56,47.062],[0.547,47.065],[0.528,47.069],[0.52,47.073],[0.511,47.089],[0.538,47.112],[0.541,47.11],[0.551,47.085],[0.585,47.083]]]}},{"type":"Feature","properties":{"code":"37189","nom":"Preuilly-sur-Claise","pop":1011},"geometry":{"type":"Polygon","coordinates":[[[0.952,46.877],[0.935,46.854],[0.939,46.821],[0.917,46.816],[0.914,46.816],[0.908,46.833],[0.927,46.847],[0.923,46.883],[0.94,46.884],[0.952,46.877]]]}},{"type":"Feature","properties":{"code":"37190","nom":"Pussigny","pop":159},"geometry":{"type":"Polygon","coordinates":[[[0.567,47.003],[0.575,46.993],[0.574,46.983],[0.516,46.976],[0.532,46.996],[0.567,47.003]]]}},{"type":"Feature","properties":{"code":"37191","nom":"Razines","pop":218},"geometry":{"type":"Polygon","coordinates":[[[0.439,46.982],[0.387,46.952],[0.351,46.978],[0.366,46.991],[0.439,46.982]]]}},{"type":"Feature","properties":{"code":"37192","nom":"Reignac-sur-Indre","pop":1288},"geometry":{"type":"Polygon","coordinates":[[[0.965,47.221],[0.926,47.216],[0.907,47.193],[0.879,47.194],[0.867,47.211],[0.91,47.25],[0.958,47.242],[0.965,47.221]]]}},{"type":"Feature","properties":{"code":"37193","nom":"Restigné","pop":1139},"geometry":{"type":"Polygon","coordinates":[[[0.195,47.289],[0.227,47.288],[0.253,47.328],[0.282,47.331],[0.254,47.294],[0.267,47.27],[0.2,47.259],[0.195,47.289]]]}},{"type":"Feature","properties":{"code":"37194","nom":"Reugny","pop":1759},"geometry":{"type":"Polygon","coordinates":[[[0.919,47.454],[0.901,47.462],[0.846,47.466],[0.821,47.487],[0.833,47.514],[0.847,47.517],[0.869,47.514],[0.916,47.486],[0.928,47.461],[0.919,47.454]]]}},{"type":"Feature","properties":{"code":"37195","nom":"La Riche","pop":10487},"geometry":{"type":"Polygon","coordinates":[[[0.66,47.375],[0.641,47.373],[0.61,47.368],[0.606,47.383],[0.648,47.392],[0.664,47.395],[0.66,47.375]]]}},{"type":"Feature","properties":{"code":"37196","nom":"Richelieu","pop":1598},"geometry":{"type":"Polygon","coordinates":[[[0.31,47.028],[0.329,47.031],[0.323,46.997],[0.308,47],[0.31,47.028]]]}},{"type":"Feature","properties":{"code":"37197","nom":"Rigny-Ussé","pop":512},"geometry":{"type":"Polygon","coordinates":[[[0.327,47.263],[0.334,47.246],[0.287,47.228],[0.272,47.262],[0.281,47.262],[0.315,47.274],[0.327,47.263]]]}},{"type":"Feature","properties":{"code":"37198","nom":"Rillé","pop":313},"geometry":{"type":"Polygon","coordinates":[[[0.205,47.425],[0.185,47.426],[0.181,47.453],[0.199,47.477],[0.269,47.453],[0.252,47.427],[0.231,47.425],[0.205,47.425]]]}},{"type":"Feature","properties":{"code":"37199","nom":"Rilly-sur-Vienne","pop":458},"geometry":{"type":"Polygon","coordinates":[[[0.475,47.058],[0.476,47.066],[0.52,47.073],[0.528,47.069],[0.503,47.035],[0.48,47.036],[0.475,47.058]]]}},{"type":"Feature","properties":{"code":"37200","nom":"Rivarennes","pop":1000},"geometry":{"type":"Polygon","coordinates":[[[0.39,47.274],[0.37,47.248],[0.382,47.214],[0.397,47.202],[0.394,47.201],[0.365,47.204],[0.369,47.232],[0.334,47.246],[0.327,47.263],[0.359,47.285],[0.39,47.274]]]}},{"type":"Feature","properties":{"code":"37201","nom":"Rivière","pop":699},"geometry":{"type":"Polygon","coordinates":[[[0.291,47.136],[0.255,47.145],[0.242,47.132],[0.257,47.154],[0.283,47.147],[0.29,47.145],[0.291,47.136]]]}},{"type":"Feature","properties":{"code":"37202","nom":"La Roche-Clermault","pop":540},"geometry":{"type":"Polygon","coordinates":[[[0.191,47.167],[0.209,47.143],[0.242,47.132],[0.238,47.101],[0.181,47.116],[0.193,47.144],[0.191,47.167]]]}},{"type":"Feature","properties":{"code":"37203","nom":"Rochecorbon","pop":3219},"geometry":{"type":"Polygon","coordinates":[[[0.734,47.429],[0.755,47.434],[0.768,47.465],[0.794,47.467],[0.776,47.439],[0.781,47.408],[0.76,47.406],[0.73,47.401],[0.734,47.429]]]}},{"type":"Feature","properties":{"code":"37204","nom":"Rouziers-de-Touraine","pop":1362},"geometry":{"type":"Polygon","coordinates":[[[0.654,47.503],[0.613,47.53],[0.598,47.539],[0.614,47.55],[0.653,47.553],[0.688,47.535],[0.686,47.527],[0.654,47.503]]]}},{"type":"Feature","properties":{"code":"37205","nom":"Saché","pop":1403},"geometry":{"type":"Polygon","coordinates":[[[0.527,47.272],[0.539,47.275],[0.574,47.244],[0.564,47.212],[0.527,47.204],[0.514,47.231],[0.49,47.245],[0.498,47.255],[0.527,47.272]]]}},{"type":"Feature","properties":{"code":"37206","nom":"Saint-Antoine-du-Rocher","pop":1824},"geometry":{"type":"Polygon","coordinates":[[[0.613,47.53],[0.654,47.503],[0.663,47.482],[0.663,47.482],[0.627,47.465],[0.606,47.492],[0.594,47.508],[0.613,47.53]]]}},{"type":"Feature","properties":{"code":"37207","nom":"Saint-Aubin-le-Dépeint","pop":340},"geometry":{"type":"Polygon","coordinates":[[[0.396,47.641],[0.432,47.618],[0.421,47.601],[0.395,47.595],[0.365,47.62],[0.383,47.643],[0.396,47.641]]]}},{"type":"Feature","properties":{"code":"37208","nom":"Saint-Avertin","pop":14999},"geometry":{"type":"Polygon","coordinates":[[[0.762,47.37],[0.764,47.339],[0.704,47.349],[0.715,47.374],[0.737,47.377],[0.762,47.37]]]}},{"type":"Feature","properties":{"code":"37210","nom":"Saint-Benoît-la-Forêt","pop":842},"geometry":{"type":"Polygon","coordinates":[[[0.365,47.204],[0.315,47.195],[0.298,47.175],[0.277,47.201],[0.287,47.228],[0.334,47.246],[0.369,47.232],[0.365,47.204]]]}},{"type":"Feature","properties":{"code":"37211","nom":"Saint-Branchs","pop":2637},"geometry":{"type":"Polygon","coordinates":[[[0.775,47.198],[0.751,47.204],[0.69,47.171],[0.68,47.178],[0.697,47.189],[0.73,47.255],[0.769,47.262],[0.819,47.26],[0.835,47.262],[0.828,47.236],[0.775,47.198]]]}},{"type":"Feature","properties":{"code":"37212","nom":"Sainte-Catherine-de-Fierbois","pop":732},"geometry":{"type":"Polygon","coordinates":[[[0.709,47.161],[0.71,47.14],[0.647,47.144],[0.658,47.178],[0.66,47.182],[0.68,47.178],[0.69,47.171],[0.709,47.161]]]}},{"type":"Feature","properties":{"code":"37213","nom":"Saint-Christophe-sur-le-Nais","pop":1067},"geometry":{"type":"Polygon","coordinates":[[[0.501,47.606],[0.442,47.608],[0.421,47.601],[0.432,47.618],[0.462,47.643],[0.498,47.645],[0.501,47.606]]]}},{"type":"Feature","properties":{"code":"37214","nom":"Saint-Cyr-sur-Loire","pop":17029},"geometry":{"type":"Polygon","coordinates":[[[0.664,47.395],[0.648,47.392],[0.635,47.427],[0.652,47.441],[0.675,47.436],[0.68,47.4],[0.664,47.395]]]}},{"type":"Feature","properties":{"code":"37216","nom":"Saint-Épain","pop":1471},"geometry":{"type":"Polygon","coordinates":[[[0.613,47.185],[0.658,47.178],[0.647,47.144],[0.584,47.118],[0.559,47.126],[0.541,47.11],[0.538,47.112],[0.497,47.134],[0.505,47.145],[0.512,47.163],[0.552,47.172],[0.559,47.189],[0.613,47.185]]]}},{"type":"Feature","properties":{"code":"37217","nom":"Saint-Étienne-de-Chigny","pop":1579},"geometry":{"type":"Polygon","coordinates":[[[0.522,47.367],[0.495,47.359],[0.488,47.371],[0.48,47.399],[0.463,47.412],[0.492,47.423],[0.525,47.402],[0.522,47.367]]]}},{"type":"Feature","properties":{"code":"37218","nom":"Saint-Flovier","pop":576},"geometry":{"type":"Polygon","coordinates":[[[1.06,46.972],[1.045,46.945],[1.037,46.942],[0.987,46.955],[0.972,46.966],[0.955,46.971],[0.994,46.974],[1.022,46.999],[1.056,46.997],[1.06,46.972]]]}},{"type":"Feature","properties":{"code":"37219","nom":"Saint-Genouph","pop":1019},"geometry":{"type":"Polygon","coordinates":[[[0.564,47.374],[0.577,47.377],[0.606,47.383],[0.61,47.368],[0.59,47.365],[0.566,47.365],[0.564,47.374]]]}},{"type":"Feature","properties":{"code":"37220","nom":"Saint-Germain-sur-Vienne","pop":360},"geometry":{"type":"Polygon","coordinates":[[[0.102,47.162],[0.08,47.182],[0.094,47.201],[0.095,47.206],[0.139,47.182],[0.158,47.179],[0.115,47.163],[0.102,47.162]]]}},{"type":"Feature","properties":{"code":"37221","nom":"Saint-Hippolyte","pop":638},"geometry":{"type":"Polygon","coordinates":[[[1.115,47.024],[1.11,47.029],[1.084,47.063],[1.081,47.072],[1.12,47.086],[1.124,47.085],[1.152,47.084],[1.182,47.061],[1.181,47.041],[1.115,47.024]]]}},{"type":"Feature","properties":{"code":"37222","nom":"Saint-Jean-Saint-Germain","pop":745},"geometry":{"type":"Polygon","coordinates":[[[1.068,47.11],[1.076,47.097],[1.12,47.086],[1.081,47.072],[1.004,47.059],[1.025,47.093],[1.068,47.11]]]}},{"type":"Feature","properties":{"code":"37223","nom":"Saint-Laurent-de-Lin","pop":347},"geometry":{"type":"Polygon","coordinates":[[[0.28,47.506],[0.277,47.505],[0.255,47.49],[0.22,47.502],[0.262,47.517],[0.294,47.538],[0.315,47.515],[0.28,47.506]]]}},{"type":"Feature","properties":{"code":"37224","nom":"Saint-Laurent-en-Gâtines","pop":873},"geometry":{"type":"Polygon","coordinates":[[[0.806,47.56],[0.713,47.56],[0.729,47.6],[0.737,47.61],[0.77,47.597],[0.784,47.61],[0.821,47.613],[0.8,47.596],[0.821,47.568],[0.806,47.56]]]}},{"type":"Feature","properties":{"code":"37225","nom":"Saint-Martin-le-Beau","pop":3216},"geometry":{"type":"Polygon","coordinates":[[[0.943,47.379],[0.954,47.37],[0.931,47.338],[0.88,47.348],[0.862,47.361],[0.898,47.378],[0.943,47.379]]]}},{"type":"Feature","properties":{"code":"37226","nom":"Sainte-Maure-de-Touraine","pop":4092},"geometry":{"type":"Polygon","coordinates":[[[0.592,47.079],[0.585,47.083],[0.584,47.118],[0.647,47.144],[0.71,47.14],[0.714,47.131],[0.704,47.124],[0.657,47.096],[0.604,47.074],[0.592,47.079]]]}},{"type":"Feature","properties":{"code":"37228","nom":"Saint-Nicolas-de-Bourgueil","pop":1116},"geometry":{"type":"Polygon","coordinates":[[[0.089,47.275],[0.078,47.283],[0.117,47.332],[0.147,47.346],[0.165,47.32],[0.156,47.278],[0.164,47.256],[0.089,47.275]]]}},{"type":"Feature","properties":{"code":"37229","nom":"Saint-Nicolas-des-Motets","pop":238},"geometry":{"type":"Polygon","coordinates":[[[1.033,47.607],[1.064,47.566],[1.036,47.558],[1.034,47.577],[1.004,47.585],[1.033,47.607]]]}},{"type":"Feature","properties":{"code":"37230","nom":"Saint-Ouen-les-Vignes","pop":963},"geometry":{"type":"Polygon","coordinates":[[[0.999,47.496],[1.037,47.508],[1.036,47.49],[1.011,47.461],[0.957,47.462],[0.999,47.496]]]}},{"type":"Feature","properties":{"code":"37231","nom":"Saint-Paterne-Racan","pop":1715},"geometry":{"type":"Polygon","coordinates":[[[0.528,47.58],[0.496,47.55],[0.438,47.552],[0.402,47.578],[0.395,47.595],[0.421,47.601],[0.442,47.608],[0.501,47.606],[0.525,47.605],[0.532,47.599],[0.528,47.58]]]}},{"type":"Feature","properties":{"code":"37232","nom":"Coteaux-sur-Loire","pop":1867},"geometry":{"type":"Polygon","coordinates":[[[0.281,47.262],[0.267,47.27],[0.254,47.294],[0.282,47.331],[0.284,47.344],[0.324,47.345],[0.368,47.302],[0.315,47.274],[0.281,47.262]]]}},{"type":"Feature","properties":{"code":"37233","nom":"Saint-Pierre-des-Corps","pop":15898},"geometry":{"type":"Polygon","coordinates":[[[0.73,47.401],[0.76,47.406],[0.766,47.371],[0.762,47.37],[0.737,47.377],[0.73,47.401]]]}},{"type":"Feature","properties":{"code":"37234","nom":"Saint-Quentin-sur-Indrois","pop":484},"geometry":{"type":"Polygon","coordinates":[[[1.003,47.184],[1.011,47.246],[1.021,47.253],[1.065,47.228],[1.074,47.207],[1.036,47.168],[1.016,47.178],[1.003,47.184]]]}},{"type":"Feature","properties":{"code":"37236","nom":"Saint-Règle","pop":599},"geometry":{"type":"Polygon","coordinates":[[[1.03,47.417],[1.051,47.421],[1.055,47.398],[1.03,47.417]]]}},{"type":"Feature","properties":{"code":"37237","nom":"Saint-Roch","pop":1342},"geometry":{"type":"Polygon","coordinates":[[[0.582,47.448],[0.566,47.435],[0.56,47.458],[0.556,47.463],[0.568,47.465],[0.582,47.448]]]}},{"type":"Feature","properties":{"code":"37238","nom":"Saint-Senoch","pop":514},"geometry":{"type":"Polygon","coordinates":[[[0.977,47.032],[0.922,47.029],[0.919,47.051],[0.935,47.084],[0.96,47.086],[0.994,47.05],[0.977,47.032]]]}},{"type":"Feature","properties":{"code":"37240","nom":"Saunay","pop":640},"geometry":{"type":"Polygon","coordinates":[[[0.937,47.628],[0.965,47.63],[0.992,47.62],[0.997,47.584],[0.976,47.567],[0.936,47.576],[0.925,47.59],[0.923,47.604],[0.937,47.628]]]}},{"type":"Feature","properties":{"code":"37241","nom":"Savigné-sur-Lathan","pop":1305},"geometry":{"type":"Polygon","coordinates":[[[0.33,47.414],[0.327,47.433],[0.292,47.455],[0.293,47.465],[0.328,47.476],[0.349,47.47],[0.351,47.418],[0.33,47.414]]]}},{"type":"Feature","properties":{"code":"37242","nom":"Savigny-en-Véron","pop":1541},"geometry":{"type":"Polygon","coordinates":[[[0.153,47.237],[0.163,47.217],[0.159,47.195],[0.139,47.182],[0.095,47.206],[0.075,47.214],[0.153,47.237]]]}},{"type":"Feature","properties":{"code":"37243","nom":"Savonnières","pop":3392},"geometry":{"type":"Polygon","coordinates":[[[0.556,47.322],[0.538,47.323],[0.521,47.354],[0.566,47.365],[0.59,47.365],[0.594,47.353],[0.556,47.322]]]}},{"type":"Feature","properties":{"code":"37244","nom":"Sazilly","pop":273},"geometry":{"type":"Polygon","coordinates":[[[0.366,47.136],[0.383,47.133],[0.363,47.117],[0.318,47.121],[0.332,47.141],[0.366,47.136]]]}},{"type":"Feature","properties":{"code":"37245","nom":"Semblançay","pop":2200},"geometry":{"type":"Polygon","coordinates":[[[0.531,47.513],[0.546,47.535],[0.571,47.527],[0.598,47.539],[0.613,47.53],[0.594,47.508],[0.606,47.492],[0.582,47.486],[0.568,47.465],[0.556,47.463],[0.532,47.476],[0.517,47.484],[0.531,47.513]]]}},{"type":"Feature","properties":{"code":"37246","nom":"Sennevières","pop":226},"geometry":{"type":"Polygon","coordinates":[[[1.067,47.123],[1.095,47.134],[1.111,47.139],[1.146,47.127],[1.124,47.085],[1.12,47.086],[1.076,47.097],[1.068,47.11],[1.067,47.123]]]}},{"type":"Feature","properties":{"code":"37247","nom":"Sepmes","pop":604},"geometry":{"type":"Polygon","coordinates":[[[0.657,47.096],[0.704,47.124],[0.713,47.081],[0.698,47.05],[0.677,47.043],[0.654,47.05],[0.657,47.096]]]}},{"type":"Feature","properties":{"code":"37248","nom":"Seuilly","pop":368},"geometry":{"type":"Polygon","coordinates":[[[0.182,47.115],[0.162,47.1],[0.135,47.107],[0.141,47.125],[0.143,47.151],[0.153,47.155],[0.193,47.144],[0.181,47.116],[0.182,47.115]]]}},{"type":"Feature","properties":{"code":"37249","nom":"Sonzay","pop":1410},"geometry":{"type":"Polygon","coordinates":[[[0.438,47.552],[0.496,47.55],[0.508,47.526],[0.531,47.513],[0.517,47.484],[0.532,47.476],[0.505,47.472],[0.436,47.493],[0.421,47.526],[0.437,47.551],[0.438,47.552]]]}},{"type":"Feature","properties":{"code":"37250","nom":"Sorigny","pop":2938},"geometry":{"type":"Polygon","coordinates":[[[0.645,47.24],[0.68,47.275],[0.718,47.269],[0.73,47.255],[0.697,47.189],[0.68,47.178],[0.66,47.182],[0.648,47.226],[0.645,47.24]]]}},{"type":"Feature","properties":{"code":"37251","nom":"Souvigné","pop":933},"geometry":{"type":"Polygon","coordinates":[[[0.36,47.506],[0.362,47.525],[0.402,47.547],[0.437,47.551],[0.421,47.526],[0.436,47.493],[0.407,47.494],[0.398,47.488],[0.36,47.506]]]}},{"type":"Feature","properties":{"code":"37252","nom":"Souvigny-de-Touraine","pop":380},"geometry":{"type":"Polygon","coordinates":[[[1.081,47.364],[1.078,47.364],[1.059,47.373],[1.055,47.398],[1.051,47.421],[1.073,47.436],[1.085,47.43],[1.102,47.418],[1.122,47.384],[1.107,47.373],[1.081,47.364]]]}},{"type":"Feature","properties":{"code":"37253","nom":"Sublaines","pop":176},"geometry":{"type":"Polygon","coordinates":[[[1.011,47.246],[0.986,47.251],[0.963,47.289],[1.008,47.282],[1.012,47.268],[1.021,47.253],[1.011,47.246]]]}},{"type":"Feature","properties":{"code":"37254","nom":"Tauxigny-Saint-Bauld","pop":1688},"geometry":{"type":"Polygon","coordinates":[[[0.775,47.198],[0.828,47.236],[0.835,47.262],[0.857,47.242],[0.867,47.211],[0.879,47.194],[0.853,47.165],[0.828,47.174],[0.794,47.184],[0.775,47.198]]]}},{"type":"Feature","properties":{"code":"37255","nom":"Tavant","pop":267},"geometry":{"type":"Polygon","coordinates":[[[0.412,47.117],[0.359,47.108],[0.363,47.117],[0.383,47.133],[0.402,47.123],[0.412,47.117]]]}},{"type":"Feature","properties":{"code":"37256","nom":"Theneuil","pop":294},"geometry":{"type":"Polygon","coordinates":[[[0.403,47.087],[0.419,47.114],[0.435,47.119],[0.445,47.12],[0.45,47.084],[0.42,47.082],[0.403,47.087]]]}},{"type":"Feature","properties":{"code":"37257","nom":"Thilouze","pop":1815},"geometry":{"type":"Polygon","coordinates":[[[0.559,47.189],[0.564,47.212],[0.574,47.244],[0.587,47.255],[0.616,47.242],[0.638,47.249],[0.645,47.24],[0.648,47.226],[0.613,47.185],[0.559,47.189]]]}},{"type":"Feature","properties":{"code":"37258","nom":"Thizay","pop":307},"geometry":{"type":"Polygon","coordinates":[[[0.143,47.151],[0.115,47.163],[0.158,47.179],[0.167,47.176],[0.153,47.155],[0.143,47.151]]]}},{"type":"Feature","properties":{"code":"37259","nom":"Tournon-Saint-Pierre","pop":426},"geometry":{"type":"Polygon","coordinates":[[[0.98,46.756],[0.947,46.737],[0.917,46.757],[0.945,46.791],[0.98,46.756]]]}},{"type":"Feature","properties":{"code":"37260","nom":"La Tour-Saint-Gelin","pop":501},"geometry":{"type":"Polygon","coordinates":[[[0.359,47.066],[0.375,47.074],[0.403,47.087],[0.42,47.082],[0.41,47.063],[0.426,47.044],[0.375,47.05],[0.364,47.059],[0.359,47.066]]]}},{"type":"Feature","properties":{"code":"37261","nom":"Tours","pop":139259},"geometry":{"type":"Polygon","coordinates":[[[0.737,47.377],[0.715,47.374],[0.704,47.349],[0.699,47.354],[0.66,47.375],[0.664,47.395],[0.68,47.4],[0.675,47.436],[0.691,47.439],[0.71,47.439],[0.734,47.429],[0.73,47.401],[0.737,47.377]]]}},{"type":"Feature","properties":{"code":"37262","nom":"Trogues","pop":285},"geometry":{"type":"Polygon","coordinates":[[[0.487,47.115],[0.497,47.134],[0.538,47.112],[0.511,47.089],[0.487,47.115]]]}},{"type":"Feature","properties":{"code":"37263","nom":"Truyes","pop":2442},"geometry":{"type":"Polygon","coordinates":[[[0.827,47.31],[0.846,47.309],[0.889,47.292],[0.863,47.264],[0.818,47.275],[0.827,47.31]]]}},{"type":"Feature","properties":{"code":"37264","nom":"Vallères","pop":1345},"geometry":{"type":"Polygon","coordinates":[[[0.437,47.311],[0.445,47.318],[0.48,47.329],[0.508,47.31],[0.492,47.285],[0.446,47.293],[0.437,47.311]]]}},{"type":"Feature","properties":{"code":"37265","nom":"Varennes","pop":250},"geometry":{"type":"Polygon","coordinates":[[[0.941,47.101],[0.935,47.084],[0.919,47.051],[0.903,47.048],[0.887,47.071],[0.899,47.085],[0.941,47.101]]]}},{"type":"Feature","properties":{"code":"37266","nom":"Veigné","pop":6865},"geometry":{"type":"Polygon","coordinates":[[[0.676,47.306],[0.691,47.313],[0.751,47.319],[0.751,47.289],[0.769,47.262],[0.73,47.255],[0.718,47.269],[0.726,47.285],[0.704,47.3],[0.682,47.284],[0.676,47.306]]]}},{"type":"Feature","properties":{"code":"37267","nom":"Véretz","pop":4644},"geometry":{"type":"Polygon","coordinates":[[[0.847,47.364],[0.8,47.327],[0.792,47.327],[0.783,47.345],[0.797,47.372],[0.847,47.364]]]}},{"type":"Feature","properties":{"code":"37268","nom":"Verneuil-le-Château","pop":124},"geometry":{"type":"Polygon","coordinates":[[[0.434,47.041],[0.475,47.058],[0.48,47.036],[0.433,47.029],[0.434,47.041]]]}},{"type":"Feature","properties":{"code":"37269","nom":"Verneuil-sur-Indre","pop":466},"geometry":{"type":"Polygon","coordinates":[[[1.078,47.016],[1.056,46.997],[1.022,46.999],[0.977,47.032],[0.994,47.05],[1.004,47.059],[1.081,47.072],[1.084,47.063],[1.058,47.049],[1.05,47.024],[1.078,47.016]]]}},{"type":"Feature","properties":{"code":"37270","nom":"Vernou-sur-Brenne","pop":2870},"geometry":{"type":"Polygon","coordinates":[[[0.846,47.466],[0.87,47.428],[0.87,47.398],[0.833,47.393],[0.811,47.448],[0.819,47.46],[0.821,47.487],[0.846,47.466]]]}},{"type":"Feature","properties":{"code":"37271","nom":"Villaines-les-Rochers","pop":1051},"geometry":{"type":"Polygon","coordinates":[[[0.477,47.228],[0.49,47.245],[0.514,47.231],[0.527,47.204],[0.497,47.199],[0.477,47.228]]]}},{"type":"Feature","properties":{"code":"37272","nom":"Villandry","pop":1143},"geometry":{"type":"Polygon","coordinates":[[[0.442,47.323],[0.48,47.344],[0.521,47.354],[0.538,47.323],[0.508,47.31],[0.48,47.329],[0.445,47.318],[0.442,47.323]]]}},{"type":"Feature","properties":{"code":"37273","nom":"La Ville-aux-Dames","pop":5606},"geometry":{"type":"Polygon","coordinates":[[[0.781,47.408],[0.791,47.405],[0.789,47.374],[0.766,47.371],[0.76,47.406],[0.781,47.408]]]}},{"type":"Feature","properties":{"code":"37274","nom":"Villebourg","pop":303},"geometry":{"type":"Polygon","coordinates":[[[0.498,47.645],[0.559,47.666],[0.563,47.657],[0.522,47.628],[0.525,47.605],[0.501,47.606],[0.498,47.645]]]}},{"type":"Feature","properties":{"code":"37275","nom":"Villedômain","pop":129},"geometry":{"type":"Polygon","coordinates":[[[1.289,47.063],[1.278,47.04],[1.247,47.021],[1.232,47.014],[1.207,47.028],[1.284,47.078],[1.293,47.072],[1.289,47.063]]]}},{"type":"Feature","properties":{"code":"37276","nom":"Villedômer","pop":1290},"geometry":{"type":"Polygon","coordinates":[[[0.915,47.525],[0.869,47.514],[0.847,47.517],[0.843,47.551],[0.821,47.568],[0.83,47.579],[0.891,47.586],[0.9,47.582],[0.889,47.552],[0.915,47.525]]]}},{"type":"Feature","properties":{"code":"37277","nom":"Villeloin-Coulangé","pop":580},"geometry":{"type":"Polygon","coordinates":[[[1.271,47.166],[1.266,47.125],[1.286,47.112],[1.269,47.093],[1.235,47.12],[1.192,47.114],[1.175,47.132],[1.199,47.148],[1.212,47.149],[1.244,47.175],[1.271,47.166]]]}},{"type":"Feature","properties":{"code":"37278","nom":"Villeperdue","pop":1126},"geometry":{"type":"Polygon","coordinates":[[[0.658,47.178],[0.613,47.185],[0.648,47.226],[0.66,47.182],[0.658,47.178]]]}},{"type":"Feature","properties":{"code":"37279","nom":"Villiers-au-Bouin","pop":727},"geometry":{"type":"Polygon","coordinates":[[[0.302,47.547],[0.289,47.547],[0.288,47.561],[0.238,47.577],[0.234,47.578],[0.23,47.608],[0.259,47.612],[0.277,47.598],[0.322,47.595],[0.339,47.58],[0.318,47.559],[0.302,47.547]]]}},{"type":"Feature","properties":{"code":"37280","nom":"Vou","pop":247},"geometry":{"type":"Polygon","coordinates":[[[0.847,47.064],[0.83,47.069],[0.811,47.103],[0.848,47.122],[0.869,47.121],[0.875,47.077],[0.847,47.064]]]}},{"type":"Feature","properties":{"code":"37281","nom":"Vouvray","pop":3420},"geometry":{"type":"Polygon","coordinates":[[[0.791,47.405],[0.781,47.408],[0.776,47.439],[0.794,47.467],[0.819,47.46],[0.811,47.448],[0.833,47.393],[0.791,47.405]]]}},{"type":"Feature","properties":{"code":"37282","nom":"Yzeures-sur-Creuse","pop":1348},"geometry":{"type":"Polygon","coordinates":[[[0.81,46.814],[0.81,46.816],[0.842,46.823],[0.885,46.826],[0.914,46.816],[0.917,46.816],[0.945,46.791],[0.917,46.757],[0.867,46.748],[0.86,46.756],[0.812,46.795],[0.81,46.814]]]}}]}