{"type":"FeatureCollection","features":[{"type":"Feature","properties":{"code":"47001","nom":"Agen","pop":32801},"geometry":{"type":"Polygon","coordinates":[[[0.603,44.213],[0.605,44.214],[0.637,44.219],[0.653,44.215],[0.647,44.193],[0.613,44.179],[0.603,44.213]]]}},{"type":"Feature","properties":{"code":"47002","nom":"Agmé","pop":108},"geometry":{"type":"Polygon","coordinates":[[[0.36,44.496],[0.335,44.478],[0.328,44.476],[0.322,44.482],[0.354,44.503],[0.36,44.496]]]}},{"type":"Feature","properties":{"code":"47003","nom":"Agnac","pop":482},"geometry":{"type":"Polygon","coordinates":[[[0.374,44.628],[0.346,44.64],[0.355,44.655],[0.369,44.661],[0.417,44.645],[0.404,44.619],[0.374,44.628]]]}},{"type":"Feature","properties":{"code":"47004","nom":"Aiguillon","pop":3968},"geometry":{"type":"Polygon","coordinates":[[[0.334,44.273],[0.327,44.281],[0.329,44.31],[0.337,44.317],[0.352,44.33],[0.389,44.332],[0.401,44.318],[0.389,44.302],[0.375,44.282],[0.358,44.265],[0.335,44.269],[0.334,44.273]]]}},{"type":"Feature","properties":{"code":"47005","nom":"Allemans-du-Dropt","pop":490},"geometry":{"type":"Polygon","coordinates":[[[0.276,44.613],[0.276,44.637],[0.305,44.632],[0.308,44.616],[0.294,44.613],[0.276,44.613]]]}},{"type":"Feature","properties":{"code":"47006","nom":"Allez-et-Cazeneuve","pop":609},"geometry":{"type":"Polygon","coordinates":[[[0.647,44.392],[0.628,44.36],[0.634,44.347],[0.608,44.371],[0.619,44.406],[0.65,44.406],[0.647,44.392]]]}},{"type":"Feature","properties":{"code":"47007","nom":"Allons","pop":163},"geometry":{"type":"Polygon","coordinates":[[[-0.141,44.226],[-0.123,44.241],[-0.108,44.231],[-0.067,44.246],[-0.063,44.242],[-0.026,44.206],[-0.039,44.183],[-0.004,44.15],[-0.06,44.151],[-0.129,44.152],[-0.129,44.204],[-0.141,44.226]]]}},{"type":"Feature","properties":{"code":"47008","nom":"Ambrus","pop":110},"geometry":{"type":"Polygon","coordinates":[[[0.275,44.229],[0.26,44.215],[0.227,44.217],[0.215,44.224],[0.221,44.234],[0.246,44.249],[0.276,44.237],[0.275,44.229]]]}},{"type":"Feature","properties":{"code":"47009","nom":"Andiran","pop":260},"geometry":{"type":"Polygon","coordinates":[[[0.28,44.121],[0.309,44.1],[0.31,44.089],[0.262,44.095],[0.28,44.121]]]}},{"type":"Feature","properties":{"code":"47010","nom":"Antagnac","pop":223},"geometry":{"type":"Polygon","coordinates":[[[-0.03,44.36],[-0.012,44.372],[0.015,44.367],[0.024,44.345],[0,44.339],[-0.03,44.36]]]}},{"type":"Feature","properties":{"code":"47011","nom":"Anthé","pop":194},"geometry":{"type":"Polygon","coordinates":[[[0.941,44.344],[0.937,44.37],[0.92,44.384],[0.952,44.395],[0.997,44.369],[0.942,44.353],[0.942,44.345],[0.941,44.344]]]}},{"type":"Feature","properties":{"code":"47012","nom":"Anzex","pop":332},"geometry":{"type":"Polygon","coordinates":[[[0.197,44.318],[0.19,44.271],[0.182,44.258],[0.142,44.267],[0.145,44.31],[0.197,44.318]]]}},{"type":"Feature","properties":{"code":"47013","nom":"Argenton","pop":331},"geometry":{"type":"Polygon","coordinates":[[[0.029,44.396],[0.048,44.401],[0.08,44.391],[0.104,44.382],[0.1,44.366],[0.071,44.371],[0.028,44.392],[0.029,44.396]]]}},{"type":"Feature","properties":{"code":"47014","nom":"Armillac","pop":209},"geometry":{"type":"Polygon","coordinates":[[[0.374,44.546],[0.377,44.56],[0.388,44.577],[0.403,44.566],[0.399,44.534],[0.374,44.546]]]}},{"type":"Feature","properties":{"code":"47015","nom":"Astaffort","pop":1972},"geometry":{"type":"Polygon","coordinates":[[[0.68,44.029],[0.632,44.05],[0.601,44.078],[0.606,44.087],[0.663,44.097],[0.688,44.089],[0.708,44.058],[0.68,44.029]]]}},{"type":"Feature","properties":{"code":"47016","nom":"Aubiac","pop":1174},"geometry":{"type":"Polygon","coordinates":[[[0.554,44.154],[0.577,44.158],[0.605,44.147],[0.582,44.124],[0.549,44.123],[0.55,44.154],[0.554,44.154]]]}},{"type":"Feature","properties":{"code":"47017","nom":"Auradou","pop":405},"geometry":{"type":"Polygon","coordinates":[[[0.81,44.321],[0.79,44.361],[0.839,44.347],[0.844,44.34],[0.81,44.321]]]}},{"type":"Feature","properties":{"code":"47018","nom":"Auriac-sur-Dropt","pop":175},"geometry":{"type":"Polygon","coordinates":[[[0.241,44.671],[0.258,44.659],[0.255,44.639],[0.242,44.638],[0.224,44.649],[0.241,44.671]]]}},{"type":"Feature","properties":{"code":"47019","nom":"Bajamont","pop":1034},"geometry":{"type":"Polygon","coordinates":[[[0.725,44.259],[0.717,44.249],[0.698,44.236],[0.679,44.266],[0.686,44.272],[0.716,44.28],[0.725,44.259]]]}},{"type":"Feature","properties":{"code":"47020","nom":"Baleyssagues","pop":188},"geometry":{"type":"Polygon","coordinates":[[[0.163,44.671],[0.134,44.668],[0.134,44.682],[0.139,44.696],[0.16,44.696],[0.163,44.671]]]}},{"type":"Feature","properties":{"code":"47021","nom":"Barbaste","pop":1488},"geometry":{"type":"Polygon","coordinates":[[[0.216,44.136],[0.177,44.164],[0.209,44.176],[0.238,44.194],[0.258,44.189],[0.288,44.172],[0.299,44.15],[0.291,44.133],[0.251,44.141],[0.216,44.136]]]}},{"type":"Feature","properties":{"code":"47022","nom":"Bazens","pop":494},"geometry":{"type":"Polygon","coordinates":[[[0.41,44.242],[0.405,44.247],[0.404,44.284],[0.431,44.292],[0.438,44.288],[0.462,44.265],[0.41,44.242]]]}},{"type":"Feature","properties":{"code":"47023","nom":"Beaugas","pop":322},"geometry":{"type":"Polygon","coordinates":[[[0.634,44.491],[0.589,44.506],[0.561,44.504],[0.56,44.504],[0.569,44.517],[0.607,44.523],[0.663,44.533],[0.675,44.525],[0.656,44.495],[0.634,44.491]]]}},{"type":"Feature","properties":{"code":"47024","nom":"Beaupuy","pop":1712},"geometry":{"type":"Polygon","coordinates":[[[0.138,44.543],[0.144,44.552],[0.167,44.543],[0.144,44.513],[0.125,44.519],[0.138,44.543]]]}},{"type":"Feature","properties":{"code":"47025","nom":"Beauville","pop":551},"geometry":{"type":"Polygon","coordinates":[[[0.895,44.297],[0.916,44.302],[0.924,44.292],[0.951,44.275],[0.928,44.267],[0.892,44.264],[0.858,44.249],[0.843,44.264],[0.855,44.276],[0.895,44.297]]]}},{"type":"Feature","properties":{"code":"47026","nom":"Beauziac","pop":241},"geometry":{"type":"Polygon","coordinates":[[[0.049,44.341],[0.064,44.333],[0.046,44.295],[0.022,44.287],[-0.001,44.303],[0.049,44.341]]]}},{"type":"Feature","properties":{"code":"47027","nom":"Bias","pop":2977},"geometry":{"type":"Polygon","coordinates":[[[0.647,44.392],[0.65,44.406],[0.641,44.421],[0.642,44.423],[0.684,44.429],[0.694,44.396],[0.663,44.392],[0.647,44.392]]]}},{"type":"Feature","properties":{"code":"47028","nom":"Birac-sur-Trec","pop":812},"geometry":{"type":"Polygon","coordinates":[[[0.301,44.49],[0.237,44.468],[0.224,44.474],[0.222,44.484],[0.275,44.504],[0.301,44.49]]]}},{"type":"Feature","properties":{"code":"47029","nom":"Blanquefort-sur-Briolance","pop":518},"geometry":{"type":"Polygon","coordinates":[[[0.916,44.625],[0.944,44.64],[0.996,44.633],[1.012,44.616],[1.002,44.59],[0.954,44.575],[0.928,44.576],[0.921,44.582],[0.916,44.625]]]}},{"type":"Feature","properties":{"code":"47030","nom":"Blaymont","pop":216},"geometry":{"type":"Polygon","coordinates":[[[0.869,44.309],[0.895,44.297],[0.855,44.276],[0.823,44.287],[0.837,44.312],[0.869,44.309]]]}},{"type":"Feature","properties":{"code":"47031","nom":"Boé","pop":5846},"geometry":{"type":"Polygon","coordinates":[[[0.685,44.171],[0.672,44.162],[0.672,44.162],[0.64,44.149],[0.619,44.165],[0.613,44.179],[0.647,44.193],[0.671,44.182],[0.685,44.171]]]}},{"type":"Feature","properties":{"code":"47032","nom":"Bon-Encontre","pop":6530},"geometry":{"type":"Polygon","coordinates":[[[0.745,44.233],[0.722,44.208],[0.702,44.207],[0.671,44.182],[0.647,44.193],[0.653,44.215],[0.675,44.213],[0.726,44.237],[0.745,44.233]]]}},{"type":"Feature","properties":{"code":"47033","nom":"Boudy-de-Beauregard","pop":392},"geometry":{"type":"Polygon","coordinates":[[[0.663,44.533],[0.653,44.566],[0.702,44.54],[0.699,44.527],[0.675,44.525],[0.663,44.533]]]}},{"type":"Feature","properties":{"code":"47034","nom":"Bouglon","pop":630},"geometry":{"type":"Polygon","coordinates":[[[0.081,44.423],[0.137,44.415],[0.129,44.404],[0.104,44.382],[0.08,44.391],[0.081,44.423]]]}},{"type":"Feature","properties":{"code":"47035","nom":"Bourgougnague","pop":285},"geometry":{"type":"Polygon","coordinates":[[[0.417,44.645],[0.417,44.645],[0.437,44.617],[0.441,44.603],[0.393,44.604],[0.404,44.619],[0.417,44.645]]]}},{"type":"Feature","properties":{"code":"47036","nom":"Bourlens","pop":372},"geometry":{"type":"Polygon","coordinates":[[[0.954,44.443],[0.993,44.444],[1.001,44.421],[0.96,44.401],[0.941,44.418],[0.954,44.443]]]}},{"type":"Feature","properties":{"code":"47037","nom":"Bournel","pop":247},"geometry":{"type":"Polygon","coordinates":[[[0.714,44.631],[0.716,44.63],[0.677,44.609],[0.651,44.623],[0.668,44.654],[0.687,44.649],[0.714,44.631]]]}},{"type":"Feature","properties":{"code":"47038","nom":"Bourran","pop":610},"geometry":{"type":"Polygon","coordinates":[[[0.451,44.318],[0.42,44.314],[0.401,44.318],[0.389,44.332],[0.352,44.33],[0.353,44.331],[0.371,44.35],[0.4,44.357],[0.408,44.341],[0.446,44.335],[0.451,44.318]]]}},{"type":"Feature","properties":{"code":"47039","nom":"Boussès","pop":41},"geometry":{"type":"Polygon","coordinates":[[[0.035,44.131],[-0.004,44.15],[0.073,44.17],[0.084,44.185],[0.114,44.178],[0.13,44.193],[0.143,44.188],[0.124,44.147],[0.136,44.124],[0.035,44.131]]]}},{"type":"Feature","properties":{"code":"47040","nom":"Brax","pop":2098},"geometry":{"type":"Polygon","coordinates":[[[0.548,44.217],[0.587,44.193],[0.547,44.189],[0.533,44.214],[0.548,44.217]]]}},{"type":"Feature","properties":{"code":"47041","nom":"Bruch","pop":688},"geometry":{"type":"Polygon","coordinates":[[[0.383,44.188],[0.377,44.208],[0.396,44.232],[0.416,44.225],[0.435,44.222],[0.414,44.185],[0.383,44.188]]]}},{"type":"Feature","properties":{"code":"47042","nom":"Brugnac","pop":180},"geometry":{"type":"Polygon","coordinates":[[[0.431,44.438],[0.422,44.439],[0.434,44.469],[0.475,44.464],[0.49,44.443],[0.485,44.436],[0.446,44.437],[0.431,44.438]]]}},{"type":"Feature","properties":{"code":"47043","nom":"Buzet-sur-Baïse","pop":1245},"geometry":{"type":"Polygon","coordinates":[[[0.327,44.281],[0.334,44.273],[0.326,44.239],[0.309,44.226],[0.285,44.223],[0.275,44.229],[0.276,44.237],[0.284,44.281],[0.311,44.281],[0.327,44.281]]]}},{"type":"Feature","properties":{"code":"47044","nom":"Cahuzac","pop":308},"geometry":{"type":"Polygon","coordinates":[[[0.534,44.674],[0.567,44.671],[0.581,44.673],[0.582,44.65],[0.552,44.65],[0.534,44.674]]]}},{"type":"Feature","properties":{"code":"47045","nom":"Calignac","pop":495},"geometry":{"type":"Polygon","coordinates":[[[0.439,44.147],[0.445,44.118],[0.415,44.111],[0.388,44.136],[0.398,44.15],[0.421,44.168],[0.439,44.147]]]}},{"type":"Feature","properties":{"code":"47046","nom":"Calonges","pop":581},"geometry":{"type":"Polygon","coordinates":[[[0.253,44.363],[0.205,44.358],[0.189,44.359],[0.191,44.366],[0.211,44.387],[0.237,44.397],[0.259,44.381],[0.253,44.363]]]}},{"type":"Feature","properties":{"code":"47047","nom":"Cambes","pop":170},"geometry":{"type":"Polygon","coordinates":[[[0.299,44.592],[0.278,44.577],[0.248,44.582],[0.249,44.588],[0.276,44.613],[0.294,44.613],[0.299,44.592]]]}},{"type":"Feature","properties":{"code":"47048","nom":"Cancon","pop":1379},"geometry":{"type":"Polygon","coordinates":[[[0.653,44.566],[0.663,44.533],[0.607,44.523],[0.592,44.544],[0.61,44.559],[0.582,44.572],[0.594,44.57],[0.654,44.567],[0.653,44.566]]]}},{"type":"Feature","properties":{"code":"47049","nom":"Casseneuil","pop":2348},"geometry":{"type":"Polygon","coordinates":[[[0.642,44.454],[0.663,44.444],[0.642,44.423],[0.641,44.421],[0.593,44.442],[0.59,44.471],[0.626,44.466],[0.642,44.454]]]}},{"type":"Feature","properties":{"code":"47050","nom":"Cassignas","pop":127},"geometry":{"type":"Polygon","coordinates":[[[0.764,44.316],[0.778,44.309],[0.805,44.3],[0.796,44.285],[0.752,44.298],[0.764,44.316]]]}},{"type":"Feature","properties":{"code":"47051","nom":"Castelculier","pop":2382},"geometry":{"type":"Polygon","coordinates":[[[0.671,44.182],[0.702,44.207],[0.722,44.208],[0.733,44.202],[0.724,44.173],[0.685,44.171],[0.671,44.182]]]}},{"type":"Feature","properties":{"code":"47052","nom":"Casteljaloux","pop":4755},"geometry":{"type":"Polygon","coordinates":[[[0.084,44.273],[0.066,44.277],[0.046,44.295],[0.064,44.333],[0.103,44.343],[0.138,44.325],[0.137,44.318],[0.115,44.306],[0.084,44.273]]]}},{"type":"Feature","properties":{"code":"47053","nom":"Castella","pop":370},"geometry":{"type":"Polygon","coordinates":[[[0.642,44.301],[0.671,44.311],[0.671,44.331],[0.693,44.332],[0.719,44.322],[0.706,44.311],[0.665,44.298],[0.645,44.29],[0.642,44.301]]]}},{"type":"Feature","properties":{"code":"47054","nom":"Castelmoron-sur-Lot","pop":1842},"geometry":{"type":"Polygon","coordinates":[[[0.475,44.376],[0.458,44.38],[0.451,44.383],[0.471,44.39],[0.45,44.416],[0.446,44.437],[0.485,44.436],[0.514,44.418],[0.519,44.382],[0.486,44.39],[0.475,44.376]]]}},{"type":"Feature","properties":{"code":"47055","nom":"Castelnaud-de-Gratecambe","pop":514},"geometry":{"type":"Polygon","coordinates":[[[0.721,44.506],[0.701,44.501],[0.686,44.475],[0.686,44.475],[0.679,44.478],[0.656,44.495],[0.675,44.525],[0.699,44.527],[0.721,44.506]]]}},{"type":"Feature","properties":{"code":"47056","nom":"Castelnau-sur-Gupie","pop":917},"geometry":{"type":"Polygon","coordinates":[[[0.117,44.594],[0.151,44.609],[0.158,44.606],[0.162,44.579],[0.144,44.552],[0.138,44.543],[0.122,44.554],[0.129,44.581],[0.117,44.594]]]}},{"type":"Feature","properties":{"code":"47057","nom":"Castillonnès","pop":1346},"geometry":{"type":"Polygon","coordinates":[[[0.581,44.673],[0.61,44.666],[0.629,44.643],[0.628,44.618],[0.603,44.608],[0.58,44.635],[0.582,44.65],[0.581,44.673]]]}},{"type":"Feature","properties":{"code":"47058","nom":"Caubeyres","pop":277},"geometry":{"type":"Polygon","coordinates":[[[0.246,44.249],[0.221,44.234],[0.182,44.258],[0.19,44.271],[0.217,44.281],[0.245,44.268],[0.246,44.249]]]}},{"type":"Feature","properties":{"code":"47059","nom":"Caubon-Saint-Sauveur","pop":261},"geometry":{"type":"Polygon","coordinates":[[[0.158,44.606],[0.171,44.61],[0.223,44.593],[0.194,44.577],[0.162,44.579],[0.158,44.606]]]}},{"type":"Feature","properties":{"code":"47060","nom":"Caudecoste","pop":1127},"geometry":{"type":"Polygon","coordinates":[[[0.714,44.112],[0.718,44.123],[0.716,44.138],[0.733,44.153],[0.747,44.146],[0.74,44.125],[0.775,44.123],[0.775,44.117],[0.748,44.093],[0.725,44.093],[0.714,44.112]]]}},{"type":"Feature","properties":{"code":"47061","nom":"Caumont-sur-Garonne","pop":823},"geometry":{"type":"Polygon","coordinates":[[[0.176,44.445],[0.21,44.436],[0.21,44.431],[0.168,44.397],[0.153,44.433],[0.176,44.445]]]}},{"type":"Feature","properties":{"code":"47062","nom":"Cauzac","pop":420},"geometry":{"type":"Polygon","coordinates":[[[0.82,44.251],[0.819,44.25],[0.808,44.256],[0.806,44.259],[0.796,44.285],[0.805,44.3],[0.823,44.287],[0.855,44.276],[0.843,44.264],[0.82,44.251]]]}},{"type":"Feature","properties":{"code":"47063","nom":"Cavarc","pop":155},"geometry":{"type":"Polygon","coordinates":[[[0.666,44.658],[0.626,44.668],[0.62,44.691],[0.63,44.707],[0.656,44.69],[0.657,44.678],[0.666,44.658]]]}},{"type":"Feature","properties":{"code":"47064","nom":"Cazideroque","pop":249},"geometry":{"type":"Polygon","coordinates":[[[0.911,44.383],[0.906,44.395],[0.911,44.425],[0.941,44.418],[0.96,44.401],[0.952,44.395],[0.92,44.384],[0.911,44.383]]]}},{"type":"Feature","properties":{"code":"47065","nom":"Clairac","pop":2606},"geometry":{"type":"Polygon","coordinates":[[[0.353,44.331],[0.336,44.341],[0.36,44.394],[0.373,44.4],[0.415,44.397],[0.447,44.379],[0.4,44.357],[0.371,44.35],[0.353,44.331]]]}},{"type":"Feature","properties":{"code":"47066","nom":"Clermont-Dessous","pop":798},"geometry":{"type":"Polygon","coordinates":[[[0.423,44.235],[0.41,44.242],[0.462,44.265],[0.485,44.266],[0.491,44.259],[0.489,44.239],[0.423,44.235]]]}},{"type":"Feature","properties":{"code":"47067","nom":"Clermont-Soubiran","pop":395},"geometry":{"type":"Polygon","coordinates":[[[0.869,44.128],[0.857,44.128],[0.819,44.144],[0.788,44.143],[0.787,44.143],[0.799,44.15],[0.829,44.156],[0.856,44.145],[0.888,44.149],[0.892,44.137],[0.869,44.128]]]}},{"type":"Feature","properties":{"code":"47068","nom":"Cocumont","pop":1133},"geometry":{"type":"Polygon","coordinates":[[[0.005,44.445],[-0.003,44.461],[0.013,44.475],[0.057,44.483],[0.069,44.456],[0.07,44.434],[0.043,44.418],[0.049,44.433],[0.014,44.44],[-0.005,44.424],[0.005,44.445]]]}},{"type":"Feature","properties":{"code":"47069","nom":"Colayrac-Saint-Cirq","pop":3095},"geometry":{"type":"Polygon","coordinates":[[[0.604,44.257],[0.605,44.214],[0.603,44.213],[0.548,44.217],[0.533,44.214],[0.523,44.215],[0.51,44.225],[0.532,44.227],[0.55,44.25],[0.587,44.254],[0.604,44.257]]]}},{"type":"Feature","properties":{"code":"47070","nom":"Condezaygues","pop":839},"geometry":{"type":"Polygon","coordinates":[[[0.904,44.467],[0.883,44.507],[0.908,44.505],[0.941,44.478],[0.907,44.465],[0.904,44.467]]]}},{"type":"Feature","properties":{"code":"47071","nom":"Coulx","pop":256},"geometry":{"type":"Polygon","coordinates":[[[0.498,44.477],[0.495,44.468],[0.49,44.443],[0.475,44.464],[0.434,44.469],[0.434,44.491],[0.439,44.498],[0.485,44.489],[0.498,44.477]]]}},{"type":"Feature","properties":{"code":"47072","nom":"Courbiac","pop":106},"geometry":{"type":"Polygon","coordinates":[[[1.064,44.379],[1.028,44.364],[1.024,44.385],[1.051,44.392],[1.064,44.379]]]}},{"type":"Feature","properties":{"code":"47073","nom":"Cours","pop":195},"geometry":{"type":"Polygon","coordinates":[[[0.622,44.316],[0.573,44.314],[0.572,44.315],[0.566,44.349],[0.591,44.331],[0.621,44.338],[0.622,44.316]]]}},{"type":"Feature","properties":{"code":"47074","nom":"Couthures-sur-Garonne","pop":365},"geometry":{"type":"Polygon","coordinates":[[[0.087,44.506],[0.086,44.505],[0.076,44.502],[0.052,44.522],[0.072,44.54],[0.087,44.506]]]}},{"type":"Feature","properties":{"code":"47075","nom":"La Croix-Blanche","pop":1075},"geometry":{"type":"Polygon","coordinates":[[[0.716,44.28],[0.686,44.272],[0.665,44.298],[0.706,44.311],[0.718,44.303],[0.716,44.28]]]}},{"type":"Feature","properties":{"code":"47076","nom":"Cuq","pop":278},"geometry":{"type":"Polygon","coordinates":[[[0.708,44.058],[0.688,44.089],[0.714,44.112],[0.725,44.093],[0.748,44.093],[0.742,44.065],[0.708,44.058]]]}},{"type":"Feature","properties":{"code":"47077","nom":"Cuzorn","pop":845},"geometry":{"type":"Polygon","coordinates":[[[0.932,44.521],[0.921,44.54],[0.928,44.576],[0.954,44.575],[0.972,44.565],[0.977,44.542],[0.976,44.529],[0.942,44.516],[0.932,44.521]]]}},{"type":"Feature","properties":{"code":"47078","nom":"Damazan","pop":1358},"geometry":{"type":"Polygon","coordinates":[[[0.284,44.281],[0.265,44.277],[0.246,44.249],[0.245,44.268],[0.254,44.309],[0.298,44.316],[0.311,44.281],[0.284,44.281]]]}},{"type":"Feature","properties":{"code":"47079","nom":"Dausse","pop":526},"geometry":{"type":"Polygon","coordinates":[[[0.906,44.395],[0.911,44.383],[0.894,44.373],[0.883,44.398],[0.906,44.395]]]}},{"type":"Feature","properties":{"code":"47080","nom":"Dévillac","pop":157},"geometry":{"type":"Polygon","coordinates":[[[0.817,44.627],[0.829,44.613],[0.813,44.587],[0.787,44.6],[0.79,44.618],[0.806,44.624],[0.817,44.627]]]}},{"type":"Feature","properties":{"code":"47081","nom":"Dolmayrac","pop":719},"geometry":{"type":"Polygon","coordinates":[[[0.621,44.338],[0.591,44.331],[0.566,44.349],[0.563,44.353],[0.553,44.385],[0.608,44.371],[0.634,44.347],[0.629,44.344],[0.621,44.338]]]}},{"type":"Feature","properties":{"code":"47082","nom":"Dondas","pop":219},"geometry":{"type":"Polygon","coordinates":[[[0.858,44.249],[0.903,44.244],[0.865,44.225],[0.839,44.226],[0.82,44.251],[0.843,44.264],[0.858,44.249]]]}},{"type":"Feature","properties":{"code":"47083","nom":"Doudrac","pop":105},"geometry":{"type":"Polygon","coordinates":[[[0.687,44.649],[0.668,44.654],[0.666,44.658],[0.657,44.678],[0.685,44.676],[0.687,44.649]]]}},{"type":"Feature","properties":{"code":"47084","nom":"Douzains","pop":255},"geometry":{"type":"Polygon","coordinates":[[[0.516,44.638],[0.512,44.647],[0.552,44.65],[0.582,44.65],[0.58,44.635],[0.563,44.622],[0.532,44.622],[0.516,44.638]]]}},{"type":"Feature","properties":{"code":"47085","nom":"Durance","pop":255},"geometry":{"type":"Polygon","coordinates":[[[0.216,44.136],[0.175,44.123],[0.136,44.124],[0.124,44.147],[0.143,44.188],[0.167,44.199],[0.209,44.176],[0.177,44.164],[0.216,44.136]]]}},{"type":"Feature","properties":{"code":"47086","nom":"Duras","pop":1208},"geometry":{"type":"Polygon","coordinates":[[[0.168,44.668],[0.163,44.671],[0.16,44.696],[0.162,44.702],[0.184,44.69],[0.208,44.698],[0.229,44.68],[0.241,44.671],[0.224,44.649],[0.183,44.661],[0.168,44.668]]]}},{"type":"Feature","properties":{"code":"47087","nom":"Engayrac","pop":160},"geometry":{"type":"Polygon","coordinates":[[[0.903,44.244],[0.858,44.249],[0.892,44.264],[0.928,44.267],[0.919,44.238],[0.903,44.244]]]}},{"type":"Feature","properties":{"code":"47088","nom":"Escassefort","pop":682},"geometry":{"type":"Polygon","coordinates":[[[0.22,44.535],[0.199,44.543],[0.203,44.561],[0.24,44.568],[0.262,44.562],[0.246,44.536],[0.22,44.535]]]}},{"type":"Feature","properties":{"code":"47089","nom":"Esclottes","pop":170},"geometry":{"type":"Polygon","coordinates":[[[0.139,44.696],[0.131,44.705],[0.141,44.738],[0.161,44.734],[0.162,44.702],[0.16,44.696],[0.139,44.696]]]}},{"type":"Feature","properties":{"code":"47090","nom":"Espiens","pop":358},"geometry":{"type":"Polygon","coordinates":[[[0.343,44.178],[0.383,44.188],[0.414,44.185],[0.414,44.179],[0.421,44.168],[0.398,44.15],[0.343,44.178]]]}},{"type":"Feature","properties":{"code":"47091","nom":"Estillac","pop":2463},"geometry":{"type":"Polygon","coordinates":[[[0.577,44.158],[0.554,44.154],[0.587,44.191],[0.594,44.161],[0.577,44.158]]]}},{"type":"Feature","properties":{"code":"47092","nom":"Fals","pop":403},"geometry":{"type":"Polygon","coordinates":[[[0.718,44.123],[0.714,44.112],[0.688,44.089],[0.663,44.097],[0.718,44.123]]]}},{"type":"Feature","properties":{"code":"47093","nom":"Fargues-sur-Ourbise","pop":338},"geometry":{"type":"Polygon","coordinates":[[[0.106,44.247],[0.142,44.267],[0.182,44.258],[0.221,44.234],[0.215,44.224],[0.167,44.199],[0.143,44.188],[0.13,44.193],[0.116,44.227],[0.106,44.247]]]}},{"type":"Feature","properties":{"code":"47094","nom":"Fauguerolles","pop":822},"geometry":{"type":"Polygon","coordinates":[[[0.261,44.431],[0.24,44.436],[0.219,44.452],[0.238,44.462],[0.263,44.434],[0.261,44.431]]]}},{"type":"Feature","properties":{"code":"47095","nom":"Fauillet","pop":864},"geometry":{"type":"Polygon","coordinates":[[[0.287,44.402],[0.266,44.414],[0.261,44.431],[0.263,44.434],[0.279,44.444],[0.326,44.431],[0.326,44.428],[0.287,44.402]]]}},{"type":"Feature","properties":{"code":"47096","nom":"Ferrensac","pop":205},"geometry":{"type":"Polygon","coordinates":[[[0.626,44.668],[0.666,44.658],[0.668,44.654],[0.651,44.623],[0.651,44.619],[0.628,44.618],[0.629,44.643],[0.61,44.666],[0.626,44.668]]]}},{"type":"Feature","properties":{"code":"47097","nom":"Feugarolles","pop":1015},"geometry":{"type":"Polygon","coordinates":[[[0.383,44.188],[0.343,44.178],[0.342,44.198],[0.331,44.238],[0.344,44.244],[0.389,44.248],[0.396,44.232],[0.377,44.208],[0.383,44.188]]]}},{"type":"Feature","properties":{"code":"47098","nom":"Fieux","pop":323},"geometry":{"type":"Polygon","coordinates":[[[0.453,44.113],[0.446,44.089],[0.389,44.088],[0.378,44.094],[0.415,44.111],[0.445,44.118],[0.453,44.113]]]}},{"type":"Feature","properties":{"code":"47099","nom":"Fongrave","pop":629},"geometry":{"type":"Polygon","coordinates":[[[0.519,44.382],[0.514,44.418],[0.538,44.429],[0.551,44.398],[0.519,44.382]]]}},{"type":"Feature","properties":{"code":"47100","nom":"Foulayronnes","pop":5476},"geometry":{"type":"Polygon","coordinates":[[[0.605,44.214],[0.604,44.257],[0.63,44.275],[0.645,44.29],[0.665,44.298],[0.686,44.272],[0.679,44.266],[0.649,44.247],[0.637,44.219],[0.605,44.214]]]}},{"type":"Feature","properties":{"code":"47101","nom":"Fourques-sur-Garonne","pop":1293},"geometry":{"type":"Polygon","coordinates":[[[0.182,44.477],[0.177,44.462],[0.176,44.445],[0.153,44.433],[0.127,44.443],[0.124,44.461],[0.124,44.461],[0.152,44.478],[0.182,44.477]]]}},{"type":"Feature","properties":{"code":"47102","nom":"Francescas","pop":750},"geometry":{"type":"Polygon","coordinates":[[[0.446,44.089],[0.466,44.075],[0.46,44.056],[0.451,44.046],[0.401,44.054],[0.408,44.066],[0.389,44.088],[0.446,44.089]]]}},{"type":"Feature","properties":{"code":"47103","nom":"Fréchou","pop":220},"geometry":{"type":"Polygon","coordinates":[[[0.368,44.09],[0.368,44.087],[0.335,44.064],[0.317,44.07],[0.31,44.089],[0.309,44.1],[0.368,44.09]]]}},{"type":"Feature","properties":{"code":"47104","nom":"Frégimont","pop":271},"geometry":{"type":"Polygon","coordinates":[[[0.488,44.267],[0.485,44.266],[0.462,44.265],[0.438,44.288],[0.473,44.284],[0.488,44.267]]]}},{"type":"Feature","properties":{"code":"47105","nom":"Frespech","pop":279},"geometry":{"type":"Polygon","coordinates":[[[0.823,44.287],[0.805,44.3],[0.778,44.309],[0.81,44.321],[0.844,44.34],[0.857,44.336],[0.837,44.312],[0.823,44.287]]]}},{"type":"Feature","properties":{"code":"47106","nom":"Fumel","pop":4690},"geometry":{"type":"Polygon","coordinates":[[[0.982,44.544],[1.016,44.507],[1.009,44.48],[0.977,44.497],[0.949,44.481],[0.948,44.481],[0.942,44.516],[0.976,44.529],[0.977,44.542],[0.982,44.544]]]}},{"type":"Feature","properties":{"code":"47107","nom":"Galapian","pop":333},"geometry":{"type":"Polygon","coordinates":[[[0.401,44.318],[0.42,44.314],[0.431,44.292],[0.404,44.284],[0.401,44.289],[0.389,44.302],[0.401,44.318]]]}},{"type":"Feature","properties":{"code":"47108","nom":"Gaujac","pop":241},"geometry":{"type":"Polygon","coordinates":[[[0.109,44.501],[0.141,44.494],[0.128,44.473],[0.103,44.479],[0.086,44.505],[0.087,44.506],[0.109,44.501]]]}},{"type":"Feature","properties":{"code":"47109","nom":"Gavaudun","pop":302},"geometry":{"type":"Polygon","coordinates":[[[0.87,44.597],[0.921,44.582],[0.928,44.576],[0.921,44.54],[0.872,44.566],[0.855,44.576],[0.858,44.598],[0.87,44.597]]]}},{"type":"Feature","properties":{"code":"47110","nom":"Gontaud-de-Nogaret","pop":1638},"geometry":{"type":"Polygon","coordinates":[[[0.237,44.468],[0.301,44.49],[0.322,44.482],[0.328,44.476],[0.327,44.442],[0.326,44.431],[0.279,44.444],[0.263,44.434],[0.238,44.462],[0.237,44.468]]]}},{"type":"Feature","properties":{"code":"47111","nom":"Granges-sur-Lot","pop":590},"geometry":{"type":"Polygon","coordinates":[[[0.458,44.38],[0.475,44.376],[0.482,44.37],[0.484,44.362],[0.462,44.356],[0.458,44.38]]]}},{"type":"Feature","properties":{"code":"47112","nom":"Grateloup-Saint-Gayrand","pop":469},"geometry":{"type":"Polygon","coordinates":[[[0.359,44.406],[0.366,44.433],[0.388,44.441],[0.422,44.439],[0.431,44.438],[0.415,44.397],[0.373,44.4],[0.359,44.406]]]}},{"type":"Feature","properties":{"code":"47113","nom":"Grayssas","pop":150},"geometry":{"type":"Polygon","coordinates":[[[0.829,44.156],[0.864,44.174],[0.89,44.167],[0.888,44.149],[0.856,44.145],[0.829,44.156]]]}},{"type":"Feature","properties":{"code":"47114","nom":"Grézet-Cavagnan","pop":409},"geometry":{"type":"Polygon","coordinates":[[[0.155,44.392],[0.128,44.37],[0.103,44.356],[0.1,44.366],[0.104,44.382],[0.129,44.404],[0.155,44.392]]]}},{"type":"Feature","properties":{"code":"47115","nom":"Guérin","pop":246},"geometry":{"type":"Polygon","coordinates":[[[0.075,44.433],[0.081,44.423],[0.08,44.391],[0.048,44.401],[0.029,44.396],[0.043,44.418],[0.07,44.434],[0.075,44.433]]]}},{"type":"Feature","properties":{"code":"47117","nom":"Hautefage-la-Tour","pop":1029},"geometry":{"type":"Polygon","coordinates":[[[0.79,44.361],[0.81,44.321],[0.778,44.309],[0.764,44.316],[0.747,44.333],[0.745,44.356],[0.744,44.362],[0.78,44.376],[0.79,44.361]]]}},{"type":"Feature","properties":{"code":"47118","nom":"Hautesvignes","pop":163},"geometry":{"type":"Polygon","coordinates":[[[0.328,44.476],[0.335,44.478],[0.367,44.473],[0.369,44.457],[0.327,44.442],[0.328,44.476]]]}},{"type":"Feature","properties":{"code":"47119","nom":"Houeillès","pop":559},"geometry":{"type":"Polygon","coordinates":[[[0.13,44.193],[0.114,44.178],[0.084,44.185],[0.073,44.17],[-0.004,44.15],[-0.039,44.183],[-0.026,44.206],[0.01,44.219],[0.061,44.208],[0.075,44.228],[0.116,44.227],[0.13,44.193]]]}},{"type":"Feature","properties":{"code":"47120","nom":"Jusix","pop":96},"geometry":{"type":"Polygon","coordinates":[[[0.038,44.554],[0.069,44.548],[0.074,44.546],[0.072,44.54],[0.052,44.522],[0.021,44.542],[0.033,44.551],[0.038,44.554]]]}},{"type":"Feature","properties":{"code":"47121","nom":"Labastide-Castel-Amouroux","pop":317},"geometry":{"type":"Polygon","coordinates":[[[0.156,44.346],[0.138,44.325],[0.103,44.343],[0.103,44.356],[0.128,44.37],[0.156,44.346]]]}},{"type":"Feature","properties":{"code":"47122","nom":"Labretonie","pop":167},"geometry":{"type":"Polygon","coordinates":[[[0.392,44.514],[0.406,44.499],[0.367,44.473],[0.335,44.478],[0.36,44.496],[0.392,44.514]]]}},{"type":"Feature","properties":{"code":"47123","nom":"Lacapelle-Biron","pop":391},"geometry":{"type":"Polygon","coordinates":[[[0.921,44.582],[0.87,44.597],[0.877,44.616],[0.908,44.622],[0.916,44.625],[0.921,44.582]]]}},{"type":"Feature","properties":{"code":"47124","nom":"Lacaussade","pop":210},"geometry":{"type":"Polygon","coordinates":[[[0.808,44.492],[0.793,44.509],[0.822,44.522],[0.858,44.502],[0.849,44.5],[0.808,44.492]]]}},{"type":"Feature","properties":{"code":"47125","nom":"Lacépède","pop":320},"geometry":{"type":"Polygon","coordinates":[[[0.446,44.335],[0.463,44.339],[0.486,44.32],[0.517,44.321],[0.526,44.317],[0.499,44.3],[0.472,44.31],[0.451,44.318],[0.446,44.335]]]}},{"type":"Feature","properties":{"code":"47126","nom":"Lachapelle","pop":96},"geometry":{"type":"Polygon","coordinates":[[[0.278,44.577],[0.281,44.576],[0.262,44.562],[0.24,44.568],[0.248,44.582],[0.278,44.577]]]}},{"type":"Feature","properties":{"code":"47127","nom":"Lafitte-sur-Lot","pop":832},"geometry":{"type":"Polygon","coordinates":[[[0.458,44.38],[0.462,44.356],[0.463,44.339],[0.446,44.335],[0.408,44.341],[0.4,44.357],[0.447,44.379],[0.451,44.383],[0.458,44.38]]]}},{"type":"Feature","properties":{"code":"47128","nom":"Lafox","pop":1098},"geometry":{"type":"Polygon","coordinates":[[[0.716,44.156],[0.672,44.162],[0.685,44.171],[0.724,44.173],[0.724,44.165],[0.716,44.156]]]}},{"type":"Feature","properties":{"code":"47129","nom":"Lagarrigue","pop":272},"geometry":{"type":"Polygon","coordinates":[[[0.375,44.282],[0.389,44.302],[0.401,44.289],[0.375,44.282]]]}},{"type":"Feature","properties":{"code":"47130","nom":"Lagruère","pop":351},"geometry":{"type":"Polygon","coordinates":[[[0.237,44.397],[0.239,44.403],[0.266,44.414],[0.287,44.402],[0.292,44.39],[0.259,44.381],[0.237,44.397]]]}},{"type":"Feature","properties":{"code":"47131","nom":"Lagupie","pop":680},"geometry":{"type":"Polygon","coordinates":[[[0.117,44.594],[0.117,44.594],[0.129,44.581],[0.122,44.554],[0.09,44.561],[0.11,44.59],[0.117,44.594]]]}},{"type":"Feature","properties":{"code":"47132","nom":"Lalandusse","pop":219},"geometry":{"type":"Polygon","coordinates":[[[0.512,44.647],[0.496,44.67],[0.522,44.679],[0.534,44.674],[0.552,44.65],[0.512,44.647]]]}},{"type":"Feature","properties":{"code":"47133","nom":"Lamontjoie","pop":553},"geometry":{"type":"Polygon","coordinates":[[[0.559,44.058],[0.539,44.053],[0.505,44.051],[0.486,44.059],[0.493,44.073],[0.537,44.086],[0.567,44.087],[0.585,44.077],[0.559,44.058]]]}},{"type":"Feature","properties":{"code":"47134","nom":"Lannes","pop":359},"geometry":{"type":"Polygon","coordinates":[[[0.273,43.998],[0.23,44.011],[0.233,44.023],[0.272,44.036],[0.279,44.05],[0.315,44.057],[0.325,44.038],[0.316,44.01],[0.306,43.994],[0.273,43.998]]]}},{"type":"Feature","properties":{"code":"47135","nom":"Laparade","pop":395},"geometry":{"type":"Polygon","coordinates":[[[0.451,44.383],[0.447,44.379],[0.415,44.397],[0.431,44.438],[0.446,44.437],[0.45,44.416],[0.471,44.39],[0.451,44.383]]]}},{"type":"Feature","properties":{"code":"47136","nom":"Laperche","pop":141},"geometry":{"type":"Polygon","coordinates":[[[0.403,44.566],[0.428,44.563],[0.433,44.538],[0.417,44.529],[0.401,44.524],[0.399,44.534],[0.403,44.566]]]}},{"type":"Feature","properties":{"code":"47137","nom":"Laplume","pop":1330},"geometry":{"type":"Polygon","coordinates":[[[0.538,44.165],[0.55,44.154],[0.549,44.123],[0.582,44.124],[0.601,44.114],[0.567,44.087],[0.537,44.086],[0.508,44.112],[0.474,44.118],[0.474,44.119],[0.514,44.129],[0.528,44.16],[0.538,44.165]]]}},{"type":"Feature","properties":{"code":"47138","nom":"Laroque-Timbaut","pop":1589},"geometry":{"type":"Polygon","coordinates":[[[0.778,44.254],[0.758,44.265],[0.725,44.259],[0.716,44.28],[0.718,44.303],[0.752,44.298],[0.796,44.285],[0.806,44.259],[0.778,44.254]]]}},{"type":"Feature","properties":{"code":"47139","nom":"Lasserre","pop":99},"geometry":{"type":"Polygon","coordinates":[[[0.368,44.087],[0.368,44.09],[0.378,44.094],[0.389,44.088],[0.408,44.066],[0.401,44.054],[0.376,44.064],[0.368,44.087]]]}},{"type":"Feature","properties":{"code":"47140","nom":"Laugnac","pop":675},"geometry":{"type":"Polygon","coordinates":[[[0.573,44.314],[0.622,44.316],[0.642,44.301],[0.645,44.29],[0.63,44.275],[0.621,44.289],[0.577,44.299],[0.557,44.295],[0.573,44.314]]]}},{"type":"Feature","properties":{"code":"47141","nom":"Laussou","pop":284},"geometry":{"type":"Polygon","coordinates":[[[0.794,44.558],[0.764,44.562],[0.751,44.594],[0.787,44.6],[0.813,44.587],[0.794,44.558]]]}},{"type":"Feature","properties":{"code":"47142","nom":"Lauzun","pop":735},"geometry":{"type":"Polygon","coordinates":[[[0.496,44.67],[0.512,44.647],[0.516,44.638],[0.5,44.635],[0.437,44.617],[0.417,44.645],[0.452,44.656],[0.471,44.67],[0.496,44.67]]]}},{"type":"Feature","properties":{"code":"47143","nom":"Lavardac","pop":2307},"geometry":{"type":"Polygon","coordinates":[[[0.277,44.199],[0.298,44.193],[0.342,44.198],[0.343,44.178],[0.308,44.167],[0.288,44.172],[0.258,44.189],[0.277,44.199]]]}},{"type":"Feature","properties":{"code":"47144","nom":"Lavergne","pop":554},"geometry":{"type":"Polygon","coordinates":[[[0.428,44.563],[0.403,44.566],[0.388,44.577],[0.377,44.599],[0.393,44.604],[0.441,44.603],[0.457,44.589],[0.436,44.564],[0.428,44.563]]]}},{"type":"Feature","properties":{"code":"47145","nom":"Layrac","pop":4010},"geometry":{"type":"Polygon","coordinates":[[[0.601,44.114],[0.64,44.149],[0.672,44.162],[0.68,44.143],[0.716,44.138],[0.718,44.123],[0.663,44.097],[0.606,44.087],[0.601,44.114]]]}},{"type":"Feature","properties":{"code":"47146","nom":"Lédat","pop":1431},"geometry":{"type":"Polygon","coordinates":[[[0.642,44.423],[0.663,44.444],[0.642,44.454],[0.679,44.478],[0.686,44.475],[0.674,44.464],[0.684,44.429],[0.642,44.423]]]}},{"type":"Feature","properties":{"code":"47147","nom":"Lévignac-de-Guyenne","pop":674},"geometry":{"type":"Polygon","coordinates":[[[0.223,44.593],[0.171,44.61],[0.165,44.633],[0.177,44.654],[0.218,44.637],[0.242,44.636],[0.223,44.593]]]}},{"type":"Feature","properties":{"code":"47148","nom":"Leyritz-Moncassin","pop":206},"geometry":{"type":"Polygon","coordinates":[[[0.138,44.325],[0.156,44.346],[0.189,44.359],[0.205,44.358],[0.223,44.343],[0.224,44.342],[0.197,44.318],[0.145,44.31],[0.137,44.318],[0.138,44.325]]]}},{"type":"Feature","properties":{"code":"47150","nom":"Longueville","pop":376},"geometry":{"type":"Polygon","coordinates":[[[0.237,44.468],[0.238,44.462],[0.219,44.452],[0.203,44.456],[0.224,44.474],[0.237,44.468]]]}},{"type":"Feature","properties":{"code":"47151","nom":"Loubès-Bernac","pop":407},"geometry":{"type":"Polygon","coordinates":[[[0.345,44.723],[0.344,44.709],[0.305,44.713],[0.295,44.721],[0.272,44.746],[0.272,44.753],[0.297,44.762],[0.307,44.758],[0.345,44.723]]]}},{"type":"Feature","properties":{"code":"47152","nom":"Lougratte","pop":421},"geometry":{"type":"Polygon","coordinates":[[[0.654,44.593],[0.654,44.567],[0.594,44.57],[0.59,44.598],[0.603,44.608],[0.628,44.618],[0.651,44.619],[0.654,44.593]]]}},{"type":"Feature","properties":{"code":"47154","nom":"Lusignan-Petit","pop":353},"geometry":{"type":"Polygon","coordinates":[[[0.488,44.267],[0.534,44.275],[0.539,44.259],[0.51,44.245],[0.491,44.259],[0.485,44.266],[0.488,44.267]]]}},{"type":"Feature","properties":{"code":"47155","nom":"Madaillan","pop":648},"geometry":{"type":"Polygon","coordinates":[[[0.587,44.254],[0.572,44.271],[0.539,44.259],[0.534,44.275],[0.557,44.295],[0.577,44.299],[0.621,44.289],[0.63,44.275],[0.604,44.257],[0.587,44.254]]]}},{"type":"Feature","properties":{"code":"47156","nom":"Marcellus","pop":892},"geometry":{"type":"Polygon","coordinates":[[[0.103,44.479],[0.069,44.456],[0.057,44.483],[0.076,44.502],[0.086,44.505],[0.103,44.479]]]}},{"type":"Feature","properties":{"code":"47157","nom":"Marmande","pop":17328},"geometry":{"type":"Polygon","coordinates":[[[0.182,44.477],[0.152,44.478],[0.124,44.461],[0.128,44.473],[0.141,44.494],[0.109,44.501],[0.125,44.519],[0.144,44.513],[0.167,44.543],[0.199,44.543],[0.22,44.535],[0.228,44.526],[0.202,44.503],[0.22,44.486],[0.182,44.477]]]}},{"type":"Feature","properties":{"code":"47158","nom":"Marmont-Pachas","pop":157},"geometry":{"type":"Polygon","coordinates":[[[0.601,44.078],[0.585,44.077],[0.567,44.087],[0.601,44.114],[0.601,44.114],[0.606,44.087],[0.601,44.078]]]}},{"type":"Feature","properties":{"code":"47159","nom":"Le Mas-d'Agenais","pop":1456},"geometry":{"type":"Polygon","coordinates":[[[0.239,44.403],[0.237,44.397],[0.211,44.387],[0.191,44.366],[0.163,44.394],[0.168,44.397],[0.21,44.431],[0.239,44.403]]]}},{"type":"Feature","properties":{"code":"47160","nom":"Masquières","pop":171},"geometry":{"type":"Polygon","coordinates":[[[1.062,44.402],[1.051,44.392],[1.024,44.385],[1.019,44.414],[1.047,44.431],[1.057,44.428],[1.062,44.402]]]}},{"type":"Feature","properties":{"code":"47161","nom":"Massels","pop":120},"geometry":{"type":"Polygon","coordinates":[[[0.873,44.324],[0.869,44.309],[0.837,44.312],[0.857,44.336],[0.873,44.324]]]}},{"type":"Feature","properties":{"code":"47162","nom":"Massoulès","pop":194},"geometry":{"type":"Polygon","coordinates":[[[0.892,44.35],[0.896,44.346],[0.883,44.329],[0.873,44.324],[0.857,44.336],[0.844,44.34],[0.839,44.347],[0.892,44.35]]]}},{"type":"Feature","properties":{"code":"47163","nom":"Mauvezin-sur-Gupie","pop":613},"geometry":{"type":"Polygon","coordinates":[[[0.199,44.543],[0.167,44.543],[0.144,44.552],[0.162,44.579],[0.194,44.577],[0.203,44.561],[0.199,44.543]]]}},{"type":"Feature","properties":{"code":"47164","nom":"Mazières-Naresse","pop":96},"geometry":{"type":"Polygon","coordinates":[[[0.685,44.676],[0.696,44.677],[0.729,44.676],[0.707,44.653],[0.719,44.635],[0.714,44.631],[0.687,44.649],[0.685,44.676]]]}},{"type":"Feature","properties":{"code":"47165","nom":"Meilhan-sur-Garonne","pop":1326},"geometry":{"type":"Polygon","coordinates":[[[0.021,44.542],[0.052,44.522],[0.076,44.502],[0.057,44.483],[0.013,44.475],[-0.001,44.482],[0,44.519],[0.005,44.522],[-0.001,44.552],[0.021,44.542]]]}},{"type":"Feature","properties":{"code":"47167","nom":"Mézin","pop":1433},"geometry":{"type":"Polygon","coordinates":[[[0.233,44.023],[0.219,44.021],[0.233,44.046],[0.239,44.071],[0.262,44.095],[0.31,44.089],[0.317,44.07],[0.315,44.057],[0.279,44.05],[0.272,44.036],[0.233,44.023]]]}},{"type":"Feature","properties":{"code":"47168","nom":"Miramont-de-Guyenne","pop":3081},"geometry":{"type":"Polygon","coordinates":[[[0.345,44.608],[0.351,44.614],[0.377,44.599],[0.388,44.577],[0.377,44.56],[0.344,44.559],[0.333,44.571],[0.328,44.577],[0.345,44.608]]]}},{"type":"Feature","properties":{"code":"47169","nom":"Moirax","pop":1197},"geometry":{"type":"Polygon","coordinates":[[[0.594,44.161],[0.619,44.165],[0.64,44.149],[0.601,44.114],[0.601,44.114],[0.582,44.124],[0.605,44.147],[0.577,44.158],[0.594,44.161]]]}},{"type":"Feature","properties":{"code":"47170","nom":"Monbahus","pop":626},"geometry":{"type":"Polygon","coordinates":[[[0.565,44.556],[0.557,44.537],[0.569,44.517],[0.56,44.504],[0.501,44.522],[0.47,44.55],[0.469,44.551],[0.492,44.567],[0.516,44.559],[0.565,44.556]]]}},{"type":"Feature","properties":{"code":"47171","nom":"Monbalen","pop":451},"geometry":{"type":"Polygon","coordinates":[[[0.747,44.333],[0.764,44.316],[0.752,44.298],[0.718,44.303],[0.706,44.311],[0.719,44.322],[0.747,44.333]]]}},{"type":"Feature","properties":{"code":"47172","nom":"Moncaut","pop":589},"geometry":{"type":"Polygon","coordinates":[[[0.486,44.17],[0.528,44.16],[0.514,44.129],[0.474,44.119],[0.466,44.135],[0.486,44.17]]]}},{"type":"Feature","properties":{"code":"47173","nom":"Monclar","pop":900},"geometry":{"type":"Polygon","coordinates":[[[0.514,44.418],[0.485,44.436],[0.49,44.443],[0.495,44.468],[0.545,44.469],[0.552,44.43],[0.538,44.429],[0.514,44.418]]]}},{"type":"Feature","properties":{"code":"47174","nom":"Moncrabeau","pop":745},"geometry":{"type":"Polygon","coordinates":[[[0.316,44.01],[0.325,44.038],[0.315,44.057],[0.317,44.07],[0.335,44.064],[0.368,44.087],[0.376,44.064],[0.401,44.054],[0.451,44.046],[0.45,44.044],[0.443,44.029],[0.397,44.022],[0.381,44.006],[0.353,44.016],[0.316,44.01]]]}},{"type":"Feature","properties":{"code":"47175","nom":"Monflanquin","pop":2342},"geometry":{"type":"Polygon","coordinates":[[[0.764,44.562],[0.794,44.558],[0.818,44.543],[0.822,44.522],[0.793,44.509],[0.776,44.499],[0.778,44.462],[0.747,44.472],[0.721,44.506],[0.699,44.527],[0.702,44.54],[0.717,44.559],[0.764,44.562]]]}},{"type":"Feature","properties":{"code":"47176","nom":"Montgaillard-en-Albret","pop":167},"geometry":{"type":"Polygon","coordinates":[[[0.277,44.199],[0.285,44.223],[0.309,44.226],[0.317,44.212],[0.298,44.193],[0.277,44.199]]]}},{"type":"Feature","properties":{"code":"47177","nom":"Monheurt","pop":190},"geometry":{"type":"Polygon","coordinates":[[[0.299,44.363],[0.309,44.341],[0.337,44.317],[0.329,44.31],[0.299,44.317],[0.28,44.354],[0.299,44.363]]]}},{"type":"Feature","properties":{"code":"47178","nom":"Monségur","pop":397},"geometry":{"type":"Polygon","coordinates":[[[0.883,44.507],[0.904,44.467],[0.868,44.469],[0.849,44.5],[0.858,44.502],[0.867,44.504],[0.883,44.507]]]}},{"type":"Feature","properties":{"code":"47179","nom":"Monsempron-Libos","pop":2122},"geometry":{"type":"Polygon","coordinates":[[[0.948,44.481],[0.941,44.478],[0.908,44.505],[0.932,44.521],[0.942,44.516],[0.948,44.481]]]}},{"type":"Feature","properties":{"code":"47180","nom":"Montagnac-sur-Auvignon","pop":641},"geometry":{"type":"Polygon","coordinates":[[[0.477,44.194],[0.485,44.191],[0.486,44.17],[0.466,44.135],[0.439,44.147],[0.421,44.168],[0.414,44.179],[0.477,44.194]]]}},{"type":"Feature","properties":{"code":"47181","nom":"Montagnac-sur-Lède","pop":271},"geometry":{"type":"Polygon","coordinates":[[[0.872,44.566],[0.867,44.504],[0.858,44.502],[0.822,44.522],[0.818,44.543],[0.855,44.576],[0.872,44.566]]]}},{"type":"Feature","properties":{"code":"47182","nom":"Montastruc","pop":232},"geometry":{"type":"Polygon","coordinates":[[[0.501,44.522],[0.56,44.504],[0.545,44.469],[0.495,44.468],[0.498,44.477],[0.474,44.5],[0.501,44.522]]]}},{"type":"Feature","properties":{"code":"47183","nom":"Montauriol","pop":226},"geometry":{"type":"Polygon","coordinates":[[[0.567,44.597],[0.567,44.597],[0.563,44.622],[0.58,44.635],[0.603,44.608],[0.59,44.598],[0.567,44.597]]]}},{"type":"Feature","properties":{"code":"47184","nom":"Montaut","pop":253},"geometry":{"type":"Polygon","coordinates":[[[0.651,44.623],[0.677,44.609],[0.716,44.63],[0.717,44.622],[0.707,44.596],[0.685,44.588],[0.654,44.593],[0.651,44.619],[0.651,44.623]]]}},{"type":"Feature","properties":{"code":"47185","nom":"Montayral","pop":2654},"geometry":{"type":"Polygon","coordinates":[[[0.993,44.444],[0.954,44.443],[0.948,44.457],[0.949,44.481],[0.977,44.497],[1.009,44.48],[1.023,44.475],[1.021,44.456],[0.993,44.444]]]}},{"type":"Feature","properties":{"code":"47186","nom":"Montesquieu","pop":733},"geometry":{"type":"Polygon","coordinates":[[[0.492,44.237],[0.472,44.209],[0.477,44.194],[0.414,44.179],[0.414,44.185],[0.435,44.222],[0.416,44.225],[0.423,44.235],[0.489,44.239],[0.492,44.237]]]}},{"type":"Feature","properties":{"code":"47187","nom":"Monteton","pop":323},"geometry":{"type":"Polygon","coordinates":[[[0.276,44.637],[0.276,44.613],[0.249,44.588],[0.223,44.593],[0.242,44.636],[0.242,44.638],[0.255,44.639],[0.276,44.637]]]}},{"type":"Feature","properties":{"code":"47188","nom":"Montignac-de-Lauzun","pop":286},"geometry":{"type":"Polygon","coordinates":[[[0.525,44.571],[0.516,44.559],[0.492,44.567],[0.469,44.551],[0.436,44.564],[0.457,44.589],[0.505,44.578],[0.525,44.571]]]}},{"type":"Feature","properties":{"code":"47189","nom":"Montignac-Toupinerie","pop":137},"geometry":{"type":"Polygon","coordinates":[[[0.377,44.56],[0.374,44.546],[0.332,44.539],[0.323,44.543],[0.344,44.559],[0.377,44.56]]]}},{"type":"Feature","properties":{"code":"47190","nom":"Montpezat","pop":566},"geometry":{"type":"Polygon","coordinates":[[[0.572,44.315],[0.526,44.317],[0.517,44.321],[0.516,44.341],[0.484,44.362],[0.482,44.37],[0.563,44.353],[0.566,44.349],[0.572,44.315]]]}},{"type":"Feature","properties":{"code":"47191","nom":"Montpouillan","pop":807},"geometry":{"type":"Polygon","coordinates":[[[0.124,44.461],[0.124,44.461],[0.107,44.46],[0.075,44.433],[0.07,44.434],[0.069,44.456],[0.103,44.479],[0.128,44.473],[0.124,44.461]]]}},{"type":"Feature","properties":{"code":"47192","nom":"Monviel","pop":76},"geometry":{"type":"Polygon","coordinates":[[[0.516,44.559],[0.525,44.571],[0.553,44.583],[0.566,44.564],[0.565,44.556],[0.516,44.559]]]}},{"type":"Feature","properties":{"code":"47193","nom":"Moulinet","pop":195},"geometry":{"type":"Polygon","coordinates":[[[0.569,44.517],[0.557,44.537],[0.565,44.556],[0.566,44.564],[0.582,44.572],[0.61,44.559],[0.592,44.544],[0.607,44.523],[0.569,44.517]]]}},{"type":"Feature","properties":{"code":"47194","nom":"Moustier","pop":324},"geometry":{"type":"Polygon","coordinates":[[[0.32,44.632],[0.305,44.632],[0.276,44.637],[0.305,44.659],[0.32,44.632]]]}},{"type":"Feature","properties":{"code":"47195","nom":"Nérac","pop":6992},"geometry":{"type":"Polygon","coordinates":[[[0.309,44.1],[0.28,44.121],[0.291,44.133],[0.299,44.15],[0.288,44.172],[0.308,44.167],[0.343,44.178],[0.398,44.15],[0.388,44.136],[0.415,44.111],[0.378,44.094],[0.368,44.09],[0.309,44.1]]]}},{"type":"Feature","properties":{"code":"47196","nom":"Nicole","pop":237},"geometry":{"type":"Polygon","coordinates":[[[0.336,44.341],[0.353,44.331],[0.352,44.33],[0.337,44.317],[0.309,44.341],[0.336,44.341]]]}},{"type":"Feature","properties":{"code":"47197","nom":"Nomdieu","pop":256},"geometry":{"type":"Polygon","coordinates":[[[0.46,44.056],[0.466,44.075],[0.446,44.089],[0.453,44.113],[0.465,44.11],[0.478,44.08],[0.493,44.073],[0.486,44.059],[0.46,44.056]]]}},{"type":"Feature","properties":{"code":"47198","nom":"Pailloles","pop":315},"geometry":{"type":"Polygon","coordinates":[[[0.626,44.466],[0.634,44.491],[0.656,44.495],[0.679,44.478],[0.642,44.454],[0.626,44.466]]]}},{"type":"Feature","properties":{"code":"47199","nom":"Pardaillan","pop":334},"geometry":{"type":"Polygon","coordinates":[[[0.255,44.639],[0.258,44.659],[0.241,44.671],[0.229,44.68],[0.274,44.695],[0.288,44.668],[0.306,44.66],[0.305,44.659],[0.276,44.637],[0.255,44.639]]]}},{"type":"Feature","properties":{"code":"47200","nom":"Parranquet","pop":113},"geometry":{"type":"Polygon","coordinates":[[[0.826,44.676],[0.852,44.669],[0.835,44.653],[0.79,44.651],[0.791,44.668],[0.826,44.676]]]}},{"type":"Feature","properties":{"code":"47201","nom":"Le Passage","pop":9326},"geometry":{"type":"Polygon","coordinates":[[[0.619,44.165],[0.594,44.161],[0.587,44.191],[0.587,44.193],[0.548,44.217],[0.603,44.213],[0.613,44.179],[0.619,44.165]]]}},{"type":"Feature","properties":{"code":"47202","nom":"Paulhiac","pop":304},"geometry":{"type":"Polygon","coordinates":[[[0.829,44.613],[0.858,44.598],[0.855,44.576],[0.818,44.543],[0.794,44.558],[0.813,44.587],[0.829,44.613]]]}},{"type":"Feature","properties":{"code":"47203","nom":"Penne-d'Agenais","pop":2496},"geometry":{"type":"Polygon","coordinates":[[[0.839,44.347],[0.79,44.361],[0.78,44.376],[0.783,44.39],[0.819,44.396],[0.842,44.419],[0.854,44.426],[0.883,44.398],[0.894,44.373],[0.892,44.35],[0.839,44.347]]]}},{"type":"Feature","properties":{"code":"47204","nom":"Peyrière","pop":293},"geometry":{"type":"Polygon","coordinates":[[[0.278,44.577],[0.299,44.592],[0.328,44.577],[0.333,44.571],[0.32,44.563],[0.281,44.576],[0.278,44.577]]]}},{"type":"Feature","properties":{"code":"47205","nom":"Pindères","pop":189},"geometry":{"type":"Polygon","coordinates":[[[0.046,44.295],[0.066,44.277],[0.017,44.247],[-0.058,44.248],[-0.063,44.242],[-0.067,44.246],[-0.053,44.266],[-0.033,44.272],[-0.035,44.297],[-0.001,44.303],[0.022,44.287],[0.046,44.295]]]}},{"type":"Feature","properties":{"code":"47206","nom":"Pinel-Hauterive","pop":564},"geometry":{"type":"Polygon","coordinates":[[[0.56,44.504],[0.561,44.504],[0.59,44.471],[0.593,44.442],[0.577,44.423],[0.552,44.43],[0.545,44.469],[0.56,44.504]]]}},{"type":"Feature","properties":{"code":"47207","nom":"Pompiey","pop":224},"geometry":{"type":"Polygon","coordinates":[[[0.167,44.199],[0.215,44.224],[0.227,44.217],[0.238,44.194],[0.209,44.176],[0.167,44.199]]]}},{"type":"Feature","properties":{"code":"47208","nom":"Pompogne","pop":192},"geometry":{"type":"Polygon","coordinates":[[[0.066,44.277],[0.084,44.273],[0.079,44.256],[0.106,44.247],[0.116,44.227],[0.075,44.228],[0.061,44.208],[0.01,44.219],[0.017,44.247],[0.066,44.277]]]}},{"type":"Feature","properties":{"code":"47209","nom":"Pont-du-Casse","pop":4191},"geometry":{"type":"Polygon","coordinates":[[[0.637,44.219],[0.649,44.247],[0.679,44.266],[0.698,44.236],[0.717,44.249],[0.726,44.237],[0.675,44.213],[0.653,44.215],[0.637,44.219]]]}},{"type":"Feature","properties":{"code":"47210","nom":"Port-Sainte-Marie","pop":1887},"geometry":{"type":"Polygon","coordinates":[[[0.404,44.284],[0.405,44.247],[0.389,44.248],[0.344,44.244],[0.335,44.269],[0.358,44.265],[0.375,44.282],[0.401,44.289],[0.404,44.284]]]}},{"type":"Feature","properties":{"code":"47211","nom":"Poudenas","pop":196},"geometry":{"type":"Polygon","coordinates":[[[0.219,44.021],[0.194,44.014],[0.19,44.015],[0.176,44.035],[0.166,44.064],[0.21,44.066],[0.233,44.046],[0.219,44.021]]]}},{"type":"Feature","properties":{"code":"47212","nom":"Poussignac","pop":309},"geometry":{"type":"Polygon","coordinates":[[[0.064,44.333],[0.049,44.341],[0.049,44.351],[0.071,44.371],[0.1,44.366],[0.103,44.356],[0.103,44.343],[0.064,44.333]]]}},{"type":"Feature","properties":{"code":"47213","nom":"Prayssas","pop":993},"geometry":{"type":"Polygon","coordinates":[[[0.534,44.275],[0.488,44.267],[0.473,44.284],[0.472,44.31],[0.499,44.3],[0.526,44.317],[0.572,44.315],[0.573,44.314],[0.557,44.295],[0.534,44.275]]]}},{"type":"Feature","properties":{"code":"47214","nom":"Puch-d'Agenais","pop":718},"geometry":{"type":"Polygon","coordinates":[[[0.247,44.308],[0.223,44.314],[0.224,44.342],[0.223,44.343],[0.262,44.354],[0.28,44.354],[0.299,44.317],[0.298,44.316],[0.254,44.309],[0.247,44.308]]]}},{"type":"Feature","properties":{"code":"47215","nom":"Pujols","pop":3769},"geometry":{"type":"Polygon","coordinates":[[[0.745,44.356],[0.703,44.354],[0.685,44.34],[0.656,44.377],[0.663,44.392],[0.694,44.396],[0.744,44.362],[0.745,44.356]]]}},{"type":"Feature","properties":{"code":"47216","nom":"Puymiclan","pop":701},"geometry":{"type":"Polygon","coordinates":[[[0.264,44.519],[0.301,44.54],[0.323,44.543],[0.332,44.539],[0.354,44.503],[0.322,44.482],[0.301,44.49],[0.275,44.504],[0.264,44.519]]]}},{"type":"Feature","properties":{"code":"47217","nom":"Puymirol","pop":899},"geometry":{"type":"Polygon","coordinates":[[[0.853,44.175],[0.824,44.18],[0.798,44.165],[0.78,44.172],[0.768,44.193],[0.787,44.212],[0.8,44.213],[0.811,44.21],[0.818,44.195],[0.86,44.193],[0.853,44.175]]]}},{"type":"Feature","properties":{"code":"47218","nom":"Puysserampion","pop":265},"geometry":{"type":"Polygon","coordinates":[[[0.299,44.592],[0.294,44.613],[0.308,44.616],[0.345,44.608],[0.328,44.577],[0.299,44.592]]]}},{"type":"Feature","properties":{"code":"47219","nom":"Rayet","pop":172},"geometry":{"type":"Polygon","coordinates":[[[0.763,44.69],[0.787,44.685],[0.791,44.668],[0.79,44.651],[0.785,44.65],[0.766,44.649],[0.761,44.668],[0.729,44.676],[0.763,44.69]]]}},{"type":"Feature","properties":{"code":"47220","nom":"Razimet","pop":309},"geometry":{"type":"Polygon","coordinates":[[[0.205,44.358],[0.253,44.363],[0.262,44.354],[0.223,44.343],[0.205,44.358]]]}},{"type":"Feature","properties":{"code":"47221","nom":"Réaup-Lisse","pop":591},"geometry":{"type":"Polygon","coordinates":[[[0.137,44.11],[0.136,44.124],[0.175,44.123],[0.216,44.136],[0.251,44.141],[0.291,44.133],[0.28,44.121],[0.262,44.095],[0.239,44.071],[0.233,44.046],[0.21,44.066],[0.166,44.064],[0.165,44.08],[0.137,44.11]]]}},{"type":"Feature","properties":{"code":"47222","nom":"La Réunion","pop":524},"geometry":{"type":"Polygon","coordinates":[[[0.142,44.267],[0.106,44.247],[0.079,44.256],[0.084,44.273],[0.115,44.306],[0.137,44.318],[0.145,44.31],[0.142,44.267]]]}},{"type":"Feature","properties":{"code":"47223","nom":"Rives","pop":194},"geometry":{"type":"Polygon","coordinates":[[[0.729,44.676],[0.761,44.668],[0.766,44.649],[0.719,44.635],[0.707,44.653],[0.729,44.676]]]}},{"type":"Feature","properties":{"code":"47224","nom":"Romestaing","pop":163},"geometry":{"type":"Polygon","coordinates":[[[0.019,44.389],[0.007,44.397],[-0.005,44.424],[0.014,44.44],[0.049,44.433],[0.043,44.418],[0.029,44.396],[0.028,44.392],[0.019,44.389]]]}},{"type":"Feature","properties":{"code":"47225","nom":"Roquefort","pop":2078},"geometry":{"type":"Polygon","coordinates":[[[0.587,44.191],[0.554,44.154],[0.55,44.154],[0.538,44.165],[0.547,44.189],[0.587,44.193],[0.587,44.191]]]}},{"type":"Feature","properties":{"code":"47226","nom":"Roumagne","pop":539},"geometry":{"type":"Polygon","coordinates":[[[0.346,44.64],[0.374,44.628],[0.351,44.614],[0.345,44.608],[0.308,44.616],[0.305,44.632],[0.32,44.632],[0.346,44.64]]]}},{"type":"Feature","properties":{"code":"47227","nom":"Ruffiac","pop":179},"geometry":{"type":"Polygon","coordinates":[[[0.049,44.351],[0.024,44.345],[0.015,44.367],[0.019,44.389],[0.028,44.392],[0.071,44.371],[0.049,44.351]]]}},{"type":"Feature","properties":{"code":"47228","nom":"Saint-Antoine-de-Ficalba","pop":721},"geometry":{"type":"Polygon","coordinates":[[[0.685,44.34],[0.703,44.354],[0.745,44.356],[0.747,44.333],[0.719,44.322],[0.693,44.332],[0.685,44.34]]]}},{"type":"Feature","properties":{"code":"47229","nom":"Saint-Astier","pop":203},"geometry":{"type":"Polygon","coordinates":[[[0.285,44.71],[0.242,44.723],[0.272,44.746],[0.295,44.721],[0.285,44.71]]]}},{"type":"Feature","properties":{"code":"47230","nom":"Saint-Aubin","pop":393},"geometry":{"type":"Polygon","coordinates":[[[0.822,44.459],[0.818,44.467],[0.808,44.492],[0.849,44.5],[0.868,44.469],[0.853,44.449],[0.822,44.459]]]}},{"type":"Feature","properties":{"code":"47231","nom":"Saint-Avit","pop":185},"geometry":{"type":"Polygon","coordinates":[[[0.249,44.588],[0.248,44.582],[0.24,44.568],[0.203,44.561],[0.194,44.577],[0.223,44.593],[0.249,44.588]]]}},{"type":"Feature","properties":{"code":"47232","nom":"Saint-Barthélemy-d'Agenais","pop":549},"geometry":{"type":"Polygon","coordinates":[[[0.399,44.534],[0.401,44.524],[0.392,44.514],[0.36,44.496],[0.354,44.503],[0.332,44.539],[0.374,44.546],[0.399,44.534]]]}},{"type":"Feature","properties":{"code":"47233","nom":"Sainte-Bazeille","pop":3171},"geometry":{"type":"Polygon","coordinates":[[[0.122,44.554],[0.138,44.543],[0.125,44.519],[0.109,44.501],[0.087,44.506],[0.072,44.54],[0.074,44.546],[0.09,44.561],[0.122,44.554]]]}},{"type":"Feature","properties":{"code":"47234","nom":"Saint-Caprais-de-Lerm","pop":713},"geometry":{"type":"Polygon","coordinates":[[[0.776,44.235],[0.777,44.233],[0.787,44.212],[0.768,44.193],[0.733,44.202],[0.722,44.208],[0.745,44.233],[0.776,44.235]]]}},{"type":"Feature","properties":{"code":"47235","nom":"Saint-Colomb-de-Lauzun","pop":473},"geometry":{"type":"Polygon","coordinates":[[[0.437,44.617],[0.5,44.635],[0.503,44.606],[0.505,44.578],[0.457,44.589],[0.441,44.603],[0.437,44.617]]]}},{"type":"Feature","properties":{"code":"47236","nom":"Sainte-Colombe-de-Duras","pop":98},"geometry":{"type":"Polygon","coordinates":[[[0.131,44.705],[0.139,44.696],[0.134,44.682],[0.103,44.686],[0.1,44.701],[0.131,44.705]]]}},{"type":"Feature","properties":{"code":"47237","nom":"Sainte-Colombe-de-Villeneuve","pop":496},"geometry":{"type":"Polygon","coordinates":[[[0.634,44.347],[0.628,44.36],[0.647,44.392],[0.663,44.392],[0.656,44.377],[0.685,44.34],[0.693,44.332],[0.671,44.331],[0.629,44.344],[0.634,44.347]]]}},{"type":"Feature","properties":{"code":"47238","nom":"Sainte-Colombe-en-Bruilhois","pop":1546},"geometry":{"type":"Polygon","coordinates":[[[0.523,44.215],[0.533,44.214],[0.547,44.189],[0.538,44.165],[0.528,44.16],[0.486,44.17],[0.485,44.191],[0.523,44.215]]]}},{"type":"Feature","properties":{"code":"47239","nom":"Saint-Étienne-de-Fougères","pop":855},"geometry":{"type":"Polygon","coordinates":[[[0.556,44.394],[0.551,44.398],[0.538,44.429],[0.552,44.43],[0.577,44.423],[0.556,44.394]]]}},{"type":"Feature","properties":{"code":"47240","nom":"Saint-Étienne-de-Villeréal","pop":261},"geometry":{"type":"Polygon","coordinates":[[[0.751,44.594],[0.733,44.615],[0.772,44.633],[0.79,44.618],[0.787,44.6],[0.751,44.594]]]}},{"type":"Feature","properties":{"code":"47241","nom":"Saint-Eutrope-de-Born","pop":690},"geometry":{"type":"Polygon","coordinates":[[[0.654,44.567],[0.654,44.593],[0.685,44.588],[0.707,44.596],[0.717,44.622],[0.733,44.615],[0.751,44.594],[0.764,44.562],[0.717,44.559],[0.702,44.54],[0.653,44.566],[0.654,44.567]]]}},{"type":"Feature","properties":{"code":"47242","nom":"Saint-Front-sur-Lémance","pop":492},"geometry":{"type":"Polygon","coordinates":[[[1.013,44.536],[0.982,44.544],[0.977,44.542],[0.972,44.565],[0.954,44.575],[1.002,44.59],[1.041,44.558],[1.013,44.536]]]}},{"type":"Feature","properties":{"code":"47244","nom":"Sainte-Gemme-Martaillac","pop":377},"geometry":{"type":"Polygon","coordinates":[[[0.189,44.359],[0.156,44.346],[0.128,44.37],[0.155,44.392],[0.163,44.394],[0.191,44.366],[0.189,44.359]]]}},{"type":"Feature","properties":{"code":"47245","nom":"Saint-Géraud","pop":85},"geometry":{"type":"Polygon","coordinates":[[[0.171,44.61],[0.158,44.606],[0.151,44.609],[0.139,44.627],[0.141,44.642],[0.165,44.633],[0.171,44.61]]]}},{"type":"Feature","properties":{"code":"47246","nom":"Saint-Hilaire-de-Lusignan","pop":1501},"geometry":{"type":"Polygon","coordinates":[[[0.587,44.254],[0.55,44.25],[0.532,44.227],[0.51,44.225],[0.492,44.237],[0.489,44.239],[0.491,44.259],[0.51,44.245],[0.539,44.259],[0.572,44.271],[0.587,44.254]]]}},{"type":"Feature","properties":{"code":"47247","nom":"Saint-Jean-de-Duras","pop":260},"geometry":{"type":"Polygon","coordinates":[[[0.285,44.71],[0.295,44.721],[0.305,44.713],[0.318,44.705],[0.327,44.668],[0.306,44.66],[0.288,44.668],[0.274,44.695],[0.285,44.71]]]}},{"type":"Feature","properties":{"code":"47248","nom":"Saint-Jean-de-Thurac","pop":563},"geometry":{"type":"Polygon","coordinates":[[[0.749,44.144],[0.747,44.146],[0.733,44.153],[0.716,44.156],[0.724,44.165],[0.765,44.162],[0.749,44.144]]]}},{"type":"Feature","properties":{"code":"47249","nom":"Saint-Laurent","pop":431},"geometry":{"type":"Polygon","coordinates":[[[0.405,44.247],[0.41,44.242],[0.423,44.235],[0.416,44.225],[0.396,44.232],[0.389,44.248],[0.405,44.247]]]}},{"type":"Feature","properties":{"code":"47250","nom":"Saint-Léger","pop":177},"geometry":{"type":"Polygon","coordinates":[[[0.329,44.31],[0.327,44.281],[0.311,44.281],[0.298,44.316],[0.299,44.317],[0.329,44.31]]]}},{"type":"Feature","properties":{"code":"47251","nom":"Saint-Léon","pop":329},"geometry":{"type":"Polygon","coordinates":[[[0.217,44.281],[0.247,44.308],[0.254,44.309],[0.245,44.268],[0.217,44.281]]]}},{"type":"Feature","properties":{"code":"47252","nom":"Sainte-Livrade-sur-Lot","pop":6541},"geometry":{"type":"Polygon","coordinates":[[[0.608,44.371],[0.553,44.385],[0.556,44.394],[0.577,44.423],[0.593,44.442],[0.641,44.421],[0.65,44.406],[0.619,44.406],[0.608,44.371]]]}},{"type":"Feature","properties":{"code":"47253","nom":"Sainte-Marthe","pop":658},"geometry":{"type":"Polygon","coordinates":[[[0.129,44.404],[0.137,44.415],[0.127,44.443],[0.153,44.433],[0.168,44.397],[0.163,44.394],[0.155,44.392],[0.129,44.404]]]}},{"type":"Feature","properties":{"code":"47254","nom":"Saint-Martin-Curton","pop":302},"geometry":{"type":"Polygon","coordinates":[[[-0.077,44.333],[-0.086,44.338],[-0.079,44.354],[-0.036,44.361],[-0.03,44.36],[0,44.339],[0.024,44.345],[0.049,44.351],[0.049,44.341],[-0.001,44.303],[-0.035,44.297],[-0.077,44.333]]]}},{"type":"Feature","properties":{"code":"47255","nom":"Saint-Martin-de-Beauville","pop":154},"geometry":{"type":"Polygon","coordinates":[[[0.819,44.25],[0.82,44.251],[0.839,44.226],[0.811,44.21],[0.8,44.213],[0.819,44.25]]]}},{"type":"Feature","properties":{"code":"47256","nom":"Saint-Martin-de-Villeréal","pop":103},"geometry":{"type":"Polygon","coordinates":[[[0.835,44.653],[0.817,44.627],[0.806,44.624],[0.785,44.65],[0.79,44.651],[0.835,44.653]]]}},{"type":"Feature","properties":{"code":"47257","nom":"Saint-Martin-Petit","pop":620},"geometry":{"type":"Polygon","coordinates":[[[0.082,44.584],[0.11,44.59],[0.09,44.561],[0.074,44.546],[0.069,44.548],[0.082,44.584]]]}},{"type":"Feature","properties":{"code":"47258","nom":"Sainte-Maure-de-Peyriac","pop":305},"geometry":{"type":"Polygon","coordinates":[[[0.161,43.974],[0.127,44.002],[0.124,44.016],[0.129,44.037],[0.176,44.035],[0.19,44.015],[0.167,43.997],[0.161,43.974]]]}},{"type":"Feature","properties":{"code":"47259","nom":"Saint-Maurice-de-Lestapel","pop":110},"geometry":{"type":"Polygon","coordinates":[[[0.553,44.583],[0.567,44.597],[0.59,44.598],[0.594,44.57],[0.582,44.572],[0.566,44.564],[0.553,44.583]]]}},{"type":"Feature","properties":{"code":"47260","nom":"Saint-Maurin","pop":377},"geometry":{"type":"Polygon","coordinates":[[[0.929,44.23],[0.903,44.19],[0.861,44.193],[0.865,44.225],[0.903,44.244],[0.919,44.238],[0.929,44.23]]]}},{"type":"Feature","properties":{"code":"47262","nom":"Saint-Nicolas-de-la-Balerme","pop":424},"geometry":{"type":"Polygon","coordinates":[[[0.747,44.146],[0.749,44.144],[0.762,44.14],[0.775,44.123],[0.74,44.125],[0.747,44.146]]]}},{"type":"Feature","properties":{"code":"47263","nom":"Saint-Pardoux-du-Breuil","pop":633},"geometry":{"type":"Polygon","coordinates":[[[0.177,44.462],[0.182,44.477],[0.22,44.486],[0.222,44.484],[0.224,44.474],[0.203,44.456],[0.177,44.462]]]}},{"type":"Feature","properties":{"code":"47264","nom":"Saint-Pardoux-Isaac","pop":1111},"geometry":{"type":"Polygon","coordinates":[[[0.404,44.619],[0.393,44.604],[0.377,44.599],[0.351,44.614],[0.374,44.628],[0.404,44.619]]]}},{"type":"Feature","properties":{"code":"47265","nom":"Saint-Pastour","pop":379},"geometry":{"type":"Polygon","coordinates":[[[0.561,44.504],[0.589,44.506],[0.634,44.491],[0.626,44.466],[0.59,44.471],[0.561,44.504]]]}},{"type":"Feature","properties":{"code":"47266","nom":"Saint-Pé-Saint-Simon","pop":182},"geometry":{"type":"Polygon","coordinates":[[[0.076,43.983],[0.062,44.018],[0.124,44.016],[0.127,44.002],[0.105,43.984],[0.076,43.983]]]}},{"type":"Feature","properties":{"code":"47267","nom":"Saint-Pierre-de-Buzet","pop":274},"geometry":{"type":"Polygon","coordinates":[[[0.284,44.281],[0.276,44.237],[0.246,44.249],[0.265,44.277],[0.284,44.281]]]}},{"type":"Feature","properties":{"code":"47269","nom":"Saint-Pierre-de-Clairac","pop":899},"geometry":{"type":"Polygon","coordinates":[[[0.768,44.193],[0.78,44.172],[0.765,44.162],[0.724,44.165],[0.724,44.173],[0.733,44.202],[0.768,44.193]]]}},{"type":"Feature","properties":{"code":"47271","nom":"Saint-Pierre-sur-Dropt","pop":359},"geometry":{"type":"Polygon","coordinates":[[[0.242,44.636],[0.218,44.637],[0.177,44.654],[0.183,44.661],[0.224,44.649],[0.242,44.638],[0.242,44.636]]]}},{"type":"Feature","properties":{"code":"47272","nom":"Saint-Quentin-du-Dropt","pop":180},"geometry":{"type":"Polygon","coordinates":[[[0.62,44.691],[0.626,44.668],[0.61,44.666],[0.581,44.673],[0.567,44.671],[0.591,44.697],[0.62,44.691]]]}},{"type":"Feature","properties":{"code":"47273","nom":"Saint-Robert","pop":190},"geometry":{"type":"Polygon","coordinates":[[[0.777,44.233],[0.776,44.235],[0.778,44.254],[0.806,44.259],[0.808,44.256],[0.777,44.233]]]}},{"type":"Feature","properties":{"code":"47274","nom":"Saint-Romain-le-Noble","pop":412},"geometry":{"type":"Polygon","coordinates":[[[0.787,44.143],[0.762,44.14],[0.749,44.144],[0.765,44.162],[0.78,44.172],[0.798,44.165],[0.799,44.15],[0.787,44.143]]]}},{"type":"Feature","properties":{"code":"47275","nom":"Saint-Salvy","pop":200},"geometry":{"type":"Polygon","coordinates":[[[0.42,44.314],[0.451,44.318],[0.472,44.31],[0.473,44.284],[0.438,44.288],[0.431,44.292],[0.42,44.314]]]}},{"type":"Feature","properties":{"code":"47276","nom":"Saint-Sardos","pop":289},"geometry":{"type":"Polygon","coordinates":[[[0.484,44.362],[0.516,44.341],[0.517,44.321],[0.486,44.32],[0.463,44.339],[0.462,44.356],[0.484,44.362]]]}},{"type":"Feature","properties":{"code":"47277","nom":"Saint-Sauveur-de-Meilhan","pop":341},"geometry":{"type":"Polygon","coordinates":[[[-0.003,44.461],[-0.016,44.49],[-0.016,44.505],[0,44.519],[-0.001,44.482],[0.013,44.475],[-0.003,44.461]]]}},{"type":"Feature","properties":{"code":"47278","nom":"Saint-Sernin","pop":454},"geometry":{"type":"Polygon","coordinates":[[[0.242,44.723],[0.285,44.71],[0.274,44.695],[0.229,44.68],[0.208,44.698],[0.201,44.722],[0.219,44.727],[0.242,44.723]]]}},{"type":"Feature","properties":{"code":"47279","nom":"Saint-Sixte","pop":363},"geometry":{"type":"Polygon","coordinates":[[[0.797,44.13],[0.799,44.111],[0.775,44.117],[0.775,44.123],[0.762,44.14],[0.787,44.143],[0.788,44.143],[0.797,44.13]]]}},{"type":"Feature","properties":{"code":"47280","nom":"Saint-Sylvestre-sur-Lot","pop":2397},"geometry":{"type":"Polygon","coordinates":[[[0.783,44.39],[0.794,44.412],[0.781,44.434],[0.818,44.448],[0.842,44.419],[0.819,44.396],[0.783,44.39]]]}},{"type":"Feature","properties":{"code":"47281","nom":"Saint-Urcisse","pop":242},"geometry":{"type":"Polygon","coordinates":[[[0.798,44.165],[0.824,44.18],[0.853,44.175],[0.864,44.174],[0.829,44.156],[0.799,44.15],[0.798,44.165]]]}},{"type":"Feature","properties":{"code":"47282","nom":"Saint-Vincent-de-Lamontjoie","pop":223},"geometry":{"type":"Polygon","coordinates":[[[0.474,44.118],[0.508,44.112],[0.537,44.086],[0.493,44.073],[0.478,44.08],[0.465,44.11],[0.474,44.118]]]}},{"type":"Feature","properties":{"code":"47283","nom":"Saint-Vite","pop":1192},"geometry":{"type":"Polygon","coordinates":[[[0.941,44.478],[0.948,44.481],[0.949,44.481],[0.948,44.457],[0.905,44.463],[0.907,44.465],[0.941,44.478]]]}},{"type":"Feature","properties":{"code":"47284","nom":"Salles","pop":288},"geometry":{"type":"Polygon","coordinates":[[[0.867,44.504],[0.872,44.566],[0.921,44.54],[0.932,44.521],[0.908,44.505],[0.883,44.507],[0.867,44.504]]]}},{"type":"Feature","properties":{"code":"47285","nom":"Samazan","pop":835},"geometry":{"type":"Polygon","coordinates":[[[0.081,44.423],[0.075,44.433],[0.107,44.46],[0.124,44.461],[0.127,44.443],[0.137,44.415],[0.081,44.423]]]}},{"type":"Feature","properties":{"code":"47286","nom":"Sauméjan","pop":85},"geometry":{"type":"Polygon","coordinates":[[[0.017,44.247],[0.01,44.219],[-0.026,44.206],[-0.063,44.242],[-0.058,44.248],[0.017,44.247]]]}},{"type":"Feature","properties":{"code":"47287","nom":"Saumont","pop":240},"geometry":{"type":"Polygon","coordinates":[[[0.445,44.118],[0.439,44.147],[0.466,44.135],[0.474,44.119],[0.474,44.118],[0.465,44.11],[0.453,44.113],[0.445,44.118]]]}},{"type":"Feature","properties":{"code":"47288","nom":"Sauvagnas","pop":519},"geometry":{"type":"Polygon","coordinates":[[[0.725,44.259],[0.758,44.265],[0.778,44.254],[0.776,44.235],[0.745,44.233],[0.726,44.237],[0.717,44.249],[0.725,44.259]]]}},{"type":"Feature","properties":{"code":"47289","nom":"La Sauvetat-de-Savères","pop":479},"geometry":{"type":"Polygon","coordinates":[[[0.787,44.212],[0.777,44.233],[0.808,44.256],[0.819,44.25],[0.8,44.213],[0.787,44.212]]]}},{"type":"Feature","properties":{"code":"47290","nom":"La Sauvetat-du-Dropt","pop":567},"geometry":{"type":"Polygon","coordinates":[[[0.305,44.659],[0.306,44.66],[0.327,44.668],[0.349,44.661],[0.355,44.655],[0.346,44.64],[0.32,44.632],[0.305,44.659]]]}},{"type":"Feature","properties":{"code":"47291","nom":"La Sauvetat-sur-Lède","pop":643},"geometry":{"type":"Polygon","coordinates":[[[0.747,44.472],[0.71,44.46],[0.686,44.475],[0.701,44.501],[0.721,44.506],[0.747,44.472]]]}},{"type":"Feature","properties":{"code":"47292","nom":"Sauveterre-la-Lémance","pop":563},"geometry":{"type":"Polygon","coordinates":[[[1.012,44.616],[1.034,44.609],[1.073,44.596],[1.075,44.577],[1.042,44.558],[1.041,44.558],[1.002,44.59],[1.012,44.616]]]}},{"type":"Feature","properties":{"code":"47293","nom":"Sauveterre-Saint-Denis","pop":387},"geometry":{"type":"Polygon","coordinates":[[[0.672,44.162],[0.716,44.156],[0.733,44.153],[0.716,44.138],[0.68,44.143],[0.672,44.162],[0.672,44.162]]]}},{"type":"Feature","properties":{"code":"47294","nom":"Savignac-de-Duras","pop":219},"geometry":{"type":"Polygon","coordinates":[[[0.185,44.749],[0.201,44.722],[0.208,44.698],[0.184,44.69],[0.162,44.702],[0.161,44.734],[0.18,44.745],[0.185,44.749]]]}},{"type":"Feature","properties":{"code":"47295","nom":"Savignac-sur-Leyze","pop":321},"geometry":{"type":"Polygon","coordinates":[[[0.818,44.467],[0.778,44.462],[0.776,44.499],[0.793,44.509],[0.808,44.492],[0.818,44.467]]]}},{"type":"Feature","properties":{"code":"47296","nom":"Ségalas","pop":155},"geometry":{"type":"Polygon","coordinates":[[[0.505,44.578],[0.503,44.606],[0.567,44.597],[0.567,44.597],[0.553,44.583],[0.525,44.571],[0.505,44.578]]]}},{"type":"Feature","properties":{"code":"47297","nom":"Sembas","pop":142},"geometry":{"type":"Polygon","coordinates":[[[0.671,44.331],[0.671,44.311],[0.642,44.301],[0.622,44.316],[0.621,44.338],[0.629,44.344],[0.671,44.331]]]}},{"type":"Feature","properties":{"code":"47298","nom":"Sénestis","pop":200},"geometry":{"type":"Polygon","coordinates":[[[0.21,44.431],[0.21,44.436],[0.24,44.436],[0.261,44.431],[0.266,44.414],[0.239,44.403],[0.21,44.431]]]}},{"type":"Feature","properties":{"code":"47299","nom":"Sérignac-Péboudou","pop":178},"geometry":{"type":"Polygon","coordinates":[[[0.567,44.597],[0.503,44.606],[0.5,44.635],[0.516,44.638],[0.532,44.622],[0.563,44.622],[0.567,44.597]]]}},{"type":"Feature","properties":{"code":"47300","nom":"Sérignac-sur-Garonne","pop":1182},"geometry":{"type":"Polygon","coordinates":[[[0.485,44.191],[0.477,44.194],[0.472,44.209],[0.492,44.237],[0.51,44.225],[0.523,44.215],[0.485,44.191]]]}},{"type":"Feature","properties":{"code":"47301","nom":"Seyches","pop":1063},"geometry":{"type":"Polygon","coordinates":[[[0.323,44.543],[0.301,44.54],[0.264,44.519],[0.246,44.536],[0.262,44.562],[0.281,44.576],[0.32,44.563],[0.333,44.571],[0.344,44.559],[0.323,44.543]]]}},{"type":"Feature","properties":{"code":"47302","nom":"Sos","pop":657},"geometry":{"type":"Polygon","coordinates":[[[0.062,44.018],[0.06,44.025],[0.072,44.025],[0.101,44.087],[0.137,44.11],[0.165,44.08],[0.166,44.064],[0.176,44.035],[0.129,44.037],[0.124,44.016],[0.062,44.018]]]}},{"type":"Feature","properties":{"code":"47303","nom":"Soumensac","pop":224},"geometry":{"type":"Polygon","coordinates":[[[0.359,44.691],[0.349,44.661],[0.327,44.668],[0.318,44.705],[0.305,44.713],[0.344,44.709],[0.359,44.691]]]}},{"type":"Feature","properties":{"code":"47304","nom":"Taillebourg","pop":67},"geometry":{"type":"Polygon","coordinates":[[[0.21,44.436],[0.176,44.445],[0.177,44.462],[0.203,44.456],[0.219,44.452],[0.24,44.436],[0.21,44.436]]]}},{"type":"Feature","properties":{"code":"47305","nom":"Tayrac","pop":381},"geometry":{"type":"Polygon","coordinates":[[[0.86,44.193],[0.818,44.195],[0.811,44.21],[0.839,44.226],[0.865,44.225],[0.861,44.193],[0.86,44.193]]]}},{"type":"Feature","properties":{"code":"47306","nom":"Le Temple-sur-Lot","pop":1118},"geometry":{"type":"Polygon","coordinates":[[[0.551,44.398],[0.556,44.394],[0.553,44.385],[0.563,44.353],[0.482,44.37],[0.475,44.376],[0.486,44.39],[0.519,44.382],[0.551,44.398]]]}},{"type":"Feature","properties":{"code":"47307","nom":"Thézac","pop":211},"geometry":{"type":"Polygon","coordinates":[[[1.021,44.456],[1.047,44.431],[1.019,44.414],[1.001,44.421],[0.993,44.444],[1.021,44.456]]]}},{"type":"Feature","properties":{"code":"47308","nom":"Thouars-sur-Garonne","pop":228},"geometry":{"type":"Polygon","coordinates":[[[0.331,44.238],[0.326,44.239],[0.334,44.273],[0.335,44.269],[0.344,44.244],[0.331,44.238]]]}},{"type":"Feature","properties":{"code":"47309","nom":"Tombebœuf","pop":443},"geometry":{"type":"Polygon","coordinates":[[[0.428,44.563],[0.436,44.564],[0.469,44.551],[0.47,44.55],[0.459,44.541],[0.474,44.5],[0.498,44.477],[0.485,44.489],[0.439,44.498],[0.442,44.52],[0.417,44.529],[0.433,44.538],[0.428,44.563]]]}},{"type":"Feature","properties":{"code":"47310","nom":"Tonneins","pop":9459},"geometry":{"type":"Polygon","coordinates":[[[0.292,44.39],[0.287,44.402],[0.326,44.428],[0.359,44.406],[0.373,44.4],[0.36,44.394],[0.336,44.341],[0.309,44.341],[0.299,44.363],[0.292,44.39]]]}},{"type":"Feature","properties":{"code":"47311","nom":"Tourliac","pop":137},"geometry":{"type":"Polygon","coordinates":[[[0.832,44.684],[0.826,44.676],[0.791,44.668],[0.787,44.685],[0.797,44.702],[0.832,44.684]]]}},{"type":"Feature","properties":{"code":"47312","nom":"Tournon-d'Agenais","pop":731},"geometry":{"type":"Polygon","coordinates":[[[1.028,44.364],[0.997,44.369],[0.952,44.395],[0.96,44.401],[1.001,44.421],[1.019,44.414],[1.024,44.385],[1.028,44.364]]]}},{"type":"Feature","properties":{"code":"47313","nom":"Tourtrès","pop":140},"geometry":{"type":"Polygon","coordinates":[[[0.406,44.499],[0.392,44.514],[0.401,44.524],[0.417,44.529],[0.442,44.52],[0.439,44.498],[0.434,44.491],[0.406,44.499]]]}},{"type":"Feature","properties":{"code":"47314","nom":"Trémons","pop":409},"geometry":{"type":"Polygon","coordinates":[[[0.854,44.426],[0.901,44.439],[0.911,44.425],[0.906,44.395],[0.883,44.398],[0.854,44.426]]]}},{"type":"Feature","properties":{"code":"47315","nom":"Trentels","pop":843},"geometry":{"type":"Polygon","coordinates":[[[0.822,44.459],[0.853,44.449],[0.868,44.469],[0.904,44.467],[0.907,44.465],[0.905,44.463],[0.901,44.439],[0.854,44.426],[0.842,44.419],[0.818,44.448],[0.822,44.459]]]}},{"type":"Feature","properties":{"code":"47316","nom":"Varès","pop":655},"geometry":{"type":"Polygon","coordinates":[[[0.388,44.441],[0.366,44.433],[0.359,44.406],[0.326,44.428],[0.326,44.431],[0.327,44.442],[0.369,44.457],[0.388,44.441]]]}},{"type":"Feature","properties":{"code":"47317","nom":"Verteuil-d'Agenais","pop":539},"geometry":{"type":"Polygon","coordinates":[[[0.406,44.499],[0.434,44.491],[0.434,44.469],[0.422,44.439],[0.388,44.441],[0.369,44.457],[0.367,44.473],[0.406,44.499]]]}},{"type":"Feature","properties":{"code":"47318","nom":"Vianne","pop":979},"geometry":{"type":"Polygon","coordinates":[[[0.326,44.239],[0.331,44.238],[0.342,44.198],[0.298,44.193],[0.317,44.212],[0.309,44.226],[0.326,44.239]]]}},{"type":"Feature","properties":{"code":"47319","nom":"Villebramar","pop":109},"geometry":{"type":"Polygon","coordinates":[[[0.47,44.55],[0.501,44.522],[0.474,44.5],[0.459,44.541],[0.47,44.55]]]}},{"type":"Feature","properties":{"code":"47320","nom":"Villefranche-du-Queyran","pop":415},"geometry":{"type":"Polygon","coordinates":[[[0.224,44.342],[0.223,44.314],[0.247,44.308],[0.217,44.281],[0.19,44.271],[0.197,44.318],[0.224,44.342]]]}},{"type":"Feature","properties":{"code":"47321","nom":"Villeneuve-de-Duras","pop":315},"geometry":{"type":"Polygon","coordinates":[[[0.272,44.746],[0.242,44.723],[0.219,44.727],[0.21,44.741],[0.225,44.761],[0.272,44.753],[0.272,44.746]]]}},{"type":"Feature","properties":{"code":"47323","nom":"Villeneuve-sur-Lot","pop":22350},"geometry":{"type":"Polygon","coordinates":[[[0.747,44.472],[0.778,44.462],[0.818,44.467],[0.822,44.459],[0.818,44.448],[0.781,44.434],[0.794,44.412],[0.783,44.39],[0.78,44.376],[0.744,44.362],[0.694,44.396],[0.684,44.429],[0.674,44.464],[0.686,44.475],[0.686,44.475],[0.71,44.46],[0.747,44.472]]]}},{"type":"Feature","properties":{"code":"47324","nom":"Villeréal","pop":1261},"geometry":{"type":"Polygon","coordinates":[[[0.716,44.63],[0.714,44.631],[0.719,44.635],[0.766,44.649],[0.785,44.65],[0.806,44.624],[0.79,44.618],[0.772,44.633],[0.733,44.615],[0.717,44.622],[0.716,44.63]]]}},{"type":"Feature","properties":{"code":"47325","nom":"Villeton","pop":475},"geometry":{"type":"Polygon","coordinates":[[[0.262,44.354],[0.253,44.363],[0.259,44.381],[0.292,44.39],[0.299,44.363],[0.28,44.354],[0.262,44.354]]]}},{"type":"Feature","properties":{"code":"47326","nom":"Virazeil","pop":1715},"geometry":{"type":"Polygon","coordinates":[[[0.246,44.536],[0.264,44.519],[0.275,44.504],[0.222,44.484],[0.22,44.486],[0.202,44.503],[0.228,44.526],[0.22,44.535],[0.246,44.536]]]}},{"type":"Feature","properties":{"code":"47327","nom":"Xaintrailles","pop":378},"geometry":{"type":"Polygon","coordinates":[[[0.227,44.217],[0.26,44.215],[0.275,44.229],[0.285,44.223],[0.277,44.199],[0.258,44.189],[0.238,44.194],[0.227,44.217]]]}},{"type":"Feature","properties":{"code":"47328","nom":"Saint-Georges","pop":492},"geometry":{"type":"Polygon","coordinates":[[[0.954,44.443],[0.941,44.418],[0.911,44.425],[0.901,44.439],[0.905,44.463],[0.948,44.457],[0.954,44.443]]]}}]}