{"type":"FeatureCollection","features":[{"type":"Feature","properties":{"code":"56001","nom":"Allaire"},"geometry":{"type":"Polygon","coordinates":[[[-2.194,47.59],[-2.193,47.619],[-2.231,47.63],[-2.219,47.651],[-2.198,47.674],[-2.147,47.679],[-2.131,47.666],[-2.136,47.624],[-2.169,47.614],[-2.171,47.589],[-2.194,47.59]]]}},{"type":"Feature","properties":{"code":"56002","nom":"Ambon"},"geometry":{"type":"Polygon","coordinates":[[[-2.583,47.537],[-2.585,47.573],[-2.558,47.597],[-2.526,47.6],[-2.524,47.594],[-2.535,47.573],[-2.494,47.557],[-2.491,47.536],[-2.5,47.518],[-2.544,47.523],[-2.583,47.537]]]}},{"type":"Feature","properties":{"code":"56003","nom":"Arradon"},"geometry":{"type":"Polygon","coordinates":[[[-2.815,47.657],[-2.778,47.627],[-2.801,47.618],[-2.867,47.618],[-2.863,47.632],[-2.847,47.649],[-2.815,47.657]]]}},{"type":"Feature","properties":{"code":"56004","nom":"Arzal"},"geometry":{"type":"Polygon","coordinates":[[[-2.411,47.553],[-2.38,47.543],[-2.38,47.525],[-2.358,47.508],[-2.379,47.497],[-2.384,47.499],[-2.442,47.499],[-2.446,47.519],[-2.423,47.528],[-2.411,47.553]]]}},{"type":"Feature","properties":{"code":"56005","nom":"Arzon"},"geometry":{"type":"Polygon","coordinates":[[[-2.869,47.53],[-2.913,47.543],[-2.894,47.555],[-2.862,47.54],[-2.869,47.53]]]}},{"type":"Feature","properties":{"code":"56006","nom":"Augan"},"geometry":{"type":"Polygon","coordinates":[[[-2.225,47.903],[-2.24,47.883],[-2.27,47.882],[-2.331,47.896],[-2.314,47.922],[-2.304,47.936],[-2.213,47.942],[-2.225,47.903]]]}},{"type":"Feature","properties":{"code":"56007","nom":"Auray"},"geometry":{"type":"Polygon","coordinates":[[[-2.981,47.656],[-3.013,47.667],[-2.979,47.679],[-2.973,47.655],[-2.981,47.656]]]}},{"type":"Feature","properties":{"code":"56008","nom":"Baden"},"geometry":{"type":"Polygon","coordinates":[[[-2.883,47.643],[-2.863,47.632],[-2.867,47.618],[-2.888,47.603],[-2.907,47.605],[-2.911,47.592],[-2.942,47.598],[-2.935,47.625],[-2.914,47.63],[-2.883,47.643]]]}},{"type":"Feature","properties":{"code":"56009","nom":"Bangor"},"geometry":{"type":"Polygon","coordinates":[[[-3.135,47.316],[-3.158,47.292],[-3.218,47.293],[-3.248,47.314],[-3.237,47.324],[-3.197,47.336],[-3.135,47.316]]]}},{"type":"Feature","properties":{"code":"56010","nom":"Baud"},"geometry":{"type":"Polygon","coordinates":[[[-3.043,47.828],[-3.06,47.831],[-3.066,47.87],[-3.111,47.883],[-3.076,47.885],[-3.078,47.91],[-3.014,47.911],[-2.955,47.874],[-2.965,47.857],[-3.023,47.86],[-3.043,47.828]]]}},{"type":"Feature","properties":{"code":"56011","nom":"Béganne"},"geometry":{"type":"Polygon","coordinates":[[[-2.283,47.575],[-2.298,47.599],[-2.256,47.629],[-2.231,47.63],[-2.193,47.619],[-2.194,47.59],[-2.209,47.587],[-2.241,47.576],[-2.283,47.575]]]}},{"type":"Feature","properties":{"code":"56012","nom":"Beignon"},"geometry":{"type":"Polygon","coordinates":[[[-2.138,47.98],[-2.123,47.964],[-2.154,47.964],[-2.157,47.945],[-2.171,47.94],[-2.213,47.942],[-2.214,47.993],[-2.173,47.98],[-2.138,47.98]]]}},{"type":"Feature","properties":{"code":"56013","nom":"Belz"},"geometry":{"type":"Polygon","coordinates":[[[-3.136,47.661],[-3.185,47.658],[-3.187,47.661],[-3.152,47.693],[-3.125,47.681],[-3.136,47.661]]]}},{"type":"Feature","properties":{"code":"56014","nom":"Berné"},"geometry":{"type":"Polygon","coordinates":[[[-3.337,47.977],[-3.36,47.943],[-3.393,47.951],[-3.404,47.967],[-3.415,47.998],[-3.407,48.023],[-3.381,48.016],[-3.359,48.015],[-3.324,47.988],[-3.337,47.977]]]}},{"type":"Feature","properties":{"code":"56015","nom":"Berric"},"geometry":{"type":"Polygon","coordinates":[[[-2.566,47.629],[-2.558,47.652],[-2.495,47.659],[-2.487,47.634],[-2.528,47.618],[-2.566,47.629]]]}},{"type":"Feature","properties":{"code":"56017","nom":"Bignan"},"geometry":{"type":"Polygon","coordinates":[[[-2.771,47.906],[-2.74,47.887],[-2.693,47.909],[-2.673,47.899],[-2.707,47.865],[-2.74,47.867],[-2.772,47.838],[-2.8,47.843],[-2.821,47.873],[-2.822,47.892],[-2.771,47.906]]]}},{"type":"Feature","properties":{"code":"56018","nom":"Billiers"},"geometry":{"type":"Polygon","coordinates":[[[-2.5,47.518],[-2.491,47.536],[-2.467,47.512],[-2.5,47.518]]]}},{"type":"Feature","properties":{"code":"56019","nom":"Billio"},"geometry":{"type":"Polygon","coordinates":[[[-2.628,47.884],[-2.61,47.861],[-2.672,47.851],[-2.677,47.862],[-2.671,47.877],[-2.628,47.884]]]}},{"type":"Feature","properties":{"code":"56020","nom":"Bohal"},"geometry":{"type":"Polygon","coordinates":[[[-2.451,47.768],[-2.465,47.763],[-2.466,47.792],[-2.442,47.801],[-2.423,47.786],[-2.451,47.768]]]}},{"type":"Feature","properties":{"code":"56021","nom":"Brandérion"},"geometry":{"type":"Polygon","coordinates":[[[-3.202,47.779],[-3.214,47.802],[-3.183,47.802],[-3.174,47.779],[-3.202,47.779]]]}},{"type":"Feature","properties":{"code":"56022","nom":"Brandivy"},"geometry":{"type":"Polygon","coordinates":[[[-2.955,47.749],[-2.947,47.772],[-2.956,47.793],[-2.923,47.82],[-2.911,47.818],[-2.877,47.817],[-2.898,47.805],[-2.912,47.764],[-2.918,47.747],[-2.955,47.749]]]}},{"type":"Feature","properties":{"code":"56023","nom":"Brech"},"geometry":{"type":"Polygon","coordinates":[[[-2.99,47.732],[-2.989,47.711],[-2.979,47.679],[-3.013,47.667],[-3.03,47.669],[-3.052,47.683],[-3.048,47.705],[-3.073,47.728],[-3.055,47.746],[-2.99,47.732]]]}},{"type":"Feature","properties":{"code":"56024","nom":"Bréhan"},"geometry":{"type":"Polygon","coordinates":[[[-2.651,48.111],[-2.65,48.097],[-2.673,48.064],[-2.659,48.045],[-2.656,48.033],[-2.658,48.008],[-2.707,48.026],[-2.738,48.062],[-2.704,48.112],[-2.676,48.132],[-2.653,48.12],[-2.651,48.111]]]}},{"type":"Feature","properties":{"code":"56025","nom":"Brignac"},"geometry":{"type":"Polygon","coordinates":[[[-2.419,48.093],[-2.424,48.109],[-2.401,48.131],[-2.375,48.131],[-2.362,48.114],[-2.387,48.091],[-2.419,48.093]]]}},{"type":"Feature","properties":{"code":"56026","nom":"Bubry"},"geometry":{"type":"Polygon","coordinates":[[[-3.185,48.025],[-3.172,48.034],[-3.157,48.035],[-3.132,48.007],[-3.145,47.962],[-3.115,47.945],[-3.142,47.926],[-3.178,47.921],[-3.201,47.906],[-3.214,47.913],[-3.222,47.931],[-3.205,47.946],[-3.233,47.984],[-3.197,48.002],[-3.185,48.025]]]}},{"type":"Feature","properties":{"code":"56027","nom":"Buléon"},"geometry":{"type":"Polygon","coordinates":[[[-2.688,47.946],[-2.652,47.939],[-2.652,47.916],[-2.673,47.899],[-2.693,47.909],[-2.698,47.924],[-2.688,47.946]]]}},{"type":"Feature","properties":{"code":"56028","nom":"Caden"},"geometry":{"type":"Polygon","coordinates":[[[-2.256,47.629],[-2.298,47.599],[-2.32,47.614],[-2.345,47.627],[-2.342,47.671],[-2.259,47.661],[-2.245,47.658],[-2.256,47.629]]]}},{"type":"Feature","properties":{"code":"56029","nom":"Calan"},"geometry":{"type":"Polygon","coordinates":[[[-3.317,47.857],[-3.335,47.876],[-3.332,47.896],[-3.279,47.892],[-3.292,47.875],[-3.317,47.857]]]}},{"type":"Feature","properties":{"code":"56030","nom":"Camoël"},"geometry":{"type":"Polygon","coordinates":[[[-2.378,47.463],[-2.417,47.46],[-2.423,47.477],[-2.424,47.489],[-2.384,47.499],[-2.379,47.497],[-2.378,47.463]]]}},{"type":"Feature","properties":{"code":"56031","nom":"Camors"},"geometry":{"type":"Polygon","coordinates":[[[-2.965,47.857],[-2.953,47.827],[-3.022,47.793],[-3.048,47.799],[-3.043,47.828],[-3.023,47.86],[-2.965,47.857]]]}},{"type":"Feature","properties":{"code":"56032","nom":"Campénéac"},"geometry":{"type":"Polygon","coordinates":[[[-2.288,47.992],[-2.239,48],[-2.214,47.993],[-2.213,47.942],[-2.304,47.936],[-2.314,47.922],[-2.34,47.938],[-2.346,47.945],[-2.35,47.96],[-2.343,47.975],[-2.303,47.99],[-2.288,47.992]]]}},{"type":"Feature","properties":{"code":"56033","nom":"Carentoir"},"geometry":{"type":"Polygon","coordinates":[[[-2.055,47.869],[-2.055,47.869],[-2.051,47.857],[-2.036,47.834],[-2.047,47.819],[-2.072,47.799],[-2.112,47.805],[-2.129,47.792],[-2.19,47.786],[-2.2,47.779],[-2.194,47.814],[-2.21,47.854],[-2.157,47.854],[-2.11,47.849],[-2.069,47.852],[-2.055,47.869]]]}},{"type":"Feature","properties":{"code":"56034","nom":"Carnac"},"geometry":{"type":"Polygon","coordinates":[[[-3.036,47.639],[-3.026,47.608],[-3.052,47.578],[-3.09,47.565],[-3.103,47.584],[-3.088,47.605],[-3.107,47.626],[-3.106,47.638],[-3.036,47.639]]]}},{"type":"Feature","properties":{"code":"56035","nom":"Caro"},"geometry":{"type":"Polygon","coordinates":[[[-2.27,47.882],[-2.282,47.847],[-2.323,47.838],[-2.393,47.832],[-2.399,47.836],[-2.39,47.859],[-2.36,47.867],[-2.331,47.896],[-2.27,47.882]]]}},{"type":"Feature","properties":{"code":"56036","nom":"Caudan"},"geometry":{"type":"Polygon","coordinates":[[[-3.316,47.851],[-3.281,47.827],[-3.3,47.796],[-3.329,47.777],[-3.366,47.768],[-3.369,47.77],[-3.395,47.808],[-3.391,47.823],[-3.343,47.851],[-3.316,47.851]]]}},{"type":"Feature","properties":{"code":"56039","nom":"La Chapelle-Neuve"},"geometry":{"type":"Polygon","coordinates":[[[-2.926,47.891],[-2.905,47.882],[-2.921,47.845],[-2.915,47.825],[-2.911,47.818],[-2.923,47.82],[-2.953,47.827],[-2.965,47.857],[-2.955,47.874],[-2.926,47.891]]]}},{"type":"Feature","properties":{"code":"56040","nom":"Cléguer"},"geometry":{"type":"Polygon","coordinates":[[[-3.332,47.896],[-3.335,47.876],[-3.317,47.857],[-3.316,47.851],[-3.343,47.851],[-3.391,47.823],[-3.398,47.863],[-3.402,47.885],[-3.347,47.902],[-3.332,47.896]]]}},{"type":"Feature","properties":{"code":"56041","nom":"Cléguérec"},"geometry":{"type":"Polygon","coordinates":[[[-3.014,48.089],[-3.049,48.098],[-3.089,48.097],[-3.131,48.12],[-3.131,48.137],[-3.135,48.147],[-3.102,48.152],[-3.072,48.169],[-3.012,48.155],[-3.011,48.121],[-2.996,48.1],[-3.014,48.089]]]}},{"type":"Feature","properties":{"code":"56042","nom":"Colpo"},"geometry":{"type":"Polygon","coordinates":[[[-2.857,47.815],[-2.85,47.825],[-2.8,47.843],[-2.772,47.838],[-2.766,47.803],[-2.779,47.791],[-2.805,47.791],[-2.857,47.815]]]}},{"type":"Feature","properties":{"code":"56043","nom":"Concoret"},"geometry":{"type":"Polygon","coordinates":[[[-2.182,48.083],[-2.168,48.076],[-2.194,48.051],[-2.25,48.048],[-2.256,48.063],[-2.219,48.081],[-2.182,48.083]]]}},{"type":"Feature","properties":{"code":"56044","nom":"Cournon"},"geometry":{"type":"Polygon","coordinates":[[[-2.128,47.761],[-2.086,47.763],[-2.062,47.751],[-2.059,47.738],[-2.109,47.736],[-2.128,47.761]]]}},{"type":"Feature","properties":{"code":"56045","nom":"Le Cours"},"geometry":{"type":"Polygon","coordinates":[[[-2.523,47.733],[-2.54,47.761],[-2.533,47.769],[-2.482,47.761],[-2.485,47.731],[-2.523,47.733]]]}},{"type":"Feature","properties":{"code":"56046","nom":"Crach"},"geometry":{"type":"Polygon","coordinates":[[[-2.981,47.603],[-3.023,47.592],[-3.026,47.608],[-3.036,47.639],[-3.03,47.669],[-3.013,47.667],[-2.981,47.656],[-2.956,47.617],[-2.972,47.607],[-2.981,47.603]]]}},{"type":"Feature","properties":{"code":"56047","nom":"Crédin"},"geometry":{"type":"Polygon","coordinates":[[[-2.804,48.036],[-2.798,48.059],[-2.786,48.072],[-2.738,48.062],[-2.707,48.026],[-2.73,48.027],[-2.746,48.007],[-2.789,48.012],[-2.804,48.036]]]}},{"type":"Feature","properties":{"code":"56048","nom":"Le Croisty"},"geometry":{"type":"Polygon","coordinates":[[[-3.385,48.03],[-3.403,48.04],[-3.401,48.072],[-3.343,48.088],[-3.344,48.049],[-3.363,48.055],[-3.385,48.03]]]}},{"type":"Feature","properties":{"code":"56050","nom":"La Croix-Helléan"},"geometry":{"type":"Polygon","coordinates":[[[-2.511,47.992],[-2.499,47.99],[-2.484,47.948],[-2.529,47.951],[-2.542,47.967],[-2.511,47.992]]]}},{"type":"Feature","properties":{"code":"56051","nom":"Cruguel"},"geometry":{"type":"Polygon","coordinates":[[[-2.628,47.884],[-2.594,47.906],[-2.592,47.883],[-2.552,47.881],[-2.554,47.867],[-2.567,47.855],[-2.61,47.861],[-2.628,47.884]]]}},{"type":"Feature","properties":{"code":"56052","nom":"Damgan"},"geometry":{"type":"Polygon","coordinates":[[[-2.634,47.511],[-2.617,47.526],[-2.583,47.537],[-2.544,47.523],[-2.634,47.511]]]}},{"type":"Feature","properties":{"code":"56053","nom":"Elven"},"geometry":{"type":"Polygon","coordinates":[[[-2.54,47.761],[-2.523,47.733],[-2.537,47.709],[-2.553,47.691],[-2.573,47.69],[-2.619,47.7],[-2.639,47.727],[-2.666,47.744],[-2.665,47.762],[-2.63,47.771],[-2.54,47.761]]]}},{"type":"Feature","properties":{"code":"56054","nom":"Erdeven"},"geometry":{"type":"Polygon","coordinates":[[[-3.185,47.658],[-3.136,47.661],[-3.11,47.661],[-3.106,47.638],[-3.107,47.626],[-3.133,47.624],[-3.159,47.607],[-3.197,47.624],[-3.204,47.649],[-3.185,47.658]]]}},{"type":"Feature","properties":{"code":"56055","nom":"Étel"},"geometry":{"type":"Polygon","coordinates":[[[-3.185,47.658],[-3.204,47.649],[-3.187,47.661],[-3.185,47.658]]]}},{"type":"Feature","properties":{"code":"56056","nom":"Évriguet"},"geometry":{"type":"Polygon","coordinates":[[[-2.387,48.077],[-2.417,48.08],[-2.419,48.093],[-2.387,48.091],[-2.387,48.077]]]}},{"type":"Feature","properties":{"code":"56057","nom":"Le Faouët"},"geometry":{"type":"Polygon","coordinates":[[[-3.531,48.035],[-3.556,48.048],[-3.543,48.085],[-3.478,48.071],[-3.48,48.046],[-3.467,48.016],[-3.477,48.001],[-3.531,48.035]]]}},{"type":"Feature","properties":{"code":"56058","nom":"Férel"},"geometry":{"type":"Polygon","coordinates":[[[-2.299,47.516],[-2.317,47.461],[-2.378,47.463],[-2.379,47.497],[-2.358,47.508],[-2.309,47.519],[-2.299,47.516]]]}},{"type":"Feature","properties":{"code":"56060","nom":"Les Fougerêts"},"geometry":{"type":"Polygon","coordinates":[[[-2.215,47.777],[-2.193,47.773],[-2.164,47.759],[-2.172,47.727],[-2.212,47.725],[-2.228,47.737],[-2.215,47.777]]]}},{"type":"Feature","properties":{"code":"56061","nom":"La Gacilly"},"geometry":{"type":"Polygon","coordinates":[[[-2.072,47.799],[-2.074,47.789],[-2.128,47.761],[-2.109,47.736],[-2.129,47.718],[-2.166,47.723],[-2.172,47.727],[-2.164,47.759],[-2.193,47.773],[-2.2,47.779],[-2.19,47.786],[-2.129,47.792],[-2.112,47.805],[-2.072,47.799]]]}},{"type":"Feature","properties":{"code":"56062","nom":"Gâvres"},"geometry":{"type":"Polygon","coordinates":[[[-3.301,47.691],[-3.304,47.69],[-3.322,47.694],[-3.323,47.699],[-3.301,47.691]]]}},{"type":"Feature","properties":{"code":"56063","nom":"Gestel"},"geometry":{"type":"Polygon","coordinates":[[[-3.44,47.827],[-3.417,47.813],[-3.451,47.795],[-3.44,47.827]]]}},{"type":"Feature","properties":{"code":"56065","nom":"Gourhel"},"geometry":{"type":"Polygon","coordinates":[[[-2.346,47.945],[-2.34,47.938],[-2.368,47.932],[-2.372,47.946],[-2.346,47.945]]]}},{"type":"Feature","properties":{"code":"56066","nom":"Gourin"},"geometry":{"type":"Polygon","coordinates":[[[-3.599,48.081],[-3.626,48.079],[-3.646,48.096],[-3.677,48.092],[-3.66,48.116],[-3.672,48.152],[-3.621,48.171],[-3.565,48.186],[-3.552,48.18],[-3.529,48.157],[-3.525,48.127],[-3.546,48.132],[-3.594,48.114],[-3.599,48.081]]]}},{"type":"Feature","properties":{"code":"56067","nom":"Grand-Champ"},"geometry":{"type":"Polygon","coordinates":[[[-2.877,47.817],[-2.857,47.815],[-2.805,47.791],[-2.81,47.752],[-2.792,47.727],[-2.79,47.72],[-2.817,47.708],[-2.877,47.709],[-2.872,47.753],[-2.912,47.764],[-2.898,47.805],[-2.877,47.817]]]}},{"type":"Feature","properties":{"code":"56068","nom":"La Grée-Saint-Laurent"},"geometry":{"type":"Polygon","coordinates":[[[-2.499,47.99],[-2.511,47.992],[-2.526,48.007],[-2.497,48.019],[-2.481,47.989],[-2.499,47.99]]]}},{"type":"Feature","properties":{"code":"56069","nom":"Groix"},"geometry":{"type":"Polygon","coordinates":[[[-3.515,47.647],[-3.497,47.654],[-3.43,47.642],[-3.463,47.62],[-3.515,47.647]]]}},{"type":"Feature","properties":{"code":"56070","nom":"Guégon"},"geometry":{"type":"Polygon","coordinates":[[[-2.652,47.939],[-2.636,47.965],[-2.632,47.969],[-2.575,47.952],[-2.54,47.943],[-2.528,47.931],[-2.527,47.9],[-2.552,47.881],[-2.592,47.883],[-2.594,47.906],[-2.635,47.922],[-2.652,47.916],[-2.652,47.939]]]}},{"type":"Feature","properties":{"code":"56071","nom":"Guéhenno"},"geometry":{"type":"Polygon","coordinates":[[[-2.594,47.906],[-2.628,47.884],[-2.671,47.877],[-2.677,47.862],[-2.707,47.865],[-2.673,47.899],[-2.652,47.916],[-2.635,47.922],[-2.594,47.906]]]}},{"type":"Feature","properties":{"code":"56072","nom":"Gueltas"},"geometry":{"type":"Polygon","coordinates":[[[-2.783,48.112],[-2.775,48.087],[-2.786,48.072],[-2.798,48.059],[-2.814,48.068],[-2.849,48.078],[-2.852,48.101],[-2.851,48.102],[-2.819,48.116],[-2.783,48.112]]]}},{"type":"Feature","properties":{"code":"56073","nom":"Guémené-sur-Scorff"},"geometry":{"type":"Polygon","coordinates":[[[-3.217,48.062],[-3.211,48.072],[-3.194,48.07],[-3.203,48.061],[-3.217,48.062]]]}},{"type":"Feature","properties":{"code":"56074","nom":"Guénin"},"geometry":{"type":"Polygon","coordinates":[[[-2.926,47.891],[-2.955,47.874],[-3.014,47.911],[-2.995,47.93],[-2.946,47.923],[-2.926,47.909],[-2.926,47.891]]]}},{"type":"Feature","properties":{"code":"56075","nom":"Guer"},"geometry":{"type":"Polygon","coordinates":[[[-2.093,47.902],[-2.116,47.88],[-2.096,47.862],[-2.11,47.849],[-2.157,47.854],[-2.144,47.871],[-2.177,47.905],[-2.171,47.94],[-2.157,47.945],[-2.119,47.961],[-2.105,47.952],[-2.078,47.919],[-2.082,47.909],[-2.093,47.902]]]}},{"type":"Feature","properties":{"code":"56076","nom":"Guern"},"geometry":{"type":"Polygon","coordinates":[[[-3.017,48.026],[-3.057,48.012],[-3.132,48.007],[-3.157,48.035],[-3.172,48.034],[-3.168,48.05],[-3.14,48.068],[-3.123,48.073],[-3.092,48.051],[-3.029,48.037],[-3.017,48.026]]]}},{"type":"Feature","properties":{"code":"56077","nom":"Le Guerno"},"geometry":{"type":"Polygon","coordinates":[[[-2.408,47.572],[-2.424,47.593],[-2.394,47.615],[-2.388,47.613],[-2.38,47.58],[-2.408,47.572]]]}},{"type":"Feature","properties":{"code":"56078","nom":"Guidel"},"geometry":{"type":"Polygon","coordinates":[[[-3.54,47.823],[-3.519,47.849],[-3.488,47.824],[-3.458,47.837],[-3.44,47.827],[-3.451,47.795],[-3.454,47.762],[-3.502,47.738],[-3.53,47.774],[-3.523,47.797],[-3.54,47.823]]]}},{"type":"Feature","properties":{"code":"56079","nom":"Guillac"},"geometry":{"type":"Polygon","coordinates":[[[-2.462,47.9],[-2.495,47.924],[-2.528,47.931],[-2.54,47.943],[-2.529,47.951],[-2.484,47.948],[-2.472,47.946],[-2.437,47.918],[-2.437,47.888],[-2.462,47.9]]]}},{"type":"Feature","properties":{"code":"56080","nom":"Guilliers"},"geometry":{"type":"Polygon","coordinates":[[[-2.417,48.08],[-2.387,48.077],[-2.366,48.066],[-2.359,48.046],[-2.389,48.03],[-2.442,48.018],[-2.441,48.04],[-2.465,48.055],[-2.449,48.075],[-2.417,48.08]]]}},{"type":"Feature","properties":{"code":"56081","nom":"Guiscriff"},"geometry":{"type":"Polygon","coordinates":[[[-3.613,47.985],[-3.641,47.986],[-3.661,48.015],[-3.674,48.059],[-3.692,48.063],[-3.695,48.094],[-3.677,48.092],[-3.646,48.096],[-3.626,48.079],[-3.599,48.081],[-3.556,48.048],[-3.531,48.035],[-3.584,48.011],[-3.59,47.989],[-3.613,47.985]]]}},{"type":"Feature","properties":{"code":"56082","nom":"Helléan"},"geometry":{"type":"Polygon","coordinates":[[[-2.484,47.948],[-2.499,47.99],[-2.481,47.989],[-2.475,47.989],[-2.472,47.946],[-2.484,47.948]]]}},{"type":"Feature","properties":{"code":"56083","nom":"Hennebont"},"geometry":{"type":"Polygon","coordinates":[[[-3.295,47.794],[-3.3,47.796],[-3.281,47.827],[-3.255,47.82],[-3.234,47.831],[-3.238,47.804],[-3.283,47.78],[-3.295,47.794]]]}},{"type":"Feature","properties":{"code":"56084","nom":"Le Hézo"},"geometry":{"type":"Polygon","coordinates":[[[-2.708,47.592],[-2.685,47.59],[-2.691,47.566],[-2.713,47.591],[-2.708,47.592]]]}},{"type":"Feature","properties":{"code":"56085","nom":"Hœdic"},"geometry":{"type":"Polygon","coordinates":[[[-2.892,47.346],[-2.865,47.337],[-2.88,47.333],[-2.892,47.346]]]}},{"type":"Feature","properties":{"code":"56086","nom":"Île-d'Houat"},"geometry":{"type":"Polygon","coordinates":[[[-2.995,47.394],[-2.99,47.401],[-2.971,47.393],[-2.952,47.391],[-2.961,47.384],[-2.974,47.386],[-2.982,47.393],[-2.995,47.394]]]}},{"type":"Feature","properties":{"code":"56087","nom":"Île-aux-Moines"},"geometry":{"type":"Polygon","coordinates":[[[-2.862,47.569],[-2.857,47.581],[-2.851,47.578],[-2.854,47.566],[-2.862,47.569]]]}},{"type":"Feature","properties":{"code":"56088","nom":"Île-d'Arz"},"geometry":{"type":"Polygon","coordinates":[[[-2.817,47.585],[-2.813,47.591],[-2.796,47.598],[-2.807,47.581],[-2.817,47.585]]]}},{"type":"Feature","properties":{"code":"56089","nom":"Inguiniel"},"geometry":{"type":"Polygon","coordinates":[[[-3.306,47.995],[-3.269,47.998],[-3.25,47.988],[-3.233,47.984],[-3.205,47.946],[-3.222,47.931],[-3.214,47.913],[-3.272,47.908],[-3.287,47.961],[-3.337,47.977],[-3.324,47.988],[-3.306,47.995]]]}},{"type":"Feature","properties":{"code":"56090","nom":"Inzinzac-Lochrist"},"geometry":{"type":"Polygon","coordinates":[[[-3.281,47.827],[-3.316,47.851],[-3.317,47.857],[-3.292,47.875],[-3.25,47.878],[-3.225,47.898],[-3.199,47.885],[-3.199,47.865],[-3.234,47.831],[-3.255,47.82],[-3.281,47.827]]]}},{"type":"Feature","properties":{"code":"56091","nom":"Josselin"},"geometry":{"type":"Polygon","coordinates":[[[-2.529,47.951],[-2.54,47.943],[-2.575,47.952],[-2.542,47.967],[-2.529,47.951]]]}},{"type":"Feature","properties":{"code":"56092","nom":"Kerfourn"},"geometry":{"type":"Polygon","coordinates":[[[-2.814,48.068],[-2.798,48.059],[-2.804,48.036],[-2.819,48.026],[-2.882,48.023],[-2.87,48.05],[-2.814,48.068]]]}},{"type":"Feature","properties":{"code":"56093","nom":"Kergrist"},"geometry":{"type":"Polygon","coordinates":[[[-2.907,48.126],[-2.956,48.125],[-2.979,48.161],[-2.963,48.169],[-2.892,48.165],[-2.878,48.151],[-2.907,48.126]]]}},{"type":"Feature","properties":{"code":"56094","nom":"Kervignac"},"geometry":{"type":"Polygon","coordinates":[[[-3.214,47.802],[-3.202,47.779],[-3.201,47.755],[-3.25,47.74],[-3.3,47.743],[-3.315,47.745],[-3.283,47.78],[-3.238,47.804],[-3.214,47.802]]]}},{"type":"Feature","properties":{"code":"56096","nom":"Landaul"},"geometry":{"type":"Polygon","coordinates":[[[-3.156,47.73],[-3.151,47.742],[-3.125,47.753],[-3.079,47.761],[-3.055,47.746],[-3.073,47.728],[-3.156,47.73]]]}},{"type":"Feature","properties":{"code":"56097","nom":"Landévant"},"geometry":{"type":"Polygon","coordinates":[[[-3.116,47.802],[-3.082,47.791],[-3.079,47.761],[-3.125,47.753],[-3.151,47.742],[-3.149,47.769],[-3.116,47.802]]]}},{"type":"Feature","properties":{"code":"56098","nom":"Lanester"},"geometry":{"type":"Polygon","coordinates":[[[-3.3,47.796],[-3.295,47.794],[-3.303,47.765],[-3.342,47.741],[-3.364,47.761],[-3.366,47.768],[-3.329,47.777],[-3.3,47.796]]]}},{"type":"Feature","properties":{"code":"56099","nom":"Langoëlan"},"geometry":{"type":"Polygon","coordinates":[[[-3.204,48.13],[-3.215,48.121],[-3.2,48.086],[-3.208,48.083],[-3.261,48.109],[-3.271,48.141],[-3.253,48.149],[-3.211,48.142],[-3.204,48.13]]]}},{"type":"Feature","properties":{"code":"56100","nom":"Langonnet"},"geometry":{"type":"Polygon","coordinates":[[[-3.48,48.186],[-3.445,48.187],[-3.428,48.178],[-3.436,48.155],[-3.418,48.146],[-3.411,48.135],[-3.432,48.105],[-3.478,48.071],[-3.543,48.085],[-3.525,48.127],[-3.529,48.157],[-3.552,48.18],[-3.497,48.183],[-3.48,48.186]]]}},{"type":"Feature","properties":{"code":"56101","nom":"Languidic"},"geometry":{"type":"Polygon","coordinates":[[[-3.19,47.888],[-3.137,47.89],[-3.111,47.883],[-3.066,47.87],[-3.06,47.831],[-3.116,47.802],[-3.149,47.769],[-3.174,47.779],[-3.183,47.802],[-3.214,47.802],[-3.238,47.804],[-3.234,47.831],[-3.199,47.865],[-3.199,47.885],[-3.19,47.888]]]}},{"type":"Feature","properties":{"code":"56102","nom":"Forges de Lanouée"},"geometry":{"type":"Polygon","coordinates":[[[-2.575,47.952],[-2.632,47.969],[-2.658,48.008],[-2.656,48.033],[-2.628,48.034],[-2.581,48.066],[-2.548,48.076],[-2.548,48.076],[-2.543,48.06],[-2.508,48.025],[-2.497,48.019],[-2.526,48.007],[-2.511,47.992],[-2.542,47.967],[-2.575,47.952]]]}},{"type":"Feature","properties":{"code":"56103","nom":"Lantillac"},"geometry":{"type":"Polygon","coordinates":[[[-2.636,47.965],[-2.652,47.939],[-2.688,47.946],[-2.675,47.958],[-2.636,47.965]]]}},{"type":"Feature","properties":{"code":"56104","nom":"Lanvaudan"},"geometry":{"type":"Polygon","coordinates":[[[-3.199,47.885],[-3.225,47.898],[-3.25,47.878],[-3.292,47.875],[-3.279,47.892],[-3.272,47.908],[-3.214,47.913],[-3.201,47.906],[-3.19,47.888],[-3.199,47.885]]]}},{"type":"Feature","properties":{"code":"56105","nom":"Lanvénégen"},"geometry":{"type":"Polygon","coordinates":[[[-3.497,47.977],[-3.531,47.989],[-3.59,47.989],[-3.584,48.011],[-3.531,48.035],[-3.477,48.001],[-3.497,47.977]]]}},{"type":"Feature","properties":{"code":"56106","nom":"Larmor-Baden"},"geometry":{"type":"Polygon","coordinates":[[[-2.911,47.592],[-2.907,47.605],[-2.888,47.603],[-2.911,47.592]]]}},{"type":"Feature","properties":{"code":"56107","nom":"Larmor-Plage"},"geometry":{"type":"Polygon","coordinates":[[[-3.412,47.702],[-3.395,47.731],[-3.368,47.725],[-3.385,47.703],[-3.412,47.702]]]}},{"type":"Feature","properties":{"code":"56108","nom":"Larré"},"geometry":{"type":"Polygon","coordinates":[[[-2.485,47.731],[-2.447,47.712],[-2.484,47.692],[-2.493,47.704],[-2.537,47.709],[-2.523,47.733],[-2.485,47.731]]]}},{"type":"Feature","properties":{"code":"56109","nom":"Lauzach"},"geometry":{"type":"Polygon","coordinates":[[[-2.582,47.6],[-2.585,47.611],[-2.582,47.616],[-2.566,47.629],[-2.528,47.618],[-2.526,47.6],[-2.558,47.597],[-2.582,47.6]]]}},{"type":"Feature","properties":{"code":"56110","nom":"Lignol"},"geometry":{"type":"Polygon","coordinates":[[[-3.25,47.988],[-3.269,47.998],[-3.306,47.995],[-3.313,48.036],[-3.309,48.045],[-3.242,48.062],[-3.223,48.055],[-3.222,48.045],[-3.248,48.018],[-3.25,47.988]]]}},{"type":"Feature","properties":{"code":"56111","nom":"Limerzel"},"geometry":{"type":"Polygon","coordinates":[[[-2.32,47.614],[-2.355,47.604],[-2.388,47.613],[-2.394,47.615],[-2.4,47.619],[-2.397,47.641],[-2.374,47.653],[-2.374,47.676],[-2.342,47.671],[-2.345,47.627],[-2.32,47.614]]]}},{"type":"Feature","properties":{"code":"56112","nom":"Lizio"},"geometry":{"type":"Polygon","coordinates":[[[-2.49,47.887],[-2.482,47.856],[-2.513,47.857],[-2.532,47.843],[-2.57,47.846],[-2.567,47.855],[-2.554,47.867],[-2.537,47.863],[-2.515,47.888],[-2.49,47.887]]]}},{"type":"Feature","properties":{"code":"56113","nom":"Locmalo"},"geometry":{"type":"Polygon","coordinates":[[[-3.2,48.086],[-3.158,48.085],[-3.14,48.068],[-3.168,48.05],[-3.172,48.034],[-3.185,48.025],[-3.222,48.045],[-3.223,48.055],[-3.217,48.062],[-3.203,48.061],[-3.194,48.07],[-3.211,48.072],[-3.208,48.083],[-3.2,48.086]]]}},{"type":"Feature","properties":{"code":"56114","nom":"Locmaria"},"geometry":{"type":"Polygon","coordinates":[[[-3.135,47.316],[-3.122,47.323],[-3.064,47.308],[-3.094,47.283],[-3.158,47.292],[-3.135,47.316]]]}},{"type":"Feature","properties":{"code":"56115","nom":"Locmaria-Grand-Champ"},"geometry":{"type":"Polygon","coordinates":[[[-2.779,47.791],[-2.77,47.738],[-2.792,47.727],[-2.81,47.752],[-2.805,47.791],[-2.779,47.791]]]}},{"type":"Feature","properties":{"code":"56116","nom":"Locmariaquer"},"geometry":{"type":"Polygon","coordinates":[[[-2.989,47.584],[-2.981,47.603],[-2.972,47.607],[-2.935,47.561],[-2.958,47.559],[-2.989,47.584]]]}},{"type":"Feature","properties":{"code":"56117","nom":"Locminé"},"geometry":{"type":"Polygon","coordinates":[[[-2.857,47.869],[-2.848,47.895],[-2.822,47.892],[-2.821,47.873],[-2.857,47.869]]]}},{"type":"Feature","properties":{"code":"56118","nom":"Locmiquélic"},"geometry":{"type":"Polygon","coordinates":[[[-3.34,47.716],[-3.343,47.716],[-3.348,47.734],[-3.315,47.745],[-3.3,47.743],[-3.301,47.742],[-3.34,47.716]]]}},{"type":"Feature","properties":{"code":"56119","nom":"Locoal-Mendon"},"geometry":{"type":"Polygon","coordinates":[[[-3.052,47.683],[-3.072,47.689],[-3.11,47.661],[-3.136,47.661],[-3.125,47.681],[-3.152,47.693],[-3.177,47.694],[-3.166,47.721],[-3.156,47.73],[-3.073,47.728],[-3.048,47.705],[-3.052,47.683]]]}},{"type":"Feature","properties":{"code":"56120","nom":"Locqueltas"},"geometry":{"type":"Polygon","coordinates":[[[-2.754,47.727],[-2.77,47.738],[-2.779,47.791],[-2.766,47.803],[-2.751,47.798],[-2.753,47.774],[-2.734,47.745],[-2.743,47.733],[-2.754,47.727]]]}},{"type":"Feature","properties":{"code":"56121","nom":"Lorient"},"geometry":{"type":"Polygon","coordinates":[[[-3.41,47.766],[-3.369,47.77],[-3.366,47.768],[-3.364,47.761],[-3.351,47.749],[-3.368,47.725],[-3.395,47.731],[-3.41,47.766]]]}},{"type":"Feature","properties":{"code":"56122","nom":"Loyat"},"geometry":{"type":"Polygon","coordinates":[[[-2.405,47.967],[-2.445,48.005],[-2.442,48.018],[-2.389,48.03],[-2.353,47.996],[-2.317,47.996],[-2.303,47.99],[-2.343,47.975],[-2.35,47.96],[-2.405,47.967]]]}},{"type":"Feature","properties":{"code":"56123","nom":"Malansac"},"geometry":{"type":"Polygon","coordinates":[[[-2.328,47.716],[-2.308,47.709],[-2.259,47.71],[-2.243,47.698],[-2.259,47.661],[-2.342,47.671],[-2.374,47.676],[-2.378,47.677],[-2.35,47.692],[-2.338,47.702],[-2.328,47.716]]]}},{"type":"Feature","properties":{"code":"56124","nom":"Malestroit"},"geometry":{"type":"Polygon","coordinates":[[[-2.368,47.808],[-2.375,47.804],[-2.405,47.794],[-2.393,47.82],[-2.368,47.808]]]}},{"type":"Feature","properties":{"code":"56125","nom":"Malguénac"},"geometry":{"type":"Polygon","coordinates":[[[-3.089,48.097],[-3.049,48.098],[-3.014,48.089],[-2.996,48.062],[-3.029,48.037],[-3.092,48.051],[-3.123,48.073],[-3.089,48.097]]]}},{"type":"Feature","properties":{"code":"56126","nom":"Marzan"},"geometry":{"type":"Polygon","coordinates":[[[-2.306,47.524],[-2.309,47.519],[-2.358,47.508],[-2.38,47.525],[-2.38,47.543],[-2.411,47.553],[-2.42,47.558],[-2.408,47.572],[-2.38,47.58],[-2.371,47.559],[-2.303,47.553],[-2.306,47.524]]]}},{"type":"Feature","properties":{"code":"56127","nom":"Mauron"},"geometry":{"type":"Polygon","coordinates":[[[-2.358,48.111],[-2.288,48.134],[-2.255,48.109],[-2.255,48.097],[-2.273,48.094],[-2.273,48.085],[-2.254,48.09],[-2.256,48.063],[-2.25,48.048],[-2.273,48.031],[-2.285,48.042],[-2.359,48.046],[-2.366,48.066],[-2.323,48.078],[-2.358,48.111]]]}},{"type":"Feature","properties":{"code":"56128","nom":"Melrand"},"geometry":{"type":"Polygon","coordinates":[[[-3.066,47.948],[-3.074,47.934],[-3.115,47.945],[-3.145,47.962],[-3.132,48.007],[-3.057,48.012],[-3.074,47.979],[-3.054,47.963],[-3.066,47.948]]]}},{"type":"Feature","properties":{"code":"56129","nom":"Ménéac"},"geometry":{"type":"Polygon","coordinates":[[[-2.534,48.157],[-2.447,48.173],[-2.406,48.168],[-2.376,48.141],[-2.375,48.131],[-2.401,48.131],[-2.424,48.109],[-2.419,48.093],[-2.417,48.08],[-2.449,48.075],[-2.454,48.087],[-2.496,48.104],[-2.521,48.122],[-2.517,48.142],[-2.534,48.157]]]}},{"type":"Feature","properties":{"code":"56130","nom":"Merlevenez"},"geometry":{"type":"Polygon","coordinates":[[[-3.184,47.737],[-3.202,47.735],[-3.234,47.728],[-3.265,47.705],[-3.278,47.73],[-3.301,47.742],[-3.3,47.743],[-3.25,47.74],[-3.201,47.755],[-3.184,47.737]]]}},{"type":"Feature","properties":{"code":"56131","nom":"Meslan"},"geometry":{"type":"Polygon","coordinates":[[[-3.404,47.967],[-3.461,47.956],[-3.468,47.946],[-3.497,47.977],[-3.477,48.001],[-3.467,48.016],[-3.407,48.023],[-3.415,47.998],[-3.404,47.967]]]}},{"type":"Feature","properties":{"code":"56132","nom":"Meucon"},"geometry":{"type":"Polygon","coordinates":[[[-2.77,47.738],[-2.754,47.727],[-2.788,47.713],[-2.79,47.72],[-2.792,47.727],[-2.77,47.738]]]}},{"type":"Feature","properties":{"code":"56133","nom":"Missiriac"},"geometry":{"type":"Polygon","coordinates":[[[-2.393,47.82],[-2.393,47.832],[-2.323,47.838],[-2.329,47.807],[-2.329,47.801],[-2.368,47.808],[-2.393,47.82]]]}},{"type":"Feature","properties":{"code":"56134","nom":"Mohon"},"geometry":{"type":"Polygon","coordinates":[[[-2.496,48.104],[-2.454,48.087],[-2.449,48.075],[-2.465,48.055],[-2.441,48.04],[-2.508,48.025],[-2.543,48.06],[-2.548,48.076],[-2.518,48.081],[-2.496,48.104]]]}},{"type":"Feature","properties":{"code":"56135","nom":"Molac"},"geometry":{"type":"Polygon","coordinates":[[[-2.465,47.763],[-2.451,47.768],[-2.439,47.754],[-2.396,47.745],[-2.417,47.704],[-2.447,47.712],[-2.485,47.731],[-2.482,47.761],[-2.465,47.763]]]}},{"type":"Feature","properties":{"code":"56136","nom":"Monteneuf"},"geometry":{"type":"Polygon","coordinates":[[[-2.24,47.883],[-2.225,47.903],[-2.177,47.905],[-2.144,47.871],[-2.157,47.854],[-2.21,47.854],[-2.24,47.883]]]}},{"type":"Feature","properties":{"code":"56137","nom":"Monterblanc"},"geometry":{"type":"Polygon","coordinates":[[[-2.743,47.733],[-2.734,47.745],[-2.703,47.746],[-2.689,47.765],[-2.665,47.762],[-2.666,47.744],[-2.669,47.707],[-2.697,47.704],[-2.738,47.719],[-2.743,47.733]]]}},{"type":"Feature","properties":{"code":"56139","nom":"Montertelot"},"geometry":{"type":"Polygon","coordinates":[[[-2.428,47.885],[-2.41,47.894],[-2.394,47.889],[-2.428,47.885]]]}},{"type":"Feature","properties":{"code":"56140","nom":"Moréac"},"geometry":{"type":"Polygon","coordinates":[[[-2.736,47.93],[-2.771,47.906],[-2.822,47.892],[-2.848,47.895],[-2.864,47.917],[-2.858,47.949],[-2.819,47.965],[-2.74,47.969],[-2.736,47.93]]]}},{"type":"Feature","properties":{"code":"56141","nom":"Moustoir-Ac"},"geometry":{"type":"Polygon","coordinates":[[[-2.911,47.818],[-2.915,47.825],[-2.903,47.851],[-2.857,47.869],[-2.821,47.873],[-2.8,47.843],[-2.85,47.825],[-2.857,47.815],[-2.877,47.817],[-2.911,47.818]]]}},{"type":"Feature","properties":{"code":"56143","nom":"Muzillac"},"geometry":{"type":"Polygon","coordinates":[[[-2.491,47.536],[-2.494,47.557],[-2.535,47.573],[-2.524,47.594],[-2.489,47.593],[-2.484,47.573],[-2.42,47.558],[-2.411,47.553],[-2.423,47.528],[-2.446,47.519],[-2.442,47.499],[-2.467,47.512],[-2.491,47.536]]]}},{"type":"Feature","properties":{"code":"56144","nom":"Évellys"},"geometry":{"type":"Polygon","coordinates":[[[-2.864,47.917],[-2.926,47.909],[-2.946,47.923],[-2.904,47.946],[-2.929,47.992],[-2.91,48.003],[-2.882,48.023],[-2.819,48.026],[-2.804,48.036],[-2.789,48.012],[-2.814,48],[-2.819,47.965],[-2.858,47.949],[-2.864,47.917]]]}},{"type":"Feature","properties":{"code":"56145","nom":"Néant-sur-Yvel"},"geometry":{"type":"Polygon","coordinates":[[[-2.317,47.996],[-2.353,47.996],[-2.389,48.03],[-2.359,48.046],[-2.285,48.042],[-2.273,48.031],[-2.28,48.021],[-2.317,47.996]]]}},{"type":"Feature","properties":{"code":"56146","nom":"Neulliac"},"geometry":{"type":"Polygon","coordinates":[[[-2.979,48.161],[-2.956,48.125],[-2.907,48.126],[-2.923,48.106],[-2.945,48.089],[-2.996,48.1],[-3.011,48.121],[-3.012,48.155],[-3,48.161],[-2.979,48.161]]]}},{"type":"Feature","properties":{"code":"56147","nom":"Nivillac"},"geometry":{"type":"Polygon","coordinates":[[[-2.198,47.511],[-2.244,47.494],[-2.297,47.516],[-2.306,47.524],[-2.303,47.553],[-2.283,47.575],[-2.241,47.576],[-2.209,47.587],[-2.216,47.539],[-2.198,47.511]]]}},{"type":"Feature","properties":{"code":"56148","nom":"Nostang"},"geometry":{"type":"Polygon","coordinates":[[[-3.174,47.779],[-3.149,47.769],[-3.151,47.742],[-3.156,47.73],[-3.166,47.721],[-3.184,47.737],[-3.201,47.755],[-3.202,47.779],[-3.174,47.779]]]}},{"type":"Feature","properties":{"code":"56149","nom":"Noyal-Muzillac"},"geometry":{"type":"Polygon","coordinates":[[[-2.524,47.594],[-2.526,47.6],[-2.528,47.618],[-2.487,47.634],[-2.443,47.631],[-2.436,47.617],[-2.4,47.619],[-2.394,47.615],[-2.424,47.593],[-2.408,47.572],[-2.42,47.558],[-2.484,47.573],[-2.489,47.593],[-2.524,47.594]]]}},{"type":"Feature","properties":{"code":"56151","nom":"Noyal-Pontivy"},"geometry":{"type":"Polygon","coordinates":[[[-2.923,48.106],[-2.908,48.089],[-2.878,48.088],[-2.852,48.101],[-2.849,48.078],[-2.814,48.068],[-2.87,48.05],[-2.882,48.023],[-2.91,48.003],[-2.907,48.02],[-2.946,48.049],[-2.945,48.089],[-2.923,48.106]]]}},{"type":"Feature","properties":{"code":"56152","nom":"Le Palais"},"geometry":{"type":"Polygon","coordinates":[[[-3.197,47.336],[-3.195,47.365],[-3.163,47.362],[-3.147,47.334],[-3.122,47.323],[-3.135,47.316],[-3.197,47.336]]]}},{"type":"Feature","properties":{"code":"56153","nom":"Péaule"},"geometry":{"type":"Polygon","coordinates":[[[-2.298,47.599],[-2.283,47.575],[-2.303,47.553],[-2.371,47.559],[-2.38,47.58],[-2.388,47.613],[-2.355,47.604],[-2.32,47.614],[-2.298,47.599]]]}},{"type":"Feature","properties":{"code":"56154","nom":"Peillac"},"geometry":{"type":"Polygon","coordinates":[[[-2.179,47.692],[-2.243,47.698],[-2.259,47.71],[-2.254,47.737],[-2.228,47.737],[-2.212,47.725],[-2.172,47.727],[-2.166,47.723],[-2.179,47.692]]]}},{"type":"Feature","properties":{"code":"56155","nom":"Pénestin"},"geometry":{"type":"Polygon","coordinates":[[[-2.423,47.477],[-2.459,47.448],[-2.48,47.442],[-2.501,47.459],[-2.464,47.487],[-2.424,47.489],[-2.423,47.477]]]}},{"type":"Feature","properties":{"code":"56156","nom":"Persquen"},"geometry":{"type":"Polygon","coordinates":[[[-3.25,47.988],[-3.248,48.018],[-3.222,48.045],[-3.185,48.025],[-3.197,48.002],[-3.233,47.984],[-3.25,47.988]]]}},{"type":"Feature","properties":{"code":"56157","nom":"Plaudren"},"geometry":{"type":"Polygon","coordinates":[[[-2.751,47.798],[-2.694,47.804],[-2.687,47.829],[-2.684,47.812],[-2.653,47.783],[-2.639,47.789],[-2.63,47.771],[-2.665,47.762],[-2.689,47.765],[-2.703,47.746],[-2.734,47.745],[-2.753,47.774],[-2.751,47.798]]]}},{"type":"Feature","properties":{"code":"56158","nom":"Plescop"},"geometry":{"type":"Polygon","coordinates":[[[-2.877,47.709],[-2.817,47.708],[-2.79,47.72],[-2.788,47.713],[-2.777,47.694],[-2.798,47.674],[-2.855,47.685],[-2.883,47.688],[-2.877,47.709]]]}},{"type":"Feature","properties":{"code":"56159","nom":"Pleucadeuc"},"geometry":{"type":"Polygon","coordinates":[[[-2.375,47.804],[-2.341,47.782],[-2.349,47.745],[-2.396,47.745],[-2.439,47.754],[-2.451,47.768],[-2.423,47.786],[-2.405,47.794],[-2.375,47.804]]]}},{"type":"Feature","properties":{"code":"56160","nom":"Pleugriffet"},"geometry":{"type":"Polygon","coordinates":[[[-2.632,47.969],[-2.636,47.965],[-2.675,47.958],[-2.713,47.975],[-2.746,48.007],[-2.73,48.027],[-2.707,48.026],[-2.658,48.008],[-2.632,47.969]]]}},{"type":"Feature","properties":{"code":"56161","nom":"Ploemel"},"geometry":{"type":"Polygon","coordinates":[[[-3.11,47.661],[-3.072,47.689],[-3.052,47.683],[-3.03,47.669],[-3.036,47.639],[-3.106,47.638],[-3.11,47.661]]]}},{"type":"Feature","properties":{"code":"56162","nom":"Ploemeur"},"geometry":{"type":"Polygon","coordinates":[[[-3.395,47.731],[-3.412,47.702],[-3.453,47.695],[-3.502,47.738],[-3.454,47.762],[-3.41,47.766],[-3.395,47.731]]]}},{"type":"Feature","properties":{"code":"56163","nom":"Ploërdut"},"geometry":{"type":"Polygon","coordinates":[[[-3.309,48.045],[-3.344,48.049],[-3.343,48.088],[-3.321,48.106],[-3.348,48.122],[-3.318,48.149],[-3.291,48.153],[-3.271,48.141],[-3.261,48.109],[-3.208,48.083],[-3.211,48.072],[-3.217,48.062],[-3.223,48.055],[-3.242,48.062],[-3.309,48.045]]]}},{"type":"Feature","properties":{"code":"56164","nom":"Ploeren"},"geometry":{"type":"Polygon","coordinates":[[[-2.815,47.657],[-2.847,47.649],[-2.863,47.632],[-2.883,47.643],[-2.855,47.685],[-2.798,47.674],[-2.815,47.657]]]}},{"type":"Feature","properties":{"code":"56165","nom":"Ploërmel"},"geometry":{"type":"Polygon","coordinates":[[[-2.34,47.938],[-2.314,47.922],[-2.331,47.896],[-2.36,47.867],[-2.394,47.889],[-2.41,47.894],[-2.428,47.885],[-2.437,47.888],[-2.437,47.918],[-2.405,47.967],[-2.35,47.96],[-2.346,47.945],[-2.372,47.946],[-2.368,47.932],[-2.34,47.938]]]}},{"type":"Feature","properties":{"code":"56166","nom":"Plouay"},"geometry":{"type":"Polygon","coordinates":[[[-3.393,47.951],[-3.36,47.943],[-3.337,47.977],[-3.287,47.961],[-3.272,47.908],[-3.279,47.892],[-3.332,47.896],[-3.347,47.902],[-3.402,47.885],[-3.407,47.917],[-3.387,47.925],[-3.393,47.951]]]}},{"type":"Feature","properties":{"code":"56167","nom":"Plougoumelen"},"geometry":{"type":"Polygon","coordinates":[[[-2.883,47.688],[-2.855,47.685],[-2.883,47.643],[-2.914,47.63],[-2.931,47.653],[-2.925,47.674],[-2.883,47.688]]]}},{"type":"Feature","properties":{"code":"56168","nom":"Plouharnel"},"geometry":{"type":"Polygon","coordinates":[[[-3.127,47.561],[-3.138,47.56],[-3.159,47.607],[-3.133,47.624],[-3.107,47.626],[-3.088,47.605],[-3.103,47.584],[-3.127,47.561]]]}},{"type":"Feature","properties":{"code":"56169","nom":"Plouhinec"},"geometry":{"type":"Polygon","coordinates":[[[-3.304,47.69],[-3.301,47.691],[-3.284,47.704],[-3.265,47.705],[-3.234,47.728],[-3.202,47.735],[-3.213,47.719],[-3.177,47.694],[-3.217,47.668],[-3.215,47.644],[-3.271,47.679],[-3.304,47.69]]]}},{"type":"Feature","properties":{"code":"56170","nom":"Plouray"},"geometry":{"type":"Polygon","coordinates":[[[-3.418,48.146],[-3.337,48.172],[-3.318,48.149],[-3.348,48.122],[-3.412,48.096],[-3.432,48.105],[-3.411,48.135],[-3.418,48.146]]]}},{"type":"Feature","properties":{"code":"56171","nom":"Pluherlin"},"geometry":{"type":"Polygon","coordinates":[[[-2.417,47.704],[-2.396,47.745],[-2.349,47.745],[-2.318,47.732],[-2.328,47.716],[-2.338,47.702],[-2.352,47.704],[-2.35,47.692],[-2.378,47.677],[-2.417,47.704]]]}},{"type":"Feature","properties":{"code":"56172","nom":"Plumelec"},"geometry":{"type":"Polygon","coordinates":[[[-2.56,47.798],[-2.59,47.808],[-2.639,47.789],[-2.653,47.783],[-2.684,47.812],[-2.687,47.829],[-2.672,47.851],[-2.61,47.861],[-2.567,47.855],[-2.57,47.846],[-2.56,47.798]]]}},{"type":"Feature","properties":{"code":"56173","nom":"Pluméliau-Bieuzy"},"geometry":{"type":"Polygon","coordinates":[[[-2.986,48.018],[-2.976,48.005],[-2.929,47.992],[-2.904,47.946],[-2.946,47.923],[-2.995,47.93],[-3.026,47.947],[-3.066,47.948],[-3.054,47.963],[-3.074,47.979],[-3.057,48.012],[-3.017,48.026],[-2.986,48.018]]]}},{"type":"Feature","properties":{"code":"56174","nom":"Plumelin"},"geometry":{"type":"Polygon","coordinates":[[[-2.915,47.825],[-2.921,47.845],[-2.905,47.882],[-2.926,47.891],[-2.926,47.909],[-2.864,47.917],[-2.848,47.895],[-2.857,47.869],[-2.903,47.851],[-2.915,47.825]]]}},{"type":"Feature","properties":{"code":"56175","nom":"Plumergat"},"geometry":{"type":"Polygon","coordinates":[[[-2.955,47.749],[-2.918,47.747],[-2.912,47.764],[-2.872,47.753],[-2.877,47.709],[-2.883,47.688],[-2.926,47.703],[-2.973,47.712],[-2.989,47.711],[-2.99,47.732],[-2.955,47.749]]]}},{"type":"Feature","properties":{"code":"56176","nom":"Pluneret"},"geometry":{"type":"Polygon","coordinates":[[[-2.979,47.679],[-2.989,47.711],[-2.973,47.712],[-2.967,47.693],[-2.926,47.703],[-2.883,47.688],[-2.925,47.674],[-2.931,47.653],[-2.955,47.639],[-2.973,47.655],[-2.979,47.679]]]}},{"type":"Feature","properties":{"code":"56177","nom":"Pluvigner"},"geometry":{"type":"Polygon","coordinates":[[[-2.923,47.82],[-2.956,47.793],[-2.947,47.772],[-2.955,47.749],[-2.99,47.732],[-3.055,47.746],[-3.079,47.761],[-3.082,47.791],[-3.116,47.802],[-3.06,47.831],[-3.043,47.828],[-3.048,47.799],[-3.022,47.793],[-2.953,47.827],[-2.923,47.82]]]}},{"type":"Feature","properties":{"code":"56178","nom":"Pontivy"},"geometry":{"type":"Polygon","coordinates":[[[-3.014,48.089],[-2.996,48.1],[-2.945,48.089],[-2.946,48.049],[-2.97,48.032],[-2.959,48.046],[-2.996,48.062],[-3.014,48.089]]]}},{"type":"Feature","properties":{"code":"56179","nom":"Pont-Scorff"},"geometry":{"type":"Polygon","coordinates":[[[-3.398,47.863],[-3.391,47.823],[-3.395,47.808],[-3.417,47.813],[-3.44,47.827],[-3.458,47.837],[-3.45,47.861],[-3.398,47.863]]]}},{"type":"Feature","properties":{"code":"56180","nom":"Porcaro"},"geometry":{"type":"Polygon","coordinates":[[[-2.225,47.903],[-2.213,47.942],[-2.171,47.94],[-2.177,47.905],[-2.225,47.903]]]}},{"type":"Feature","properties":{"code":"56181","nom":"Port-Louis"},"geometry":{"type":"Polygon","coordinates":[[[-3.343,47.716],[-3.34,47.716],[-3.341,47.709],[-3.343,47.716]]]}},{"type":"Feature","properties":{"code":"56182","nom":"Priziac"},"geometry":{"type":"Polygon","coordinates":[[[-3.385,48.03],[-3.381,48.016],[-3.407,48.023],[-3.467,48.016],[-3.48,48.046],[-3.478,48.071],[-3.432,48.105],[-3.412,48.096],[-3.401,48.072],[-3.403,48.04],[-3.385,48.03]]]}},{"type":"Feature","properties":{"code":"56184","nom":"Questembert"},"geometry":{"type":"Polygon","coordinates":[[[-2.4,47.619],[-2.436,47.617],[-2.443,47.631],[-2.487,47.634],[-2.495,47.659],[-2.502,47.667],[-2.484,47.692],[-2.447,47.712],[-2.417,47.704],[-2.378,47.677],[-2.374,47.676],[-2.374,47.653],[-2.397,47.641],[-2.4,47.619]]]}},{"type":"Feature","properties":{"code":"56185","nom":"Quéven"},"geometry":{"type":"Polygon","coordinates":[[[-3.395,47.808],[-3.369,47.77],[-3.41,47.766],[-3.454,47.762],[-3.451,47.795],[-3.417,47.813],[-3.395,47.808]]]}},{"type":"Feature","properties":{"code":"56186","nom":"Quiberon"},"geometry":{"type":"Polygon","coordinates":[[[-3.151,47.504],[-3.12,47.503],[-3.106,47.474],[-3.144,47.484],[-3.151,47.504]]]}},{"type":"Feature","properties":{"code":"56188","nom":"Quistinic"},"geometry":{"type":"Polygon","coordinates":[[[-3.074,47.934],[-3.078,47.91],[-3.076,47.885],[-3.111,47.883],[-3.137,47.89],[-3.19,47.888],[-3.201,47.906],[-3.178,47.921],[-3.142,47.926],[-3.115,47.945],[-3.074,47.934]]]}},{"type":"Feature","properties":{"code":"56189","nom":"Radenac"},"geometry":{"type":"Polygon","coordinates":[[[-2.688,47.946],[-2.698,47.924],[-2.736,47.93],[-2.74,47.969],[-2.713,47.975],[-2.675,47.958],[-2.688,47.946]]]}},{"type":"Feature","properties":{"code":"56190","nom":"Réguiny"},"geometry":{"type":"Polygon","coordinates":[[[-2.819,47.965],[-2.814,48],[-2.789,48.012],[-2.746,48.007],[-2.713,47.975],[-2.74,47.969],[-2.819,47.965]]]}},{"type":"Feature","properties":{"code":"56191","nom":"Réminiac"},"geometry":{"type":"Polygon","coordinates":[[[-2.282,47.847],[-2.27,47.882],[-2.24,47.883],[-2.21,47.854],[-2.276,47.847],[-2.282,47.847]]]}},{"type":"Feature","properties":{"code":"56193","nom":"Riantec"},"geometry":{"type":"Polygon","coordinates":[[[-3.341,47.709],[-3.34,47.716],[-3.301,47.742],[-3.278,47.73],[-3.265,47.705],[-3.284,47.704],[-3.341,47.709]]]}},{"type":"Feature","properties":{"code":"56194","nom":"Rieux"},"geometry":{"type":"Polygon","coordinates":[[[-2.097,47.632],[-2.085,47.607],[-2.105,47.578],[-2.124,47.579],[-2.171,47.589],[-2.169,47.614],[-2.136,47.624],[-2.103,47.635],[-2.097,47.632]]]}},{"type":"Feature","properties":{"code":"56195","nom":"La Roche-Bernard"},"geometry":{"type":"Polygon","coordinates":[[[-2.309,47.519],[-2.306,47.524],[-2.297,47.516],[-2.299,47.516],[-2.309,47.519]]]}},{"type":"Feature","properties":{"code":"56196","nom":"Rochefort-en-Terre"},"geometry":{"type":"Polygon","coordinates":[[[-2.338,47.702],[-2.35,47.692],[-2.352,47.704],[-2.338,47.702]]]}},{"type":"Feature","properties":{"code":"56197","nom":"Val d'Oust"},"geometry":{"type":"Polygon","coordinates":[[[-2.49,47.887],[-2.462,47.9],[-2.437,47.888],[-2.428,47.885],[-2.394,47.889],[-2.36,47.867],[-2.39,47.859],[-2.411,47.865],[-2.427,47.839],[-2.482,47.856],[-2.49,47.887]]]}},{"type":"Feature","properties":{"code":"56198","nom":"Rohan"},"geometry":{"type":"Polygon","coordinates":[[[-2.775,48.087],[-2.751,48.117],[-2.704,48.112],[-2.738,48.062],[-2.786,48.072],[-2.775,48.087]]]}},{"type":"Feature","properties":{"code":"56199","nom":"Roudouallec"},"geometry":{"type":"Polygon","coordinates":[[[-3.723,48.125],[-3.696,48.152],[-3.672,48.152],[-3.66,48.116],[-3.677,48.092],[-3.695,48.094],[-3.733,48.096],[-3.723,48.125]]]}},{"type":"Feature","properties":{"code":"56200","nom":"Ruffiac"},"geometry":{"type":"Polygon","coordinates":[[[-2.276,47.847],[-2.242,47.827],[-2.245,47.805],[-2.244,47.782],[-2.27,47.787],[-2.295,47.777],[-2.31,47.801],[-2.329,47.807],[-2.323,47.838],[-2.282,47.847],[-2.276,47.847]]]}},{"type":"Feature","properties":{"code":"56201","nom":"Le Saint"},"geometry":{"type":"Polygon","coordinates":[[[-3.556,48.048],[-3.599,48.081],[-3.594,48.114],[-3.546,48.132],[-3.525,48.127],[-3.543,48.085],[-3.556,48.048]]]}},{"type":"Feature","properties":{"code":"56202","nom":"Saint-Abraham"},"geometry":{"type":"Polygon","coordinates":[[[-2.39,47.859],[-2.399,47.836],[-2.427,47.838],[-2.427,47.839],[-2.411,47.865],[-2.39,47.859]]]}},{"type":"Feature","properties":{"code":"56203","nom":"Saint-Aignan"},"geometry":{"type":"Polygon","coordinates":[[[-3.077,48.21],[-3.016,48.198],[-3,48.161],[-3.012,48.155],[-3.072,48.169],[-3.103,48.187],[-3.095,48.203],[-3.077,48.21]]]}},{"type":"Feature","properties":{"code":"56204","nom":"Saint-Allouestre"},"geometry":{"type":"Polygon","coordinates":[[[-2.771,47.906],[-2.736,47.93],[-2.698,47.924],[-2.693,47.909],[-2.74,47.887],[-2.771,47.906]]]}},{"type":"Feature","properties":{"code":"56205","nom":"Saint-Armel"},"geometry":{"type":"Polygon","coordinates":[[[-2.72,47.589],[-2.713,47.591],[-2.691,47.566],[-2.69,47.559],[-2.73,47.551],[-2.72,47.589]]]}},{"type":"Feature","properties":{"code":"56206","nom":"Saint-Avé"},"geometry":{"type":"Polygon","coordinates":[[[-2.754,47.727],[-2.743,47.733],[-2.738,47.719],[-2.697,47.704],[-2.715,47.675],[-2.742,47.67],[-2.777,47.694],[-2.788,47.713],[-2.754,47.727]]]}},{"type":"Feature","properties":{"code":"56207","nom":"Saint-Barthélemy"},"geometry":{"type":"Polygon","coordinates":[[[-3.078,47.91],[-3.074,47.934],[-3.066,47.948],[-3.026,47.947],[-2.995,47.93],[-3.014,47.911],[-3.078,47.91]]]}},{"type":"Feature","properties":{"code":"56208","nom":"Saint-Brieuc-de-Mauron"},"geometry":{"type":"Polygon","coordinates":[[[-2.362,48.114],[-2.358,48.111],[-2.323,48.078],[-2.366,48.066],[-2.387,48.077],[-2.387,48.091],[-2.362,48.114]]]}},{"type":"Feature","properties":{"code":"56209","nom":"Sainte-Brigitte"},"geometry":{"type":"Polygon","coordinates":[[[-3.135,48.147],[-3.13,48.177],[-3.117,48.206],[-3.095,48.203],[-3.103,48.187],[-3.072,48.169],[-3.102,48.152],[-3.135,48.147]]]}},{"type":"Feature","properties":{"code":"56210","nom":"Saint-Caradec-Trégomel"},"geometry":{"type":"Polygon","coordinates":[[[-3.344,48.049],[-3.309,48.045],[-3.313,48.036],[-3.322,48.021],[-3.359,48.015],[-3.381,48.016],[-3.385,48.03],[-3.363,48.055],[-3.344,48.049]]]}},{"type":"Feature","properties":{"code":"56211","nom":"Saint-Congard"},"geometry":{"type":"Polygon","coordinates":[[[-2.318,47.732],[-2.349,47.745],[-2.341,47.782],[-2.375,47.804],[-2.368,47.808],[-2.329,47.801],[-2.314,47.779],[-2.312,47.757],[-2.281,47.744],[-2.318,47.732]]]}},{"type":"Feature","properties":{"code":"56212","nom":"Saint-Dolay"},"geometry":{"type":"Polygon","coordinates":[[[-2.144,47.525],[-2.154,47.496],[-2.181,47.491],[-2.198,47.511],[-2.216,47.539],[-2.209,47.587],[-2.194,47.59],[-2.171,47.589],[-2.124,47.579],[-2.144,47.525]]]}},{"type":"Feature","properties":{"code":"56213","nom":"Saint-Gérand-Croixanvec"},"geometry":{"type":"Polygon","coordinates":[[[-2.852,48.101],[-2.878,48.088],[-2.908,48.089],[-2.923,48.106],[-2.907,48.126],[-2.878,48.151],[-2.85,48.141],[-2.86,48.128],[-2.851,48.102],[-2.852,48.101]]]}},{"type":"Feature","properties":{"code":"56214","nom":"Saint-Gildas-de-Rhuys"},"geometry":{"type":"Polygon","coordinates":[[[-2.869,47.53],[-2.862,47.54],[-2.849,47.54],[-2.801,47.511],[-2.805,47.489],[-2.85,47.499],[-2.869,47.53]]]}},{"type":"Feature","properties":{"code":"56215","nom":"Saint-Gonnery"},"geometry":{"type":"Polygon","coordinates":[[[-2.85,48.141],[-2.81,48.147],[-2.785,48.123],[-2.783,48.112],[-2.819,48.116],[-2.851,48.102],[-2.86,48.128],[-2.85,48.141]]]}},{"type":"Feature","properties":{"code":"56216","nom":"Saint-Gorgon"},"geometry":{"type":"Polygon","coordinates":[[[-2.256,47.629],[-2.245,47.658],[-2.219,47.651],[-2.231,47.63],[-2.256,47.629]]]}},{"type":"Feature","properties":{"code":"56218","nom":"Saint-Gravé"},"geometry":{"type":"Polygon","coordinates":[[[-2.259,47.71],[-2.308,47.709],[-2.328,47.716],[-2.318,47.732],[-2.281,47.744],[-2.254,47.737],[-2.259,47.71]]]}},{"type":"Feature","properties":{"code":"56219","nom":"Saint-Guyomard"},"geometry":{"type":"Polygon","coordinates":[[[-2.542,47.794],[-2.466,47.792],[-2.465,47.763],[-2.482,47.761],[-2.533,47.769],[-2.542,47.794]]]}},{"type":"Feature","properties":{"code":"56220","nom":"Sainte-Hélène"},"geometry":{"type":"Polygon","coordinates":[[[-3.166,47.721],[-3.177,47.694],[-3.213,47.719],[-3.202,47.735],[-3.184,47.737],[-3.166,47.721]]]}},{"type":"Feature","properties":{"code":"56221","nom":"Saint-Jacut-les-Pins"},"geometry":{"type":"Polygon","coordinates":[[[-2.243,47.698],[-2.179,47.692],[-2.147,47.679],[-2.147,47.679],[-2.198,47.674],[-2.219,47.651],[-2.245,47.658],[-2.259,47.661],[-2.243,47.698]]]}},{"type":"Feature","properties":{"code":"56222","nom":"Saint-Jean-Brévelay"},"geometry":{"type":"Polygon","coordinates":[[[-2.687,47.829],[-2.694,47.804],[-2.751,47.798],[-2.766,47.803],[-2.772,47.838],[-2.74,47.867],[-2.707,47.865],[-2.677,47.862],[-2.672,47.851],[-2.687,47.829]]]}},{"type":"Feature","properties":{"code":"56223","nom":"Saint-Jean-la-Poterie"},"geometry":{"type":"Polygon","coordinates":[[[-2.11,47.657],[-2.103,47.635],[-2.136,47.624],[-2.131,47.666],[-2.11,47.657]]]}},{"type":"Feature","properties":{"code":"56224","nom":"Saint-Laurent-sur-Oust"},"geometry":{"type":"Polygon","coordinates":[[[-2.295,47.777],[-2.314,47.779],[-2.329,47.801],[-2.329,47.807],[-2.31,47.801],[-2.295,47.777]]]}},{"type":"Feature","properties":{"code":"56225","nom":"Saint-Léry"},"geometry":{"type":"Polygon","coordinates":[[[-2.255,48.097],[-2.254,48.09],[-2.273,48.085],[-2.273,48.094],[-2.255,48.097]]]}},{"type":"Feature","properties":{"code":"56226","nom":"Saint-Malo-de-Beignon"},"geometry":{"type":"Polygon","coordinates":[[[-2.123,47.964],[-2.119,47.961],[-2.157,47.945],[-2.154,47.964],[-2.123,47.964]]]}},{"type":"Feature","properties":{"code":"56227","nom":"Saint-Malo-des-Trois-Fontaines"},"geometry":{"type":"Polygon","coordinates":[[[-2.442,48.018],[-2.445,48.005],[-2.475,47.989],[-2.481,47.989],[-2.497,48.019],[-2.508,48.025],[-2.441,48.04],[-2.442,48.018]]]}},{"type":"Feature","properties":{"code":"56228","nom":"Saint-Marcel"},"geometry":{"type":"Polygon","coordinates":[[[-2.393,47.832],[-2.393,47.82],[-2.405,47.794],[-2.423,47.786],[-2.442,47.801],[-2.428,47.81],[-2.427,47.838],[-2.399,47.836],[-2.393,47.832]]]}},{"type":"Feature","properties":{"code":"56229","nom":"Saint-Martin-sur-Oust"},"geometry":{"type":"Polygon","coordinates":[[[-2.244,47.782],[-2.215,47.777],[-2.228,47.737],[-2.254,47.737],[-2.281,47.744],[-2.312,47.757],[-2.314,47.779],[-2.295,47.777],[-2.27,47.787],[-2.244,47.782]]]}},{"type":"Feature","properties":{"code":"56230","nom":"Saint-Nicolas-du-Tertre"},"geometry":{"type":"Polygon","coordinates":[[[-2.245,47.805],[-2.194,47.814],[-2.2,47.779],[-2.193,47.773],[-2.215,47.777],[-2.244,47.782],[-2.245,47.805]]]}},{"type":"Feature","properties":{"code":"56231","nom":"Saint-Nolff"},"geometry":{"type":"Polygon","coordinates":[[[-2.697,47.704],[-2.669,47.707],[-2.666,47.744],[-2.639,47.727],[-2.619,47.7],[-2.641,47.679],[-2.681,47.671],[-2.682,47.671],[-2.715,47.675],[-2.697,47.704]]]}},{"type":"Feature","properties":{"code":"56232","nom":"Saint-Perreux"},"geometry":{"type":"Polygon","coordinates":[[[-2.122,47.683],[-2.104,47.676],[-2.11,47.657],[-2.131,47.666],[-2.147,47.679],[-2.147,47.679],[-2.122,47.683]]]}},{"type":"Feature","properties":{"code":"56233","nom":"Saint-Philibert"},"geometry":{"type":"Polygon","coordinates":[[[-3.023,47.592],[-2.981,47.603],[-2.989,47.584],[-3.023,47.592]]]}},{"type":"Feature","properties":{"code":"56234","nom":"Saint-Pierre-Quiberon"},"geometry":{"type":"Polygon","coordinates":[[[-3.138,47.56],[-3.127,47.561],[-3.134,47.542],[-3.12,47.503],[-3.151,47.504],[-3.154,47.527],[-3.138,47.56]]]}},{"type":"Feature","properties":{"code":"56236","nom":"Saint-Servant"},"geometry":{"type":"Polygon","coordinates":[[[-2.528,47.931],[-2.495,47.924],[-2.462,47.9],[-2.49,47.887],[-2.515,47.888],[-2.537,47.863],[-2.554,47.867],[-2.552,47.881],[-2.527,47.9],[-2.528,47.931]]]}},{"type":"Feature","properties":{"code":"56237","nom":"Saint-Thuriau"},"geometry":{"type":"Polygon","coordinates":[[[-2.929,47.992],[-2.976,48.005],[-2.986,48.018],[-2.97,48.032],[-2.946,48.049],[-2.907,48.02],[-2.91,48.003],[-2.929,47.992]]]}},{"type":"Feature","properties":{"code":"56238","nom":"Saint-Tugdual"},"geometry":{"type":"Polygon","coordinates":[[[-3.401,48.072],[-3.412,48.096],[-3.348,48.122],[-3.321,48.106],[-3.343,48.088],[-3.401,48.072]]]}},{"type":"Feature","properties":{"code":"56239","nom":"Saint-Vincent-sur-Oust"},"geometry":{"type":"Polygon","coordinates":[[[-2.129,47.718],[-2.122,47.683],[-2.147,47.679],[-2.179,47.692],[-2.166,47.723],[-2.129,47.718]]]}},{"type":"Feature","properties":{"code":"56240","nom":"Sarzeau"},"geometry":{"type":"Polygon","coordinates":[[[-2.69,47.559],[-2.688,47.554],[-2.663,47.519],[-2.685,47.496],[-2.716,47.506],[-2.805,47.489],[-2.801,47.511],[-2.849,47.54],[-2.785,47.552],[-2.752,47.538],[-2.73,47.551],[-2.69,47.559]]]}},{"type":"Feature","properties":{"code":"56241","nom":"Sauzon"},"geometry":{"type":"Polygon","coordinates":[[[-3.195,47.365],[-3.197,47.336],[-3.237,47.324],[-3.261,47.352],[-3.242,47.383],[-3.195,47.365]]]}},{"type":"Feature","properties":{"code":"56242","nom":"Séglien"},"geometry":{"type":"Polygon","coordinates":[[[-3.204,48.13],[-3.194,48.118],[-3.131,48.137],[-3.131,48.12],[-3.089,48.097],[-3.123,48.073],[-3.14,48.068],[-3.158,48.085],[-3.2,48.086],[-3.215,48.121],[-3.204,48.13]]]}},{"type":"Feature","properties":{"code":"56243","nom":"Séné"},"geometry":{"type":"Polygon","coordinates":[[[-2.713,47.591],[-2.72,47.589],[-2.758,47.615],[-2.745,47.632],[-2.737,47.652],[-2.71,47.649],[-2.692,47.616],[-2.708,47.592],[-2.713,47.591]]]}},{"type":"Feature","properties":{"code":"56244","nom":"Sérent"},"geometry":{"type":"Polygon","coordinates":[[[-2.466,47.792],[-2.542,47.794],[-2.56,47.798],[-2.57,47.846],[-2.532,47.843],[-2.513,47.857],[-2.482,47.856],[-2.427,47.839],[-2.427,47.838],[-2.428,47.81],[-2.442,47.801],[-2.466,47.792]]]}},{"type":"Feature","properties":{"code":"56245","nom":"Silfiac"},"geometry":{"type":"Polygon","coordinates":[[[-3.131,48.137],[-3.194,48.118],[-3.204,48.13],[-3.211,48.142],[-3.178,48.161],[-3.155,48.158],[-3.13,48.177],[-3.135,48.147],[-3.131,48.137]]]}},{"type":"Feature","properties":{"code":"56246","nom":"Le Sourn"},"geometry":{"type":"Polygon","coordinates":[[[-3.029,48.037],[-2.996,48.062],[-2.959,48.046],[-2.97,48.032],[-2.986,48.018],[-3.017,48.026],[-3.029,48.037]]]}},{"type":"Feature","properties":{"code":"56247","nom":"Sulniac"},"geometry":{"type":"Polygon","coordinates":[[[-2.495,47.659],[-2.558,47.652],[-2.566,47.629],[-2.582,47.616],[-2.611,47.653],[-2.588,47.666],[-2.573,47.69],[-2.553,47.691],[-2.502,47.667],[-2.495,47.659]]]}},{"type":"Feature","properties":{"code":"56248","nom":"Surzur"},"geometry":{"type":"Polygon","coordinates":[[[-2.558,47.597],[-2.585,47.573],[-2.583,47.537],[-2.617,47.526],[-2.688,47.554],[-2.69,47.559],[-2.691,47.566],[-2.685,47.59],[-2.619,47.613],[-2.608,47.608],[-2.582,47.6],[-2.558,47.597]]]}},{"type":"Feature","properties":{"code":"56249","nom":"Taupont"},"geometry":{"type":"Polygon","coordinates":[[[-2.445,48.005],[-2.405,47.967],[-2.437,47.918],[-2.472,47.946],[-2.475,47.989],[-2.445,48.005]]]}},{"type":"Feature","properties":{"code":"56250","nom":"Théhillac"},"geometry":{"type":"Polygon","coordinates":[[[-2.105,47.578],[-2.097,47.573],[-2.099,47.533],[-2.144,47.525],[-2.124,47.579],[-2.105,47.578]]]}},{"type":"Feature","properties":{"code":"56251","nom":"Theix-Noyalo"},"geometry":{"type":"Polygon","coordinates":[[[-2.682,47.671],[-2.681,47.671],[-2.659,47.658],[-2.631,47.671],[-2.611,47.653],[-2.582,47.616],[-2.585,47.611],[-2.608,47.608],[-2.619,47.613],[-2.685,47.59],[-2.708,47.592],[-2.692,47.616],[-2.71,47.649],[-2.682,47.671]]]}},{"type":"Feature","properties":{"code":"56252","nom":"Le Tour-du-Parc"},"geometry":{"type":"Polygon","coordinates":[[[-2.617,47.526],[-2.634,47.511],[-2.663,47.519],[-2.688,47.554],[-2.617,47.526]]]}},{"type":"Feature","properties":{"code":"56253","nom":"Tréal"},"geometry":{"type":"Polygon","coordinates":[[[-2.245,47.805],[-2.242,47.827],[-2.276,47.847],[-2.21,47.854],[-2.194,47.814],[-2.245,47.805]]]}},{"type":"Feature","properties":{"code":"56254","nom":"Trédion"},"geometry":{"type":"Polygon","coordinates":[[[-2.639,47.789],[-2.59,47.808],[-2.56,47.798],[-2.542,47.794],[-2.533,47.769],[-2.54,47.761],[-2.63,47.771],[-2.639,47.789]]]}},{"type":"Feature","properties":{"code":"56255","nom":"Treffléan"},"geometry":{"type":"Polygon","coordinates":[[[-2.611,47.653],[-2.631,47.671],[-2.659,47.658],[-2.681,47.671],[-2.641,47.679],[-2.619,47.7],[-2.573,47.69],[-2.588,47.666],[-2.611,47.653]]]}},{"type":"Feature","properties":{"code":"56256","nom":"Tréhorenteuc"},"geometry":{"type":"Polygon","coordinates":[[[-2.317,47.996],[-2.28,48.021],[-2.288,47.992],[-2.303,47.99],[-2.317,47.996]]]}},{"type":"Feature","properties":{"code":"56257","nom":"La Trinité-Porhoët"},"geometry":{"type":"Polygon","coordinates":[[[-2.496,48.104],[-2.518,48.081],[-2.548,48.076],[-2.548,48.076],[-2.547,48.101],[-2.521,48.122],[-2.496,48.104]]]}},{"type":"Feature","properties":{"code":"56258","nom":"La Trinité-sur-Mer"},"geometry":{"type":"Polygon","coordinates":[[[-3.026,47.608],[-3.023,47.592],[-3.052,47.578],[-3.026,47.608]]]}},{"type":"Feature","properties":{"code":"56259","nom":"La Trinité-Surzur"},"geometry":{"type":"Polygon","coordinates":[[[-2.585,47.611],[-2.582,47.6],[-2.608,47.608],[-2.585,47.611]]]}},{"type":"Feature","properties":{"code":"56260","nom":"Vannes"},"geometry":{"type":"Polygon","coordinates":[[[-2.815,47.657],[-2.798,47.674],[-2.777,47.694],[-2.742,47.67],[-2.715,47.675],[-2.682,47.671],[-2.71,47.649],[-2.737,47.652],[-2.745,47.632],[-2.778,47.627],[-2.815,47.657]]]}},{"type":"Feature","properties":{"code":"56261","nom":"La Vraie-Croix"},"geometry":{"type":"Polygon","coordinates":[[[-2.502,47.667],[-2.553,47.691],[-2.537,47.709],[-2.493,47.704],[-2.484,47.692],[-2.502,47.667]]]}},{"type":"Feature","properties":{"code":"56262","nom":"Le Bono"},"geometry":{"type":"Polygon","coordinates":[[[-2.955,47.639],[-2.931,47.653],[-2.914,47.63],[-2.935,47.625],[-2.955,47.639]]]}},{"type":"Feature","properties":{"code":"56263","nom":"Sainte-Anne-d'Auray"},"geometry":{"type":"Polygon","coordinates":[[[-2.973,47.712],[-2.926,47.703],[-2.967,47.693],[-2.973,47.712]]]}},{"type":"Feature","properties":{"code":"56264","nom":"Kernascléden"},"geometry":{"type":"Polygon","coordinates":[[[-3.306,47.995],[-3.324,47.988],[-3.359,48.015],[-3.322,48.021],[-3.313,48.036],[-3.306,47.995]]]}}]}