{"type":"FeatureCollection","features":[{"type":"Feature","properties":{"code":"58001","nom":"Achun","pop":160},"geometry":{"type":"Polygon","coordinates":[[[3.678,47.171],[3.684,47.17],[3.699,47.136],[3.67,47.093],[3.619,47.117],[3.648,47.147],[3.678,47.171]]]}},{"type":"Feature","properties":{"code":"58002","nom":"Alligny-Cosne","pop":926},"geometry":{"type":"Polygon","coordinates":[[[3.12,47.427],[3.117,47.421],[3.041,47.418],[3.024,47.423],[3.026,47.461],[3.085,47.474],[3.118,47.462],[3.12,47.427]]]}},{"type":"Feature","properties":{"code":"58003","nom":"Alligny-en-Morvan","pop":594},"geometry":{"type":"Polygon","coordinates":[[[4.209,47.168],[4.15,47.19],[4.103,47.199],[4.12,47.217],[4.135,47.237],[4.167,47.25],[4.187,47.245],[4.222,47.22],[4.229,47.204],[4.209,47.168]]]}},{"type":"Feature","properties":{"code":"58004","nom":"Alluy","pop":365},"geometry":{"type":"Polygon","coordinates":[[[3.607,47.056],[3.637,47.051],[3.662,47.033],[3.702,47.04],[3.675,47.019],[3.623,47.015],[3.582,47.029],[3.587,47.06],[3.607,47.056]]]}},{"type":"Feature","properties":{"code":"58005","nom":"Amazy","pop":208},"geometry":{"type":"Polygon","coordinates":[[[3.613,47.381],[3.538,47.365],[3.527,47.394],[3.563,47.401],[3.577,47.385],[3.608,47.391],[3.613,47.381]]]}},{"type":"Feature","properties":{"code":"58006","nom":"Anlezy","pop":240},"geometry":{"type":"Polygon","coordinates":[[[3.451,46.956],[3.442,46.978],[3.489,46.977],[3.496,46.991],[3.52,46.974],[3.547,46.972],[3.535,46.949],[3.451,46.956]]]}},{"type":"Feature","properties":{"code":"58007","nom":"Annay","pop":343},"geometry":{"type":"Polygon","coordinates":[[[2.914,47.566],[2.959,47.558],[2.969,47.545],[2.968,47.506],[2.928,47.507],[2.913,47.52],[2.909,47.56],[2.914,47.566]]]}},{"type":"Feature","properties":{"code":"58008","nom":"Anthien","pop":173},"geometry":{"type":"Polygon","coordinates":[[[3.705,47.318],[3.717,47.331],[3.762,47.338],[3.745,47.304],[3.716,47.279],[3.693,47.29],[3.705,47.318]]]}},{"type":"Feature","properties":{"code":"58009","nom":"Arbourse","pop":123},"geometry":{"type":"Polygon","coordinates":[[[3.206,47.257],[3.212,47.26],[3.255,47.258],[3.218,47.231],[3.2,47.241],[3.206,47.257]]]}},{"type":"Feature","properties":{"code":"58010","nom":"Arleuf","pop":637},"geometry":{"type":"Polygon","coordinates":[[[3.993,46.989],[3.97,47.028],[3.962,47.038],[3.983,47.074],[4.013,47.092],[4.039,47.08],[4.074,47.056],[4.059,47.032],[4.037,47.002],[3.996,46.987],[3.993,46.989]]]}},{"type":"Feature","properties":{"code":"58011","nom":"Armes","pop":266},"geometry":{"type":"Polygon","coordinates":[[[3.576,47.482],[3.583,47.461],[3.557,47.446],[3.536,47.45],[3.548,47.469],[3.576,47.482]]]}},{"type":"Feature","properties":{"code":"58012","nom":"Arquian","pop":540},"geometry":{"type":"Polygon","coordinates":[[[2.959,47.558],[2.977,47.569],[3.031,47.561],[3.039,47.543],[3.032,47.514],[3.006,47.511],[2.984,47.493],[2.968,47.506],[2.969,47.545],[2.959,47.558]]]}},{"type":"Feature","properties":{"code":"58013","nom":"Arthel","pop":89},"geometry":{"type":"Polygon","coordinates":[[[3.395,47.256],[3.432,47.251],[3.432,47.238],[3.387,47.229],[3.384,47.23],[3.395,47.256]]]}},{"type":"Feature","properties":{"code":"58014","nom":"Arzembouy","pop":70},"geometry":{"type":"Polygon","coordinates":[[[3.389,47.259],[3.395,47.256],[3.384,47.23],[3.354,47.239],[3.326,47.225],[3.328,47.255],[3.389,47.259],[3.389,47.259]]]}},{"type":"Feature","properties":{"code":"58015","nom":"Asnan","pop":118},"geometry":{"type":"Polygon","coordinates":[[[3.551,47.325],[3.563,47.317],[3.569,47.302],[3.565,47.296],[3.539,47.302],[3.551,47.325]]]}},{"type":"Feature","properties":{"code":"58016","nom":"Asnois","pop":141},"geometry":{"type":"Polygon","coordinates":[[[3.608,47.391],[3.577,47.385],[3.563,47.401],[3.59,47.402],[3.604,47.417],[3.61,47.405],[3.608,47.391]]]}},{"type":"Feature","properties":{"code":"58017","nom":"Aunay-en-Bazois","pop":231},"geometry":{"type":"Polygon","coordinates":[[[3.684,47.17],[3.702,47.171],[3.756,47.149],[3.773,47.129],[3.774,47.114],[3.737,47.09],[3.682,47.083],[3.67,47.093],[3.699,47.136],[3.684,47.17]]]}},{"type":"Feature","properties":{"code":"58018","nom":"Authiou","pop":41},"geometry":{"type":"Polygon","coordinates":[[[3.395,47.256],[3.389,47.259],[3.43,47.285],[3.44,47.263],[3.432,47.251],[3.395,47.256]]]}},{"type":"Feature","properties":{"code":"58019","nom":"Avrée","pop":83},"geometry":{"type":"Polygon","coordinates":[[[3.849,46.831],[3.895,46.839],[3.916,46.833],[3.914,46.826],[3.895,46.808],[3.869,46.805],[3.861,46.804],[3.849,46.831]]]}},{"type":"Feature","properties":{"code":"58020","nom":"Avril-sur-Loire","pop":245},"geometry":{"type":"Polygon","coordinates":[[[3.339,46.774],[3.317,46.798],[3.352,46.836],[3.386,46.827],[3.405,46.834],[3.403,46.801],[3.383,46.809],[3.343,46.773],[3.339,46.774]]]}},{"type":"Feature","properties":{"code":"58021","nom":"Azy-le-Vif","pop":188},"geometry":{"type":"Polygon","coordinates":[[[3.194,46.77],[3.173,46.785],[3.2,46.828],[3.228,46.825],[3.271,46.806],[3.277,46.767],[3.257,46.757],[3.226,46.747],[3.194,46.77]]]}},{"type":"Feature","properties":{"code":"58023","nom":"Bazoches","pop":160},"geometry":{"type":"Polygon","coordinates":[[[3.786,47.39],[3.828,47.382],[3.827,47.371],[3.795,47.347],[3.768,47.347],[3.765,47.37],[3.786,47.39]]]}},{"type":"Feature","properties":{"code":"58024","nom":"Bazolles","pop":286},"geometry":{"type":"Polygon","coordinates":[[[3.613,47.179],[3.648,47.147],[3.619,47.117],[3.599,47.109],[3.568,47.125],[3.586,47.144],[3.577,47.172],[3.613,47.179]]]}},{"type":"Feature","properties":{"code":"58025","nom":"Béard","pop":160},"geometry":{"type":"Polygon","coordinates":[[[3.313,46.863],[3.299,46.869],[3.337,46.885],[3.349,46.861],[3.334,46.851],[3.313,46.863]]]}},{"type":"Feature","properties":{"code":"58026","nom":"Beaulieu","pop":142},"geometry":{"type":"Polygon","coordinates":[[[3.568,47.252],[3.553,47.24],[3.524,47.239],[3.502,47.272],[3.506,47.28],[3.547,47.266],[3.572,47.27],[3.568,47.252]]]}},{"type":"Feature","properties":{"code":"58027","nom":"Beaumont-la-Ferrière","pop":119},"geometry":{"type":"Polygon","coordinates":[[[3.257,47.153],[3.241,47.156],[3.19,47.167],[3.202,47.201],[3.226,47.211],[3.267,47.207],[3.282,47.169],[3.257,47.153]]]}},{"type":"Feature","properties":{"code":"58028","nom":"Beaumont-Sardolles","pop":114},"geometry":{"type":"Polygon","coordinates":[[[3.399,46.918],[3.36,46.909],[3.342,46.927],[3.371,46.951],[3.404,46.962],[3.428,46.957],[3.445,46.949],[3.456,46.934],[3.436,46.926],[3.399,46.918]]]}},{"type":"Feature","properties":{"code":"58029","nom":"Beuvron","pop":84},"geometry":{"type":"Polygon","coordinates":[[[3.486,47.335],[3.477,47.339],[3.483,47.368],[3.513,47.364],[3.524,47.342],[3.49,47.334],[3.486,47.335]]]}},{"type":"Feature","properties":{"code":"58030","nom":"Biches","pop":240},"geometry":{"type":"Polygon","coordinates":[[[3.681,46.978],[3.643,46.97],[3.62,46.977],[3.623,47.015],[3.675,47.019],[3.688,46.985],[3.681,46.978]]]}},{"type":"Feature","properties":{"code":"58031","nom":"Billy-Chevannes","pop":326},"geometry":{"type":"Polygon","coordinates":[[[3.506,47.007],[3.487,46.996],[3.436,46.986],[3.439,47.013],[3.426,47.03],[3.431,47.036],[3.461,47.037],[3.487,47.033],[3.506,47.007]]]}},{"type":"Feature","properties":{"code":"58032","nom":"Billy-sur-Oisy","pop":381},"geometry":{"type":"Polygon","coordinates":[[[3.405,47.509],[3.412,47.508],[3.458,47.5],[3.428,47.468],[3.404,47.464],[3.365,47.462],[3.335,47.462],[3.347,47.47],[3.405,47.509]]]}},{"type":"Feature","properties":{"code":"58033","nom":"Bitry","pop":308},"geometry":{"type":"Polygon","coordinates":[[[3.118,47.462],[3.085,47.474],[3.063,47.483],[3.047,47.512],[3.098,47.507],[3.11,47.481],[3.131,47.469],[3.118,47.462]]]}},{"type":"Feature","properties":{"code":"58034","nom":"Blismes","pop":185},"geometry":{"type":"Polygon","coordinates":[[[3.774,47.114],[3.773,47.129],[3.807,47.14],[3.812,47.161],[3.86,47.126],[3.852,47.098],[3.83,47.099],[3.79,47.107],[3.774,47.114]]]}},{"type":"Feature","properties":{"code":"58035","nom":"Bona","pop":296},"geometry":{"type":"Polygon","coordinates":[[[3.392,47.094],[3.416,47.094],[3.442,47.082],[3.463,47.065],[3.461,47.037],[3.431,47.036],[3.396,47.056],[3.392,47.094]]]}},{"type":"Feature","properties":{"code":"58036","nom":"Bouhy","pop":410},"geometry":{"type":"Polygon","coordinates":[[[3.204,47.523],[3.235,47.49],[3.204,47.457],[3.141,47.456],[3.131,47.469],[3.165,47.517],[3.204,47.523]]]}},{"type":"Feature","properties":{"code":"58037","nom":"Brassy","pop":603},"geometry":{"type":"Polygon","coordinates":[[[3.894,47.297],[3.917,47.302],[3.953,47.301],[4.007,47.259],[3.981,47.237],[3.963,47.24],[3.928,47.216],[3.876,47.264],[3.877,47.291],[3.894,47.297]]]}},{"type":"Feature","properties":{"code":"58038","nom":"Breugnon","pop":153},"geometry":{"type":"Polygon","coordinates":[[[3.429,47.421],[3.435,47.436],[3.442,47.442],[3.461,47.446],[3.488,47.437],[3.484,47.423],[3.477,47.409],[3.435,47.41],[3.429,47.421]]]}},{"type":"Feature","properties":{"code":"58039","nom":"Brèves","pop":258},"geometry":{"type":"Polygon","coordinates":[[[3.629,47.455],[3.634,47.456],[3.677,47.447],[3.628,47.415],[3.61,47.405],[3.604,47.417],[3.57,47.42],[3.6,47.426],[3.629,47.455]]]}},{"type":"Feature","properties":{"code":"58040","nom":"Brinay","pop":145},"geometry":{"type":"Polygon","coordinates":[[[3.702,47.04],[3.702,47.04],[3.732,47.036],[3.737,47.023],[3.688,46.985],[3.675,47.019],[3.702,47.04]]]}},{"type":"Feature","properties":{"code":"58041","nom":"Brinon-sur-Beuvron","pop":168},"geometry":{"type":"Polygon","coordinates":[[[3.504,47.301],[3.506,47.299],[3.506,47.28],[3.502,47.272],[3.483,47.266],[3.471,47.274],[3.473,47.292],[3.504,47.301]]]}},{"type":"Feature","properties":{"code":"58042","nom":"Bulcy","pop":146},"geometry":{"type":"Polygon","coordinates":[[[3.036,47.262],[3.042,47.247],[3.043,47.241],[3.04,47.218],[3.011,47.231],[3.016,47.261],[3.036,47.262]]]}},{"type":"Feature","properties":{"code":"58043","nom":"Bussy-la-Pesle","pop":50},"geometry":{"type":"Polygon","coordinates":[[[3.461,47.259],[3.471,47.274],[3.483,47.266],[3.484,47.252],[3.465,47.238],[3.461,47.259]]]}},{"type":"Feature","properties":{"code":"58044","nom":"La Celle-sur-Loire","pop":785},"geometry":{"type":"Polygon","coordinates":[[[2.92,47.459],[2.919,47.461],[2.897,47.485],[2.892,47.499],[2.928,47.507],[2.968,47.506],[2.984,47.493],[2.984,47.487],[2.968,47.478],[2.92,47.459]]]}},{"type":"Feature","properties":{"code":"58045","nom":"La Celle-sur-Nièvre","pop":152},"geometry":{"type":"Polygon","coordinates":[[[3.172,47.213],[3.166,47.227],[3.2,47.241],[3.218,47.231],[3.226,47.211],[3.202,47.201],[3.172,47.213]]]}},{"type":"Feature","properties":{"code":"58046","nom":"Cercy-la-Tour","pop":1653},"geometry":{"type":"Polygon","coordinates":[[[3.602,46.884],[3.618,46.902],[3.669,46.876],[3.69,46.843],[3.685,46.797],[3.65,46.809],[3.625,46.82],[3.602,46.867],[3.602,46.884]]]}},{"type":"Feature","properties":{"code":"58047","nom":"Cervon","pop":588},"geometry":{"type":"Polygon","coordinates":[[[3.684,47.221],[3.701,47.231],[3.726,47.278],[3.76,47.283],[3.804,47.253],[3.798,47.208],[3.769,47.199],[3.741,47.216],[3.705,47.206],[3.684,47.221]]]}},{"type":"Feature","properties":{"code":"58048","nom":"Cessy-les-Bois","pop":115},"geometry":{"type":"Polygon","coordinates":[[[3.19,47.347],[3.187,47.353],[3.2,47.361],[3.251,47.334],[3.241,47.319],[3.236,47.305],[3.202,47.305],[3.19,47.347]]]}},{"type":"Feature","properties":{"code":"58049","nom":"Chalaux","pop":89},"geometry":{"type":"Polygon","coordinates":[[[3.896,47.35],[3.941,47.336],[3.924,47.319],[3.889,47.319],[3.896,47.35]]]}},{"type":"Feature","properties":{"code":"58050","nom":"Challement","pop":45},"geometry":{"type":"Polygon","coordinates":[[[3.563,47.317],[3.566,47.319],[3.631,47.325],[3.619,47.311],[3.598,47.299],[3.569,47.302],[3.563,47.317]]]}},{"type":"Feature","properties":{"code":"58051","nom":"Challuy","pop":1453},"geometry":{"type":"Polygon","coordinates":[[[3.123,46.913],[3.11,46.92],[3.124,46.939],[3.118,46.96],[3.126,46.963],[3.159,46.978],[3.163,46.92],[3.123,46.913]]]}},{"type":"Feature","properties":{"code":"58052","nom":"Champallement","pop":56},"geometry":{"type":"Polygon","coordinates":[[[3.459,47.224],[3.458,47.227],[3.465,47.238],[3.484,47.252],[3.501,47.221],[3.474,47.213],[3.459,47.224]]]}},{"type":"Feature","properties":{"code":"58053","nom":"Champlemy","pop":305},"geometry":{"type":"Polygon","coordinates":[[[3.371,47.301],[3.377,47.282],[3.389,47.259],[3.328,47.255],[3.303,47.277],[3.278,47.255],[3.271,47.256],[3.289,47.283],[3.305,47.313],[3.323,47.318],[3.348,47.317],[3.359,47.312],[3.371,47.301]]]}},{"type":"Feature","properties":{"code":"58054","nom":"Champlin","pop":45},"geometry":{"type":"Polygon","coordinates":[[[3.461,47.259],[3.465,47.238],[3.458,47.227],[3.432,47.238],[3.432,47.251],[3.44,47.263],[3.461,47.259]]]}},{"type":"Feature","properties":{"code":"58055","nom":"Champvert","pop":741},"geometry":{"type":"Polygon","coordinates":[[[3.537,46.886],[3.544,46.867],[3.591,46.83],[3.563,46.81],[3.517,46.822],[3.486,46.844],[3.47,46.857],[3.491,46.897],[3.522,46.891],[3.537,46.886]]]}},{"type":"Feature","properties":{"code":"58056","nom":"Champvoux","pop":282},"geometry":{"type":"Polygon","coordinates":[[[3.054,47.133],[3.074,47.166],[3.093,47.155],[3.075,47.123],[3.054,47.133]]]}},{"type":"Feature","properties":{"code":"58057","nom":"Chantenay-Saint-Imbert","pop":1073},"geometry":{"type":"Polygon","coordinates":[[[3.149,46.709],[3.147,46.71],[3.105,46.733],[3.108,46.765],[3.119,46.754],[3.16,46.754],[3.194,46.77],[3.226,46.747],[3.215,46.716],[3.204,46.721],[3.149,46.709]]]}},{"type":"Feature","properties":{"code":"58058","nom":"La Chapelle-Saint-André","pop":313},"geometry":{"type":"Polygon","coordinates":[[[3.298,47.389],[3.286,47.416],[3.308,47.432],[3.365,47.406],[3.368,47.397],[3.335,47.367],[3.309,47.365],[3.298,47.389]]]}},{"type":"Feature","properties":{"code":"58059","nom":"La Charité-sur-Loire","pop":4705},"geometry":{"type":"Polygon","coordinates":[[[2.998,47.201],[3.038,47.21],[3.06,47.191],[3.054,47.165],[3.019,47.156],[3.016,47.159],[2.998,47.201]]]}},{"type":"Feature","properties":{"code":"58060","nom":"Charrin","pop":605},"geometry":{"type":"Polygon","coordinates":[[[3.567,46.777],[3.563,46.777],[3.563,46.81],[3.591,46.83],[3.623,46.821],[3.635,46.802],[3.603,46.768],[3.567,46.777]]]}},{"type":"Feature","properties":{"code":"58061","nom":"Chasnay","pop":128},"geometry":{"type":"Polygon","coordinates":[[[3.2,47.241],[3.166,47.227],[3.172,47.213],[3.158,47.224],[3.141,47.245],[3.206,47.257],[3.2,47.241]]]}},{"type":"Feature","properties":{"code":"58062","nom":"Château-Chinon (Ville)","pop":1770},"geometry":{"type":"Polygon","coordinates":[[[3.911,47.059],[3.937,47.079],[3.941,47.062],[3.91,47.059],[3.911,47.059]]]}},{"type":"Feature","properties":{"code":"58063","nom":"Château-Chinon (Campagne)","pop":554},"geometry":{"type":"Polygon","coordinates":[[[3.945,47.016],[3.901,47.043],[3.91,47.059],[3.941,47.062],[3.937,47.079],[3.911,47.059],[3.924,47.093],[3.983,47.074],[3.962,47.038],[3.97,47.028],[3.945,47.016]]]}},{"type":"Feature","properties":{"code":"58064","nom":"Châteauneuf-Val-de-Bargis","pop":499},"geometry":{"type":"Polygon","coordinates":[[[3.271,47.256],[3.255,47.258],[3.212,47.26],[3.179,47.261],[3.151,47.278],[3.144,47.293],[3.17,47.308],[3.202,47.305],[3.236,47.305],[3.257,47.305],[3.289,47.283],[3.271,47.256]]]}},{"type":"Feature","properties":{"code":"58065","nom":"Châtillon-en-Bazois","pop":795},"geometry":{"type":"Polygon","coordinates":[[[3.702,47.04],[3.662,47.033],[3.637,47.051],[3.607,47.056],[3.636,47.078],[3.643,47.064],[3.688,47.071],[3.699,47.057],[3.702,47.04],[3.702,47.04]]]}},{"type":"Feature","properties":{"code":"58066","nom":"Châtin","pop":84},"geometry":{"type":"Polygon","coordinates":[[[3.921,47.112],[3.915,47.1],[3.88,47.083],[3.854,47.092],[3.852,47.098],[3.86,47.126],[3.895,47.119],[3.921,47.112]]]}},{"type":"Feature","properties":{"code":"58067","nom":"Chaulgnes","pop":1500},"geometry":{"type":"Polygon","coordinates":[[[3.153,47.156],[3.146,47.133],[3.125,47.126],[3.091,47.094],[3.075,47.093],[3.069,47.101],[3.075,47.123],[3.093,47.155],[3.153,47.156]]]}},{"type":"Feature","properties":{"code":"58068","nom":"Chaumard","pop":192},"geometry":{"type":"Polygon","coordinates":[[[3.874,47.169],[3.882,47.179],[3.885,47.167],[3.944,47.161],[3.959,47.143],[3.953,47.14],[3.916,47.124],[3.921,47.112],[3.895,47.119],[3.874,47.169]]]}},{"type":"Feature","properties":{"code":"58069","nom":"Chaumot","pop":164},"geometry":{"type":"Polygon","coordinates":[[[3.63,47.27],[3.649,47.266],[3.664,47.246],[3.667,47.237],[3.65,47.231],[3.618,47.265],[3.618,47.266],[3.63,47.27]]]}},{"type":"Feature","properties":{"code":"58070","nom":"Chazeuil","pop":60},"geometry":{"type":"Polygon","coordinates":[[[3.427,47.288],[3.43,47.285],[3.389,47.259],[3.389,47.259],[3.377,47.282],[3.427,47.288]]]}},{"type":"Feature","properties":{"code":"58071","nom":"Chevannes-Changy","pop":136},"geometry":{"type":"Polygon","coordinates":[[[3.43,47.285],[3.427,47.288],[3.43,47.301],[3.436,47.32],[3.475,47.321],[3.473,47.292],[3.471,47.274],[3.461,47.259],[3.44,47.263],[3.43,47.285]]]}},{"type":"Feature","properties":{"code":"58072","nom":"Chevenon","pop":635},"geometry":{"type":"Polygon","coordinates":[[[3.2,46.912],[3.193,46.929],[3.219,46.959],[3.252,46.937],[3.265,46.91],[3.243,46.872],[3.211,46.89],[3.2,46.912]]]}},{"type":"Feature","properties":{"code":"58073","nom":"Chevroches","pop":113},"geometry":{"type":"Polygon","coordinates":[[[3.549,47.435],[3.538,47.435],[3.536,47.45],[3.557,47.446],[3.549,47.435]]]}},{"type":"Feature","properties":{"code":"58074","nom":"Chiddes","pop":353},"geometry":{"type":"Polygon","coordinates":[[[3.963,46.851],[3.941,46.835],[3.916,46.833],[3.895,46.839],[3.911,46.87],[3.902,46.888],[3.925,46.894],[3.972,46.875],[3.963,46.851]]]}},{"type":"Feature","properties":{"code":"58075","nom":"Chitry-les-Mines","pop":216},"geometry":{"type":"Polygon","coordinates":[[[3.667,47.304],[3.673,47.286],[3.664,47.246],[3.649,47.266],[3.667,47.304]]]}},{"type":"Feature","properties":{"code":"58076","nom":"Chougny","pop":85},"geometry":{"type":"Polygon","coordinates":[[[3.761,47.071],[3.748,47.06],[3.736,47.071],[3.737,47.09],[3.774,47.114],[3.79,47.107],[3.768,47.095],[3.779,47.073],[3.761,47.071]]]}},{"type":"Feature","properties":{"code":"58077","nom":"Ciez","pop":378},"geometry":{"type":"Polygon","coordinates":[[[3.205,47.426],[3.148,47.417],[3.12,47.427],[3.118,47.462],[3.131,47.469],[3.141,47.456],[3.204,47.457],[3.216,47.435],[3.211,47.431],[3.205,47.426]]]}},{"type":"Feature","properties":{"code":"58078","nom":"Cizely","pop":51},"geometry":{"type":"Polygon","coordinates":[[[3.442,46.978],[3.436,46.986],[3.487,46.996],[3.496,46.991],[3.489,46.977],[3.442,46.978]]]}},{"type":"Feature","properties":{"code":"58079","nom":"Clamecy","pop":3544},"geometry":{"type":"Polygon","coordinates":[[[3.576,47.483],[3.576,47.482],[3.548,47.469],[3.536,47.45],[3.538,47.435],[3.51,47.425],[3.488,47.437],[3.461,47.446],[3.488,47.494],[3.527,47.473],[3.548,47.493],[3.576,47.483]]]}},{"type":"Feature","properties":{"code":"58080","nom":"La Collancelle","pop":158},"geometry":{"type":"Polygon","coordinates":[[[3.678,47.171],[3.648,47.147],[3.613,47.179],[3.61,47.203],[3.66,47.205],[3.679,47.194],[3.678,47.171]]]}},{"type":"Feature","properties":{"code":"58081","nom":"Colméry","pop":268},"geometry":{"type":"Polygon","coordinates":[[[3.257,47.376],[3.25,47.361],[3.294,47.341],[3.305,47.324],[3.262,47.336],[3.241,47.319],[3.251,47.334],[3.2,47.361],[3.187,47.353],[3.195,47.375],[3.205,47.368],[3.257,47.376]]]}},{"type":"Feature","properties":{"code":"58082","nom":"Corancy","pop":275},"geometry":{"type":"Polygon","coordinates":[[[3.915,47.1],[3.921,47.112],[3.916,47.124],[3.953,47.14],[3.977,47.123],[4.013,47.092],[3.983,47.074],[3.924,47.093],[3.915,47.1]]]}},{"type":"Feature","properties":{"code":"58083","nom":"Corbigny","pop":1327},"geometry":{"type":"Polygon","coordinates":[[[3.726,47.278],[3.701,47.231],[3.684,47.221],[3.675,47.222],[3.667,47.237],[3.664,47.246],[3.673,47.286],[3.693,47.29],[3.716,47.279],[3.726,47.278]]]}},{"type":"Feature","properties":{"code":"58084","nom":"Corvol-d'Embernard","pop":117},"geometry":{"type":"Polygon","coordinates":[[[3.377,47.282],[3.371,47.301],[3.394,47.308],[3.43,47.301],[3.427,47.288],[3.377,47.282]]]}},{"type":"Feature","properties":{"code":"58085","nom":"Corvol-l'Orgueilleux","pop":721},"geometry":{"type":"Polygon","coordinates":[[[3.435,47.436],[3.429,47.421],[3.421,47.417],[3.39,47.418],[3.365,47.406],[3.308,47.432],[3.335,47.462],[3.365,47.462],[3.374,47.444],[3.435,47.436]]]}},{"type":"Feature","properties":{"code":"58086","nom":"Cosne-Cours-sur-Loire","pop":9733},"geometry":{"type":"Polygon","coordinates":[[[2.968,47.379],[2.94,47.348],[2.888,47.343],[2.89,47.366],[2.92,47.41],[2.932,47.434],[2.968,47.478],[2.984,47.487],[2.988,47.481],[2.983,47.442],[2.999,47.423],[2.957,47.421],[2.94,47.405],[2.968,47.379]]]}},{"type":"Feature","properties":{"code":"58087","nom":"Cossaye","pop":652},"geometry":{"type":"Polygon","coordinates":[[[3.563,46.777],[3.567,46.777],[3.554,46.749],[3.577,46.723],[3.548,46.723],[3.531,46.733],[3.456,46.736],[3.445,46.771],[3.448,46.78],[3.478,46.788],[3.526,46.779],[3.536,46.795],[3.563,46.777]]]}},{"type":"Feature","properties":{"code":"58088","nom":"Coulanges-lès-Nevers","pop":3688},"geometry":{"type":"Polygon","coordinates":[[[3.157,47.007],[3.179,47.032],[3.209,47.022],[3.219,47.026],[3.244,47.012],[3.195,47.002],[3.157,47.007]]]}},{"type":"Feature","properties":{"code":"58089","nom":"Couloutre","pop":234},"geometry":{"type":"Polygon","coordinates":[[[3.257,47.384],[3.257,47.376],[3.205,47.368],[3.195,47.375],[3.205,47.426],[3.211,47.431],[3.241,47.411],[3.257,47.384]]]}},{"type":"Feature","properties":{"code":"58090","nom":"Courcelles","pop":233},"geometry":{"type":"Polygon","coordinates":[[[3.368,47.397],[3.365,47.406],[3.39,47.418],[3.421,47.417],[3.414,47.384],[3.368,47.397]]]}},{"type":"Feature","properties":{"code":"58092","nom":"Crux-la-Ville","pop":399},"geometry":{"type":"Polygon","coordinates":[[[3.473,47.171],[3.482,47.176],[3.514,47.188],[3.577,47.172],[3.586,47.144],[3.568,47.125],[3.543,47.13],[3.496,47.123],[3.466,47.162],[3.473,47.171]]]}},{"type":"Feature","properties":{"code":"58093","nom":"Cuncy-lès-Varzy","pop":120},"geometry":{"type":"Polygon","coordinates":[[[3.489,47.378],[3.483,47.368],[3.477,47.339],[3.443,47.344],[3.429,47.373],[3.447,47.38],[3.48,47.385],[3.489,47.378]]]}},{"type":"Feature","properties":{"code":"58094","nom":"Dampierre-sous-Bouhy","pop":461},"geometry":{"type":"Polygon","coordinates":[[[3.123,47.539],[3.165,47.517],[3.131,47.469],[3.11,47.481],[3.098,47.507],[3.123,47.539]]]}},{"type":"Feature","properties":{"code":"58095","nom":"Decize","pop":4932},"geometry":{"type":"Polygon","coordinates":[[[3.405,46.834],[3.421,46.834],[3.486,46.844],[3.517,46.822],[3.508,46.807],[3.536,46.795],[3.526,46.779],[3.478,46.788],[3.448,46.78],[3.403,46.801],[3.405,46.834]]]}},{"type":"Feature","properties":{"code":"58096","nom":"Devay","pop":460},"geometry":{"type":"Polygon","coordinates":[[[3.563,46.81],[3.563,46.777],[3.536,46.795],[3.508,46.807],[3.517,46.822],[3.563,46.81]]]}},{"type":"Feature","properties":{"code":"58097","nom":"Diennes-Aubigny","pop":88},"geometry":{"type":"Polygon","coordinates":[[[3.522,46.891],[3.531,46.914],[3.561,46.952],[3.6,46.944],[3.623,46.914],[3.618,46.902],[3.602,46.884],[3.586,46.891],[3.537,46.886],[3.522,46.891]]]}},{"type":"Feature","properties":{"code":"58098","nom":"Dirol","pop":104},"geometry":{"type":"Polygon","coordinates":[[[3.634,47.303],[3.619,47.311],[3.631,47.325],[3.635,47.332],[3.635,47.343],[3.641,47.342],[3.65,47.337],[3.661,47.319],[3.666,47.308],[3.634,47.303]]]}},{"type":"Feature","properties":{"code":"58099","nom":"Dommartin","pop":154},"geometry":{"type":"Polygon","coordinates":[[[3.854,47.092],[3.858,47.041],[3.851,47.044],[3.826,47.062],[3.823,47.08],[3.83,47.099],[3.852,47.098],[3.854,47.092]]]}},{"type":"Feature","properties":{"code":"58101","nom":"Dompierre-sur-Nièvre","pop":180},"geometry":{"type":"Polygon","coordinates":[[[3.255,47.258],[3.271,47.256],[3.278,47.255],[3.287,47.225],[3.275,47.209],[3.267,47.207],[3.226,47.211],[3.218,47.231],[3.255,47.258]]]}},{"type":"Feature","properties":{"code":"58102","nom":"Donzy","pop":1525},"geometry":{"type":"Polygon","coordinates":[[[3.042,47.376],[3.057,47.391],[3.041,47.418],[3.117,47.421],[3.148,47.389],[3.195,47.375],[3.187,47.353],[3.19,47.347],[3.144,47.346],[3.125,47.334],[3.092,47.352],[3.089,47.37],[3.046,47.365],[3.042,47.376]]]}},{"type":"Feature","properties":{"code":"58103","nom":"Dornecy","pop":451},"geometry":{"type":"Polygon","coordinates":[[[3.606,47.466],[3.629,47.455],[3.6,47.426],[3.57,47.42],[3.549,47.435],[3.557,47.446],[3.583,47.461],[3.606,47.466]]]}},{"type":"Feature","properties":{"code":"58104","nom":"Dornes","pop":1437},"geometry":{"type":"Polygon","coordinates":[[[3.357,46.689],[3.314,46.689],[3.301,46.717],[3.283,46.715],[3.298,46.742],[3.323,46.755],[3.387,46.731],[3.39,46.715],[3.357,46.689]]]}},{"type":"Feature","properties":{"code":"58105","nom":"Druy-Parigny","pop":298},"geometry":{"type":"Polygon","coordinates":[[[3.352,46.836],[3.334,46.851],[3.349,46.861],[3.337,46.885],[3.364,46.887],[3.36,46.909],[3.399,46.918],[3.415,46.895],[3.393,46.885],[3.384,46.861],[3.352,46.836]]]}},{"type":"Feature","properties":{"code":"58106","nom":"Dun-les-Places","pop":358},"geometry":{"type":"Polygon","coordinates":[[[3.983,47.323],[4.002,47.311],[4.04,47.327],[4.059,47.303],[4.079,47.304],[4.074,47.285],[4.043,47.268],[4.05,47.261],[4.026,47.246],[4.007,47.259],[3.953,47.301],[3.983,47.323]]]}},{"type":"Feature","properties":{"code":"58107","nom":"Dun-sur-Grandry","pop":151},"geometry":{"type":"Polygon","coordinates":[[[3.779,47.073],[3.768,47.095],[3.79,47.107],[3.83,47.099],[3.823,47.08],[3.779,47.073]]]}},{"type":"Feature","properties":{"code":"58108","nom":"Empury","pop":72},"geometry":{"type":"Polygon","coordinates":[[[3.834,47.326],[3.797,47.338],[3.795,47.347],[3.827,47.371],[3.844,47.36],[3.834,47.326]]]}},{"type":"Feature","properties":{"code":"58109","nom":"Entrains-sur-Nohain","pop":740},"geometry":{"type":"Polygon","coordinates":[[[3.285,47.504],[3.34,47.481],[3.347,47.47],[3.335,47.462],[3.308,47.432],[3.286,47.416],[3.216,47.435],[3.204,47.457],[3.235,47.49],[3.276,47.491],[3.285,47.504]]]}},{"type":"Feature","properties":{"code":"58110","nom":"Epiry","pop":225},"geometry":{"type":"Polygon","coordinates":[[[3.756,47.149],[3.702,47.171],[3.723,47.195],[3.748,47.177],[3.756,47.149]]]}},{"type":"Feature","properties":{"code":"58111","nom":"Fâchin","pop":106},"geometry":{"type":"Polygon","coordinates":[[[3.97,47.028],[3.993,46.989],[3.985,46.981],[3.956,46.984],[3.945,47.016],[3.97,47.028]]]}},{"type":"Feature","properties":{"code":"58112","nom":"La Fermeté","pop":617},"geometry":{"type":"Polygon","coordinates":[[[3.342,46.927],[3.31,46.922],[3.296,46.967],[3.315,46.987],[3.36,46.987],[3.359,46.974],[3.371,46.951],[3.342,46.927]]]}},{"type":"Feature","properties":{"code":"58113","nom":"Fertrève","pop":89},"geometry":{"type":"Polygon","coordinates":[[[3.561,46.982],[3.62,46.977],[3.643,46.97],[3.621,46.948],[3.6,46.944],[3.561,46.952],[3.535,46.949],[3.547,46.972],[3.561,46.982]]]}},{"type":"Feature","properties":{"code":"58114","nom":"Fléty","pop":94},"geometry":{"type":"Polygon","coordinates":[[[3.939,46.785],[3.892,46.775],[3.875,46.782],[3.869,46.805],[3.895,46.808],[3.914,46.826],[3.946,46.81],[3.939,46.785]]]}},{"type":"Feature","properties":{"code":"58115","nom":"Fleury-sur-Loire","pop":230},"geometry":{"type":"Polygon","coordinates":[[[3.334,46.851],[3.352,46.836],[3.317,46.798],[3.283,46.809],[3.292,46.837],[3.313,46.863],[3.334,46.851]]]}},{"type":"Feature","properties":{"code":"58116","nom":"Flez-Cuzy","pop":134},"geometry":{"type":"Polygon","coordinates":[[[3.635,47.343],[3.621,47.363],[3.617,47.375],[3.644,47.371],[3.641,47.342],[3.635,47.343]]]}},{"type":"Feature","properties":{"code":"58117","nom":"Fourchambault","pop":3992},"geometry":{"type":"Polygon","coordinates":[[[3.074,47.012],[3.075,47.03],[3.107,47.019],[3.11,47.008],[3.074,47.012]]]}},{"type":"Feature","properties":{"code":"58118","nom":"Fours","pop":582},"geometry":{"type":"Polygon","coordinates":[[[3.743,46.824],[3.761,46.814],[3.763,46.792],[3.73,46.78],[3.685,46.797],[3.69,46.843],[3.743,46.824]]]}},{"type":"Feature","properties":{"code":"58119","nom":"Frasnay-Reugny","pop":79},"geometry":{"type":"Polygon","coordinates":[[[3.551,47.007],[3.561,46.982],[3.547,46.972],[3.52,46.974],[3.496,46.991],[3.487,46.996],[3.506,47.007],[3.551,47.007]]]}},{"type":"Feature","properties":{"code":"58120","nom":"Gâcogne","pop":233},"geometry":{"type":"Polygon","coordinates":[[[3.928,47.216],[3.896,47.201],[3.883,47.219],[3.839,47.226],[3.831,47.25],[3.876,47.264],[3.928,47.216]]]}},{"type":"Feature","properties":{"code":"58121","nom":"Garchizy","pop":3648},"geometry":{"type":"Polygon","coordinates":[[[3.109,47.061],[3.122,47.04],[3.107,47.019],[3.075,47.03],[3.064,47.046],[3.077,47.07],[3.109,47.061]]]}},{"type":"Feature","properties":{"code":"58122","nom":"Garchy","pop":424},"geometry":{"type":"Polygon","coordinates":[[[3.085,47.26],[3.042,47.247],[3.036,47.262],[3.008,47.292],[3.018,47.294],[3.044,47.308],[3.075,47.295],[3.085,47.26]]]}},{"type":"Feature","properties":{"code":"58123","nom":"Germenay","pop":118},"geometry":{"type":"Polygon","coordinates":[[[3.619,47.311],[3.634,47.303],[3.63,47.27],[3.618,47.266],[3.585,47.274],[3.565,47.296],[3.569,47.302],[3.598,47.299],[3.619,47.311]]]}},{"type":"Feature","properties":{"code":"58124","nom":"Germigny-sur-Loire","pop":738},"geometry":{"type":"Polygon","coordinates":[[[3.075,47.093],[3.077,47.07],[3.064,47.046],[3.054,47.048],[3.022,47.064],[3.023,47.08],[3.03,47.107],[3.069,47.101],[3.075,47.093]]]}},{"type":"Feature","properties":{"code":"58125","nom":"Gien-sur-Cure","pop":90},"geometry":{"type":"Polygon","coordinates":[[[4.114,47.119],[4.093,47.126],[4.059,47.162],[4.085,47.165],[4.115,47.146],[4.116,47.123],[4.114,47.119]]]}},{"type":"Feature","properties":{"code":"58126","nom":"Gimouille","pop":405},"geometry":{"type":"Polygon","coordinates":[[[3.066,46.938],[3.079,46.96],[3.118,46.96],[3.124,46.939],[3.11,46.92],[3.065,46.936],[3.066,46.938]]]}},{"type":"Feature","properties":{"code":"58127","nom":"Giry","pop":187},"geometry":{"type":"Polygon","coordinates":[[[3.387,47.229],[3.379,47.218],[3.37,47.191],[3.275,47.209],[3.287,47.225],[3.326,47.225],[3.354,47.239],[3.384,47.23],[3.387,47.229]]]}},{"type":"Feature","properties":{"code":"58128","nom":"Glux-en-Glenne","pop":87},"geometry":{"type":"Polygon","coordinates":[[[4.012,46.922],[4.017,46.931],[3.985,46.981],[3.993,46.989],[3.996,46.987],[4.041,46.976],[4.056,46.957],[4.045,46.938],[4.037,46.92],[4.012,46.922]]]}},{"type":"Feature","properties":{"code":"58129","nom":"Gouloux","pop":164},"geometry":{"type":"Polygon","coordinates":[[[4.043,47.268],[4.072,47.264],[4.104,47.244],[4.12,47.217],[4.103,47.199],[4.092,47.197],[4.056,47.225],[4.05,47.261],[4.043,47.268]]]}},{"type":"Feature","properties":{"code":"58130","nom":"Grenois","pop":93},"geometry":{"type":"Polygon","coordinates":[[[3.524,47.342],[3.524,47.342],[3.551,47.325],[3.539,47.302],[3.506,47.299],[3.504,47.301],[3.49,47.334],[3.524,47.342]]]}},{"type":"Feature","properties":{"code":"58131","nom":"Guérigny","pop":2505},"geometry":{"type":"Polygon","coordinates":[[[3.187,47.102],[3.193,47.113],[3.211,47.099],[3.249,47.094],[3.25,47.083],[3.211,47.088],[3.191,47.081],[3.187,47.102]]]}},{"type":"Feature","properties":{"code":"58132","nom":"Guipy","pop":222},"geometry":{"type":"Polygon","coordinates":[[[3.604,47.251],[3.595,47.209],[3.551,47.212],[3.555,47.23],[3.553,47.24],[3.568,47.252],[3.604,47.251]]]}},{"type":"Feature","properties":{"code":"58133","nom":"Héry","pop":72},"geometry":{"type":"Polygon","coordinates":[[[3.618,47.265],[3.604,47.251],[3.568,47.252],[3.572,47.27],[3.585,47.274],[3.618,47.266],[3.618,47.265]]]}},{"type":"Feature","properties":{"code":"58134","nom":"Imphy","pop":3182},"geometry":{"type":"Polygon","coordinates":[[[3.277,46.905],[3.265,46.91],[3.252,46.937],[3.274,46.961],[3.296,46.967],[3.31,46.922],[3.277,46.905]]]}},{"type":"Feature","properties":{"code":"58135","nom":"Isenay","pop":94},"geometry":{"type":"Polygon","coordinates":[[[3.697,46.946],[3.742,46.942],[3.728,46.91],[3.695,46.872],[3.684,46.878],[3.688,46.917],[3.697,46.946]]]}},{"type":"Feature","properties":{"code":"58136","nom":"Jailly","pop":67},"geometry":{"type":"Polygon","coordinates":[[[3.473,47.105],[3.496,47.086],[3.463,47.065],[3.442,47.082],[3.473,47.105]]]}},{"type":"Feature","properties":{"code":"58137","nom":"Lamenay-sur-Loire","pop":64},"geometry":{"type":"Polygon","coordinates":[[[3.603,46.768],[3.593,46.763],[3.576,46.748],[3.577,46.723],[3.554,46.749],[3.567,46.777],[3.603,46.768]]]}},{"type":"Feature","properties":{"code":"58138","nom":"Langeron","pop":337},"geometry":{"type":"Polygon","coordinates":[[[3.039,46.81],[3.058,46.832],[3.112,46.84],[3.127,46.831],[3.121,46.808],[3.075,46.796],[3.039,46.81]]]}},{"type":"Feature","properties":{"code":"58139","nom":"Lanty","pop":126},"geometry":{"type":"Polygon","coordinates":[[[3.793,46.796],[3.824,46.806],[3.842,46.832],[3.849,46.831],[3.861,46.804],[3.832,46.786],[3.793,46.796]]]}},{"type":"Feature","properties":{"code":"58140","nom":"Larochemillay","pop":226},"geometry":{"type":"Polygon","coordinates":[[[3.925,46.894],[3.947,46.917],[4.004,46.909],[4.012,46.922],[4.037,46.92],[4.045,46.901],[4.025,46.896],[4.011,46.862],[3.963,46.851],[3.972,46.875],[3.925,46.894]]]}},{"type":"Feature","properties":{"code":"58141","nom":"Lavault-de-Frétoy","pop":65},"geometry":{"type":"Polygon","coordinates":[[[4.055,47.115],[4.039,47.08],[4.013,47.092],[3.977,47.123],[4.055,47.115]]]}},{"type":"Feature","properties":{"code":"58142","nom":"Limanton","pop":242},"geometry":{"type":"Polygon","coordinates":[[[3.742,46.942],[3.697,46.946],[3.681,46.978],[3.688,46.985],[3.737,47.023],[3.788,47.01],[3.769,46.987],[3.784,46.955],[3.742,46.942]]]}},{"type":"Feature","properties":{"code":"58143","nom":"Limon","pop":151},"geometry":{"type":"Polygon","coordinates":[[[3.359,46.974],[3.374,46.979],[3.428,46.957],[3.404,46.962],[3.371,46.951],[3.359,46.974]]]}},{"type":"Feature","properties":{"code":"58144","nom":"Livry","pop":643},"geometry":{"type":"Polygon","coordinates":[[[3.105,46.733],[3.084,46.738],[3.038,46.773],[3.032,46.795],[3.039,46.81],[3.075,46.796],[3.108,46.765],[3.105,46.733]]]}},{"type":"Feature","properties":{"code":"58145","nom":"Lormes","pop":1251},"geometry":{"type":"Polygon","coordinates":[[[3.797,47.338],[3.834,47.326],[3.894,47.297],[3.877,47.291],[3.876,47.264],[3.831,47.25],[3.804,47.253],[3.76,47.283],[3.78,47.296],[3.803,47.313],[3.797,47.338]]]}},{"type":"Feature","properties":{"code":"58146","nom":"Lucenay-lès-Aix","pop":936},"geometry":{"type":"Polygon","coordinates":[[[3.442,46.662],[3.453,46.69],[3.434,46.712],[3.456,46.736],[3.531,46.733],[3.548,46.723],[3.554,46.685],[3.514,46.684],[3.487,46.654],[3.455,46.652],[3.442,46.662]]]}},{"type":"Feature","properties":{"code":"58147","nom":"Lurcy-le-Bourg","pop":275},"geometry":{"type":"Polygon","coordinates":[[[3.425,47.143],[3.377,47.139],[3.361,47.151],[3.386,47.17],[3.371,47.189],[3.416,47.189],[3.426,47.173],[3.433,47.145],[3.425,47.143]]]}},{"type":"Feature","properties":{"code":"58148","nom":"Luthenay-Uxeloup","pop":606},"geometry":{"type":"Polygon","coordinates":[[[3.271,46.806],[3.228,46.825],[3.243,46.845],[3.243,46.872],[3.265,46.91],[3.277,46.905],[3.299,46.869],[3.313,46.863],[3.292,46.837],[3.283,46.809],[3.271,46.806]]]}},{"type":"Feature","properties":{"code":"58149","nom":"Luzy","pop":2006},"geometry":{"type":"Polygon","coordinates":[[[3.946,46.81],[3.996,46.818],[4.026,46.815],[4.046,46.831],[4.059,46.816],[4.062,46.792],[4.047,46.778],[4.001,46.779],[3.967,46.766],[3.963,46.766],[3.939,46.785],[3.946,46.81]]]}},{"type":"Feature","properties":{"code":"58150","nom":"Lys","pop":104},"geometry":{"type":"Polygon","coordinates":[[[3.631,47.325],[3.566,47.319],[3.565,47.343],[3.604,47.354],[3.635,47.332],[3.631,47.325]]]}},{"type":"Feature","properties":{"code":"58151","nom":"La Machine","pop":3192},"geometry":{"type":"Polygon","coordinates":[[[3.491,46.897],[3.47,46.857],[3.448,46.864],[3.433,46.903],[3.443,46.915],[3.481,46.912],[3.491,46.897]]]}},{"type":"Feature","properties":{"code":"58152","nom":"Magny-Cours","pop":1432},"geometry":{"type":"Polygon","coordinates":[[[3.211,46.89],[3.184,46.883],[3.162,46.862],[3.121,46.864],[3.103,46.882],[3.123,46.913],[3.163,46.92],[3.2,46.912],[3.211,46.89]]]}},{"type":"Feature","properties":{"code":"58153","nom":"Magny-Lormes","pop":67},"geometry":{"type":"Polygon","coordinates":[[[3.76,47.283],[3.726,47.278],[3.716,47.279],[3.745,47.304],[3.78,47.296],[3.76,47.283]]]}},{"type":"Feature","properties":{"code":"58154","nom":"La Maison-Dieu","pop":113},"geometry":{"type":"Polygon","coordinates":[[[3.679,47.447],[3.684,47.434],[3.713,47.415],[3.689,47.411],[3.677,47.411],[3.635,47.404],[3.628,47.415],[3.677,47.447],[3.679,47.447]]]}},{"type":"Feature","properties":{"code":"58155","nom":"La Marche","pop":509},"geometry":{"type":"Polygon","coordinates":[[[3.074,47.166],[3.054,47.133],[3.028,47.128],[3.025,47.131],[3.019,47.156],[3.054,47.165],[3.074,47.166]]]}},{"type":"Feature","properties":{"code":"58156","nom":"Marcy","pop":139},"geometry":{"type":"Polygon","coordinates":[[[3.371,47.301],[3.359,47.312],[3.386,47.318],[3.401,47.34],[3.429,47.333],[3.436,47.32],[3.43,47.301],[3.394,47.308],[3.371,47.301]]]}},{"type":"Feature","properties":{"code":"58157","nom":"Marigny-l'Église","pop":294},"geometry":{"type":"Polygon","coordinates":[[[3.961,47.386],[3.974,47.331],[3.983,47.323],[3.953,47.301],[3.917,47.302],[3.924,47.319],[3.941,47.336],[3.896,47.35],[3.887,47.366],[3.909,47.382],[3.961,47.386]]]}},{"type":"Feature","properties":{"code":"58158","nom":"Mars-sur-Allier","pop":301},"geometry":{"type":"Polygon","coordinates":[[[3.058,46.832],[3.055,46.839],[3.069,46.853],[3.063,46.89],[3.103,46.882],[3.121,46.864],[3.112,46.84],[3.058,46.832]]]}},{"type":"Feature","properties":{"code":"58159","nom":"Marigny-sur-Yonne","pop":191},"geometry":{"type":"Polygon","coordinates":[[[3.666,47.308],[3.667,47.304],[3.649,47.266],[3.63,47.27],[3.634,47.303],[3.666,47.308]]]}},{"type":"Feature","properties":{"code":"58160","nom":"Marzy","pop":3623},"geometry":{"type":"Polygon","coordinates":[[[3.118,46.96],[3.079,46.96],[3.065,46.997],[3.074,47.012],[3.11,47.008],[3.122,46.996],[3.126,46.963],[3.118,46.96]]]}},{"type":"Feature","properties":{"code":"58161","nom":"Maux","pop":140},"geometry":{"type":"Polygon","coordinates":[[[3.761,47.071],[3.768,47.057],[3.808,47.051],[3.811,47.034],[3.809,47.022],[3.788,47.01],[3.737,47.023],[3.732,47.036],[3.748,47.06],[3.761,47.071]]]}},{"type":"Feature","properties":{"code":"58162","nom":"Menestreau","pop":96},"geometry":{"type":"Polygon","coordinates":[[[3.298,47.389],[3.257,47.384],[3.241,47.411],[3.211,47.431],[3.216,47.435],[3.286,47.416],[3.298,47.389]]]}},{"type":"Feature","properties":{"code":"58163","nom":"Menou","pop":179},"geometry":{"type":"Polygon","coordinates":[[[3.257,47.376],[3.257,47.384],[3.298,47.389],[3.309,47.365],[3.294,47.341],[3.25,47.361],[3.257,47.376]]]}},{"type":"Feature","properties":{"code":"58164","nom":"Mesves-sur-Loire","pop":662},"geometry":{"type":"Polygon","coordinates":[[[3.04,47.218],[3.038,47.21],[2.998,47.201],[2.994,47.207],[2.978,47.236],[2.982,47.254],[3.016,47.261],[3.011,47.231],[3.04,47.218]]]}},{"type":"Feature","properties":{"code":"58165","nom":"Metz-le-Comte","pop":177},"geometry":{"type":"Polygon","coordinates":[[[3.61,47.405],[3.628,47.415],[3.635,47.404],[3.677,47.411],[3.649,47.373],[3.644,47.371],[3.617,47.375],[3.613,47.381],[3.608,47.391],[3.61,47.405]]]}},{"type":"Feature","properties":{"code":"58166","nom":"Mhère","pop":226},"geometry":{"type":"Polygon","coordinates":[[[3.874,47.169],[3.838,47.169],[3.826,47.203],[3.839,47.226],[3.883,47.219],[3.896,47.201],[3.882,47.179],[3.874,47.169]]]}},{"type":"Feature","properties":{"code":"58168","nom":"Millay","pop":440},"geometry":{"type":"Polygon","coordinates":[[[4.046,46.831],[4.026,46.815],[3.996,46.818],[3.946,46.81],[3.914,46.826],[3.916,46.833],[3.941,46.835],[3.963,46.851],[4.011,46.862],[4.038,46.86],[4.049,46.838],[4.046,46.831]]]}},{"type":"Feature","properties":{"code":"58169","nom":"Moissy-Moulinot","pop":14},"geometry":{"type":"Polygon","coordinates":[[[3.717,47.331],[3.705,47.318],[3.701,47.335],[3.717,47.331]]]}},{"type":"Feature","properties":{"code":"58170","nom":"Monceaux-le-Comte","pop":128},"geometry":{"type":"Polygon","coordinates":[[[3.666,47.344],[3.677,47.333],[3.661,47.319],[3.65,47.337],[3.666,47.344]]]}},{"type":"Feature","properties":{"code":"58171","nom":"Montapas","pop":269},"geometry":{"type":"Polygon","coordinates":[[[3.598,47.108],[3.636,47.078],[3.607,47.056],[3.587,47.06],[3.543,47.067],[3.553,47.095],[3.578,47.093],[3.598,47.108]]]}},{"type":"Feature","properties":{"code":"58172","nom":"Montambert","pop":114},"geometry":{"type":"Polygon","coordinates":[[[3.685,46.797],[3.73,46.78],[3.704,46.747],[3.648,46.743],[3.67,46.757],[3.65,46.809],[3.685,46.797]]]}},{"type":"Feature","properties":{"code":"58173","nom":"Montaron","pop":159},"geometry":{"type":"Polygon","coordinates":[[[3.695,46.872],[3.728,46.91],[3.766,46.899],[3.804,46.869],[3.766,46.849],[3.712,46.859],[3.695,46.872]]]}},{"type":"Feature","properties":{"code":"58174","nom":"Montenoison","pop":129},"geometry":{"type":"Polygon","coordinates":[[[3.434,47.191],[3.379,47.218],[3.387,47.229],[3.432,47.238],[3.458,47.227],[3.459,47.224],[3.434,47.191]]]}},{"type":"Feature","properties":{"code":"58175","nom":"Mont-et-Marré","pop":155},"geometry":{"type":"Polygon","coordinates":[[[3.598,47.108],[3.599,47.109],[3.619,47.117],[3.67,47.093],[3.682,47.083],[3.688,47.071],[3.643,47.064],[3.636,47.078],[3.598,47.108]]]}},{"type":"Feature","properties":{"code":"58176","nom":"Montigny-aux-Amognes","pop":621},"geometry":{"type":"Polygon","coordinates":[[[3.34,47.031],[3.3,47.011],[3.258,47.001],[3.244,47.012],[3.219,47.026],[3.258,47.048],[3.322,47.041],[3.34,47.031]]]}},{"type":"Feature","properties":{"code":"58177","nom":"Montigny-en-Morvan","pop":308},"geometry":{"type":"Polygon","coordinates":[[[3.838,47.169],[3.874,47.169],[3.895,47.119],[3.86,47.126],[3.812,47.161],[3.838,47.169]]]}},{"type":"Feature","properties":{"code":"58178","nom":"Montigny-sur-Canne","pop":153},"geometry":{"type":"Polygon","coordinates":[[[3.643,46.97],[3.681,46.978],[3.697,46.946],[3.688,46.917],[3.623,46.914],[3.6,46.944],[3.621,46.948],[3.643,46.97]]]}},{"type":"Feature","properties":{"code":"58179","nom":"Montreuillon","pop":243},"geometry":{"type":"Polygon","coordinates":[[[3.838,47.169],[3.812,47.161],[3.807,47.14],[3.773,47.129],[3.756,47.149],[3.748,47.177],[3.769,47.199],[3.798,47.208],[3.826,47.203],[3.838,47.169]]]}},{"type":"Feature","properties":{"code":"58180","nom":"Montsauche-les-Settons","pop":480},"geometry":{"type":"Polygon","coordinates":[[[4.05,47.261],[4.056,47.225],[4.092,47.197],[4.072,47.18],[4.042,47.176],[4.011,47.18],[3.981,47.237],[4.007,47.259],[4.026,47.246],[4.05,47.261]]]}},{"type":"Feature","properties":{"code":"58181","nom":"Moraches","pop":128},"geometry":{"type":"Polygon","coordinates":[[[3.565,47.296],[3.585,47.274],[3.572,47.27],[3.547,47.266],[3.506,47.28],[3.506,47.299],[3.539,47.302],[3.565,47.296]]]}},{"type":"Feature","properties":{"code":"58182","nom":"Moulins-Engilbert","pop":1352},"geometry":{"type":"Polygon","coordinates":[[[3.874,46.99],[3.874,46.989],[3.861,46.967],[3.845,46.97],[3.822,46.938],[3.799,46.929],[3.784,46.955],[3.769,46.987],[3.788,47.01],[3.809,47.022],[3.83,46.991],[3.874,46.99]]]}},{"type":"Feature","properties":{"code":"58183","nom":"Mouron-sur-Yonne","pop":88},"geometry":{"type":"Polygon","coordinates":[[[3.748,47.177],[3.723,47.195],[3.705,47.206],[3.741,47.216],[3.769,47.199],[3.748,47.177]]]}},{"type":"Feature","properties":{"code":"58184","nom":"Moussy","pop":107},"geometry":{"type":"Polygon","coordinates":[[[3.474,47.213],[3.482,47.176],[3.473,47.171],[3.441,47.181],[3.434,47.191],[3.459,47.224],[3.474,47.213]]]}},{"type":"Feature","properties":{"code":"58185","nom":"Moux-en-Morvan","pop":538},"geometry":{"type":"Polygon","coordinates":[[[4.103,47.199],[4.15,47.19],[4.209,47.168],[4.21,47.155],[4.182,47.151],[4.115,47.146],[4.085,47.165],[4.059,47.162],[4.042,47.176],[4.072,47.18],[4.092,47.197],[4.103,47.199]]]}},{"type":"Feature","properties":{"code":"58186","nom":"Murlin","pop":57},"geometry":{"type":"Polygon","coordinates":[[[3.19,47.167],[3.176,47.17],[3.142,47.202],[3.158,47.224],[3.172,47.213],[3.202,47.201],[3.19,47.167]]]}},{"type":"Feature","properties":{"code":"58187","nom":"Myennes","pop":535},"geometry":{"type":"Polygon","coordinates":[[[2.932,47.434],[2.92,47.459],[2.968,47.478],[2.932,47.434]]]}},{"type":"Feature","properties":{"code":"58188","nom":"Nannay","pop":108},"geometry":{"type":"Polygon","coordinates":[[[3.212,47.26],[3.206,47.257],[3.141,47.245],[3.131,47.249],[3.132,47.274],[3.151,47.278],[3.179,47.261],[3.212,47.26]]]}},{"type":"Feature","properties":{"code":"58189","nom":"Narcy","pop":464},"geometry":{"type":"Polygon","coordinates":[[[3.042,47.247],[3.085,47.26],[3.131,47.249],[3.141,47.245],[3.158,47.224],[3.142,47.202],[3.106,47.212],[3.043,47.241],[3.042,47.247]]]}},{"type":"Feature","properties":{"code":"58190","nom":"Neuffontaines","pop":87},"geometry":{"type":"Polygon","coordinates":[[[3.768,47.347],[3.762,47.338],[3.717,47.331],[3.701,47.335],[3.697,47.34],[3.729,47.359],[3.749,47.377],[3.765,47.37],[3.768,47.347]]]}},{"type":"Feature","properties":{"code":"58191","nom":"Neuilly","pop":107},"geometry":{"type":"Polygon","coordinates":[[[3.553,47.24],[3.555,47.23],[3.501,47.221],[3.484,47.252],[3.483,47.266],[3.502,47.272],[3.524,47.239],[3.553,47.24]]]}},{"type":"Feature","properties":{"code":"58192","nom":"Neuville-lès-Decize","pop":208},"geometry":{"type":"Polygon","coordinates":[[[3.317,46.798],[3.339,46.774],[3.323,46.755],[3.298,46.742],[3.257,46.757],[3.277,46.767],[3.271,46.806],[3.283,46.809],[3.317,46.798]]]}},{"type":"Feature","properties":{"code":"58193","nom":"Neuvy-sur-Loire","pop":1445},"geometry":{"type":"Polygon","coordinates":[[[2.884,47.553],[2.909,47.56],[2.913,47.52],[2.928,47.507],[2.892,47.499],[2.89,47.508],[2.874,47.52],[2.845,47.545],[2.884,47.553]]]}},{"type":"Feature","properties":{"code":"58194","nom":"Nevers","pop":33085},"geometry":{"type":"Polygon","coordinates":[[[3.157,47.007],[3.195,47.002],[3.197,46.974],[3.159,46.978],[3.126,46.963],[3.122,46.996],[3.157,47.007]]]}},{"type":"Feature","properties":{"code":"58195","nom":"La Nocle-Maulaix","pop":267},"geometry":{"type":"Polygon","coordinates":[[[3.784,46.736],[3.736,46.753],[3.704,46.747],[3.73,46.78],[3.763,46.792],[3.81,46.769],[3.811,46.749],[3.784,46.736]]]}},{"type":"Feature","properties":{"code":"58196","nom":"Nolay","pop":353},"geometry":{"type":"Polygon","coordinates":[[[3.361,47.151],[3.377,47.139],[3.388,47.107],[3.375,47.089],[3.333,47.086],[3.29,47.115],[3.252,47.135],[3.261,47.147],[3.299,47.146],[3.324,47.129],[3.361,47.151]]]}},{"type":"Feature","properties":{"code":"58197","nom":"Nuars","pop":172},"geometry":{"type":"Polygon","coordinates":[[[3.713,47.415],[3.715,47.407],[3.749,47.377],[3.729,47.359],[3.709,47.376],[3.686,47.372],[3.683,47.377],[3.689,47.411],[3.713,47.415]]]}},{"type":"Feature","properties":{"code":"58198","nom":"Oisy","pop":305},"geometry":{"type":"Polygon","coordinates":[[[3.458,47.5],[3.488,47.494],[3.461,47.446],[3.442,47.442],[3.404,47.464],[3.428,47.468],[3.458,47.5]]]}},{"type":"Feature","properties":{"code":"58199","nom":"Onlay","pop":163},"geometry":{"type":"Polygon","coordinates":[[[3.861,46.967],[3.874,46.989],[3.925,46.986],[3.932,46.972],[3.92,46.952],[3.885,46.94],[3.861,46.967]]]}},{"type":"Feature","properties":{"code":"58200","nom":"Ouagne","pop":149},"geometry":{"type":"Polygon","coordinates":[[[3.477,47.409],[3.484,47.423],[3.514,47.415],[3.527,47.394],[3.489,47.378],[3.48,47.385],[3.477,47.409]]]}},{"type":"Feature","properties":{"code":"58201","nom":"Oudan","pop":148},"geometry":{"type":"Polygon","coordinates":[[[3.348,47.317],[3.323,47.318],[3.305,47.324],[3.294,47.341],[3.309,47.365],[3.335,47.367],[3.362,47.354],[3.348,47.317]]]}},{"type":"Feature","properties":{"code":"58202","nom":"Ougny","pop":28},"geometry":{"type":"Polygon","coordinates":[[[3.688,47.071],[3.682,47.083],[3.737,47.09],[3.736,47.071],[3.699,47.057],[3.688,47.071]]]}},{"type":"Feature","properties":{"code":"58203","nom":"Oulon","pop":64},"geometry":{"type":"Polygon","coordinates":[[[3.379,47.218],[3.434,47.191],[3.441,47.181],[3.426,47.173],[3.416,47.189],[3.371,47.189],[3.37,47.191],[3.379,47.218]]]}},{"type":"Feature","properties":{"code":"58204","nom":"Vaux d'Amognes","pop":539},"geometry":{"type":"Polygon","coordinates":[[[3.258,47.048],[3.241,47.076],[3.25,47.083],[3.249,47.094],[3.29,47.115],[3.333,47.086],[3.339,47.057],[3.322,47.041],[3.258,47.048]]]}},{"type":"Feature","properties":{"code":"58205","nom":"Ouroux-en-Morvan","pop":599},"geometry":{"type":"Polygon","coordinates":[[[3.882,47.179],[3.896,47.201],[3.928,47.216],[3.963,47.24],[3.981,47.237],[4.011,47.18],[3.992,47.159],[3.959,47.143],[3.944,47.161],[3.885,47.167],[3.882,47.179]]]}},{"type":"Feature","properties":{"code":"58206","nom":"Parigny-la-Rose","pop":32},"geometry":{"type":"Polygon","coordinates":[[[3.477,47.339],[3.486,47.335],[3.475,47.321],[3.436,47.32],[3.429,47.333],[3.443,47.344],[3.477,47.339]]]}},{"type":"Feature","properties":{"code":"58207","nom":"Parigny-les-Vaux","pop":964},"geometry":{"type":"Polygon","coordinates":[[[3.126,47.071],[3.091,47.094],[3.125,47.126],[3.146,47.133],[3.175,47.129],[3.187,47.102],[3.191,47.081],[3.172,47.071],[3.126,47.071]]]}},{"type":"Feature","properties":{"code":"58208","nom":"Pazy","pop":293},"geometry":{"type":"Polygon","coordinates":[[[3.675,47.222],[3.66,47.205],[3.61,47.203],[3.595,47.209],[3.604,47.251],[3.618,47.265],[3.65,47.231],[3.667,47.237],[3.675,47.222]]]}},{"type":"Feature","properties":{"code":"58209","nom":"Perroy","pop":152},"geometry":{"type":"Polygon","coordinates":[[[3.117,47.421],[3.12,47.427],[3.148,47.417],[3.205,47.426],[3.195,47.375],[3.148,47.389],[3.117,47.421]]]}},{"type":"Feature","properties":{"code":"58210","nom":"Planchez","pop":313},"geometry":{"type":"Polygon","coordinates":[[[4.093,47.126],[4.055,47.115],[3.977,47.123],[3.953,47.14],[3.959,47.143],[3.992,47.159],[4.011,47.18],[4.042,47.176],[4.059,47.162],[4.093,47.126]]]}},{"type":"Feature","properties":{"code":"58211","nom":"Poil","pop":152},"geometry":{"type":"Polygon","coordinates":[[[4.045,46.901],[4.075,46.892],[4.101,46.859],[4.049,46.838],[4.038,46.86],[4.011,46.862],[4.025,46.896],[4.045,46.901]]]}},{"type":"Feature","properties":{"code":"58212","nom":"Poiseux","pop":331},"geometry":{"type":"Polygon","coordinates":[[[3.257,47.153],[3.261,47.147],[3.252,47.135],[3.29,47.115],[3.249,47.094],[3.211,47.099],[3.193,47.113],[3.212,47.142],[3.241,47.156],[3.257,47.153]]]}},{"type":"Feature","properties":{"code":"58213","nom":"Pougny","pop":473},"geometry":{"type":"Polygon","coordinates":[[[3.041,47.418],[3.057,47.391],[3.042,47.376],[2.995,47.373],[2.988,47.383],[3.011,47.418],[3.024,47.423],[3.041,47.418]]]}},{"type":"Feature","properties":{"code":"58214","nom":"Pougues-les-Eaux","pop":2401},"geometry":{"type":"Polygon","coordinates":[[[3.077,47.07],[3.075,47.093],[3.091,47.094],[3.126,47.071],[3.109,47.061],[3.077,47.07]]]}},{"type":"Feature","properties":{"code":"58215","nom":"Pouilly-sur-Loire","pop":1635},"geometry":{"type":"Polygon","coordinates":[[[2.974,47.27],[2.923,47.301],[2.934,47.309],[2.984,47.281],[3.008,47.292],[3.036,47.262],[3.016,47.261],[2.982,47.254],[2.974,47.27]]]}},{"type":"Feature","properties":{"code":"58216","nom":"Pouques-Lormes","pop":134},"geometry":{"type":"Polygon","coordinates":[[[3.762,47.338],[3.768,47.347],[3.795,47.347],[3.797,47.338],[3.803,47.313],[3.78,47.296],[3.745,47.304],[3.762,47.338]]]}},{"type":"Feature","properties":{"code":"58217","nom":"Pousseaux","pop":186},"geometry":{"type":"Polygon","coordinates":[[[3.575,47.499],[3.576,47.483],[3.548,47.493],[3.527,47.473],[3.518,47.503],[3.526,47.522],[3.542,47.514],[3.575,47.499]]]}},{"type":"Feature","properties":{"code":"58218","nom":"Prémery","pop":1734},"geometry":{"type":"Polygon","coordinates":[[[3.361,47.151],[3.324,47.129],[3.299,47.146],[3.282,47.169],[3.267,47.207],[3.275,47.209],[3.37,47.191],[3.371,47.189],[3.386,47.17],[3.361,47.151]]]}},{"type":"Feature","properties":{"code":"58219","nom":"Préporché","pop":212},"geometry":{"type":"Polygon","coordinates":[[[3.826,46.923],[3.799,46.929],[3.822,46.938],[3.845,46.97],[3.861,46.967],[3.885,46.94],[3.92,46.952],[3.905,46.913],[3.872,46.92],[3.85,46.911],[3.826,46.923]]]}},{"type":"Feature","properties":{"code":"58220","nom":"Raveau","pop":594},"geometry":{"type":"Polygon","coordinates":[[[3.074,47.166],[3.054,47.165],[3.06,47.191],[3.095,47.194],[3.106,47.212],[3.142,47.202],[3.176,47.17],[3.153,47.156],[3.093,47.155],[3.074,47.166]]]}},{"type":"Feature","properties":{"code":"58221","nom":"Rémilly","pop":157},"geometry":{"type":"Polygon","coordinates":[[[3.763,46.792],[3.761,46.814],[3.743,46.824],[3.766,46.849],[3.804,46.869],[3.808,46.869],[3.815,46.847],[3.842,46.832],[3.824,46.806],[3.793,46.796],[3.763,46.792]]]}},{"type":"Feature","properties":{"code":"58222","nom":"Rix","pop":150},"geometry":{"type":"Polygon","coordinates":[[[3.488,47.437],[3.51,47.425],[3.514,47.415],[3.484,47.423],[3.488,47.437]]]}},{"type":"Feature","properties":{"code":"58223","nom":"Rouy","pop":628},"geometry":{"type":"Polygon","coordinates":[[[3.582,47.029],[3.551,47.007],[3.506,47.007],[3.487,47.033],[3.507,47.034],[3.522,47.066],[3.543,47.067],[3.587,47.06],[3.582,47.029]]]}},{"type":"Feature","properties":{"code":"58224","nom":"Ruages","pop":84},"geometry":{"type":"Polygon","coordinates":[[[3.693,47.29],[3.673,47.286],[3.667,47.304],[3.666,47.308],[3.661,47.319],[3.677,47.333],[3.697,47.34],[3.701,47.335],[3.705,47.318],[3.693,47.29]]]}},{"type":"Feature","properties":{"code":"58225","nom":"Saincaize-Meauce","pop":358},"geometry":{"type":"Polygon","coordinates":[[[3.063,46.89],[3.061,46.897],[3.05,46.906],[3.065,46.936],[3.11,46.92],[3.123,46.913],[3.103,46.882],[3.063,46.89]]]}},{"type":"Feature","properties":{"code":"58226","nom":"Saint-Agnan","pop":143},"geometry":{"type":"Polygon","coordinates":[[[4.133,47.307],[4.115,47.293],[4.079,47.304],[4.059,47.303],[4.04,47.327],[4.077,47.341],[4.106,47.339],[4.143,47.354],[4.125,47.336],[4.13,47.321],[4.133,47.307]]]}},{"type":"Feature","properties":{"code":"58227","nom":"Saint-Amand-en-Puisaye","pop":1216},"geometry":{"type":"Polygon","coordinates":[[[3.12,47.579],[3.123,47.539],[3.098,47.507],[3.047,47.512],[3.032,47.514],[3.039,47.543],[3.031,47.561],[3.072,47.58],[3.112,47.584],[3.12,47.579]]]}},{"type":"Feature","properties":{"code":"58228","nom":"Saint-Andelain","pop":583},"geometry":{"type":"Polygon","coordinates":[[[3.018,47.294],[3.008,47.292],[2.984,47.281],[2.934,47.309],[2.96,47.335],[2.986,47.339],[2.997,47.326],[3.018,47.294]]]}},{"type":"Feature","properties":{"code":"58229","nom":"Saint-André-en-Morvan","pop":309},"geometry":{"type":"Polygon","coordinates":[[[3.852,47.428],[3.852,47.436],[3.88,47.43],[3.893,47.411],[3.86,47.388],[3.871,47.367],[3.844,47.36],[3.827,47.371],[3.828,47.382],[3.852,47.428]]]}},{"type":"Feature","properties":{"code":"58230","nom":"Saint-Aubin-des-Chaumes","pop":70},"geometry":{"type":"Polygon","coordinates":[[[3.775,47.406],[3.786,47.39],[3.765,47.37],[3.749,47.377],[3.715,47.407],[3.741,47.396],[3.775,47.406]]]}},{"type":"Feature","properties":{"code":"58231","nom":"Saint-Aubin-les-Forges","pop":376},"geometry":{"type":"Polygon","coordinates":[[[3.146,47.133],[3.153,47.156],[3.176,47.17],[3.19,47.167],[3.241,47.156],[3.212,47.142],[3.193,47.113],[3.187,47.102],[3.175,47.129],[3.146,47.133]]]}},{"type":"Feature","properties":{"code":"58232","nom":"Saint-Benin-d'Azy","pop":1255},"geometry":{"type":"Polygon","coordinates":[[[3.428,46.957],[3.374,46.979],[3.359,46.974],[3.36,46.987],[3.373,47.028],[3.39,47.036],[3.426,47.03],[3.439,47.013],[3.436,46.986],[3.442,46.978],[3.451,46.956],[3.445,46.949],[3.428,46.957]]]}},{"type":"Feature","properties":{"code":"58233","nom":"Saint-Benin-des-Bois","pop":195},"geometry":{"type":"Polygon","coordinates":[[[3.377,47.139],[3.425,47.143],[3.416,47.094],[3.392,47.094],[3.375,47.089],[3.388,47.107],[3.377,47.139]]]}},{"type":"Feature","properties":{"code":"58234","nom":"Saint-Bonnot","pop":155},"geometry":{"type":"Polygon","coordinates":[[[3.326,47.225],[3.287,47.225],[3.278,47.255],[3.303,47.277],[3.328,47.255],[3.326,47.225]]]}},{"type":"Feature","properties":{"code":"58235","nom":"Saint-Brisson","pop":252},"geometry":{"type":"Polygon","coordinates":[[[4.115,47.293],[4.135,47.237],[4.12,47.217],[4.104,47.244],[4.072,47.264],[4.043,47.268],[4.074,47.285],[4.079,47.304],[4.115,47.293]]]}},{"type":"Feature","properties":{"code":"58236","nom":"Sainte-Colombe-des-Bois","pop":140},"geometry":{"type":"Polygon","coordinates":[[[3.202,47.305],[3.17,47.308],[3.144,47.293],[3.1,47.3],[3.125,47.334],[3.144,47.346],[3.19,47.347],[3.202,47.305]]]}},{"type":"Feature","properties":{"code":"58237","nom":"Saint-Didier","pop":30},"geometry":{"type":"Polygon","coordinates":[[[3.621,47.363],[3.635,47.343],[3.635,47.332],[3.604,47.354],[3.621,47.363]]]}},{"type":"Feature","properties":{"code":"58238","nom":"Saint-Éloi","pop":2296},"geometry":{"type":"Polygon","coordinates":[[[3.219,46.959],[3.197,46.974],[3.195,47.002],[3.244,47.012],[3.258,47.001],[3.228,46.982],[3.219,46.959]]]}},{"type":"Feature","properties":{"code":"58239","nom":"Saint-Firmin","pop":152},"geometry":{"type":"Polygon","coordinates":[[[3.373,47.028],[3.354,47.028],[3.396,47.056],[3.431,47.036],[3.426,47.03],[3.39,47.036],[3.373,47.028]]]}},{"type":"Feature","properties":{"code":"58240","nom":"Saint-Franchy","pop":81},"geometry":{"type":"Polygon","coordinates":[[[3.426,47.173],[3.441,47.181],[3.473,47.171],[3.466,47.162],[3.496,47.123],[3.483,47.117],[3.445,47.127],[3.433,47.145],[3.426,47.173]]]}},{"type":"Feature","properties":{"code":"58241","nom":"Saint-Germain-Chassenay","pop":306},"geometry":{"type":"Polygon","coordinates":[[[3.395,46.757],[3.376,46.77],[3.343,46.773],[3.383,46.809],[3.403,46.801],[3.448,46.78],[3.445,46.771],[3.395,46.757]]]}},{"type":"Feature","properties":{"code":"58242","nom":"Saint-Germain-des-Bois","pop":112},"geometry":{"type":"Polygon","coordinates":[[[3.483,47.368],[3.489,47.378],[3.527,47.394],[3.538,47.365],[3.544,47.35],[3.524,47.342],[3.524,47.342],[3.513,47.364],[3.483,47.368]]]}},{"type":"Feature","properties":{"code":"58243","nom":"Saint-Gratien-Savigny","pop":114},"geometry":{"type":"Polygon","coordinates":[[[3.688,46.917],[3.684,46.878],[3.669,46.876],[3.618,46.902],[3.623,46.914],[3.688,46.917]]]}},{"type":"Feature","properties":{"code":"58244","nom":"Saint-Hilaire-en-Morvan","pop":221},"geometry":{"type":"Polygon","coordinates":[[[3.858,47.041],[3.854,47.092],[3.88,47.083],[3.915,47.1],[3.924,47.093],[3.911,47.059],[3.91,47.059],[3.901,47.043],[3.862,47.034],[3.858,47.041]]]}},{"type":"Feature","properties":{"code":"58245","nom":"Saint-Hilaire-Fontaine","pop":179},"geometry":{"type":"Polygon","coordinates":[[[3.623,46.821],[3.625,46.82],[3.65,46.809],[3.67,46.757],[3.648,46.743],[3.629,46.75],[3.593,46.763],[3.603,46.768],[3.635,46.802],[3.623,46.821]]]}},{"type":"Feature","properties":{"code":"58246","nom":"Saint-Honoré-les-Bains","pop":678},"geometry":{"type":"Polygon","coordinates":[[[3.815,46.881],[3.809,46.903],[3.826,46.923],[3.85,46.911],[3.872,46.92],[3.905,46.913],[3.893,46.894],[3.865,46.88],[3.815,46.881]]]}},{"type":"Feature","properties":{"code":"58247","nom":"Saint-Jean-aux-Amognes","pop":547},"geometry":{"type":"Polygon","coordinates":[[[3.3,47.011],[3.34,47.031],[3.354,47.028],[3.373,47.028],[3.36,46.987],[3.315,46.987],[3.3,47.011]]]}},{"type":"Feature","properties":{"code":"58248","nom":"Saint-Laurent-l'Abbaye","pop":216},"geometry":{"type":"Polygon","coordinates":[[[2.995,47.341],[2.997,47.326],[2.986,47.339],[2.995,47.341]]]}},{"type":"Feature","properties":{"code":"58249","nom":"Saint-Léger-de-Fougeret","pop":315},"geometry":{"type":"Polygon","coordinates":[[[3.901,47.043],[3.945,47.016],[3.956,46.984],[3.932,46.972],[3.925,46.986],[3.874,46.989],[3.874,46.99],[3.862,47.034],[3.901,47.043]]]}},{"type":"Feature","properties":{"code":"58250","nom":"Saint-Léger-des-Vignes","pop":1646},"geometry":{"type":"Polygon","coordinates":[[[3.448,46.864],[3.47,46.857],[3.486,46.844],[3.421,46.834],[3.448,46.864]]]}},{"type":"Feature","properties":{"code":"58251","nom":"Saint-Loup-des-Bois","pop":459},"geometry":{"type":"Polygon","coordinates":[[[2.988,47.481],[3.011,47.484],[3.026,47.461],[3.024,47.423],[3.011,47.418],[2.999,47.423],[2.983,47.442],[2.988,47.481]]]}},{"type":"Feature","properties":{"code":"58252","nom":"Saint-Malo-en-Donziois","pop":150},"geometry":{"type":"Polygon","coordinates":[[[3.305,47.324],[3.323,47.318],[3.305,47.313],[3.289,47.283],[3.257,47.305],[3.236,47.305],[3.241,47.319],[3.262,47.336],[3.305,47.324]]]}},{"type":"Feature","properties":{"code":"58253","nom":"Sainte-Marie","pop":87},"geometry":{"type":"Polygon","coordinates":[[[3.425,47.143],[3.433,47.145],[3.445,47.127],[3.483,47.117],[3.473,47.105],[3.442,47.082],[3.416,47.094],[3.425,47.143]]]}},{"type":"Feature","properties":{"code":"58254","nom":"Saint-Martin-d'Heuille","pop":565},"geometry":{"type":"Polygon","coordinates":[[[3.209,47.022],[3.209,47.049],[3.241,47.076],[3.258,47.048],[3.219,47.026],[3.209,47.022]]]}},{"type":"Feature","properties":{"code":"58255","nom":"Saint-Martin-du-Puy","pop":290},"geometry":{"type":"Polygon","coordinates":[[[3.871,47.367],[3.887,47.366],[3.896,47.35],[3.889,47.319],[3.924,47.319],[3.917,47.302],[3.894,47.297],[3.834,47.326],[3.844,47.36],[3.871,47.367]]]}},{"type":"Feature","properties":{"code":"58256","nom":"Saint-Martin-sur-Nohain","pop":375},"geometry":{"type":"Polygon","coordinates":[[[3.042,47.376],[3.046,47.365],[3.031,47.354],[2.995,47.341],[2.986,47.339],[2.96,47.335],[2.94,47.348],[2.968,47.379],[2.988,47.383],[2.995,47.373],[3.042,47.376]]]}},{"type":"Feature","properties":{"code":"58257","nom":"Saint-Maurice","pop":48},"geometry":{"type":"Polygon","coordinates":[[[3.599,47.109],[3.598,47.108],[3.578,47.093],[3.553,47.095],[3.543,47.13],[3.568,47.125],[3.599,47.109]]]}},{"type":"Feature","properties":{"code":"58258","nom":"Saint-Ouen-sur-Loire","pop":475},"geometry":{"type":"Polygon","coordinates":[[[3.31,46.922],[3.342,46.927],[3.36,46.909],[3.364,46.887],[3.337,46.885],[3.299,46.869],[3.277,46.905],[3.31,46.922]]]}},{"type":"Feature","properties":{"code":"58259","nom":"Saint-Parize-en-Viry","pop":139},"geometry":{"type":"Polygon","coordinates":[[[3.343,46.773],[3.376,46.77],[3.395,46.757],[3.387,46.731],[3.323,46.755],[3.339,46.774],[3.343,46.773]]]}},{"type":"Feature","properties":{"code":"58260","nom":"Saint-Parize-le-Châtel","pop":1227},"geometry":{"type":"Polygon","coordinates":[[[3.121,46.864],[3.162,46.862],[3.184,46.883],[3.211,46.89],[3.243,46.872],[3.243,46.845],[3.228,46.825],[3.2,46.828],[3.176,46.821],[3.127,46.831],[3.112,46.84],[3.121,46.864]]]}},{"type":"Feature","properties":{"code":"58261","nom":"Saint-Père","pop":1056},"geometry":{"type":"Polygon","coordinates":[[[2.988,47.383],[2.968,47.379],[2.94,47.405],[2.957,47.421],[2.999,47.423],[3.011,47.418],[2.988,47.383]]]}},{"type":"Feature","properties":{"code":"58262","nom":"Saint-Péreuse","pop":199},"geometry":{"type":"Polygon","coordinates":[[[3.811,47.034],[3.808,47.051],[3.768,47.057],[3.761,47.071],[3.779,47.073],[3.823,47.08],[3.826,47.062],[3.851,47.044],[3.811,47.034]]]}},{"type":"Feature","properties":{"code":"58263","nom":"Saint-Pierre-du-Mont","pop":165},"geometry":{"type":"Polygon","coordinates":[[[3.447,47.38],[3.427,47.38],[3.414,47.384],[3.421,47.417],[3.429,47.421],[3.435,47.41],[3.477,47.409],[3.48,47.385],[3.447,47.38]]]}},{"type":"Feature","properties":{"code":"58264","nom":"Saint-Pierre-le-Moûtier","pop":1823},"geometry":{"type":"Polygon","coordinates":[[[3.2,46.828],[3.173,46.785],[3.194,46.77],[3.16,46.754],[3.119,46.754],[3.108,46.765],[3.075,46.796],[3.121,46.808],[3.127,46.831],[3.176,46.821],[3.2,46.828]]]}},{"type":"Feature","properties":{"code":"58265","nom":"Saint-Quentin-sur-Nohain","pop":101},"geometry":{"type":"Polygon","coordinates":[[[3.031,47.354],[3.044,47.308],[3.018,47.294],[2.997,47.326],[2.995,47.341],[3.031,47.354]]]}},{"type":"Feature","properties":{"code":"58266","nom":"Saint-Révérien","pop":191},"geometry":{"type":"Polygon","coordinates":[[[3.482,47.176],[3.474,47.213],[3.501,47.221],[3.555,47.23],[3.551,47.212],[3.514,47.188],[3.482,47.176]]]}},{"type":"Feature","properties":{"code":"58267","nom":"Saint-Saulge","pop":650},"geometry":{"type":"Polygon","coordinates":[[[3.522,47.066],[3.496,47.086],[3.473,47.105],[3.483,47.117],[3.496,47.123],[3.543,47.13],[3.553,47.095],[3.543,47.067],[3.522,47.066]]]}},{"type":"Feature","properties":{"code":"58268","nom":"Saint-Seine","pop":187},"geometry":{"type":"Polygon","coordinates":[[[3.827,46.704],[3.795,46.702],[3.784,46.736],[3.811,46.749],[3.853,46.725],[3.827,46.704]]]}},{"type":"Feature","properties":{"code":"58269","nom":"Saint-Sulpice","pop":418},"geometry":{"type":"Polygon","coordinates":[[[3.354,47.028],[3.34,47.031],[3.322,47.041],[3.339,47.057],[3.333,47.086],[3.375,47.089],[3.392,47.094],[3.396,47.056],[3.354,47.028]]]}},{"type":"Feature","properties":{"code":"58270","nom":"Saint-Vérain","pop":349},"geometry":{"type":"Polygon","coordinates":[[[2.988,47.481],[2.984,47.487],[2.984,47.493],[3.006,47.511],[3.032,47.514],[3.047,47.512],[3.063,47.483],[3.085,47.474],[3.026,47.461],[3.011,47.484],[2.988,47.481]]]}},{"type":"Feature","properties":{"code":"58271","nom":"Saizy","pop":189},"geometry":{"type":"Polygon","coordinates":[[[3.677,47.333],[3.666,47.344],[3.686,47.372],[3.709,47.376],[3.729,47.359],[3.697,47.34],[3.677,47.333]]]}},{"type":"Feature","properties":{"code":"58272","nom":"Sardy-lès-Épiry","pop":113},"geometry":{"type":"Polygon","coordinates":[[[3.684,47.17],[3.678,47.171],[3.679,47.194],[3.66,47.205],[3.675,47.222],[3.684,47.221],[3.705,47.206],[3.723,47.195],[3.702,47.171],[3.684,47.17]]]}},{"type":"Feature","properties":{"code":"58273","nom":"Sauvigny-les-Bois","pop":1409},"geometry":{"type":"Polygon","coordinates":[[[3.258,47.001],[3.3,47.011],[3.315,46.987],[3.296,46.967],[3.274,46.961],[3.252,46.937],[3.219,46.959],[3.228,46.982],[3.258,47.001]]]}},{"type":"Feature","properties":{"code":"58274","nom":"Savigny-Poil-Fol","pop":108},"geometry":{"type":"Polygon","coordinates":[[[3.876,46.765],[3.81,46.769],[3.763,46.792],[3.793,46.796],[3.832,46.786],[3.861,46.804],[3.869,46.805],[3.875,46.782],[3.876,46.765]]]}},{"type":"Feature","properties":{"code":"58275","nom":"Saxi-Bourdon","pop":267},"geometry":{"type":"Polygon","coordinates":[[[3.496,47.086],[3.522,47.066],[3.507,47.034],[3.487,47.033],[3.461,47.037],[3.463,47.065],[3.496,47.086]]]}},{"type":"Feature","properties":{"code":"58276","nom":"Sémelay","pop":223},"geometry":{"type":"Polygon","coordinates":[[[3.808,46.869],[3.815,46.881],[3.865,46.88],[3.893,46.894],[3.902,46.888],[3.911,46.87],[3.895,46.839],[3.849,46.831],[3.842,46.832],[3.815,46.847],[3.808,46.869]]]}},{"type":"Feature","properties":{"code":"58277","nom":"Sermages","pop":189},"geometry":{"type":"Polygon","coordinates":[[[3.862,47.034],[3.874,46.99],[3.83,46.991],[3.809,47.022],[3.811,47.034],[3.851,47.044],[3.858,47.041],[3.862,47.034]]]}},{"type":"Feature","properties":{"code":"58278","nom":"Sermoise-sur-Loire","pop":1486},"geometry":{"type":"Polygon","coordinates":[[[3.197,46.974],[3.219,46.959],[3.193,46.929],[3.2,46.912],[3.163,46.92],[3.159,46.978],[3.197,46.974]]]}},{"type":"Feature","properties":{"code":"58279","nom":"Sichamps","pop":173},"geometry":{"type":"Polygon","coordinates":[[[3.261,47.147],[3.257,47.153],[3.282,47.169],[3.299,47.146],[3.261,47.147]]]}},{"type":"Feature","properties":{"code":"58280","nom":"Sougy-sur-Loire","pop":594},"geometry":{"type":"Polygon","coordinates":[[[3.352,46.836],[3.384,46.861],[3.393,46.885],[3.415,46.895],[3.433,46.903],[3.448,46.864],[3.421,46.834],[3.405,46.834],[3.386,46.827],[3.352,46.836]]]}},{"type":"Feature","properties":{"code":"58281","nom":"Suilly-la-Tour","pop":569},"geometry":{"type":"Polygon","coordinates":[[[3.046,47.365],[3.089,47.37],[3.092,47.352],[3.125,47.334],[3.1,47.3],[3.075,47.295],[3.044,47.308],[3.031,47.354],[3.046,47.365]]]}},{"type":"Feature","properties":{"code":"58282","nom":"Surgy","pop":335},"geometry":{"type":"Polygon","coordinates":[[[3.492,47.56],[3.498,47.561],[3.526,47.522],[3.518,47.503],[3.527,47.473],[3.488,47.494],[3.495,47.522],[3.492,47.56]]]}},{"type":"Feature","properties":{"code":"58283","nom":"Taconnay","pop":73},"geometry":{"type":"Polygon","coordinates":[[[3.475,47.321],[3.486,47.335],[3.49,47.334],[3.504,47.301],[3.473,47.292],[3.475,47.321]]]}},{"type":"Feature","properties":{"code":"58284","nom":"Talon","pop":42},"geometry":{"type":"Polygon","coordinates":[[[3.566,47.319],[3.563,47.317],[3.551,47.325],[3.524,47.342],[3.544,47.35],[3.565,47.343],[3.566,47.319]]]}},{"type":"Feature","properties":{"code":"58285","nom":"Tamnay-en-Bazois","pop":171},"geometry":{"type":"Polygon","coordinates":[[[3.702,47.04],[3.699,47.057],[3.736,47.071],[3.748,47.06],[3.732,47.036],[3.702,47.04]]]}},{"type":"Feature","properties":{"code":"58286","nom":"Tannay","pop":530},"geometry":{"type":"Polygon","coordinates":[[[3.538,47.365],[3.613,47.381],[3.617,47.375],[3.621,47.363],[3.604,47.354],[3.565,47.343],[3.544,47.35],[3.538,47.365]]]}},{"type":"Feature","properties":{"code":"58287","nom":"Tazilly","pop":180},"geometry":{"type":"Polygon","coordinates":[[[3.875,46.782],[3.892,46.775],[3.939,46.785],[3.963,46.766],[3.933,46.742],[3.889,46.728],[3.876,46.732],[3.876,46.765],[3.875,46.782]]]}},{"type":"Feature","properties":{"code":"58288","nom":"Teigny","pop":115},"geometry":{"type":"Polygon","coordinates":[[[3.683,47.377],[3.649,47.373],[3.677,47.411],[3.689,47.411],[3.683,47.377]]]}},{"type":"Feature","properties":{"code":"58289","nom":"Ternant","pop":166},"geometry":{"type":"Polygon","coordinates":[[[3.81,46.769],[3.876,46.765],[3.876,46.732],[3.853,46.725],[3.811,46.749],[3.81,46.769]]]}},{"type":"Feature","properties":{"code":"58290","nom":"Thaix","pop":42},"geometry":{"type":"Polygon","coordinates":[[[3.743,46.824],[3.69,46.843],[3.669,46.876],[3.684,46.878],[3.695,46.872],[3.712,46.859],[3.766,46.849],[3.743,46.824]]]}},{"type":"Feature","properties":{"code":"58291","nom":"Thianges","pop":165},"geometry":{"type":"Polygon","coordinates":[[[3.531,46.914],[3.522,46.891],[3.491,46.897],[3.481,46.912],[3.443,46.915],[3.436,46.926],[3.456,46.934],[3.471,46.921],[3.531,46.914]]]}},{"type":"Feature","properties":{"code":"58292","nom":"Tintury","pop":164},"geometry":{"type":"Polygon","coordinates":[[[3.551,47.007],[3.582,47.029],[3.623,47.015],[3.62,46.977],[3.561,46.982],[3.551,47.007]]]}},{"type":"Feature","properties":{"code":"58293","nom":"Toury-Lurcy","pop":404},"geometry":{"type":"Polygon","coordinates":[[[3.434,46.712],[3.39,46.715],[3.387,46.731],[3.395,46.757],[3.445,46.771],[3.456,46.736],[3.434,46.712]]]}},{"type":"Feature","properties":{"code":"58294","nom":"Toury-sur-Jour","pop":125},"geometry":{"type":"Polygon","coordinates":[[[3.283,46.715],[3.234,46.698],[3.215,46.716],[3.226,46.747],[3.257,46.757],[3.298,46.742],[3.283,46.715]]]}},{"type":"Feature","properties":{"code":"58295","nom":"Tracy-sur-Loire","pop":975},"geometry":{"type":"Polygon","coordinates":[[[2.923,47.301],[2.913,47.308],[2.899,47.313],[2.874,47.329],[2.88,47.355],[2.89,47.366],[2.888,47.343],[2.94,47.348],[2.96,47.335],[2.934,47.309],[2.923,47.301]]]}},{"type":"Feature","properties":{"code":"58296","nom":"Tresnay","pop":131},"geometry":{"type":"Polygon","coordinates":[[[3.204,46.679],[3.166,46.691],[3.149,46.709],[3.204,46.721],[3.215,46.716],[3.234,46.698],[3.204,46.679]]]}},{"type":"Feature","properties":{"code":"58297","nom":"Trois-Vèvres","pop":241},"geometry":{"type":"Polygon","coordinates":[[[3.399,46.918],[3.436,46.926],[3.443,46.915],[3.433,46.903],[3.415,46.895],[3.399,46.918]]]}},{"type":"Feature","properties":{"code":"58298","nom":"Tronsanges","pop":392},"geometry":{"type":"Polygon","coordinates":[[[3.03,47.107],[3.03,47.108],[3.028,47.128],[3.054,47.133],[3.075,47.123],[3.069,47.101],[3.03,47.107]]]}},{"type":"Feature","properties":{"code":"58299","nom":"Trucy-l'Orgueilleux","pop":217},"geometry":{"type":"Polygon","coordinates":[[[3.404,47.464],[3.442,47.442],[3.435,47.436],[3.374,47.444],[3.365,47.462],[3.404,47.464]]]}},{"type":"Feature","properties":{"code":"58300","nom":"Urzy","pop":1727},"geometry":{"type":"Polygon","coordinates":[[[3.241,47.076],[3.209,47.049],[3.209,47.022],[3.179,47.032],[3.172,47.071],[3.191,47.081],[3.211,47.088],[3.25,47.083],[3.241,47.076]]]}},{"type":"Feature","properties":{"code":"58301","nom":"Vandenesse","pop":287},"geometry":{"type":"Polygon","coordinates":[[[3.815,46.881],[3.808,46.869],[3.804,46.869],[3.766,46.899],[3.728,46.91],[3.742,46.942],[3.784,46.955],[3.799,46.929],[3.826,46.923],[3.809,46.903],[3.815,46.881]]]}},{"type":"Feature","properties":{"code":"58302","nom":"Varennes-lès-Narcy","pop":901},"geometry":{"type":"Polygon","coordinates":[[[3.038,47.21],[3.04,47.218],[3.043,47.241],[3.106,47.212],[3.095,47.194],[3.06,47.191],[3.038,47.21]]]}},{"type":"Feature","properties":{"code":"58303","nom":"Varennes-Vauzelles","pop":9146},"geometry":{"type":"Polygon","coordinates":[[[3.107,47.019],[3.122,47.04],[3.109,47.061],[3.126,47.071],[3.172,47.071],[3.179,47.032],[3.157,47.007],[3.122,46.996],[3.11,47.008],[3.107,47.019]]]}},{"type":"Feature","properties":{"code":"58304","nom":"Varzy","pop":1069},"geometry":{"type":"Polygon","coordinates":[[[3.427,47.38],[3.429,47.373],[3.443,47.344],[3.429,47.333],[3.401,47.34],[3.386,47.318],[3.359,47.312],[3.348,47.317],[3.362,47.354],[3.335,47.367],[3.368,47.397],[3.414,47.384],[3.427,47.38]]]}},{"type":"Feature","properties":{"code":"58305","nom":"Vauclaix","pop":134},"geometry":{"type":"Polygon","coordinates":[[[3.839,47.226],[3.826,47.203],[3.798,47.208],[3.804,47.253],[3.831,47.25],[3.839,47.226]]]}},{"type":"Feature","properties":{"code":"58306","nom":"Verneuil","pop":274},"geometry":{"type":"Polygon","coordinates":[[[3.591,46.83],[3.544,46.867],[3.537,46.886],[3.586,46.891],[3.602,46.884],[3.602,46.867],[3.625,46.82],[3.623,46.821],[3.591,46.83]]]}},{"type":"Feature","properties":{"code":"58307","nom":"Vielmanay","pop":173},"geometry":{"type":"Polygon","coordinates":[[[3.144,47.293],[3.151,47.278],[3.132,47.274],[3.131,47.249],[3.085,47.26],[3.075,47.295],[3.1,47.3],[3.144,47.293]]]}},{"type":"Feature","properties":{"code":"58308","nom":"Vignol","pop":59},"geometry":{"type":"Polygon","coordinates":[[[3.683,47.377],[3.686,47.372],[3.666,47.344],[3.65,47.337],[3.641,47.342],[3.644,47.371],[3.649,47.373],[3.683,47.377]]]}},{"type":"Feature","properties":{"code":"58309","nom":"Villapourçon","pop":410},"geometry":{"type":"Polygon","coordinates":[[[3.985,46.981],[4.017,46.931],[4.012,46.922],[4.004,46.909],[3.947,46.917],[3.925,46.894],[3.902,46.888],[3.893,46.894],[3.905,46.913],[3.92,46.952],[3.932,46.972],[3.956,46.984],[3.985,46.981]]]}},{"type":"Feature","properties":{"code":"58310","nom":"Villiers-le-Sec","pop":47},"geometry":{"type":"Polygon","coordinates":[[[3.427,47.38],[3.447,47.38],[3.429,47.373],[3.427,47.38]]]}},{"type":"Feature","properties":{"code":"58311","nom":"Ville-Langy","pop":236},"geometry":{"type":"Polygon","coordinates":[[[3.531,46.914],[3.471,46.921],[3.456,46.934],[3.445,46.949],[3.451,46.956],[3.535,46.949],[3.561,46.952],[3.531,46.914]]]}},{"type":"Feature","properties":{"code":"58312","nom":"Villiers-sur-Yonne","pop":267},"geometry":{"type":"Polygon","coordinates":[[[3.563,47.401],[3.527,47.394],[3.514,47.415],[3.51,47.425],[3.538,47.435],[3.549,47.435],[3.57,47.42],[3.604,47.417],[3.59,47.402],[3.563,47.401]]]}},{"type":"Feature","properties":{"code":"58313","nom":"Vitry-Laché","pop":103},"geometry":{"type":"Polygon","coordinates":[[[3.577,47.172],[3.514,47.188],[3.551,47.212],[3.595,47.209],[3.61,47.203],[3.613,47.179],[3.577,47.172]]]}}]}