{"type":"FeatureCollection","features":[{"type":"Feature","properties":{"code":"66001","nom":"L'Albère"},"geometry":{"type":"Polygon","coordinates":[[[2.895,42.492],[2.912,42.488],[2.933,42.474],[2.918,42.456],[2.887,42.46],[2.862,42.479],[2.862,42.49],[2.895,42.492]]]}},{"type":"Feature","properties":{"code":"66002","nom":"Alénya"},"geometry":{"type":"Polygon","coordinates":[[[3.006,42.645],[2.988,42.634],[2.967,42.63],[2.962,42.634],[2.961,42.645],[2.967,42.646],[3.003,42.653],[3.006,42.645]]]}},{"type":"Feature","properties":{"code":"66003","nom":"Amélie-les-Bains-Palalda"},"geometry":{"type":"Polygon","coordinates":[[[2.66,42.473],[2.66,42.497],[2.692,42.49],[2.691,42.472],[2.724,42.423],[2.674,42.405],[2.651,42.426],[2.665,42.461],[2.66,42.473]]]}},{"type":"Feature","properties":{"code":"66004","nom":"Les Angles"},"geometry":{"type":"Polygon","coordinates":[[[2.016,42.557],[2.016,42.557],[1.998,42.568],[2.009,42.592],[1.984,42.614],[2.004,42.6],[2.065,42.605],[2.114,42.601],[2.084,42.557],[2.091,42.546],[2.065,42.547],[2.024,42.568],[2.016,42.557]]]}},{"type":"Feature","properties":{"code":"66005","nom":"Angoustrine-Villeneuve-des-Escaldes"},"geometry":{"type":"Polygon","coordinates":[[[2.016,42.557],[2.011,42.545],[1.976,42.531],[1.969,42.515],[1.981,42.495],[1.96,42.47],[1.945,42.472],[1.951,42.484],[1.937,42.511],[1.953,42.525],[1.944,42.542],[1.917,42.549],[1.877,42.569],[1.874,42.582],[1.9,42.615],[1.933,42.605],[1.977,42.622],[1.984,42.614],[2.009,42.592],[1.998,42.568],[2.016,42.557]]]}},{"type":"Feature","properties":{"code":"66006","nom":"Ansignan"},"geometry":{"type":"Polygon","coordinates":[[[2.502,42.772],[2.51,42.78],[2.545,42.76],[2.544,42.752],[2.506,42.751],[2.502,42.772]]]}},{"type":"Feature","properties":{"code":"66007","nom":"Arboussols"},"geometry":{"type":"Polygon","coordinates":[[[2.474,42.654],[2.46,42.672],[2.486,42.687],[2.527,42.661],[2.53,42.654],[2.502,42.647],[2.474,42.654]]]}},{"type":"Feature","properties":{"code":"66008","nom":"Argelès-sur-Mer"},"geometry":{"type":"Polygon","coordinates":[[[2.984,42.574],[2.977,42.584],[3.044,42.594],[3.049,42.553],[3.076,42.533],[3.059,42.528],[3.057,42.495],[3.069,42.483],[3.04,42.474],[3,42.473],[3.025,42.482],[3.02,42.508],[2.98,42.514],[2.971,42.531],[2.985,42.532],[3.001,42.563],[2.984,42.574]]]}},{"type":"Feature","properties":{"code":"66009","nom":"Arles-sur-Tech"},"geometry":{"type":"Polygon","coordinates":[[[2.617,42.455],[2.582,42.482],[2.589,42.493],[2.621,42.471],[2.66,42.473],[2.665,42.461],[2.651,42.426],[2.593,42.429],[2.617,42.455]]]}},{"type":"Feature","properties":{"code":"66010","nom":"Ayguatébia-Talau"},"geometry":{"type":"Polygon","coordinates":[[[2.15,42.53],[2.135,42.546],[2.165,42.563],[2.145,42.576],[2.175,42.575],[2.189,42.586],[2.207,42.562],[2.257,42.55],[2.172,42.531],[2.15,42.53]]]}},{"type":"Feature","properties":{"code":"66011","nom":"Bages"},"geometry":{"type":"Polygon","coordinates":[[[2.868,42.596],[2.866,42.619],[2.867,42.621],[2.89,42.627],[2.914,42.606],[2.912,42.602],[2.892,42.588],[2.868,42.596]]]}},{"type":"Feature","properties":{"code":"66012","nom":"Baho"},"geometry":{"type":"Polygon","coordinates":[[[2.843,42.695],[2.826,42.691],[2.812,42.688],[2.803,42.719],[2.814,42.725],[2.843,42.695]]]}},{"type":"Feature","properties":{"code":"66013","nom":"Baillestavy"},"geometry":{"type":"Polygon","coordinates":[[[2.559,42.56],[2.553,42.547],[2.506,42.54],[2.495,42.567],[2.504,42.596],[2.532,42.581],[2.559,42.56]]]}},{"type":"Feature","properties":{"code":"66014","nom":"Baixas"},"geometry":{"type":"Polygon","coordinates":[[[2.81,42.768],[2.829,42.766],[2.838,42.736],[2.814,42.725],[2.803,42.719],[2.789,42.72],[2.778,42.767],[2.81,42.768]]]}},{"type":"Feature","properties":{"code":"66015","nom":"Banyuls-dels-Aspres"},"geometry":{"type":"Polygon","coordinates":[[[2.852,42.584],[2.878,42.582],[2.891,42.558],[2.883,42.552],[2.872,42.547],[2.856,42.549],[2.839,42.577],[2.852,42.584]]]}},{"type":"Feature","properties":{"code":"66016","nom":"Banyuls-sur-Mer"},"geometry":{"type":"Polygon","coordinates":[[[3.069,42.483],[3.076,42.489],[3.091,42.481],[3.133,42.495],[3.155,42.478],[3.157,42.46],[3.121,42.438],[3.087,42.425],[3.047,42.457],[3.04,42.474],[3.069,42.483]]]}},{"type":"Feature","properties":{"code":"66017","nom":"Le Barcarès"},"geometry":{"type":"Polygon","coordinates":[[[3.039,42.779],[3.025,42.771],[3.013,42.852],[3.044,42.838],[3.039,42.779]]]}},{"type":"Feature","properties":{"code":"66018","nom":"La Bastide"},"geometry":{"type":"Polygon","coordinates":[[[2.553,42.547],[2.559,42.56],[2.562,42.565],[2.597,42.55],[2.596,42.546],[2.576,42.509],[2.553,42.514],[2.553,42.547]]]}},{"type":"Feature","properties":{"code":"66019","nom":"Bélesta"},"geometry":{"type":"Polygon","coordinates":[[[2.672,42.726],[2.661,42.713],[2.636,42.705],[2.6,42.705],[2.573,42.723],[2.592,42.736],[2.646,42.728],[2.666,42.747],[2.672,42.726]]]}},{"type":"Feature","properties":{"code":"66020","nom":"Bolquère"},"geometry":{"type":"Polygon","coordinates":[[[2.011,42.545],[2.016,42.557],[2.016,42.557],[2.11,42.514],[2.08,42.495],[2.067,42.488],[2.055,42.528],[2.011,42.545]]]}},{"type":"Feature","properties":{"code":"66021","nom":"Bompas"},"geometry":{"type":"Polygon","coordinates":[[[2.925,42.731],[2.941,42.736],[2.96,42.733],[2.958,42.723],[2.925,42.731]]]}},{"type":"Feature","properties":{"code":"66022","nom":"Boule-d'Amont"},"geometry":{"type":"Polygon","coordinates":[[[2.562,42.565],[2.578,42.587],[2.575,42.618],[2.575,42.625],[2.594,42.628],[2.615,42.604],[2.618,42.596],[2.597,42.55],[2.562,42.565]]]}},{"type":"Feature","properties":{"code":"66023","nom":"Bouleternère"},"geometry":{"type":"Polygon","coordinates":[[[2.606,42.63],[2.594,42.628],[2.575,42.625],[2.569,42.661],[2.606,42.656],[2.606,42.63]]]}},{"type":"Feature","properties":{"code":"66024","nom":"Le Boulou"},"geometry":{"type":"Polygon","coordinates":[[[2.853,42.534],[2.866,42.51],[2.842,42.506],[2.818,42.515],[2.804,42.541],[2.815,42.549],[2.853,42.534]]]}},{"type":"Feature","properties":{"code":"66025","nom":"Bourg-Madame"},"geometry":{"type":"Polygon","coordinates":[[[1.978,42.437],[1.977,42.428],[1.962,42.423],[1.959,42.424],[1.943,42.444],[1.96,42.453],[1.981,42.448],[1.978,42.437]]]}},{"type":"Feature","properties":{"code":"66026","nom":"Brouilla"},"geometry":{"type":"Polygon","coordinates":[[[2.892,42.588],[2.918,42.571],[2.903,42.556],[2.891,42.558],[2.878,42.582],[2.868,42.596],[2.892,42.588]]]}},{"type":"Feature","properties":{"code":"66027","nom":"La Cabanasse"},"geometry":{"type":"Polygon","coordinates":[[[2.089,42.492],[2.08,42.495],[2.11,42.514],[2.116,42.513],[2.124,42.511],[2.132,42.504],[2.089,42.492]]]}},{"type":"Feature","properties":{"code":"66028","nom":"Cabestany"},"geometry":{"type":"Polygon","coordinates":[[[2.961,42.687],[2.984,42.678],[2.964,42.667],[2.93,42.666],[2.931,42.694],[2.961,42.687]]]}},{"type":"Feature","properties":{"code":"66029","nom":"Caixas"},"geometry":{"type":"Polygon","coordinates":[[[2.615,42.604],[2.625,42.63],[2.648,42.636],[2.659,42.629],[2.673,42.612],[2.686,42.596],[2.713,42.592],[2.7,42.575],[2.678,42.57],[2.656,42.592],[2.618,42.596],[2.615,42.604]]]}},{"type":"Feature","properties":{"code":"66030","nom":"Calce"},"geometry":{"type":"Polygon","coordinates":[[[2.781,42.718],[2.724,42.734],[2.72,42.737],[2.745,42.775],[2.778,42.767],[2.789,42.72],[2.781,42.718]]]}},{"type":"Feature","properties":{"code":"66032","nom":"Calmeilles"},"geometry":{"type":"Polygon","coordinates":[[[2.647,42.536],[2.651,42.561],[2.678,42.57],[2.7,42.575],[2.698,42.558],[2.679,42.535],[2.65,42.527],[2.647,42.536]]]}},{"type":"Feature","properties":{"code":"66033","nom":"Camélas"},"geometry":{"type":"Polygon","coordinates":[[[2.673,42.612],[2.659,42.629],[2.674,42.645],[2.7,42.668],[2.704,42.669],[2.723,42.658],[2.7,42.643],[2.688,42.615],[2.673,42.612]]]}},{"type":"Feature","properties":{"code":"66034","nom":"Campôme"},"geometry":{"type":"Polygon","coordinates":[[[2.412,42.639],[2.395,42.628],[2.365,42.635],[2.376,42.678],[2.389,42.642],[2.412,42.639]]]}},{"type":"Feature","properties":{"code":"66035","nom":"Campoussy"},"geometry":{"type":"Polygon","coordinates":[[[2.46,42.672],[2.438,42.685],[2.415,42.68],[2.428,42.703],[2.471,42.716],[2.489,42.691],[2.486,42.687],[2.46,42.672]]]}},{"type":"Feature","properties":{"code":"66036","nom":"Canaveilles"},"geometry":{"type":"Polygon","coordinates":[[[2.257,42.55],[2.264,42.549],[2.262,42.543],[2.246,42.529],[2.206,42.52],[2.172,42.526],[2.172,42.531],[2.257,42.55]]]}},{"type":"Feature","properties":{"code":"66037","nom":"Canet-en-Roussillon"},"geometry":{"type":"Polygon","coordinates":[[[2.984,42.678],[2.961,42.687],[2.982,42.714],[2.993,42.713],[3.029,42.709],[3.035,42.722],[3.036,42.641],[3.006,42.645],[3.003,42.653],[3.009,42.671],[2.984,42.678]]]}},{"type":"Feature","properties":{"code":"66038","nom":"Canohès"},"geometry":{"type":"Polygon","coordinates":[[[2.855,42.641],[2.8,42.653],[2.798,42.655],[2.844,42.664],[2.86,42.655],[2.855,42.641]]]}},{"type":"Feature","properties":{"code":"66039","nom":"Caramany"},"geometry":{"type":"Polygon","coordinates":[[[2.545,42.76],[2.554,42.759],[2.569,42.755],[2.585,42.747],[2.592,42.736],[2.573,42.723],[2.548,42.722],[2.522,42.722],[2.544,42.752],[2.545,42.76]]]}},{"type":"Feature","properties":{"code":"66040","nom":"Casefabre"},"geometry":{"type":"Polygon","coordinates":[[[2.625,42.63],[2.615,42.604],[2.594,42.628],[2.606,42.63],[2.625,42.63]]]}},{"type":"Feature","properties":{"code":"66041","nom":"Cases-de-Pène"},"geometry":{"type":"Polygon","coordinates":[[[2.81,42.768],[2.778,42.767],[2.745,42.775],[2.745,42.784],[2.796,42.819],[2.789,42.782],[2.81,42.768]]]}},{"type":"Feature","properties":{"code":"66042","nom":"Cassagnes"},"geometry":{"type":"Polygon","coordinates":[[[2.667,42.747],[2.666,42.747],[2.646,42.728],[2.592,42.736],[2.585,42.747],[2.611,42.758],[2.622,42.756],[2.667,42.747]]]}},{"type":"Feature","properties":{"code":"66043","nom":"Casteil"},"geometry":{"type":"Polygon","coordinates":[[[2.465,42.494],[2.453,42.487],[2.417,42.468],[2.39,42.503],[2.382,42.536],[2.42,42.53],[2.433,42.515],[2.46,42.517],[2.468,42.5],[2.465,42.494]]]}},{"type":"Feature","properties":{"code":"66044","nom":"Castelnou"},"geometry":{"type":"Polygon","coordinates":[[[2.73,42.598],[2.713,42.592],[2.686,42.596],[2.673,42.612],[2.688,42.615],[2.7,42.643],[2.723,42.658],[2.728,42.657],[2.729,42.623],[2.731,42.606],[2.73,42.598]]]}},{"type":"Feature","properties":{"code":"66045","nom":"Catllar"},"geometry":{"type":"Polygon","coordinates":[[[2.407,42.624],[2.395,42.628],[2.412,42.639],[2.416,42.657],[2.439,42.65],[2.443,42.632],[2.407,42.624]]]}},{"type":"Feature","properties":{"code":"66046","nom":"Caudiès-de-Fenouillèdes"},"geometry":{"type":"Polygon","coordinates":[[[2.325,42.835],[2.371,42.846],[2.382,42.849],[2.401,42.844],[2.412,42.821],[2.436,42.807],[2.436,42.794],[2.418,42.795],[2.344,42.801],[2.325,42.835]]]}},{"type":"Feature","properties":{"code":"66047","nom":"Caudiès-de-Conflent"},"geometry":{"type":"Polygon","coordinates":[[[2.138,42.578],[2.145,42.576],[2.165,42.563],[2.135,42.546],[2.123,42.556],[2.138,42.578]]]}},{"type":"Feature","properties":{"code":"66048","nom":"Cerbère"},"geometry":{"type":"Polygon","coordinates":[[[3.121,42.438],[3.157,42.46],[3.174,42.435],[3.121,42.438]]]}},{"type":"Feature","properties":{"code":"66049","nom":"Céret"},"geometry":{"type":"Polygon","coordinates":[[[2.727,42.423],[2.735,42.467],[2.723,42.507],[2.739,42.522],[2.77,42.513],[2.783,42.493],[2.777,42.453],[2.753,42.426],[2.727,42.423]]]}},{"type":"Feature","properties":{"code":"66050","nom":"Claira"},"geometry":{"type":"Polygon","coordinates":[[[2.91,42.77],[2.91,42.79],[2.94,42.792],[2.973,42.769],[2.982,42.762],[2.974,42.739],[2.96,42.733],[2.941,42.736],[2.944,42.753],[2.91,42.77]]]}},{"type":"Feature","properties":{"code":"66051","nom":"Clara-Villerach"},"geometry":{"type":"Polygon","coordinates":[[[2.461,42.603],[2.463,42.557],[2.433,42.587],[2.442,42.601],[2.461,42.603]]]}},{"type":"Feature","properties":{"code":"66052","nom":"Codalet"},"geometry":{"type":"Polygon","coordinates":[[[2.428,42.591],[2.412,42.59],[2.411,42.615],[2.428,42.591]]]}},{"type":"Feature","properties":{"code":"66053","nom":"Collioure"},"geometry":{"type":"Polygon","coordinates":[[[3.076,42.489],[3.069,42.483],[3.057,42.495],[3.059,42.528],[3.076,42.533],[3.099,42.524],[3.076,42.489]]]}},{"type":"Feature","properties":{"code":"66054","nom":"Conat"},"geometry":{"type":"Polygon","coordinates":[[[2.329,42.644],[2.353,42.636],[2.381,42.606],[2.333,42.597],[2.306,42.601],[2.308,42.625],[2.329,42.644]]]}},{"type":"Feature","properties":{"code":"66055","nom":"Corbère"},"geometry":{"type":"Polygon","coordinates":[[[2.659,42.629],[2.648,42.636],[2.644,42.643],[2.652,42.666],[2.672,42.674],[2.674,42.67],[2.674,42.645],[2.659,42.629]]]}},{"type":"Feature","properties":{"code":"66056","nom":"Corbère-les-Cabanes"},"geometry":{"type":"Polygon","coordinates":[[[2.674,42.67],[2.7,42.668],[2.674,42.645],[2.674,42.67]]]}},{"type":"Feature","properties":{"code":"66057","nom":"Corneilla-de-Conflent"},"geometry":{"type":"Polygon","coordinates":[[[2.374,42.596],[2.381,42.601],[2.4,42.583],[2.396,42.558],[2.37,42.556],[2.362,42.584],[2.366,42.588],[2.37,42.588],[2.371,42.591],[2.374,42.596]]]}},{"type":"Feature","properties":{"code":"66058","nom":"Corneilla-la-Rivière"},"geometry":{"type":"Polygon","coordinates":[[[2.712,42.694],[2.701,42.727],[2.724,42.734],[2.748,42.706],[2.746,42.685],[2.73,42.69],[2.712,42.694]]]}},{"type":"Feature","properties":{"code":"66059","nom":"Corneilla-del-Vercol"},"geometry":{"type":"Polygon","coordinates":[[[2.967,42.63],[2.948,42.612],[2.929,42.623],[2.935,42.633],[2.962,42.634],[2.967,42.63]]]}},{"type":"Feature","properties":{"code":"66060","nom":"Corsavy"},"geometry":{"type":"Polygon","coordinates":[[[2.465,42.494],[2.468,42.5],[2.517,42.498],[2.553,42.514],[2.576,42.509],[2.587,42.503],[2.59,42.501],[2.589,42.493],[2.582,42.482],[2.617,42.455],[2.569,42.453],[2.547,42.46],[2.518,42.452],[2.465,42.494]]]}},{"type":"Feature","properties":{"code":"66061","nom":"Coustouges"},"geometry":{"type":"Polygon","coordinates":[[[2.587,42.357],[2.596,42.368],[2.642,42.368],[2.659,42.38],[2.676,42.342],[2.61,42.347],[2.587,42.357]]]}},{"type":"Feature","properties":{"code":"66062","nom":"Dorres"},"geometry":{"type":"Polygon","coordinates":[[[1.945,42.472],[1.922,42.474],[1.906,42.498],[1.913,42.516],[1.892,42.535],[1.917,42.549],[1.944,42.542],[1.953,42.525],[1.937,42.511],[1.951,42.484],[1.945,42.472]]]}},{"type":"Feature","properties":{"code":"66063","nom":"Les Cluses"},"geometry":{"type":"Polygon","coordinates":[[[2.843,42.505],[2.862,42.49],[2.862,42.479],[2.841,42.464],[2.826,42.492],[2.843,42.505]]]}},{"type":"Feature","properties":{"code":"66064","nom":"Égat"},"geometry":{"type":"Polygon","coordinates":[[[2.022,42.487],[2.005,42.495],[2.009,42.513],[2.034,42.511],[2.022,42.487]]]}},{"type":"Feature","properties":{"code":"66065","nom":"Elne"},"geometry":{"type":"Polygon","coordinates":[[[2.99,42.612],[3.001,42.595],[3.023,42.601],[3.044,42.6],[3.044,42.594],[2.977,42.584],[2.945,42.583],[2.912,42.602],[2.914,42.606],[2.948,42.612],[2.967,42.63],[2.988,42.634],[2.99,42.612]]]}},{"type":"Feature","properties":{"code":"66066","nom":"Enveitg"},"geometry":{"type":"Polygon","coordinates":[[[1.855,42.531],[1.892,42.535],[1.913,42.516],[1.906,42.498],[1.922,42.474],[1.934,42.454],[1.9,42.45],[1.902,42.463],[1.866,42.502],[1.855,42.531]]]}},{"type":"Feature","properties":{"code":"66067","nom":"Err"},"geometry":{"type":"Polygon","coordinates":[[[2.039,42.409],[2.035,42.411],[2.019,42.444],[2.031,42.452],[2.073,42.429],[2.098,42.398],[2.115,42.394],[2.089,42.374],[2.039,42.409]]]}},{"type":"Feature","properties":{"code":"66068","nom":"Escaro"},"geometry":{"type":"Polygon","coordinates":[[[2.343,42.546],[2.339,42.539],[2.323,42.509],[2.299,42.517],[2.296,42.54],[2.295,42.558],[2.338,42.558],[2.343,42.546]]]}},{"type":"Feature","properties":{"code":"66069","nom":"Espira-de-l'Agly"},"geometry":{"type":"Polygon","coordinates":[[[2.829,42.766],[2.81,42.768],[2.789,42.782],[2.796,42.819],[2.814,42.833],[2.853,42.813],[2.858,42.802],[2.84,42.765],[2.829,42.766]]]}},{"type":"Feature","properties":{"code":"66070","nom":"Espira-de-Conflent"},"geometry":{"type":"Polygon","coordinates":[[[2.478,42.614],[2.497,42.637],[2.502,42.628],[2.504,42.596],[2.478,42.614]]]}},{"type":"Feature","properties":{"code":"66071","nom":"Estagel"},"geometry":{"type":"Polygon","coordinates":[[[2.745,42.775],[2.72,42.737],[2.676,42.762],[2.675,42.786],[2.68,42.788],[2.712,42.781],[2.745,42.784],[2.745,42.775]]]}},{"type":"Feature","properties":{"code":"66072","nom":"Estavar"},"geometry":{"type":"Polygon","coordinates":[[[2.005,42.495],[2.022,42.487],[2.038,42.475],[2.003,42.458],[1.998,42.485],[2.005,42.495]]]}},{"type":"Feature","properties":{"code":"66073","nom":"Estoher"},"geometry":{"type":"Polygon","coordinates":[[[2.506,42.54],[2.472,42.525],[2.463,42.557],[2.461,42.603],[2.475,42.614],[2.478,42.614],[2.504,42.596],[2.495,42.567],[2.506,42.54]]]}},{"type":"Feature","properties":{"code":"66074","nom":"Eus"},"geometry":{"type":"Polygon","coordinates":[[[2.46,42.672],[2.474,42.654],[2.467,42.632],[2.453,42.626],[2.443,42.632],[2.439,42.65],[2.416,42.657],[2.409,42.683],[2.415,42.68],[2.438,42.685],[2.46,42.672]]]}},{"type":"Feature","properties":{"code":"66075","nom":"Eyne"},"geometry":{"type":"Polygon","coordinates":[[[2.131,42.451],[2.147,42.435],[2.157,42.423],[2.133,42.414],[2.123,42.43],[2.066,42.477],[2.065,42.484],[2.067,42.488],[2.08,42.495],[2.089,42.492],[2.11,42.463],[2.131,42.451]]]}},{"type":"Feature","properties":{"code":"66076","nom":"Feilluns"},"geometry":{"type":"Polygon","coordinates":[[[2.469,42.76],[2.478,42.776],[2.502,42.772],[2.506,42.751],[2.504,42.746],[2.478,42.748],[2.469,42.76]]]}},{"type":"Feature","properties":{"code":"66077","nom":"Fenouillet"},"geometry":{"type":"Polygon","coordinates":[[[2.351,42.757],[2.344,42.781],[2.344,42.801],[2.418,42.795],[2.421,42.783],[2.405,42.782],[2.351,42.757]]]}},{"type":"Feature","properties":{"code":"66078","nom":"Fillols"},"geometry":{"type":"Polygon","coordinates":[[[2.4,42.583],[2.406,42.584],[2.42,42.563],[2.448,42.551],[2.452,42.533],[2.396,42.558],[2.4,42.583]]]}},{"type":"Feature","properties":{"code":"66079","nom":"Finestret"},"geometry":{"type":"Polygon","coordinates":[[[2.513,42.632],[2.536,42.602],[2.532,42.581],[2.504,42.596],[2.502,42.628],[2.513,42.632]]]}},{"type":"Feature","properties":{"code":"66080","nom":"Fontpédrouse"},"geometry":{"type":"Polygon","coordinates":[[[2.239,42.472],[2.251,42.448],[2.257,42.439],[2.206,42.417],[2.157,42.423],[2.147,42.435],[2.162,42.48],[2.148,42.503],[2.172,42.526],[2.206,42.52],[2.2,42.5],[2.215,42.478],[2.239,42.472]]]}},{"type":"Feature","properties":{"code":"66081","nom":"Fontrabiouse"},"geometry":{"type":"Polygon","coordinates":[[[2.019,42.654],[2.043,42.658],[2.1,42.625],[2.092,42.621],[2.016,42.647],[1.991,42.647],[2.002,42.661],[2.019,42.654]]]}},{"type":"Feature","properties":{"code":"66082","nom":"Formiguères"},"geometry":{"type":"Polygon","coordinates":[[[2.114,42.601],[2.065,42.605],[2.004,42.6],[1.984,42.614],[1.977,42.622],[1.991,42.647],[2.016,42.647],[2.092,42.621],[2.1,42.625],[2.125,42.646],[2.15,42.622],[2.147,42.61],[2.114,42.601]]]}},{"type":"Feature","properties":{"code":"66083","nom":"Fosse"},"geometry":{"type":"Polygon","coordinates":[[[2.448,42.795],[2.444,42.783],[2.429,42.773],[2.421,42.783],[2.418,42.795],[2.436,42.794],[2.448,42.795]]]}},{"type":"Feature","properties":{"code":"66084","nom":"Fourques"},"geometry":{"type":"Polygon","coordinates":[[[2.747,42.594],[2.787,42.597],[2.804,42.586],[2.792,42.569],[2.75,42.579],[2.747,42.594]]]}},{"type":"Feature","properties":{"code":"66085","nom":"Fuilla"},"geometry":{"type":"Polygon","coordinates":[[[2.374,42.596],[2.371,42.591],[2.37,42.588],[2.366,42.588],[2.362,42.584],[2.37,42.556],[2.372,42.546],[2.339,42.539],[2.343,42.546],[2.349,42.59],[2.374,42.596]]]}},{"type":"Feature","properties":{"code":"66086","nom":"Glorianes"},"geometry":{"type":"Polygon","coordinates":[[[2.536,42.602],[2.534,42.618],[2.552,42.62],[2.575,42.618],[2.578,42.587],[2.562,42.565],[2.559,42.56],[2.532,42.581],[2.536,42.602]]]}},{"type":"Feature","properties":{"code":"66088","nom":"Ille-sur-Têt"},"geometry":{"type":"Polygon","coordinates":[[[2.67,42.677],[2.672,42.674],[2.652,42.666],[2.644,42.643],[2.63,42.663],[2.606,42.656],[2.569,42.661],[2.565,42.676],[2.6,42.705],[2.636,42.705],[2.67,42.677]]]}},{"type":"Feature","properties":{"code":"66089","nom":"Joch"},"geometry":{"type":"Polygon","coordinates":[[[2.513,42.632],[2.522,42.631],[2.534,42.618],[2.536,42.602],[2.513,42.632]]]}},{"type":"Feature","properties":{"code":"66090","nom":"Jujols"},"geometry":{"type":"Polygon","coordinates":[[[2.258,42.609],[2.292,42.596],[2.292,42.562],[2.258,42.609]]]}},{"type":"Feature","properties":{"code":"66091","nom":"Lamanère"},"geometry":{"type":"Polygon","coordinates":[[[2.476,42.348],[2.491,42.354],[2.512,42.393],[2.535,42.369],[2.562,42.357],[2.542,42.334],[2.476,42.348]]]}},{"type":"Feature","properties":{"code":"66092","nom":"Lansac"},"geometry":{"type":"Polygon","coordinates":[[[2.559,42.779],[2.573,42.782],[2.569,42.755],[2.554,42.759],[2.559,42.779]]]}},{"type":"Feature","properties":{"code":"66093","nom":"Laroque-des-Albères"},"geometry":{"type":"Polygon","coordinates":[[[2.912,42.488],[2.911,42.525],[2.93,42.532],[2.937,42.561],[2.947,42.548],[2.947,42.482],[2.933,42.474],[2.912,42.488]]]}},{"type":"Feature","properties":{"code":"66094","nom":"Latour-Bas-Elne"},"geometry":{"type":"Polygon","coordinates":[[[3.023,42.601],[3.001,42.595],[2.99,42.612],[3.023,42.601]]]}},{"type":"Feature","properties":{"code":"66095","nom":"Latour-de-Carol"},"geometry":{"type":"Polygon","coordinates":[[[1.866,42.502],[1.902,42.463],[1.9,42.45],[1.86,42.462],[1.843,42.477],[1.866,42.502]]]}},{"type":"Feature","properties":{"code":"66096","nom":"Latour-de-France"},"geometry":{"type":"Polygon","coordinates":[[[2.627,42.792],[2.675,42.786],[2.676,42.762],[2.667,42.747],[2.622,42.756],[2.634,42.77],[2.627,42.792]]]}},{"type":"Feature","properties":{"code":"66097","nom":"Lesquerde"},"geometry":{"type":"Polygon","coordinates":[[[2.573,42.782],[2.559,42.779],[2.511,42.789],[2.483,42.798],[2.531,42.806],[2.569,42.802],[2.594,42.8],[2.573,42.782]]]}},{"type":"Feature","properties":{"code":"66098","nom":"La Llagonne"},"geometry":{"type":"Polygon","coordinates":[[[2.119,42.513],[2.116,42.513],[2.11,42.514],[2.016,42.557],[2.024,42.568],[2.065,42.547],[2.091,42.546],[2.123,42.556],[2.135,42.546],[2.15,42.53],[2.119,42.513]]]}},{"type":"Feature","properties":{"code":"66099","nom":"Llauro"},"geometry":{"type":"Polygon","coordinates":[[[2.776,42.552],[2.773,42.544],[2.742,42.529],[2.724,42.559],[2.732,42.563],[2.776,42.552]]]}},{"type":"Feature","properties":{"code":"66100","nom":"Llo"},"geometry":{"type":"Polygon","coordinates":[[[2.073,42.429],[2.047,42.458],[2.066,42.477],[2.123,42.43],[2.133,42.414],[2.115,42.394],[2.098,42.398],[2.073,42.429]]]}},{"type":"Feature","properties":{"code":"66101","nom":"Llupia"},"geometry":{"type":"Polygon","coordinates":[[[2.764,42.612],[2.764,42.612],[2.762,42.625],[2.79,42.643],[2.804,42.62],[2.789,42.616],[2.764,42.612]]]}},{"type":"Feature","properties":{"code":"66102","nom":"Mantet"},"geometry":{"type":"Polygon","coordinates":[[[2.334,42.428],[2.319,42.425],[2.291,42.423],[2.257,42.439],[2.251,42.448],[2.273,42.48],[2.31,42.488],[2.329,42.467],[2.334,42.428]]]}},{"type":"Feature","properties":{"code":"66103","nom":"Marquixanes"},"geometry":{"type":"Polygon","coordinates":[[[2.497,42.637],[2.478,42.614],[2.475,42.614],[2.467,42.632],[2.474,42.654],[2.502,42.647],[2.497,42.637]]]}},{"type":"Feature","properties":{"code":"66104","nom":"Los Masos"},"geometry":{"type":"Polygon","coordinates":[[[2.467,42.632],[2.475,42.614],[2.461,42.603],[2.442,42.601],[2.453,42.626],[2.467,42.632]]]}},{"type":"Feature","properties":{"code":"66105","nom":"Matemale"},"geometry":{"type":"Polygon","coordinates":[[[2.123,42.556],[2.091,42.546],[2.084,42.557],[2.114,42.601],[2.147,42.61],[2.138,42.578],[2.123,42.556]]]}},{"type":"Feature","properties":{"code":"66106","nom":"Maureillas-las-Illas"},"geometry":{"type":"Polygon","coordinates":[[[2.842,42.506],[2.843,42.505],[2.826,42.492],[2.841,42.464],[2.844,42.458],[2.801,42.418],[2.77,42.412],[2.753,42.426],[2.777,42.453],[2.783,42.493],[2.818,42.515],[2.842,42.506]]]}},{"type":"Feature","properties":{"code":"66107","nom":"Maury"},"geometry":{"type":"Polygon","coordinates":[[[2.594,42.8],[2.569,42.802],[2.559,42.846],[2.572,42.843],[2.638,42.834],[2.68,42.788],[2.675,42.786],[2.627,42.792],[2.594,42.8]]]}},{"type":"Feature","properties":{"code":"66108","nom":"Millas"},"geometry":{"type":"Polygon","coordinates":[[[2.701,42.727],[2.712,42.694],[2.704,42.669],[2.7,42.668],[2.674,42.67],[2.672,42.674],[2.67,42.677],[2.661,42.713],[2.672,42.726],[2.701,42.727]]]}},{"type":"Feature","properties":{"code":"66109","nom":"Molitg-les-Bains"},"geometry":{"type":"Polygon","coordinates":[[[2.377,42.688],[2.409,42.683],[2.416,42.657],[2.412,42.639],[2.389,42.642],[2.376,42.678],[2.377,42.688]]]}},{"type":"Feature","properties":{"code":"66111","nom":"Montalba-le-Château"},"geometry":{"type":"Polygon","coordinates":[[[2.532,42.693],[2.553,42.707],[2.548,42.722],[2.573,42.723],[2.6,42.705],[2.565,42.676],[2.532,42.693]]]}},{"type":"Feature","properties":{"code":"66112","nom":"Montauriol"},"geometry":{"type":"Polygon","coordinates":[[[2.713,42.592],[2.73,42.598],[2.747,42.594],[2.75,42.579],[2.732,42.563],[2.724,42.559],[2.698,42.558],[2.7,42.575],[2.713,42.592]]]}},{"type":"Feature","properties":{"code":"66113","nom":"Montbolo"},"geometry":{"type":"Polygon","coordinates":[[[2.665,42.509],[2.66,42.497],[2.66,42.473],[2.621,42.471],[2.589,42.493],[2.59,42.501],[2.613,42.5],[2.641,42.517],[2.663,42.512],[2.665,42.509]]]}},{"type":"Feature","properties":{"code":"66114","nom":"Montescot"},"geometry":{"type":"Polygon","coordinates":[[[2.914,42.606],[2.89,42.627],[2.893,42.63],[2.929,42.623],[2.948,42.612],[2.914,42.606]]]}},{"type":"Feature","properties":{"code":"66115","nom":"Montesquieu-des-Albères"},"geometry":{"type":"Polygon","coordinates":[[[2.862,42.49],[2.843,42.505],[2.842,42.506],[2.866,42.51],[2.853,42.534],[2.872,42.547],[2.883,42.552],[2.895,42.526],[2.895,42.492],[2.862,42.49]]]}},{"type":"Feature","properties":{"code":"66116","nom":"Montferrer"},"geometry":{"type":"Polygon","coordinates":[[[2.578,42.423],[2.545,42.424],[2.518,42.452],[2.547,42.46],[2.569,42.453],[2.617,42.455],[2.593,42.429],[2.578,42.423]]]}},{"type":"Feature","properties":{"code":"66117","nom":"Mont-Louis"},"geometry":{"type":"Polygon","coordinates":[[[2.116,42.513],[2.119,42.513],[2.124,42.511],[2.116,42.513]]]}},{"type":"Feature","properties":{"code":"66118","nom":"Montner"},"geometry":{"type":"Polygon","coordinates":[[[2.666,42.747],[2.667,42.747],[2.676,42.762],[2.72,42.737],[2.724,42.734],[2.701,42.727],[2.672,42.726],[2.666,42.747]]]}},{"type":"Feature","properties":{"code":"66119","nom":"Mosset"},"geometry":{"type":"Polygon","coordinates":[[[2.353,42.636],[2.329,42.644],[2.292,42.662],[2.262,42.654],[2.201,42.651],[2.192,42.652],[2.192,42.659],[2.239,42.676],[2.265,42.709],[2.291,42.7],[2.323,42.708],[2.362,42.704],[2.377,42.688],[2.376,42.678],[2.365,42.635],[2.353,42.636]]]}},{"type":"Feature","properties":{"code":"66120","nom":"Nahuja"},"geometry":{"type":"Polygon","coordinates":[[[1.977,42.428],[1.978,42.437],[2.023,42.415],[1.977,42.428]]]}},{"type":"Feature","properties":{"code":"66121","nom":"Néfiach"},"geometry":{"type":"Polygon","coordinates":[[[2.636,42.705],[2.661,42.713],[2.67,42.677],[2.636,42.705]]]}},{"type":"Feature","properties":{"code":"66122","nom":"Nohèdes"},"geometry":{"type":"Polygon","coordinates":[[[2.292,42.596],[2.258,42.609],[2.247,42.621],[2.201,42.64],[2.201,42.651],[2.262,42.654],[2.308,42.625],[2.306,42.601],[2.292,42.596]]]}},{"type":"Feature","properties":{"code":"66123","nom":"Nyer"},"geometry":{"type":"Polygon","coordinates":[[[2.251,42.448],[2.239,42.472],[2.237,42.498],[2.266,42.514],[2.246,42.529],[2.262,42.543],[2.296,42.54],[2.299,42.517],[2.323,42.509],[2.31,42.488],[2.273,42.48],[2.251,42.448]]]}},{"type":"Feature","properties":{"code":"66124","nom":"Font-Romeu-Odeillo-Via"},"geometry":{"type":"Polygon","coordinates":[[[2.011,42.545],[2.055,42.528],[2.067,42.488],[2.065,42.484],[2.038,42.475],[2.022,42.487],[2.034,42.511],[2.009,42.513],[1.969,42.515],[1.976,42.531],[2.011,42.545]]]}},{"type":"Feature","properties":{"code":"66125","nom":"Olette"},"geometry":{"type":"Polygon","coordinates":[[[2.295,42.558],[2.264,42.549],[2.257,42.55],[2.218,42.608],[2.208,42.61],[2.201,42.64],[2.247,42.621],[2.258,42.609],[2.292,42.562],[2.295,42.558]]]}},{"type":"Feature","properties":{"code":"66126","nom":"Oms"},"geometry":{"type":"Polygon","coordinates":[[[2.679,42.535],[2.698,42.558],[2.724,42.559],[2.742,42.529],[2.739,42.522],[2.723,42.507],[2.713,42.507],[2.679,42.535]]]}},{"type":"Feature","properties":{"code":"66127","nom":"Opoul-Périllos"},"geometry":{"type":"Polygon","coordinates":[[[2.907,42.896],[2.917,42.885],[2.887,42.853],[2.827,42.847],[2.803,42.885],[2.81,42.899],[2.865,42.919],[2.88,42.902],[2.907,42.896]]]}},{"type":"Feature","properties":{"code":"66128","nom":"Oreilla"},"geometry":{"type":"Polygon","coordinates":[[[2.257,42.55],[2.207,42.562],[2.189,42.586],[2.188,42.588],[2.208,42.61],[2.218,42.608],[2.257,42.55]]]}},{"type":"Feature","properties":{"code":"66129","nom":"Ortaffa"},"geometry":{"type":"Polygon","coordinates":[[[2.918,42.571],[2.892,42.588],[2.912,42.602],[2.945,42.583],[2.94,42.572],[2.918,42.571]]]}},{"type":"Feature","properties":{"code":"66130","nom":"Osséja"},"geometry":{"type":"Polygon","coordinates":[[[2.039,42.409],[2.005,42.39],[2.022,42.356],[1.984,42.379],[1.981,42.399],[1.962,42.423],[1.977,42.428],[2.023,42.415],[2.035,42.411],[2.039,42.409]]]}},{"type":"Feature","properties":{"code":"66132","nom":"Palau-de-Cerdagne"},"geometry":{"type":"Polygon","coordinates":[[[2.022,42.356],[2.023,42.356],[2.016,42.347],[1.972,42.374],[1.955,42.41],[1.959,42.424],[1.962,42.423],[1.981,42.399],[1.984,42.379],[2.022,42.356]]]}},{"type":"Feature","properties":{"code":"66133","nom":"Palau-del-Vidre"},"geometry":{"type":"Polygon","coordinates":[[[2.977,42.584],[2.984,42.574],[2.958,42.551],[2.947,42.548],[2.937,42.561],[2.94,42.572],[2.945,42.583],[2.977,42.584]]]}},{"type":"Feature","properties":{"code":"66134","nom":"Passa"},"geometry":{"type":"Polygon","coordinates":[[[2.793,42.542],[2.773,42.544],[2.776,42.552],[2.792,42.569],[2.804,42.586],[2.826,42.594],[2.835,42.577],[2.815,42.549],[2.804,42.541],[2.793,42.542]]]}},{"type":"Feature","properties":{"code":"66136","nom":"Perpignan"},"geometry":{"type":"Polygon","coordinates":[[[2.958,42.723],[2.982,42.714],[2.961,42.687],[2.931,42.694],[2.93,42.666],[2.93,42.654],[2.886,42.65],[2.86,42.655],[2.844,42.664],[2.827,42.69],[2.826,42.691],[2.843,42.695],[2.873,42.699],[2.852,42.731],[2.866,42.742],[2.891,42.749],[2.925,42.731],[2.958,42.723]]]}},{"type":"Feature","properties":{"code":"66137","nom":"Le Perthus"},"geometry":{"type":"Polygon","coordinates":[[[2.841,42.464],[2.862,42.479],[2.887,42.46],[2.844,42.458],[2.841,42.464]]]}},{"type":"Feature","properties":{"code":"66138","nom":"Peyrestortes"},"geometry":{"type":"Polygon","coordinates":[[[2.866,42.742],[2.852,42.731],[2.838,42.736],[2.829,42.766],[2.84,42.765],[2.866,42.742]]]}},{"type":"Feature","properties":{"code":"66139","nom":"Pézilla-de-Conflent"},"geometry":{"type":"Polygon","coordinates":[[[2.506,42.726],[2.481,42.727],[2.478,42.748],[2.504,42.746],[2.506,42.726]]]}},{"type":"Feature","properties":{"code":"66140","nom":"Pézilla-la-Rivière"},"geometry":{"type":"Polygon","coordinates":[[[2.724,42.734],[2.781,42.718],[2.793,42.691],[2.773,42.683],[2.746,42.685],[2.748,42.706],[2.724,42.734]]]}},{"type":"Feature","properties":{"code":"66141","nom":"Pia"},"geometry":{"type":"Polygon","coordinates":[[[2.941,42.736],[2.925,42.731],[2.891,42.749],[2.91,42.77],[2.944,42.753],[2.941,42.736]]]}},{"type":"Feature","properties":{"code":"66142","nom":"Planès"},"geometry":{"type":"Polygon","coordinates":[[[2.147,42.435],[2.131,42.451],[2.139,42.462],[2.127,42.489],[2.136,42.504],[2.148,42.503],[2.162,42.48],[2.147,42.435]]]}},{"type":"Feature","properties":{"code":"66143","nom":"Planèzes"},"geometry":{"type":"Polygon","coordinates":[[[2.627,42.792],[2.634,42.77],[2.622,42.756],[2.611,42.758],[2.609,42.785],[2.627,42.792]]]}},{"type":"Feature","properties":{"code":"66144","nom":"Pollestres"},"geometry":{"type":"Polygon","coordinates":[[[2.886,42.65],[2.893,42.63],[2.89,42.627],[2.867,42.621],[2.855,42.641],[2.86,42.655],[2.886,42.65]]]}},{"type":"Feature","properties":{"code":"66145","nom":"Ponteilla"},"geometry":{"type":"Polygon","coordinates":[[[2.8,42.653],[2.855,42.641],[2.867,42.621],[2.866,42.619],[2.865,42.618],[2.804,42.62],[2.79,42.643],[2.8,42.653]]]}},{"type":"Feature","properties":{"code":"66146","nom":"Porta"},"geometry":{"type":"Polygon","coordinates":[[[1.855,42.531],[1.866,42.502],[1.843,42.477],[1.73,42.492],[1.725,42.516],[1.734,42.549],[1.77,42.565],[1.762,42.526],[1.795,42.543],[1.835,42.541],[1.855,42.531]]]}},{"type":"Feature","properties":{"code":"66147","nom":"Porté-Puymorens"},"geometry":{"type":"Polygon","coordinates":[[[1.874,42.582],[1.877,42.569],[1.917,42.549],[1.892,42.535],[1.855,42.531],[1.835,42.541],[1.795,42.543],[1.762,42.526],[1.77,42.565],[1.786,42.574],[1.825,42.581],[1.874,42.582]]]}},{"type":"Feature","properties":{"code":"66148","nom":"Port-Vendres"},"geometry":{"type":"Polygon","coordinates":[[[3.133,42.495],[3.091,42.481],[3.076,42.489],[3.099,42.524],[3.129,42.518],[3.133,42.495]]]}},{"type":"Feature","properties":{"code":"66149","nom":"Prades"},"geometry":{"type":"Polygon","coordinates":[[[2.433,42.587],[2.428,42.591],[2.411,42.615],[2.407,42.624],[2.443,42.632],[2.453,42.626],[2.442,42.601],[2.433,42.587]]]}},{"type":"Feature","properties":{"code":"66150","nom":"Prats-de-Mollo-la-Preste"},"geometry":{"type":"Polygon","coordinates":[[[2.319,42.425],[2.334,42.428],[2.387,42.447],[2.417,42.468],[2.453,42.487],[2.517,42.429],[2.527,42.406],[2.514,42.393],[2.512,42.393],[2.491,42.354],[2.476,42.348],[2.466,42.361],[2.414,42.391],[2.349,42.407],[2.319,42.425]]]}},{"type":"Feature","properties":{"code":"66151","nom":"Prats-de-Sournia"},"geometry":{"type":"Polygon","coordinates":[[[2.472,42.72],[2.447,42.741],[2.425,42.744],[2.469,42.76],[2.478,42.748],[2.481,42.727],[2.472,42.72]]]}},{"type":"Feature","properties":{"code":"66152","nom":"Prugnanes"},"geometry":{"type":"Polygon","coordinates":[[[2.401,42.844],[2.457,42.837],[2.462,42.838],[2.464,42.809],[2.436,42.807],[2.412,42.821],[2.401,42.844]]]}},{"type":"Feature","properties":{"code":"66153","nom":"Prunet-et-Belpuig"},"geometry":{"type":"Polygon","coordinates":[[[2.678,42.57],[2.651,42.561],[2.647,42.536],[2.641,42.545],[2.596,42.546],[2.597,42.55],[2.618,42.596],[2.656,42.592],[2.678,42.57]]]}},{"type":"Feature","properties":{"code":"66154","nom":"Puyvalador"},"geometry":{"type":"Polygon","coordinates":[[[2.043,42.658],[2.047,42.664],[2.096,42.664],[2.128,42.672],[2.166,42.664],[2.176,42.653],[2.125,42.646],[2.1,42.625],[2.043,42.658]]]}},{"type":"Feature","properties":{"code":"66155","nom":"Py"},"geometry":{"type":"Polygon","coordinates":[[[2.417,42.468],[2.387,42.447],[2.334,42.428],[2.329,42.467],[2.31,42.488],[2.323,42.509],[2.39,42.503],[2.417,42.468]]]}},{"type":"Feature","properties":{"code":"66156","nom":"Rabouillet"},"geometry":{"type":"Polygon","coordinates":[[[2.323,42.708],[2.358,42.733],[2.354,42.749],[2.406,42.749],[2.408,42.747],[2.399,42.726],[2.362,42.704],[2.323,42.708]]]}},{"type":"Feature","properties":{"code":"66157","nom":"Railleu"},"geometry":{"type":"Polygon","coordinates":[[[2.145,42.576],[2.138,42.578],[2.147,42.61],[2.188,42.588],[2.189,42.586],[2.175,42.575],[2.145,42.576]]]}},{"type":"Feature","properties":{"code":"66158","nom":"Rasiguères"},"geometry":{"type":"Polygon","coordinates":[[[2.585,42.747],[2.569,42.755],[2.573,42.782],[2.594,42.8],[2.627,42.792],[2.609,42.785],[2.611,42.758],[2.585,42.747]]]}},{"type":"Feature","properties":{"code":"66159","nom":"Réal"},"geometry":{"type":"Polygon","coordinates":[[[2.176,42.653],[2.176,42.649],[2.15,42.622],[2.125,42.646],[2.176,42.653]]]}},{"type":"Feature","properties":{"code":"66160","nom":"Reynès"},"geometry":{"type":"Polygon","coordinates":[[[2.723,42.507],[2.735,42.467],[2.727,42.423],[2.724,42.423],[2.691,42.472],[2.692,42.49],[2.66,42.497],[2.665,42.509],[2.713,42.507],[2.723,42.507]]]}},{"type":"Feature","properties":{"code":"66161","nom":"Ria-Sirach"},"geometry":{"type":"Polygon","coordinates":[[[2.406,42.584],[2.4,42.583],[2.381,42.601],[2.381,42.606],[2.353,42.636],[2.365,42.635],[2.395,42.628],[2.407,42.624],[2.411,42.615],[2.412,42.59],[2.406,42.584]]]}},{"type":"Feature","properties":{"code":"66162","nom":"Rigarda"},"geometry":{"type":"Polygon","coordinates":[[[2.547,42.641],[2.552,42.62],[2.534,42.618],[2.522,42.631],[2.547,42.641]]]}},{"type":"Feature","properties":{"code":"66164","nom":"Rivesaltes"},"geometry":{"type":"Polygon","coordinates":[[[2.891,42.749],[2.866,42.742],[2.84,42.765],[2.858,42.802],[2.876,42.811],[2.91,42.79],[2.91,42.77],[2.891,42.749]]]}},{"type":"Feature","properties":{"code":"66165","nom":"Rodès"},"geometry":{"type":"Polygon","coordinates":[[[2.522,42.695],[2.532,42.693],[2.565,42.676],[2.569,42.661],[2.575,42.625],[2.575,42.618],[2.552,42.62],[2.547,42.641],[2.53,42.654],[2.527,42.661],[2.522,42.695]]]}},{"type":"Feature","properties":{"code":"66166","nom":"Sahorre"},"geometry":{"type":"Polygon","coordinates":[[[2.39,42.503],[2.323,42.509],[2.339,42.539],[2.372,42.546],[2.382,42.536],[2.39,42.503]]]}},{"type":"Feature","properties":{"code":"66167","nom":"Saillagouse"},"geometry":{"type":"Polygon","coordinates":[[[2.073,42.429],[2.031,42.452],[2.019,42.444],[2.009,42.448],[2.003,42.458],[2.038,42.475],[2.065,42.484],[2.066,42.477],[2.047,42.458],[2.073,42.429]]]}},{"type":"Feature","properties":{"code":"66168","nom":"Saint-André"},"geometry":{"type":"Polygon","coordinates":[[[2.958,42.551],[2.984,42.574],[3.001,42.563],[2.985,42.532],[2.971,42.531],[2.958,42.551]]]}},{"type":"Feature","properties":{"code":"66169","nom":"Saint-Arnac"},"geometry":{"type":"Polygon","coordinates":[[[2.51,42.78],[2.511,42.789],[2.559,42.779],[2.554,42.759],[2.545,42.76],[2.51,42.78]]]}},{"type":"Feature","properties":{"code":"66170","nom":"Sainte-Colombe-de-la-Commanderie"},"geometry":{"type":"Polygon","coordinates":[[[2.764,42.612],[2.764,42.612],[2.731,42.606],[2.729,42.623],[2.764,42.612]]]}},{"type":"Feature","properties":{"code":"66171","nom":"Saint-Cyprien"},"geometry":{"type":"Polygon","coordinates":[[[3.044,42.6],[3.023,42.601],[2.99,42.612],[2.988,42.634],[3.006,42.645],[3.036,42.641],[3.044,42.6]]]}},{"type":"Feature","properties":{"code":"66172","nom":"Saint-Estève"},"geometry":{"type":"Polygon","coordinates":[[[2.814,42.725],[2.838,42.736],[2.852,42.731],[2.873,42.699],[2.843,42.695],[2.814,42.725]]]}},{"type":"Feature","properties":{"code":"66173","nom":"Saint-Féliu-d'Amont"},"geometry":{"type":"Polygon","coordinates":[[[2.728,42.657],[2.728,42.657],[2.723,42.658],[2.704,42.669],[2.712,42.694],[2.73,42.69],[2.728,42.657]]]}},{"type":"Feature","properties":{"code":"66174","nom":"Saint-Féliu-d'Avall"},"geometry":{"type":"Polygon","coordinates":[[[2.773,42.683],[2.773,42.665],[2.728,42.657],[2.73,42.69],[2.746,42.685],[2.773,42.683]]]}},{"type":"Feature","properties":{"code":"66175","nom":"Saint-Génis-des-Fontaines"},"geometry":{"type":"Polygon","coordinates":[[[2.937,42.561],[2.93,42.532],[2.911,42.525],[2.903,42.556],[2.918,42.571],[2.94,42.572],[2.937,42.561]]]}},{"type":"Feature","properties":{"code":"66176","nom":"Saint-Hippolyte"},"geometry":{"type":"Polygon","coordinates":[[[2.94,42.792],[2.961,42.824],[3.013,42.852],[2.993,42.799],[2.973,42.769],[2.94,42.792]]]}},{"type":"Feature","properties":{"code":"66177","nom":"Saint-Jean-Lasseille"},"geometry":{"type":"Polygon","coordinates":[[[2.878,42.582],[2.852,42.584],[2.868,42.596],[2.878,42.582]]]}},{"type":"Feature","properties":{"code":"66178","nom":"Saint-Jean-Pla-de-Corts"},"geometry":{"type":"Polygon","coordinates":[[[2.783,42.493],[2.77,42.513],[2.793,42.542],[2.804,42.541],[2.818,42.515],[2.783,42.493]]]}},{"type":"Feature","properties":{"code":"66179","nom":"Saint-Laurent-de-Cerdans"},"geometry":{"type":"Polygon","coordinates":[[[2.578,42.423],[2.593,42.429],[2.651,42.426],[2.674,42.405],[2.659,42.38],[2.642,42.368],[2.596,42.368],[2.575,42.386],[2.571,42.413],[2.578,42.423]]]}},{"type":"Feature","properties":{"code":"66180","nom":"Saint-Laurent-de-la-Salanque"},"geometry":{"type":"Polygon","coordinates":[[[2.982,42.762],[2.973,42.769],[2.993,42.799],[3.013,42.852],[3.025,42.771],[2.982,42.762]]]}},{"type":"Feature","properties":{"code":"66181","nom":"Sainte-Léocadie"},"geometry":{"type":"Polygon","coordinates":[[[2.035,42.411],[2.023,42.415],[1.978,42.437],[1.981,42.448],[2.009,42.448],[2.019,42.444],[2.035,42.411]]]}},{"type":"Feature","properties":{"code":"66182","nom":"Sainte-Marie-la-Mer"},"geometry":{"type":"Polygon","coordinates":[[[2.996,42.735],[3.039,42.743],[3.035,42.722],[3.029,42.709],[2.993,42.713],[2.996,42.735]]]}},{"type":"Feature","properties":{"code":"66183","nom":"Saint-Marsal"},"geometry":{"type":"Polygon","coordinates":[[[2.65,42.527],[2.663,42.512],[2.641,42.517],[2.618,42.52],[2.587,42.503],[2.576,42.509],[2.596,42.546],[2.641,42.545],[2.647,42.536],[2.65,42.527]]]}},{"type":"Feature","properties":{"code":"66184","nom":"Saint-Martin-de-Fenouillet"},"geometry":{"type":"Polygon","coordinates":[[[2.444,42.783],[2.448,42.795],[2.483,42.798],[2.511,42.789],[2.51,42.78],[2.502,42.772],[2.478,42.776],[2.444,42.783]]]}},{"type":"Feature","properties":{"code":"66185","nom":"Saint-Michel-de-Llotes"},"geometry":{"type":"Polygon","coordinates":[[[2.648,42.636],[2.625,42.63],[2.606,42.63],[2.606,42.656],[2.63,42.663],[2.644,42.643],[2.648,42.636]]]}},{"type":"Feature","properties":{"code":"66186","nom":"Saint-Nazaire"},"geometry":{"type":"Polygon","coordinates":[[[2.964,42.667],[2.984,42.678],[3.009,42.671],[3.003,42.653],[2.967,42.646],[2.964,42.667]]]}},{"type":"Feature","properties":{"code":"66187","nom":"Saint-Paul-de-Fenouillet"},"geometry":{"type":"Polygon","coordinates":[[[2.462,42.838],[2.5,42.851],[2.516,42.845],[2.559,42.846],[2.569,42.802],[2.531,42.806],[2.483,42.798],[2.448,42.795],[2.436,42.794],[2.436,42.807],[2.464,42.809],[2.462,42.838]]]}},{"type":"Feature","properties":{"code":"66188","nom":"Saint-Pierre-dels-Forcats"},"geometry":{"type":"Polygon","coordinates":[[[2.136,42.504],[2.127,42.489],[2.139,42.462],[2.131,42.451],[2.11,42.463],[2.089,42.492],[2.132,42.504],[2.136,42.504]]]}},{"type":"Feature","properties":{"code":"66189","nom":"Saleilles"},"geometry":{"type":"Polygon","coordinates":[[[2.93,42.666],[2.964,42.667],[2.967,42.646],[2.961,42.645],[2.93,42.654],[2.93,42.666]]]}},{"type":"Feature","properties":{"code":"66190","nom":"Salses-le-Château"},"geometry":{"type":"Polygon","coordinates":[[[2.986,42.866],[3.013,42.852],[2.961,42.824],[2.94,42.792],[2.91,42.79],[2.876,42.811],[2.858,42.802],[2.853,42.813],[2.814,42.833],[2.827,42.847],[2.887,42.853],[2.917,42.885],[2.986,42.866]]]}},{"type":"Feature","properties":{"code":"66191","nom":"Sansa"},"geometry":{"type":"Polygon","coordinates":[[[2.192,42.652],[2.201,42.651],[2.201,42.64],[2.208,42.61],[2.188,42.588],[2.147,42.61],[2.15,42.622],[2.176,42.649],[2.192,42.652]]]}},{"type":"Feature","properties":{"code":"66192","nom":"Sauto"},"geometry":{"type":"Polygon","coordinates":[[[2.119,42.513],[2.15,42.53],[2.172,42.531],[2.172,42.526],[2.148,42.503],[2.136,42.504],[2.132,42.504],[2.124,42.511],[2.119,42.513]]]}},{"type":"Feature","properties":{"code":"66193","nom":"Serdinya"},"geometry":{"type":"Polygon","coordinates":[[[2.333,42.597],[2.349,42.59],[2.343,42.546],[2.338,42.558],[2.295,42.558],[2.292,42.562],[2.292,42.596],[2.306,42.601],[2.333,42.597]]]}},{"type":"Feature","properties":{"code":"66194","nom":"Serralongue"},"geometry":{"type":"Polygon","coordinates":[[[2.512,42.393],[2.514,42.393],[2.571,42.413],[2.575,42.386],[2.596,42.368],[2.587,42.357],[2.562,42.357],[2.535,42.369],[2.512,42.393]]]}},{"type":"Feature","properties":{"code":"66195","nom":"Le Soler"},"geometry":{"type":"Polygon","coordinates":[[[2.826,42.691],[2.827,42.69],[2.796,42.661],[2.773,42.665],[2.773,42.683],[2.793,42.691],[2.812,42.688],[2.826,42.691]]]}},{"type":"Feature","properties":{"code":"66196","nom":"Sorède"},"geometry":{"type":"Polygon","coordinates":[[[2.958,42.551],[2.971,42.531],[2.98,42.514],[3.02,42.508],[3.025,42.482],[3,42.473],[2.967,42.466],[2.947,42.482],[2.947,42.548],[2.958,42.551]]]}},{"type":"Feature","properties":{"code":"66197","nom":"Souanyas"},"geometry":{"type":"Polygon","coordinates":[[[2.264,42.549],[2.295,42.558],[2.296,42.54],[2.262,42.543],[2.264,42.549]]]}},{"type":"Feature","properties":{"code":"66198","nom":"Sournia"},"geometry":{"type":"Polygon","coordinates":[[[2.377,42.688],[2.362,42.704],[2.399,42.726],[2.408,42.747],[2.425,42.744],[2.447,42.741],[2.472,42.72],[2.471,42.716],[2.428,42.703],[2.415,42.68],[2.409,42.683],[2.377,42.688]]]}},{"type":"Feature","properties":{"code":"66199","nom":"Taillet"},"geometry":{"type":"Polygon","coordinates":[[[2.663,42.512],[2.65,42.527],[2.679,42.535],[2.713,42.507],[2.665,42.509],[2.663,42.512]]]}},{"type":"Feature","properties":{"code":"66201","nom":"Tarerach"},"geometry":{"type":"Polygon","coordinates":[[[2.489,42.691],[2.522,42.695],[2.527,42.661],[2.486,42.687],[2.489,42.691]]]}},{"type":"Feature","properties":{"code":"66202","nom":"Targasonne"},"geometry":{"type":"Polygon","coordinates":[[[1.969,42.515],[2.009,42.513],[2.005,42.495],[1.998,42.485],[1.981,42.495],[1.969,42.515]]]}},{"type":"Feature","properties":{"code":"66203","nom":"Taulis"},"geometry":{"type":"Polygon","coordinates":[[[2.641,42.517],[2.613,42.5],[2.59,42.501],[2.587,42.503],[2.618,42.52],[2.641,42.517]]]}},{"type":"Feature","properties":{"code":"66204","nom":"Taurinya"},"geometry":{"type":"Polygon","coordinates":[[[2.452,42.533],[2.448,42.551],[2.42,42.563],[2.406,42.584],[2.412,42.59],[2.428,42.591],[2.433,42.587],[2.463,42.557],[2.472,42.525],[2.46,42.517],[2.452,42.533]]]}},{"type":"Feature","properties":{"code":"66205","nom":"Tautavel"},"geometry":{"type":"Polygon","coordinates":[[[2.665,42.837],[2.696,42.83],[2.738,42.836],[2.754,42.852],[2.77,42.831],[2.796,42.819],[2.745,42.784],[2.712,42.781],[2.68,42.788],[2.638,42.834],[2.665,42.837]]]}},{"type":"Feature","properties":{"code":"66206","nom":"Le Tech"},"geometry":{"type":"Polygon","coordinates":[[[2.453,42.487],[2.465,42.494],[2.518,42.452],[2.545,42.424],[2.578,42.423],[2.571,42.413],[2.514,42.393],[2.527,42.406],[2.517,42.429],[2.453,42.487]]]}},{"type":"Feature","properties":{"code":"66207","nom":"Terrats"},"geometry":{"type":"Polygon","coordinates":[[[2.787,42.597],[2.747,42.594],[2.73,42.598],[2.731,42.606],[2.764,42.612],[2.789,42.616],[2.787,42.597]]]}},{"type":"Feature","properties":{"code":"66208","nom":"Théza"},"geometry":{"type":"Polygon","coordinates":[[[2.962,42.634],[2.935,42.633],[2.93,42.654],[2.961,42.645],[2.962,42.634]]]}},{"type":"Feature","properties":{"code":"66209","nom":"Thuès-Entre-Valls"},"geometry":{"type":"Polygon","coordinates":[[[2.246,42.529],[2.266,42.514],[2.237,42.498],[2.239,42.472],[2.215,42.478],[2.2,42.5],[2.206,42.52],[2.246,42.529]]]}},{"type":"Feature","properties":{"code":"66210","nom":"Thuir"},"geometry":{"type":"Polygon","coordinates":[[[2.728,42.657],[2.728,42.657],[2.773,42.665],[2.796,42.661],[2.798,42.655],[2.8,42.653],[2.79,42.643],[2.762,42.625],[2.764,42.612],[2.729,42.623],[2.728,42.657]]]}},{"type":"Feature","properties":{"code":"66211","nom":"Tordères"},"geometry":{"type":"Polygon","coordinates":[[[2.75,42.579],[2.792,42.569],[2.776,42.552],[2.732,42.563],[2.75,42.579]]]}},{"type":"Feature","properties":{"code":"66212","nom":"Torreilles"},"geometry":{"type":"Polygon","coordinates":[[[3.025,42.771],[3.039,42.779],[3.039,42.743],[2.996,42.735],[2.974,42.739],[2.982,42.762],[3.025,42.771]]]}},{"type":"Feature","properties":{"code":"66213","nom":"Toulouges"},"geometry":{"type":"Polygon","coordinates":[[[2.796,42.661],[2.827,42.69],[2.844,42.664],[2.798,42.655],[2.796,42.661]]]}},{"type":"Feature","properties":{"code":"66214","nom":"Tresserre"},"geometry":{"type":"Polygon","coordinates":[[[2.815,42.549],[2.835,42.577],[2.839,42.577],[2.856,42.549],[2.872,42.547],[2.853,42.534],[2.815,42.549]]]}},{"type":"Feature","properties":{"code":"66215","nom":"Trévillach"},"geometry":{"type":"Polygon","coordinates":[[[2.506,42.726],[2.522,42.722],[2.548,42.722],[2.553,42.707],[2.532,42.693],[2.522,42.695],[2.489,42.691],[2.471,42.716],[2.472,42.72],[2.481,42.727],[2.506,42.726]]]}},{"type":"Feature","properties":{"code":"66216","nom":"Trilla"},"geometry":{"type":"Polygon","coordinates":[[[2.522,42.722],[2.506,42.726],[2.504,42.746],[2.506,42.751],[2.544,42.752],[2.522,42.722]]]}},{"type":"Feature","properties":{"code":"66217","nom":"Trouillas"},"geometry":{"type":"Polygon","coordinates":[[[2.865,42.618],[2.847,42.596],[2.826,42.594],[2.804,42.586],[2.787,42.597],[2.789,42.616],[2.804,42.62],[2.865,42.618]]]}},{"type":"Feature","properties":{"code":"66218","nom":"Ur"},"geometry":{"type":"Polygon","coordinates":[[[1.922,42.474],[1.945,42.472],[1.96,42.47],[1.96,42.453],[1.943,42.444],[1.934,42.454],[1.922,42.474]]]}},{"type":"Feature","properties":{"code":"66219","nom":"Urbanya"},"geometry":{"type":"Polygon","coordinates":[[[2.308,42.625],[2.262,42.654],[2.292,42.662],[2.329,42.644],[2.308,42.625]]]}},{"type":"Feature","properties":{"code":"66220","nom":"Valcebollère"},"geometry":{"type":"Polygon","coordinates":[[[2.022,42.356],[2.005,42.39],[2.039,42.409],[2.089,42.374],[2.059,42.358],[2.023,42.356],[2.022,42.356]]]}},{"type":"Feature","properties":{"code":"66221","nom":"Valmanya"},"geometry":{"type":"Polygon","coordinates":[[[2.46,42.517],[2.472,42.525],[2.506,42.54],[2.553,42.547],[2.553,42.514],[2.517,42.498],[2.468,42.5],[2.46,42.517]]]}},{"type":"Feature","properties":{"code":"66222","nom":"Vernet-les-Bains"},"geometry":{"type":"Polygon","coordinates":[[[2.37,42.556],[2.396,42.558],[2.452,42.533],[2.46,42.517],[2.433,42.515],[2.42,42.53],[2.382,42.536],[2.372,42.546],[2.37,42.556]]]}},{"type":"Feature","properties":{"code":"66223","nom":"Villefranche-de-Conflent"},"geometry":{"type":"Polygon","coordinates":[[[2.349,42.59],[2.333,42.597],[2.381,42.606],[2.381,42.601],[2.374,42.596],[2.349,42.59]]]}},{"type":"Feature","properties":{"code":"66224","nom":"Villelongue-de-la-Salanque"},"geometry":{"type":"Polygon","coordinates":[[[2.958,42.723],[2.96,42.733],[2.974,42.739],[2.996,42.735],[2.993,42.713],[2.982,42.714],[2.958,42.723]]]}},{"type":"Feature","properties":{"code":"66225","nom":"Villelongue-dels-Monts"},"geometry":{"type":"Polygon","coordinates":[[[2.883,42.552],[2.891,42.558],[2.903,42.556],[2.911,42.525],[2.912,42.488],[2.895,42.492],[2.895,42.526],[2.883,42.552]]]}},{"type":"Feature","properties":{"code":"66226","nom":"Villemolaque"},"geometry":{"type":"Polygon","coordinates":[[[2.866,42.619],[2.868,42.596],[2.852,42.584],[2.839,42.577],[2.835,42.577],[2.826,42.594],[2.847,42.596],[2.865,42.618],[2.866,42.619]]]}},{"type":"Feature","properties":{"code":"66227","nom":"Villeneuve-de-la-Raho"},"geometry":{"type":"Polygon","coordinates":[[[2.893,42.63],[2.886,42.65],[2.93,42.654],[2.935,42.633],[2.929,42.623],[2.893,42.63]]]}},{"type":"Feature","properties":{"code":"66228","nom":"Villeneuve-la-Rivière"},"geometry":{"type":"Polygon","coordinates":[[[2.812,42.688],[2.793,42.691],[2.781,42.718],[2.789,42.72],[2.803,42.719],[2.812,42.688]]]}},{"type":"Feature","properties":{"code":"66230","nom":"Vinça"},"geometry":{"type":"Polygon","coordinates":[[[2.522,42.631],[2.513,42.632],[2.502,42.628],[2.497,42.637],[2.502,42.647],[2.53,42.654],[2.547,42.641],[2.522,42.631]]]}},{"type":"Feature","properties":{"code":"66231","nom":"Vingrau"},"geometry":{"type":"Polygon","coordinates":[[[2.81,42.899],[2.81,42.899],[2.803,42.885],[2.827,42.847],[2.814,42.833],[2.796,42.819],[2.77,42.831],[2.754,42.852],[2.762,42.873],[2.789,42.896],[2.81,42.899]]]}},{"type":"Feature","properties":{"code":"66232","nom":"Vira"},"geometry":{"type":"Polygon","coordinates":[[[2.353,42.75],[2.351,42.757],[2.405,42.782],[2.421,42.783],[2.429,42.773],[2.406,42.749],[2.354,42.749],[2.353,42.75]]]}},{"type":"Feature","properties":{"code":"66233","nom":"Vivès"},"geometry":{"type":"Polygon","coordinates":[[[2.773,42.544],[2.793,42.542],[2.77,42.513],[2.739,42.522],[2.742,42.529],[2.773,42.544]]]}},{"type":"Feature","properties":{"code":"66234","nom":"Le Vivier"},"geometry":{"type":"Polygon","coordinates":[[[2.429,42.773],[2.444,42.783],[2.478,42.776],[2.469,42.76],[2.425,42.744],[2.408,42.747],[2.406,42.749],[2.429,42.773]]]}}]}