{"type":"FeatureCollection","features":[{"type":"Feature","properties":{"code":"68001","nom":"Algolsheim","pop":1112},"geometry":{"type":"Polygon","coordinates":[[[7.584,47.997],[7.517,47.996],[7.518,48.011],[7.534,48.009],[7.569,48.013],[7.586,47.999],[7.584,47.997]]]}},{"type":"Feature","properties":{"code":"68002","nom":"Altenach","pop":372},"geometry":{"type":"Polygon","coordinates":[[[7.133,47.617],[7.137,47.603],[7.089,47.584],[7.086,47.586],[7.085,47.593],[7.078,47.597],[7.111,47.613],[7.133,47.617]]]}},{"type":"Feature","properties":{"code":"68004","nom":"Altkirch","pop":5687},"geometry":{"type":"Polygon","coordinates":[[[7.237,47.603],[7.22,47.611],[7.231,47.633],[7.25,47.637],[7.269,47.63],[7.251,47.608],[7.237,47.603]]]}},{"type":"Feature","properties":{"code":"68005","nom":"Ammerschwihr","pop":1580},"geometry":{"type":"Polygon","coordinates":[[[7.332,48.121],[7.329,48.114],[7.302,48.116],[7.251,48.108],[7.231,48.1],[7.219,48.098],[7.202,48.125],[7.269,48.135],[7.332,48.121]]]}},{"type":"Feature","properties":{"code":"68006","nom":"Bernwiller","pop":1205},"geometry":{"type":"Polygon","coordinates":[[[7.188,47.723],[7.198,47.712],[7.213,47.695],[7.2,47.682],[7.193,47.682],[7.156,47.69],[7.158,47.699],[7.188,47.723]]]}},{"type":"Feature","properties":{"code":"68007","nom":"Andolsheim","pop":2199},"geometry":{"type":"Polygon","coordinates":[[[7.415,48.083],[7.433,48.085],[7.459,48.066],[7.469,48.044],[7.411,48.059],[7.415,48.083]]]}},{"type":"Feature","properties":{"code":"68008","nom":"Appenwihr","pop":586},"geometry":{"type":"Polygon","coordinates":[[[7.43,48.032],[7.47,48.034],[7.477,48.021],[7.437,48.015],[7.43,48.032]]]}},{"type":"Feature","properties":{"code":"68009","nom":"Artzenheim","pop":857},"geometry":{"type":"Polygon","coordinates":[[[7.518,48.104],[7.512,48.112],[7.519,48.128],[7.577,48.12],[7.58,48.107],[7.518,48.104]]]}},{"type":"Feature","properties":{"code":"68010","nom":"Aspach","pop":1138},"geometry":{"type":"Polygon","coordinates":[[[7.245,47.651],[7.249,47.648],[7.25,47.637],[7.231,47.633],[7.211,47.647],[7.245,47.651]]]}},{"type":"Feature","properties":{"code":"68011","nom":"Aspach-le-Bas","pop":1262},"geometry":{"type":"Polygon","coordinates":[[[7.126,47.751],[7.125,47.752],[7.153,47.789],[7.177,47.777],[7.147,47.747],[7.126,47.751]]]}},{"type":"Feature","properties":{"code":"68012","nom":"Aspach-Michelbach","pop":1747},"geometry":{"type":"Polygon","coordinates":[[[7.115,47.786],[7.117,47.79],[7.149,47.793],[7.153,47.789],[7.125,47.752],[7.092,47.762],[7.115,47.786]]]}},{"type":"Feature","properties":{"code":"68013","nom":"Attenschwiller","pop":959},"geometry":{"type":"Polygon","coordinates":[[[7.449,47.579],[7.47,47.578],[7.477,47.578],[7.489,47.567],[7.483,47.56],[7.46,47.554],[7.449,47.579]]]}},{"type":"Feature","properties":{"code":"68014","nom":"Aubure","pop":353},"geometry":{"type":"Polygon","coordinates":[[[7.219,48.181],[7.218,48.181],[7.189,48.21],[7.221,48.214],[7.225,48.192],[7.219,48.181]]]}},{"type":"Feature","properties":{"code":"68015","nom":"Baldersheim","pop":2596},"geometry":{"type":"Polygon","coordinates":[[[7.354,47.801],[7.354,47.805],[7.378,47.808],[7.461,47.806],[7.455,47.785],[7.354,47.801]]]}},{"type":"Feature","properties":{"code":"68016","nom":"Balgau","pop":947},"geometry":{"type":"Polygon","coordinates":[[[7.484,47.921],[7.484,47.924],[7.523,47.941],[7.583,47.93],[7.581,47.921],[7.484,47.921]]]}},{"type":"Feature","properties":{"code":"68017","nom":"Ballersdorf","pop":818},"geometry":{"type":"Polygon","coordinates":[[[7.139,47.601],[7.137,47.603],[7.133,47.617],[7.143,47.629],[7.147,47.636],[7.177,47.639],[7.183,47.627],[7.156,47.6],[7.139,47.601]]]}},{"type":"Feature","properties":{"code":"68018","nom":"Balschwiller","pop":729},"geometry":{"type":"Polygon","coordinates":[[[7.193,47.682],[7.189,47.671],[7.167,47.658],[7.165,47.657],[7.13,47.669],[7.149,47.685],[7.156,47.69],[7.193,47.682]]]}},{"type":"Feature","properties":{"code":"68019","nom":"Baltzenheim","pop":581},"geometry":{"type":"Polygon","coordinates":[[[7.524,48.095],[7.518,48.104],[7.58,48.107],[7.574,48.091],[7.524,48.095]]]}},{"type":"Feature","properties":{"code":"68020","nom":"Bantzenheim","pop":1630},"geometry":{"type":"Polygon","coordinates":[[[7.47,47.836],[7.504,47.842],[7.542,47.836],[7.546,47.813],[7.541,47.803],[7.461,47.807],[7.462,47.825],[7.47,47.836]]]}},{"type":"Feature","properties":{"code":"68021","nom":"Bartenheim","pop":4211},"geometry":{"type":"Polygon","coordinates":[[[7.473,47.616],[7.448,47.635],[7.454,47.641],[7.499,47.654],[7.524,47.646],[7.533,47.634],[7.509,47.63],[7.473,47.616]]]}},{"type":"Feature","properties":{"code":"68022","nom":"Battenheim","pop":1560},"geometry":{"type":"Polygon","coordinates":[[[7.461,47.807],[7.461,47.806],[7.378,47.808],[7.374,47.832],[7.427,47.834],[7.462,47.825],[7.461,47.807]]]}},{"type":"Feature","properties":{"code":"68023","nom":"Beblenheim","pop":928},"geometry":{"type":"Polygon","coordinates":[[[7.36,48.169],[7.354,48.148],[7.335,48.148],[7.319,48.157],[7.318,48.164],[7.36,48.169]]]}},{"type":"Feature","properties":{"code":"68024","nom":"Bellemagny","pop":147},"geometry":{"type":"Polygon","coordinates":[[[7.08,47.688],[7.071,47.686],[7.039,47.688],[7.036,47.692],[7.038,47.693],[7.058,47.697],[7.078,47.695],[7.08,47.688]]]}},{"type":"Feature","properties":{"code":"68025","nom":"Bendorf","pop":245},"geometry":{"type":"Polygon","coordinates":[[[7.31,47.493],[7.306,47.486],[7.276,47.473],[7.251,47.475],[7.256,47.489],[7.267,47.492],[7.287,47.497],[7.31,47.493]]]}},{"type":"Feature","properties":{"code":"68026","nom":"Bennwihr","pop":1326},"geometry":{"type":"Polygon","coordinates":[[[7.368,48.13],[7.349,48.125],[7.349,48.126],[7.304,48.144],[7.335,48.148],[7.354,48.148],[7.368,48.13]]]}},{"type":"Feature","properties":{"code":"68027","nom":"Berentzwiller","pop":339},"geometry":{"type":"Polygon","coordinates":[[[7.409,47.59],[7.41,47.59],[7.405,47.577],[7.386,47.568],[7.368,47.572],[7.366,47.573],[7.39,47.593],[7.409,47.59]]]}},{"type":"Feature","properties":{"code":"68028","nom":"Bergheim","pop":2069},"geometry":{"type":"Polygon","coordinates":[[[7.348,48.22],[7.383,48.219],[7.431,48.211],[7.383,48.204],[7.368,48.191],[7.328,48.213],[7.297,48.22],[7.302,48.244],[7.348,48.22]]]}},{"type":"Feature","properties":{"code":"68029","nom":"Bergholtz","pop":1039},"geometry":{"type":"Polygon","coordinates":[[[7.241,47.911],[7.22,47.922],[7.247,47.925],[7.26,47.93],[7.267,47.93],[7.27,47.919],[7.241,47.911]]]}},{"type":"Feature","properties":{"code":"68030","nom":"Bergholtzzell","pop":385},"geometry":{"type":"Polygon","coordinates":[[[7.206,47.933],[7.206,47.933],[7.247,47.925],[7.22,47.922],[7.211,47.927],[7.206,47.933]]]}},{"type":"Feature","properties":{"code":"68032","nom":"Berrwiller","pop":1294},"geometry":{"type":"Polygon","coordinates":[[[7.227,47.83],[7.224,47.829],[7.223,47.83],[7.19,47.85],[7.232,47.857],[7.227,47.83]]]}},{"type":"Feature","properties":{"code":"68033","nom":"Bettendorf","pop":469},"geometry":{"type":"Polygon","coordinates":[[[7.292,47.595],[7.297,47.595],[7.303,47.583],[7.272,47.564],[7.272,47.578],[7.288,47.595],[7.292,47.595]]]}},{"type":"Feature","properties":{"code":"68034","nom":"Bettlach","pop":300},"geometry":{"type":"Polygon","coordinates":[[[7.425,47.524],[7.437,47.523],[7.443,47.51],[7.437,47.508],[7.402,47.501],[7.425,47.524]]]}},{"type":"Feature","properties":{"code":"68035","nom":"Biederthal","pop":331},"geometry":{"type":"Polygon","coordinates":[[[7.42,47.478],[7.421,47.48],[7.43,47.459],[7.42,47.478]]]}},{"type":"Feature","properties":{"code":"68036","nom":"Biesheim","pop":2499},"geometry":{"type":"Polygon","coordinates":[[[7.503,48.068],[7.518,48.07],[7.573,48.06],[7.579,48.025],[7.566,48.028],[7.52,48.037],[7.505,48.044],[7.503,48.068]]]}},{"type":"Feature","properties":{"code":"68037","nom":"Biltzheim","pop":510},"geometry":{"type":"Polygon","coordinates":[[[7.335,47.962],[7.336,47.98],[7.43,47.944],[7.344,47.961],[7.335,47.962]]]}},{"type":"Feature","properties":{"code":"68038","nom":"Bischwihr","pop":1202},"geometry":{"type":"Polygon","coordinates":[[[7.433,48.085],[7.415,48.083],[7.417,48.099],[7.424,48.104],[7.447,48.105],[7.439,48.098],[7.433,48.085]]]}},{"type":"Feature","properties":{"code":"68039","nom":"Bisel","pop":537},"geometry":{"type":"Polygon","coordinates":[[[7.226,47.526],[7.207,47.523],[7.206,47.55],[7.211,47.555],[7.242,47.548],[7.244,47.537],[7.231,47.53],[7.226,47.526]]]}},{"type":"Feature","properties":{"code":"68040","nom":"Bitschwiller-lès-Thann","pop":1986},"geometry":{"type":"Polygon","coordinates":[[[7.116,47.848],[7.114,47.839],[7.051,47.808],[7.046,47.806],[7.026,47.824],[7.116,47.848]]]}},{"type":"Feature","properties":{"code":"68041","nom":"Blodelsheim","pop":1971},"geometry":{"type":"Polygon","coordinates":[[[7.488,47.865],[7.486,47.902],[7.582,47.898],[7.556,47.871],[7.488,47.865]]]}},{"type":"Feature","properties":{"code":"68042","nom":"Blotzheim","pop":5282},"geometry":{"type":"Polygon","coordinates":[[[7.459,47.608],[7.473,47.616],[7.509,47.63],[7.515,47.589],[7.482,47.581],[7.459,47.608]]]}},{"type":"Feature","properties":{"code":"68043","nom":"Bollwiller","pop":4184},"geometry":{"type":"Polygon","coordinates":[[[7.232,47.857],[7.232,47.858],[7.258,47.875],[7.271,47.872],[7.259,47.842],[7.227,47.83],[7.232,47.857]]]}},{"type":"Feature","properties":{"code":"68044","nom":"Le Bonhomme","pop":744},"geometry":{"type":"Polygon","coordinates":[[[7.078,48.171],[7.083,48.177],[7.106,48.194],[7.14,48.194],[7.117,48.154],[7.084,48.129],[7.058,48.138],[7.078,48.171]]]}},{"type":"Feature","properties":{"code":"68045","nom":"Bourbach-le-Bas","pop":556},"geometry":{"type":"Polygon","coordinates":[[[7.036,47.769],[7.026,47.779],[7.046,47.788],[7.064,47.779],[7.08,47.764],[7.072,47.762],[7.036,47.769]]]}},{"type":"Feature","properties":{"code":"68046","nom":"Bourbach-le-Haut","pop":408},"geometry":{"type":"Polygon","coordinates":[[[7.026,47.779],[7.013,47.796],[7.017,47.822],[7.026,47.824],[7.046,47.806],[7.046,47.788],[7.026,47.779]]]}},{"type":"Feature","properties":{"code":"68049","nom":"Bouxwiller","pop":424},"geometry":{"type":"Polygon","coordinates":[[[7.365,47.494],[7.365,47.494],[7.358,47.495],[7.325,47.491],[7.32,47.502],[7.323,47.512],[7.345,47.519],[7.36,47.508],[7.365,47.494]]]}},{"type":"Feature","properties":{"code":"68050","nom":"Bréchaumont","pop":407},"geometry":{"type":"Polygon","coordinates":[[[7.055,47.65],[7.053,47.649],[7.039,47.651],[7.041,47.672],[7.064,47.678],[7.077,47.676],[7.062,47.659],[7.055,47.65]]]}},{"type":"Feature","properties":{"code":"68051","nom":"Breitenbach-Haut-Rhin","pop":819},"geometry":{"type":"Polygon","coordinates":[[[7.089,48.038],[7.097,48.04],[7.119,48.017],[7.119,47.989],[7.087,48.008],[7.089,48.038]]]}},{"type":"Feature","properties":{"code":"68052","nom":"Bretten","pop":184},"geometry":{"type":"Polygon","coordinates":[[[7.068,47.715],[7.076,47.706],[7.078,47.695],[7.058,47.697],[7.047,47.721],[7.068,47.715]]]}},{"type":"Feature","properties":{"code":"68054","nom":"Brinckheim","pop":402},"geometry":{"type":"Polygon","coordinates":[[[7.473,47.616],[7.459,47.608],[7.456,47.608],[7.444,47.634],[7.448,47.635],[7.473,47.616]]]}},{"type":"Feature","properties":{"code":"68055","nom":"Bruebach","pop":1042},"geometry":{"type":"Polygon","coordinates":[[[7.358,47.72],[7.364,47.716],[7.374,47.707],[7.378,47.702],[7.372,47.69],[7.34,47.685],[7.337,47.699],[7.351,47.717],[7.358,47.72]]]}},{"type":"Feature","properties":{"code":"68056","nom":"Brunstatt-Didenheim","pop":8259},"geometry":{"type":"Polygon","coordinates":[[[7.313,47.701],[7.293,47.702],[7.276,47.72],[7.287,47.729],[7.323,47.734],[7.345,47.722],[7.351,47.717],[7.337,47.699],[7.313,47.701]]]}},{"type":"Feature","properties":{"code":"68057","nom":"Buethwiller","pop":240},"geometry":{"type":"Polygon","coordinates":[[[7.119,47.668],[7.125,47.676],[7.13,47.669],[7.165,47.657],[7.142,47.651],[7.125,47.654],[7.122,47.659],[7.119,47.668]]]}},{"type":"Feature","properties":{"code":"68058","nom":"Buhl","pop":3100},"geometry":{"type":"Polygon","coordinates":[[[7.177,47.91],[7.149,47.91],[7.156,47.93],[7.172,47.936],[7.206,47.933],[7.211,47.927],[7.177,47.91]]]}},{"type":"Feature","properties":{"code":"68059","nom":"Burnhaupt-le-Bas","pop":1969},"geometry":{"type":"Polygon","coordinates":[[[7.158,47.699],[7.115,47.71],[7.115,47.719],[7.145,47.719],[7.162,47.737],[7.19,47.731],[7.188,47.723],[7.158,47.699]]]}},{"type":"Feature","properties":{"code":"68060","nom":"Burnhaupt-le-Haut","pop":1793},"geometry":{"type":"Polygon","coordinates":[[[7.147,47.747],[7.162,47.737],[7.145,47.719],[7.115,47.719],[7.094,47.733],[7.126,47.751],[7.147,47.747]]]}},{"type":"Feature","properties":{"code":"68061","nom":"Buschwiller","pop":1047},"geometry":{"type":"Polygon","coordinates":[[[7.489,47.567],[7.513,47.57],[7.507,47.545],[7.504,47.543],[7.493,47.544],[7.483,47.56],[7.489,47.567]]]}},{"type":"Feature","properties":{"code":"68062","nom":"Carspach","pop":2091},"geometry":{"type":"Polygon","coordinates":[[[7.211,47.647],[7.231,47.633],[7.22,47.611],[7.185,47.596],[7.156,47.6],[7.183,47.627],[7.177,47.639],[7.189,47.644],[7.197,47.652],[7.206,47.649],[7.211,47.647]]]}},{"type":"Feature","properties":{"code":"68063","nom":"Cernay","pop":12057},"geometry":{"type":"Polygon","coordinates":[[[7.211,47.774],[7.183,47.769],[7.177,47.777],[7.153,47.789],[7.149,47.793],[7.139,47.808],[7.165,47.819],[7.204,47.81],[7.211,47.774]]]}},{"type":"Feature","properties":{"code":"68064","nom":"Chalampé","pop":996},"geometry":{"type":"Polygon","coordinates":[[[7.542,47.836],[7.563,47.852],[7.546,47.813],[7.542,47.836]]]}},{"type":"Feature","properties":{"code":"68065","nom":"Chavannes-sur-l'Étang","pop":652},"geometry":{"type":"Polygon","coordinates":[[[7.054,47.64],[7.042,47.635],[7.011,47.63],[7.017,47.645],[7.019,47.651],[7.039,47.651],[7.053,47.649],[7.054,47.64]]]}},{"type":"Feature","properties":{"code":"68066","nom":"Colmar","pop":66970},"geometry":{"type":"Polygon","coordinates":[[[7.329,48.114],[7.332,48.121],[7.349,48.126],[7.349,48.125],[7.388,48.125],[7.391,48.154],[7.39,48.174],[7.408,48.175],[7.443,48.181],[7.464,48.158],[7.467,48.143],[7.457,48.133],[7.431,48.14],[7.398,48.106],[7.388,48.068],[7.4,48.058],[7.372,48.042],[7.353,48.043],[7.323,48.06],[7.325,48.088],[7.329,48.114]]]}},{"type":"Feature","properties":{"code":"68067","nom":"Courtavon","pop":343},"geometry":{"type":"Polygon","coordinates":[[[7.203,47.491],[7.204,47.492],[7.23,47.467],[7.213,47.454],[7.178,47.458],[7.203,47.491]]]}},{"type":"Feature","properties":{"code":"68068","nom":"Dannemarie","pop":2248},"geometry":{"type":"Polygon","coordinates":[[[7.133,47.617],[7.111,47.613],[7.106,47.626],[7.109,47.633],[7.118,47.637],[7.143,47.629],[7.133,47.617]]]}},{"type":"Feature","properties":{"code":"68069","nom":"Dessenheim","pop":1442},"geometry":{"type":"Polygon","coordinates":[[[7.447,47.957],[7.449,47.975],[7.464,47.993],[7.466,47.994],[7.512,47.992],[7.519,47.977],[7.489,47.945],[7.447,47.957]]]}},{"type":"Feature","properties":{"code":"68071","nom":"Diefmatten","pop":307},"geometry":{"type":"Polygon","coordinates":[[[7.102,47.7],[7.076,47.706],[7.115,47.71],[7.123,47.701],[7.102,47.7]]]}},{"type":"Feature","properties":{"code":"68072","nom":"Dietwiller","pop":1385},"geometry":{"type":"Polygon","coordinates":[[[7.387,47.7],[7.413,47.709],[7.469,47.713],[7.472,47.704],[7.398,47.684],[7.387,47.7]]]}},{"type":"Feature","properties":{"code":"68073","nom":"Dolleren","pop":449},"geometry":{"type":"Polygon","coordinates":[[[6.908,47.778],[6.902,47.777],[6.892,47.779],[6.916,47.817],[6.946,47.803],[6.908,47.778]]]}},{"type":"Feature","properties":{"code":"68074","nom":"Durlinsdorf","pop":498},"geometry":{"type":"Polygon","coordinates":[[[7.256,47.489],[7.251,47.475],[7.246,47.473],[7.202,47.495],[7.234,47.508],[7.256,47.489]]]}},{"type":"Feature","properties":{"code":"68075","nom":"Durmenach","pop":836},"geometry":{"type":"Polygon","coordinates":[[[7.345,47.519],[7.323,47.512],[7.313,47.524],[7.352,47.539],[7.364,47.534],[7.345,47.519]]]}},{"type":"Feature","properties":{"code":"68076","nom":"Durrenentzen","pop":1062},"geometry":{"type":"Polygon","coordinates":[[[7.524,48.095],[7.515,48.074],[7.49,48.093],[7.495,48.108],[7.512,48.112],[7.518,48.104],[7.524,48.095]]]}},{"type":"Feature","properties":{"code":"68077","nom":"Eglingen","pop":358},"geometry":{"type":"Polygon","coordinates":[[[7.189,47.644],[7.167,47.658],[7.189,47.671],[7.197,47.652],[7.189,47.644]]]}},{"type":"Feature","properties":{"code":"68078","nom":"Eguisheim","pop":1729},"geometry":{"type":"Polygon","coordinates":[[[7.242,48.036],[7.255,48.041],[7.307,48.051],[7.35,48.04],[7.348,48.028],[7.295,48.029],[7.274,48.026],[7.242,48.036]],[[7.285,48.035],[7.277,48.04],[7.276,48.027],[7.285,48.035]]]}},{"type":"Feature","properties":{"code":"68079","nom":"Elbach","pop":277},"geometry":{"type":"Polygon","coordinates":[[[7.053,47.649],[7.055,47.65],[7.083,47.647],[7.088,47.64],[7.07,47.634],[7.054,47.64],[7.053,47.649]]]}},{"type":"Feature","properties":{"code":"68080","nom":"Emlingen","pop":307},"geometry":{"type":"Polygon","coordinates":[[[7.295,47.637],[7.301,47.634],[7.287,47.615],[7.281,47.632],[7.29,47.637],[7.295,47.637]]]}},{"type":"Feature","properties":{"code":"68081","nom":"Saint-Bernard","pop":607},"geometry":{"type":"Polygon","coordinates":[[[7.218,47.658],[7.206,47.649],[7.197,47.652],[7.189,47.671],[7.193,47.682],[7.2,47.682],[7.218,47.658]]]}},{"type":"Feature","properties":{"code":"68082","nom":"Ensisheim","pop":7306},"geometry":{"type":"Polygon","coordinates":[[[7.427,47.834],[7.374,47.832],[7.316,47.836],[7.315,47.856],[7.33,47.877],[7.408,47.873],[7.427,47.834]]]}},{"type":"Feature","properties":{"code":"68083","nom":"Eschbach-au-Val","pop":378},"geometry":{"type":"Polygon","coordinates":[[[7.158,48.03],[7.16,48.014],[7.138,48.005],[7.134,48.029],[7.158,48.03]]]}},{"type":"Feature","properties":{"code":"68084","nom":"Eschentzwiller","pop":1527},"geometry":{"type":"Polygon","coordinates":[[[7.387,47.7],[7.378,47.702],[7.374,47.707],[7.399,47.723],[7.413,47.709],[7.387,47.7]]]}},{"type":"Feature","properties":{"code":"68085","nom":"Eteimbes","pop":405},"geometry":{"type":"Polygon","coordinates":[[[7.038,47.693],[7.028,47.705],[7.038,47.722],[7.047,47.721],[7.058,47.697],[7.038,47.693]]]}},{"type":"Feature","properties":{"code":"68086","nom":"Falkwiller","pop":214},"geometry":{"type":"Polygon","coordinates":[[[7.105,47.685],[7.105,47.685],[7.13,47.69],[7.149,47.685],[7.13,47.669],[7.125,47.676],[7.105,47.685]]]}},{"type":"Feature","properties":{"code":"68087","nom":"Feldbach","pop":472},"geometry":{"type":"Polygon","coordinates":[[[7.231,47.53],[7.244,47.537],[7.256,47.547],[7.273,47.547],[7.274,47.527],[7.242,47.525],[7.231,47.53]]]}},{"type":"Feature","properties":{"code":"68088","nom":"Feldkirch","pop":1047},"geometry":{"type":"Polygon","coordinates":[[[7.291,47.876],[7.272,47.84],[7.259,47.842],[7.271,47.872],[7.291,47.876]]]}},{"type":"Feature","properties":{"code":"68089","nom":"Fellering","pop":1569},"geometry":{"type":"Polygon","coordinates":[[[7.043,47.935],[7.038,47.923],[7.006,47.918],[7.006,47.894],[6.974,47.89],[6.918,47.898],[6.912,47.918],[6.924,47.952],[6.948,47.918],[6.98,47.899],[7.007,47.927],[7.033,47.942],[7.043,47.935]]]}},{"type":"Feature","properties":{"code":"68090","nom":"Ferrette","pop":864},"geometry":{"type":"Polygon","coordinates":[[[7.31,47.493],[7.32,47.502],[7.325,47.491],[7.314,47.486],[7.306,47.486],[7.31,47.493]]]}},{"type":"Feature","properties":{"code":"68091","nom":"Fessenheim","pop":2345},"geometry":{"type":"Polygon","coordinates":[[[7.486,47.902],[7.48,47.902],[7.484,47.921],[7.581,47.921],[7.582,47.898],[7.486,47.902]]]}},{"type":"Feature","properties":{"code":"68092","nom":"Fislis","pop":396},"geometry":{"type":"Polygon","coordinates":[[[7.388,47.505],[7.365,47.494],[7.36,47.508],[7.385,47.529],[7.392,47.534],[7.407,47.526],[7.388,47.505]]]}},{"type":"Feature","properties":{"code":"68093","nom":"Flaxlanden","pop":1370},"geometry":{"type":"Polygon","coordinates":[[[7.329,47.678],[7.313,47.701],[7.337,47.699],[7.34,47.685],[7.329,47.678]]]}},{"type":"Feature","properties":{"code":"68094","nom":"Folgensbourg","pop":906},"geometry":{"type":"Polygon","coordinates":[[[7.423,47.527],[7.426,47.545],[7.453,47.554],[7.466,47.536],[7.447,47.53],[7.437,47.523],[7.425,47.524],[7.423,47.527]]]}},{"type":"Feature","properties":{"code":"68095","nom":"Fortschwihr","pop":1198},"geometry":{"type":"Polygon","coordinates":[[[7.459,48.066],[7.433,48.085],[7.439,48.098],[7.468,48.088],[7.468,48.078],[7.459,48.066]]]}},{"type":"Feature","properties":{"code":"68096","nom":"Franken","pop":354},"geometry":{"type":"Polygon","coordinates":[[[7.359,47.614],[7.369,47.609],[7.361,47.574],[7.357,47.572],[7.343,47.579],[7.349,47.614],[7.359,47.614]]]}},{"type":"Feature","properties":{"code":"68097","nom":"Fréland","pop":1288},"geometry":{"type":"Polygon","coordinates":[[[7.151,48.192],[7.189,48.21],[7.218,48.181],[7.209,48.154],[7.179,48.16],[7.151,48.192]]]}},{"type":"Feature","properties":{"code":"68098","nom":"Friesen","pop":651},"geometry":{"type":"Polygon","coordinates":[[[7.177,47.575],[7.176,47.558],[7.154,47.558],[7.132,47.54],[7.119,47.548],[7.147,47.573],[7.177,47.575]]]}},{"type":"Feature","properties":{"code":"68099","nom":"Frœningen","pop":881},"geometry":{"type":"Polygon","coordinates":[[[7.279,47.688],[7.24,47.695],[7.238,47.71],[7.284,47.696],[7.279,47.688]]]}},{"type":"Feature","properties":{"code":"68100","nom":"Fulleren","pop":331},"geometry":{"type":"Polygon","coordinates":[[[7.133,47.595],[7.139,47.601],[7.156,47.6],[7.185,47.596],[7.186,47.589],[7.146,47.582],[7.133,47.595]]]}},{"type":"Feature","properties":{"code":"68101","nom":"Galfingue","pop":803},"geometry":{"type":"Polygon","coordinates":[[[7.239,47.714],[7.238,47.71],[7.24,47.695],[7.238,47.691],[7.213,47.695],[7.198,47.712],[7.239,47.714]]]}},{"type":"Feature","properties":{"code":"68102","nom":"Geishouse","pop":424},"geometry":{"type":"Polygon","coordinates":[[[7.098,47.9],[7.081,47.882],[7.072,47.873],[7.047,47.874],[7.052,47.891],[7.079,47.903],[7.099,47.902],[7.098,47.9]]]}},{"type":"Feature","properties":{"code":"68103","nom":"Geispitzen","pop":516},"geometry":{"type":"Polygon","coordinates":[[[7.413,47.661],[7.398,47.665],[7.475,47.691],[7.477,47.687],[7.432,47.664],[7.413,47.661]]]}},{"type":"Feature","properties":{"code":"68104","nom":"Geiswasser","pop":341},"geometry":{"type":"Polygon","coordinates":[[[7.596,47.954],[7.599,47.97],[7.584,47.997],[7.586,47.999],[7.609,48],[7.621,47.97],[7.603,47.949],[7.596,47.954]]]}},{"type":"Feature","properties":{"code":"68105","nom":"Gildwiller","pop":261},"geometry":{"type":"Polygon","coordinates":[[[7.115,47.71],[7.158,47.699],[7.156,47.69],[7.149,47.685],[7.13,47.69],[7.123,47.701],[7.115,47.71],[7.115,47.71]]]}},{"type":"Feature","properties":{"code":"68106","nom":"Goldbach-Altenbach","pop":261},"geometry":{"type":"Polygon","coordinates":[[[7.081,47.882],[7.098,47.9],[7.129,47.887],[7.124,47.868],[7.095,47.861],[7.081,47.882]]]}},{"type":"Feature","properties":{"code":"68107","nom":"Gommersdorf","pop":406},"geometry":{"type":"Polygon","coordinates":[[[7.142,47.651],[7.147,47.636],[7.143,47.629],[7.118,47.637],[7.125,47.654],[7.142,47.651]]]}},{"type":"Feature","properties":{"code":"68109","nom":"Griesbach-au-Val","pop":678},"geometry":{"type":"Polygon","coordinates":[[[7.16,48.014],[7.158,48.03],[7.166,48.041],[7.185,48.042],[7.188,48.03],[7.171,48.015],[7.16,48.014]]]}},{"type":"Feature","properties":{"code":"68110","nom":"Grussenheim","pop":805},"geometry":{"type":"Polygon","coordinates":[[[7.464,48.158],[7.47,48.16],[7.52,48.149],[7.516,48.133],[7.467,48.143],[7.464,48.158]]]}},{"type":"Feature","properties":{"code":"68111","nom":"Gueberschwihr","pop":807},"geometry":{"type":"Polygon","coordinates":[[[7.215,48.017],[7.218,48.023],[7.279,48.015],[7.299,48.001],[7.259,47.993],[7.215,48.017]]]}},{"type":"Feature","properties":{"code":"68112","nom":"Guebwiller","pop":11243},"geometry":{"type":"Polygon","coordinates":[[[7.22,47.922],[7.241,47.911],[7.229,47.896],[7.205,47.896],[7.199,47.897],[7.177,47.91],[7.211,47.927],[7.22,47.922]]]}},{"type":"Feature","properties":{"code":"68113","nom":"Guémar","pop":1490},"geometry":{"type":"Polygon","coordinates":[[[7.39,48.174],[7.367,48.175],[7.367,48.185],[7.368,48.191],[7.383,48.204],[7.431,48.211],[7.435,48.218],[7.477,48.204],[7.473,48.198],[7.446,48.199],[7.408,48.175],[7.39,48.174]]]}},{"type":"Feature","properties":{"code":"68114","nom":"Guevenatten","pop":166},"geometry":{"type":"Polygon","coordinates":[[[7.105,47.685],[7.105,47.685],[7.077,47.676],[7.064,47.678],[7.071,47.686],[7.08,47.688],[7.104,47.687],[7.105,47.685]]]}},{"type":"Feature","properties":{"code":"68115","nom":"Guewenheim","pop":1368},"geometry":{"type":"Polygon","coordinates":[[[7.094,47.733],[7.083,47.734],[7.067,47.746],[7.072,47.762],[7.08,47.764],[7.092,47.762],[7.125,47.752],[7.126,47.751],[7.094,47.733]]]}},{"type":"Feature","properties":{"code":"68116","nom":"Gundolsheim","pop":735},"geometry":{"type":"Polygon","coordinates":[[[7.28,47.918],[7.27,47.919],[7.267,47.93],[7.291,47.942],[7.329,47.937],[7.333,47.922],[7.33,47.922],[7.28,47.918]]]}},{"type":"Feature","properties":{"code":"68117","nom":"Gunsbach","pop":856},"geometry":{"type":"Polygon","coordinates":[[[7.185,48.042],[7.166,48.041],[7.149,48.064],[7.15,48.079],[7.163,48.08],[7.185,48.042]]]}},{"type":"Feature","properties":{"code":"68118","nom":"Habsheim","pop":5076},"geometry":{"type":"Polygon","coordinates":[[[7.399,47.723],[7.397,47.73],[7.455,47.746],[7.456,47.744],[7.467,47.723],[7.469,47.713],[7.413,47.709],[7.399,47.723]]]}},{"type":"Feature","properties":{"code":"68119","nom":"Hagenbach","pop":772},"geometry":{"type":"Polygon","coordinates":[[[7.147,47.636],[7.142,47.651],[7.165,47.657],[7.167,47.658],[7.189,47.644],[7.177,47.639],[7.147,47.636]]]}},{"type":"Feature","properties":{"code":"68120","nom":"Hagenthal-le-Bas","pop":1418},"geometry":{"type":"Polygon","coordinates":[[[7.466,47.536],[7.493,47.544],[7.504,47.543],[7.499,47.535],[7.495,47.523],[7.471,47.512],[7.447,47.53],[7.466,47.536]]]}},{"type":"Feature","properties":{"code":"68121","nom":"Hagenthal-le-Haut","pop":766},"geometry":{"type":"Polygon","coordinates":[[[7.471,47.512],[7.461,47.509],[7.443,47.51],[7.437,47.523],[7.447,47.53],[7.471,47.512]]]}},{"type":"Feature","properties":{"code":"68122","nom":"Hartmannswiller","pop":654},"geometry":{"type":"Polygon","coordinates":[[[7.232,47.858],[7.232,47.857],[7.19,47.85],[7.161,47.861],[7.205,47.863],[7.215,47.872],[7.232,47.858]]]}},{"type":"Feature","properties":{"code":"68123","nom":"Hattstatt","pop":862},"geometry":{"type":"Polygon","coordinates":[[[7.294,48.018],[7.303,48.015],[7.323,48.007],[7.313,48.003],[7.299,48.001],[7.279,48.015],[7.218,48.023],[7.236,48.026],[7.294,48.018]]]}},{"type":"Feature","properties":{"code":"68124","nom":"Hausgauen","pop":369},"geometry":{"type":"Polygon","coordinates":[[[7.297,47.595],[7.292,47.595],[7.316,47.616],[7.317,47.616],[7.336,47.62],[7.338,47.617],[7.323,47.589],[7.297,47.595]]]}},{"type":"Feature","properties":{"code":"68125","nom":"Hecken","pop":527},"geometry":{"type":"Polygon","coordinates":[[[7.13,47.69],[7.105,47.685],[7.104,47.687],[7.102,47.7],[7.123,47.701],[7.13,47.69]]]}},{"type":"Feature","properties":{"code":"68126","nom":"Hégenheim","pop":3410},"geometry":{"type":"Polygon","coordinates":[[[7.513,47.57],[7.538,47.577],[7.552,47.563],[7.507,47.545],[7.513,47.57]]]}},{"type":"Feature","properties":{"code":"68127","nom":"Heidwiller","pop":641},"geometry":{"type":"Polygon","coordinates":[[[7.246,47.67],[7.255,47.661],[7.245,47.651],[7.211,47.647],[7.206,47.649],[7.218,47.658],[7.246,47.67]]]}},{"type":"Feature","properties":{"code":"68128","nom":"Heimersdorf","pop":645},"geometry":{"type":"Polygon","coordinates":[[[7.261,47.572],[7.242,47.548],[7.211,47.555],[7.208,47.563],[7.241,47.578],[7.261,47.572]]]}},{"type":"Feature","properties":{"code":"68129","nom":"Heimsbrunn","pop":1314},"geometry":{"type":"Polygon","coordinates":[[[7.19,47.731],[7.209,47.735],[7.24,47.74],[7.251,47.722],[7.239,47.714],[7.198,47.712],[7.188,47.723],[7.19,47.731]]]}},{"type":"Feature","properties":{"code":"68130","nom":"Heiteren","pop":1069},"geometry":{"type":"Polygon","coordinates":[[[7.599,47.97],[7.596,47.954],[7.525,47.945],[7.489,47.945],[7.519,47.977],[7.599,47.97]]]}},{"type":"Feature","properties":{"code":"68131","nom":"Heiwiller","pop":190},"geometry":{"type":"Polygon","coordinates":[[[7.326,47.634],[7.336,47.62],[7.317,47.616],[7.314,47.627],[7.326,47.634]]]}},{"type":"Feature","properties":{"code":"68132","nom":"Helfrantzkirch","pop":737},"geometry":{"type":"Polygon","coordinates":[[[7.433,47.596],[7.426,47.594],[7.41,47.59],[7.409,47.59],[7.39,47.61],[7.39,47.611],[7.397,47.613],[7.428,47.617],[7.433,47.596]]]}},{"type":"Feature","properties":{"code":"68134","nom":"Herrlisheim-près-Colmar","pop":1911},"geometry":{"type":"Polygon","coordinates":[[[7.343,48.005],[7.323,48.007],[7.303,48.015],[7.295,48.029],[7.348,48.028],[7.346,48.017],[7.343,48.005]]]}},{"type":"Feature","properties":{"code":"68135","nom":"Hésingue","pop":2972},"geometry":{"type":"Polygon","coordinates":[[[7.477,47.578],[7.482,47.581],[7.515,47.589],[7.538,47.577],[7.513,47.57],[7.489,47.567],[7.477,47.578]]]}},{"type":"Feature","properties":{"code":"68136","nom":"Hettenschlag","pop":357},"geometry":{"type":"Polygon","coordinates":[[[7.464,47.993],[7.425,48.011],[7.437,48.015],[7.477,48.021],[7.491,48.015],[7.466,47.994],[7.464,47.993]]]}},{"type":"Feature","properties":{"code":"68137","nom":"Hindlingen","pop":646},"geometry":{"type":"Polygon","coordinates":[[[7.186,47.577],[7.177,47.575],[7.147,47.573],[7.119,47.548],[7.106,47.552],[7.108,47.559],[7.135,47.58],[7.146,47.582],[7.186,47.589],[7.186,47.577]]]}},{"type":"Feature","properties":{"code":"68138","nom":"Hirsingue","pop":2122},"geometry":{"type":"Polygon","coordinates":[[[7.286,47.607],[7.288,47.595],[7.272,47.578],[7.261,47.572],[7.241,47.578],[7.208,47.563],[7.208,47.566],[7.237,47.603],[7.251,47.608],[7.286,47.607]]]}},{"type":"Feature","properties":{"code":"68139","nom":"Hirtzbach","pop":1418},"geometry":{"type":"Polygon","coordinates":[[[7.22,47.611],[7.237,47.603],[7.208,47.566],[7.186,47.577],[7.186,47.589],[7.185,47.596],[7.22,47.611]]]}},{"type":"Feature","properties":{"code":"68140","nom":"Hirtzfelden","pop":1259},"geometry":{"type":"Polygon","coordinates":[[[7.436,47.934],[7.484,47.924],[7.484,47.921],[7.48,47.902],[7.45,47.884],[7.423,47.885],[7.416,47.904],[7.417,47.923],[7.427,47.93],[7.436,47.934]]]}},{"type":"Feature","properties":{"code":"68141","nom":"Hochstatt","pop":2173},"geometry":{"type":"Polygon","coordinates":[[[7.238,47.71],[7.239,47.714],[7.251,47.722],[7.276,47.72],[7.293,47.702],[7.284,47.696],[7.238,47.71]]]}},{"type":"Feature","properties":{"code":"68142","nom":"Hohrod","pop":349},"geometry":{"type":"Polygon","coordinates":[[[7.15,48.079],[7.149,48.064],[7.119,48.049],[7.117,48.063],[7.133,48.078],[7.15,48.079]]]}},{"type":"Feature","properties":{"code":"68143","nom":"Porte du Ried","pop":1971},"geometry":{"type":"Polygon","coordinates":[[[7.417,48.099],[7.398,48.106],[7.431,48.14],[7.457,48.133],[7.446,48.121],[7.424,48.104],[7.417,48.099]]]}},{"type":"Feature","properties":{"code":"68144","nom":"Hombourg","pop":1358},"geometry":{"type":"Polygon","coordinates":[[[7.455,47.746],[7.446,47.764],[7.501,47.77],[7.533,47.767],[7.54,47.755],[7.522,47.748],[7.456,47.744],[7.455,47.746]]]}},{"type":"Feature","properties":{"code":"68145","nom":"Horbourg-Wihr","pop":6199},"geometry":{"type":"Polygon","coordinates":[[[7.411,48.059],[7.4,48.058],[7.388,48.068],[7.398,48.106],[7.417,48.099],[7.415,48.083],[7.411,48.059]]]}},{"type":"Feature","properties":{"code":"68146","nom":"Houssen","pop":2323},"geometry":{"type":"Polygon","coordinates":[[[7.349,48.125],[7.368,48.13],[7.391,48.154],[7.388,48.125],[7.349,48.125]]]}},{"type":"Feature","properties":{"code":"68147","nom":"Hunawihr","pop":555},"geometry":{"type":"Polygon","coordinates":[[[7.277,48.194],[7.323,48.19],[7.324,48.174],[7.302,48.172],[7.277,48.194]]]}},{"type":"Feature","properties":{"code":"68148","nom":"Hundsbach","pop":357},"geometry":{"type":"Polygon","coordinates":[[[7.338,47.617],[7.349,47.614],[7.343,47.579],[7.323,47.589],[7.338,47.617]]]}},{"type":"Feature","properties":{"code":"68149","nom":"Huningue","pop":7487},"geometry":{"type":"Polygon","coordinates":[[[7.593,47.599],[7.575,47.576],[7.566,47.592],[7.593,47.599]]]}},{"type":"Feature","properties":{"code":"68150","nom":"Husseren-les-Châteaux","pop":502},"geometry":{"type":"Polygon","coordinates":[[[7.285,48.035],[7.276,48.027],[7.277,48.04],[7.285,48.035]]]}},{"type":"Feature","properties":{"code":"68151","nom":"Husseren-Wesserling","pop":1022},"geometry":{"type":"Polygon","coordinates":[[[6.967,47.88],[6.964,47.884],[6.974,47.89],[7.006,47.894],[7.005,47.879],[6.981,47.86],[6.967,47.88]]]}},{"type":"Feature","properties":{"code":"68152","nom":"Illfurth","pop":2445},"geometry":{"type":"Polygon","coordinates":[[[7.255,47.661],[7.246,47.67],[7.238,47.691],[7.24,47.695],[7.279,47.688],[7.306,47.672],[7.277,47.662],[7.255,47.661]]]}},{"type":"Feature","properties":{"code":"68153","nom":"Illhaeusern","pop":717},"geometry":{"type":"Polygon","coordinates":[[[7.464,48.158],[7.443,48.181],[7.408,48.175],[7.446,48.199],[7.473,48.198],[7.473,48.182],[7.47,48.16],[7.464,48.158]]]}},{"type":"Feature","properties":{"code":"68154","nom":"Illzach","pop":14923},"geometry":{"type":"Polygon","coordinates":[[[7.38,47.758],[7.369,47.76],[7.339,47.783],[7.349,47.798],[7.354,47.799],[7.356,47.781],[7.393,47.773],[7.38,47.758]]]}},{"type":"Feature","properties":{"code":"68155","nom":"Ingersheim","pop":4774},"geometry":{"type":"Polygon","coordinates":[[[7.302,48.116],[7.329,48.114],[7.325,48.088],[7.304,48.089],[7.288,48.095],[7.302,48.116]]]}},{"type":"Feature","properties":{"code":"68156","nom":"Issenheim","pop":3502},"geometry":{"type":"Polygon","coordinates":[[[7.27,47.919],[7.28,47.918],[7.278,47.895],[7.257,47.89],[7.229,47.896],[7.241,47.911],[7.27,47.919]]]}},{"type":"Feature","properties":{"code":"68157","nom":"Jebsheim","pop":1360},"geometry":{"type":"Polygon","coordinates":[[[7.446,48.121],[7.457,48.133],[7.467,48.143],[7.516,48.133],[7.519,48.128],[7.512,48.112],[7.495,48.108],[7.452,48.11],[7.446,48.121]]]}},{"type":"Feature","properties":{"code":"68158","nom":"Jettingen","pop":522},"geometry":{"type":"Polygon","coordinates":[[[7.366,47.573],[7.361,47.574],[7.369,47.609],[7.39,47.61],[7.409,47.59],[7.39,47.593],[7.366,47.573]]]}},{"type":"Feature","properties":{"code":"68159","nom":"Jungholtz","pop":897},"geometry":{"type":"Polygon","coordinates":[[[7.199,47.897],[7.205,47.896],[7.21,47.879],[7.2,47.878],[7.159,47.896],[7.182,47.9],[7.199,47.897]]]}},{"type":"Feature","properties":{"code":"68160","nom":"Kappelen","pop":573},"geometry":{"type":"Polygon","coordinates":[[[7.446,47.6],[7.433,47.596],[7.428,47.617],[7.437,47.633],[7.444,47.634],[7.456,47.608],[7.446,47.6]]]}},{"type":"Feature","properties":{"code":"68161","nom":"Katzenthal","pop":506},"geometry":{"type":"Polygon","coordinates":[[[7.288,48.095],[7.278,48.095],[7.251,48.108],[7.302,48.116],[7.288,48.095]]]}},{"type":"Feature","properties":{"code":"68162","nom":"Kaysersberg Vignoble","pop":4383},"geometry":{"type":"Polygon","coordinates":[[[7.218,48.181],[7.219,48.181],[7.258,48.181],[7.292,48.153],[7.304,48.144],[7.349,48.126],[7.332,48.121],[7.269,48.135],[7.202,48.125],[7.206,48.143],[7.209,48.154],[7.218,48.181]]]}},{"type":"Feature","properties":{"code":"68163","nom":"Kembs","pop":5834},"geometry":{"type":"Polygon","coordinates":[[[7.524,47.661],[7.524,47.646],[7.499,47.654],[7.477,47.687],[7.475,47.691],[7.472,47.704],[7.514,47.703],[7.524,47.661]]]}},{"type":"Feature","properties":{"code":"68165","nom":"Kiffis","pop":238},"geometry":{"type":"Polygon","coordinates":[[[7.316,47.449],[7.318,47.449],[7.325,47.453],[7.339,47.453],[7.377,47.443],[7.4,47.436],[7.325,47.439],[7.316,47.449]]]}},{"type":"Feature","properties":{"code":"68166","nom":"Kingersheim","pop":13354},"geometry":{"type":"Polygon","coordinates":[[[7.312,47.777],[7.309,47.778],[7.275,47.791],[7.349,47.798],[7.339,47.783],[7.312,47.777]]]}},{"type":"Feature","properties":{"code":"68167","nom":"Kirchberg","pop":717},"geometry":{"type":"Polygon","coordinates":[[[6.922,47.772],[6.908,47.778],[6.946,47.803],[6.971,47.797],[6.969,47.789],[6.922,47.772]]]}},{"type":"Feature","properties":{"code":"68168","nom":"Knœringue","pop":381},"geometry":{"type":"Polygon","coordinates":[[[7.418,47.554],[7.396,47.554],[7.386,47.568],[7.405,47.577],[7.415,47.568],[7.418,47.554]]]}},{"type":"Feature","properties":{"code":"68169","nom":"Kœstlach","pop":505},"geometry":{"type":"Polygon","coordinates":[[[7.267,47.492],[7.242,47.525],[7.274,47.527],[7.291,47.518],[7.287,47.497],[7.267,47.492]]]}},{"type":"Feature","properties":{"code":"68170","nom":"Kœtzingue","pop":585},"geometry":{"type":"Polygon","coordinates":[[[7.395,47.664],[7.398,47.665],[7.413,47.661],[7.41,47.649],[7.396,47.641],[7.382,47.63],[7.369,47.633],[7.384,47.661],[7.395,47.664]]]}},{"type":"Feature","properties":{"code":"68171","nom":"Kruth","pop":856},"geometry":{"type":"Polygon","coordinates":[[[6.983,47.982],[6.995,47.968],[6.994,47.939],[6.967,47.918],[6.948,47.918],[6.924,47.952],[6.926,47.959],[6.944,47.98],[6.983,47.982]]]}},{"type":"Feature","properties":{"code":"68172","nom":"Kunheim","pop":1822},"geometry":{"type":"Polygon","coordinates":[[[7.518,48.07],[7.515,48.074],[7.524,48.095],[7.574,48.091],[7.573,48.06],[7.518,48.07]]]}},{"type":"Feature","properties":{"code":"68173","nom":"Labaroche","pop":2231},"geometry":{"type":"Polygon","coordinates":[[[7.192,48.136],[7.206,48.143],[7.202,48.125],[7.219,48.098],[7.196,48.084],[7.186,48.085],[7.163,48.08],[7.176,48.083],[7.179,48.119],[7.192,48.136]]]}},{"type":"Feature","properties":{"code":"68174","nom":"Landser","pop":1633},"geometry":{"type":"Polygon","coordinates":[[[7.378,47.702],[7.387,47.7],[7.398,47.684],[7.388,47.673],[7.372,47.69],[7.378,47.702]]]}},{"type":"Feature","properties":{"code":"68175","nom":"Lapoutroie","pop":1881},"geometry":{"type":"Polygon","coordinates":[[[7.209,48.154],[7.206,48.143],[7.192,48.136],[7.15,48.137],[7.117,48.154],[7.14,48.194],[7.151,48.192],[7.179,48.16],[7.209,48.154]]]}},{"type":"Feature","properties":{"code":"68176","nom":"Largitzen","pop":352},"geometry":{"type":"Polygon","coordinates":[[[7.177,47.575],[7.186,47.577],[7.208,47.566],[7.208,47.563],[7.211,47.555],[7.206,47.55],[7.197,47.548],[7.176,47.555],[7.176,47.558],[7.177,47.575]]]}},{"type":"Feature","properties":{"code":"68177","nom":"Lautenbach","pop":1544},"geometry":{"type":"Polygon","coordinates":[[[7.134,47.977],[7.148,47.976],[7.174,47.958],[7.207,47.944],[7.206,47.933],[7.206,47.933],[7.172,47.936],[7.143,47.945],[7.134,47.977]]]}},{"type":"Feature","properties":{"code":"68178","nom":"Lautenbachzell","pop":942},"geometry":{"type":"Polygon","coordinates":[[[7.099,47.902],[7.079,47.903],[7.051,47.911],[7.038,47.923],[7.043,47.935],[7.089,47.934],[7.143,47.945],[7.172,47.936],[7.156,47.93],[7.107,47.92],[7.099,47.902],[7.099,47.902]]]}},{"type":"Feature","properties":{"code":"68179","nom":"Lauw","pop":887},"geometry":{"type":"Polygon","coordinates":[[[7.026,47.779],[7.036,47.769],[7.029,47.75],[7.022,47.747],[7.026,47.779]]]}},{"type":"Feature","properties":{"code":"68180","nom":"Leimbach","pop":928},"geometry":{"type":"Polygon","coordinates":[[[7.112,47.794],[7.117,47.79],[7.115,47.786],[7.076,47.801],[7.112,47.794]]]}},{"type":"Feature","properties":{"code":"68181","nom":"Levoncourt","pop":250},"geometry":{"type":"Polygon","coordinates":[[[7.178,47.458],[7.213,47.454],[7.206,47.436],[7.178,47.458]]]}},{"type":"Feature","properties":{"code":"68182","nom":"Leymen","pop":1271},"geometry":{"type":"Polygon","coordinates":[[[7.461,47.509],[7.471,47.512],[7.495,47.523],[7.498,47.521],[7.511,47.497],[7.488,47.482],[7.455,47.489],[7.461,47.509]]]}},{"type":"Feature","properties":{"code":"68183","nom":"Liebenswiller","pop":191},"geometry":{"type":"Polygon","coordinates":[[[7.437,47.508],[7.443,47.51],[7.461,47.509],[7.455,47.489],[7.435,47.498],[7.437,47.508]]]}},{"type":"Feature","properties":{"code":"68184","nom":"Liebsdorf","pop":286},"geometry":{"type":"Polygon","coordinates":[[[7.204,47.492],[7.202,47.495],[7.246,47.473],[7.243,47.472],[7.23,47.467],[7.204,47.492]]]}},{"type":"Feature","properties":{"code":"68185","nom":"Lièpvre","pop":1632},"geometry":{"type":"Polygon","coordinates":[[[7.334,48.272],[7.332,48.27],[7.314,48.264],[7.261,48.253],[7.258,48.24],[7.256,48.236],[7.241,48.277],[7.271,48.276],[7.291,48.291],[7.297,48.268],[7.334,48.272]]]}},{"type":"Feature","properties":{"code":"68186","nom":"Ligsdorf","pop":317},"geometry":{"type":"Polygon","coordinates":[[[7.318,47.449],[7.316,47.449],[7.28,47.449],[7.276,47.473],[7.306,47.486],[7.314,47.486],[7.318,47.449]]]}},{"type":"Feature","properties":{"code":"68187","nom":"Linsdorf","pop":334},"geometry":{"type":"Polygon","coordinates":[[[7.423,47.527],[7.425,47.524],[7.402,47.501],[7.388,47.505],[7.407,47.526],[7.423,47.527]]]}},{"type":"Feature","properties":{"code":"68188","nom":"Linthal","pop":586},"geometry":{"type":"Polygon","coordinates":[[[7.126,47.981],[7.129,47.981],[7.134,47.977],[7.143,47.945],[7.089,47.934],[7.043,47.935],[7.033,47.942],[7.029,47.948],[7.037,47.953],[7.053,47.948],[7.126,47.981]]]}},{"type":"Feature","properties":{"code":"68189","nom":"Logelheim","pop":950},"geometry":{"type":"Polygon","coordinates":[[[7.409,48.031],[7.43,48.032],[7.437,48.015],[7.425,48.011],[7.409,48.031]]]}},{"type":"Feature","properties":{"code":"68190","nom":"Lucelle","pop":29},"geometry":{"type":"Polygon","coordinates":[[[7.28,47.449],[7.316,47.449],[7.325,47.439],[7.255,47.425],[7.236,47.437],[7.252,47.443],[7.28,47.449]]]}},{"type":"Feature","properties":{"code":"68191","nom":"Luemschwiller","pop":746},"geometry":{"type":"Polygon","coordinates":[[[7.306,47.672],[7.321,47.668],[7.317,47.656],[7.295,47.637],[7.29,47.637],[7.279,47.649],[7.277,47.662],[7.306,47.672]]]}},{"type":"Feature","properties":{"code":"68192","nom":"Valdieu-Lutran","pop":421},"geometry":{"type":"Polygon","coordinates":[[[7.042,47.635],[7.054,47.64],[7.07,47.634],[7.075,47.619],[7.05,47.615],[7.035,47.621],[7.042,47.635]]]}},{"type":"Feature","properties":{"code":"68193","nom":"Luttenbach-près-Munster","pop":756},"geometry":{"type":"Polygon","coordinates":[[[7.129,47.981],[7.126,47.981],[7.119,47.989],[7.119,48.017],[7.097,48.04],[7.134,48.029],[7.138,48.005],[7.129,47.981]]]}},{"type":"Feature","properties":{"code":"68194","nom":"Lutter","pop":291},"geometry":{"type":"Polygon","coordinates":[[[7.339,47.453],[7.38,47.476],[7.397,47.47],[7.377,47.443],[7.339,47.453]]]}},{"type":"Feature","properties":{"code":"68195","nom":"Lutterbach","pop":6851},"geometry":{"type":"Polygon","coordinates":[[[7.239,47.77],[7.253,47.772],[7.29,47.776],[7.298,47.755],[7.283,47.746],[7.259,47.747],[7.239,47.77]]]}},{"type":"Feature","properties":{"code":"68196","nom":"Magny","pop":286},"geometry":{"type":"Polygon","coordinates":[[[7.074,47.599],[7.025,47.593],[7.029,47.618],[7.035,47.621],[7.05,47.615],[7.074,47.599]]]}},{"type":"Feature","properties":{"code":"68197","nom":"Magstatt-le-Bas","pop":517},"geometry":{"type":"Polygon","coordinates":[[[7.421,47.648],[7.428,47.635],[7.408,47.625],[7.396,47.641],[7.41,47.649],[7.421,47.648]]]}},{"type":"Feature","properties":{"code":"68198","nom":"Magstatt-le-Haut","pop":315},"geometry":{"type":"Polygon","coordinates":[[[7.397,47.613],[7.39,47.611],[7.382,47.63],[7.396,47.641],[7.408,47.625],[7.397,47.613]]]}},{"type":"Feature","properties":{"code":"68199","nom":"Malmerspach","pop":475},"geometry":{"type":"Polygon","coordinates":[[[7.008,47.853],[7.013,47.863],[7.044,47.866],[7.008,47.853]]]}},{"type":"Feature","properties":{"code":"68200","nom":"Manspach","pop":544},"geometry":{"type":"Polygon","coordinates":[[[7.078,47.597],[7.074,47.599],[7.079,47.618],[7.106,47.626],[7.111,47.613],[7.078,47.597]]]}},{"type":"Feature","properties":{"code":"68201","nom":"Masevaux-Niederbruck","pop":3594},"geometry":{"type":"Polygon","coordinates":[[[7.022,47.747],[7.016,47.744],[6.999,47.746],[6.923,47.772],[6.922,47.772],[6.969,47.789],[6.988,47.806],[7.009,47.821],[7.017,47.822],[7.013,47.796],[7.026,47.779],[7.022,47.747]]]}},{"type":"Feature","properties":{"code":"68202","nom":"Mertzen","pop":200},"geometry":{"type":"Polygon","coordinates":[[[7.135,47.58],[7.109,47.582],[7.133,47.595],[7.146,47.582],[7.135,47.58]]]}},{"type":"Feature","properties":{"code":"68203","nom":"Merxheim","pop":1396},"geometry":{"type":"Polygon","coordinates":[[[7.33,47.922],[7.328,47.911],[7.317,47.901],[7.298,47.895],[7.278,47.895],[7.28,47.918],[7.33,47.922]]]}},{"type":"Feature","properties":{"code":"68204","nom":"Metzeral","pop":1058},"geometry":{"type":"Polygon","coordinates":[[[6.995,47.968],[6.983,47.982],[6.982,48.01],[7.016,48.037],[7.034,48.036],[7.087,48.008],[7.049,47.991],[7.011,48.023],[6.997,48.001],[7.041,47.967],[7.037,47.953],[7.029,47.948],[6.995,47.968]]]}},{"type":"Feature","properties":{"code":"68205","nom":"Meyenheim","pop":2015},"geometry":{"type":"Polygon","coordinates":[[[7.416,47.904],[7.328,47.911],[7.33,47.922],[7.333,47.922],[7.371,47.928],[7.417,47.923],[7.416,47.904]]]}},{"type":"Feature","properties":{"code":"68207","nom":"Michelbach-le-Bas","pop":722},"geometry":{"type":"Polygon","coordinates":[[[7.482,47.581],[7.477,47.578],[7.47,47.578],[7.446,47.6],[7.456,47.608],[7.459,47.608],[7.482,47.581]]]}},{"type":"Feature","properties":{"code":"68208","nom":"Michelbach-le-Haut","pop":636},"geometry":{"type":"Polygon","coordinates":[[[7.426,47.545],[7.418,47.554],[7.415,47.568],[7.438,47.577],[7.449,47.579],[7.46,47.554],[7.453,47.554],[7.426,47.545]]]}},{"type":"Feature","properties":{"code":"68209","nom":"Mittelwihr","pop":853},"geometry":{"type":"Polygon","coordinates":[[[7.335,48.148],[7.304,48.144],[7.292,48.153],[7.319,48.157],[7.335,48.148]]]}},{"type":"Feature","properties":{"code":"68210","nom":"Mittlach","pop":339},"geometry":{"type":"Polygon","coordinates":[[[7.041,47.967],[6.997,48.001],[7.011,48.023],[7.049,47.991],[7.041,47.967]]]}},{"type":"Feature","properties":{"code":"68211","nom":"Mitzach","pop":374},"geometry":{"type":"Polygon","coordinates":[[[6.988,47.842],[6.984,47.843],[6.981,47.86],[7.005,47.879],[7.014,47.877],[7.013,47.863],[7.008,47.853],[6.988,47.842]]]}},{"type":"Feature","properties":{"code":"68212","nom":"Mœrnach","pop":518},"geometry":{"type":"Polygon","coordinates":[[[7.226,47.526],[7.231,47.53],[7.242,47.525],[7.267,47.492],[7.256,47.489],[7.234,47.508],[7.226,47.526]]]}},{"type":"Feature","properties":{"code":"68213","nom":"Mollau","pop":331},"geometry":{"type":"Polygon","coordinates":[[[6.984,47.843],[6.94,47.851],[6.967,47.88],[6.981,47.86],[6.984,47.843]]]}},{"type":"Feature","properties":{"code":"68214","nom":"Montreux-Jeune","pop":368},"geometry":{"type":"Polygon","coordinates":[[[7.01,47.605],[7.029,47.618],[7.025,47.593],[7.02,47.589],[7.009,47.6],[7.01,47.605]]]}},{"type":"Feature","properties":{"code":"68215","nom":"Montreux-Vieux","pop":928},"geometry":{"type":"Polygon","coordinates":[[[7.005,47.62],[7.007,47.626],[7.011,47.63],[7.042,47.635],[7.035,47.621],[7.029,47.618],[7.01,47.605],[7.005,47.62]]]}},{"type":"Feature","properties":{"code":"68216","nom":"Mooslargue","pop":401},"geometry":{"type":"Polygon","coordinates":[[[7.207,47.523],[7.226,47.526],[7.234,47.508],[7.202,47.495],[7.196,47.515],[7.207,47.523]]]}},{"type":"Feature","properties":{"code":"68217","nom":"Moosch","pop":1595},"geometry":{"type":"Polygon","coordinates":[[[7.072,47.873],[7.052,47.844],[7.026,47.824],[7.017,47.822],[7.009,47.821],[6.99,47.835],[6.988,47.842],[7.008,47.853],[7.044,47.866],[7.047,47.874],[7.072,47.873]]]}},{"type":"Feature","properties":{"code":"68218","nom":"Morschwiller-le-Bas","pop":3694},"geometry":{"type":"Polygon","coordinates":[[[7.276,47.72],[7.251,47.722],[7.24,47.74],[7.259,47.747],[7.283,47.746],[7.287,47.729],[7.276,47.72]]]}},{"type":"Feature","properties":{"code":"68219","nom":"Le Haut Soultzbach","pop":879},"geometry":{"type":"Polygon","coordinates":[[[7.021,47.735],[7.016,47.744],[7.022,47.747],[7.029,47.75],[7.067,47.746],[7.083,47.734],[7.068,47.715],[7.047,47.721],[7.038,47.722],[7.032,47.726],[7.021,47.735]]]}},{"type":"Feature","properties":{"code":"68221","nom":"Muespach","pop":942},"geometry":{"type":"Polygon","coordinates":[[[7.386,47.568],[7.396,47.554],[7.392,47.534],[7.385,47.529],[7.364,47.534],[7.352,47.539],[7.35,47.545],[7.368,47.572],[7.386,47.568]]]}},{"type":"Feature","properties":{"code":"68222","nom":"Muespach-le-Haut","pop":1178},"geometry":{"type":"Polygon","coordinates":[[[7.426,47.545],[7.423,47.527],[7.407,47.526],[7.392,47.534],[7.396,47.554],[7.418,47.554],[7.426,47.545]]]}},{"type":"Feature","properties":{"code":"68223","nom":"Muhlbach-sur-Munster","pop":818},"geometry":{"type":"Polygon","coordinates":[[[7.089,48.038],[7.087,48.008],[7.034,48.036],[7.089,48.038]]]}},{"type":"Feature","properties":{"code":"68224","nom":"Mulhouse","pop":104978},"geometry":{"type":"Polygon","coordinates":[[[7.345,47.722],[7.323,47.734],[7.287,47.729],[7.283,47.746],[7.298,47.755],[7.312,47.777],[7.339,47.783],[7.369,47.76],[7.345,47.722]]]}},{"type":"Feature","properties":{"code":"68225","nom":"Munchhouse","pop":1518},"geometry":{"type":"Polygon","coordinates":[[[7.462,47.825],[7.427,47.834],[7.408,47.873],[7.423,47.885],[7.45,47.884],[7.487,47.861],[7.47,47.836],[7.462,47.825]]]}},{"type":"Feature","properties":{"code":"68226","nom":"Munster","pop":4738},"geometry":{"type":"Polygon","coordinates":[[[7.166,48.041],[7.158,48.03],[7.134,48.029],[7.097,48.04],[7.119,48.049],[7.149,48.064],[7.166,48.041]]]}},{"type":"Feature","properties":{"code":"68227","nom":"Muntzenheim","pop":1288},"geometry":{"type":"Polygon","coordinates":[[[7.468,48.088],[7.439,48.098],[7.447,48.105],[7.452,48.11],[7.495,48.108],[7.49,48.093],[7.468,48.088]]]}},{"type":"Feature","properties":{"code":"68228","nom":"Munwiller","pop":461},"geometry":{"type":"Polygon","coordinates":[[[7.343,47.948],[7.371,47.928],[7.333,47.922],[7.329,47.937],[7.343,47.948]]]}},{"type":"Feature","properties":{"code":"68229","nom":"Murbach","pop":164},"geometry":{"type":"Polygon","coordinates":[[[7.149,47.91],[7.113,47.909],[7.099,47.902],[7.107,47.92],[7.156,47.93],[7.149,47.91]]]}},{"type":"Feature","properties":{"code":"68230","nom":"Nambsheim","pop":576},"geometry":{"type":"Polygon","coordinates":[[[7.523,47.941],[7.525,47.945],[7.596,47.954],[7.603,47.949],[7.583,47.93],[7.523,47.941]]]}},{"type":"Feature","properties":{"code":"68231","nom":"Neuf-Brisach","pop":1895},"geometry":{"type":"Polygon","coordinates":[[[7.52,48.021],[7.52,48.023],[7.533,48.022],[7.535,48.014],[7.527,48.011],[7.52,48.021]]]}},{"type":"Feature","properties":{"code":"68232","nom":"Neuwiller","pop":525},"geometry":{"type":"Polygon","coordinates":[[[7.495,47.523],[7.499,47.535],[7.498,47.521],[7.495,47.523]]]}},{"type":"Feature","properties":{"code":"68234","nom":"Niederentzen","pop":857},"geometry":{"type":"Polygon","coordinates":[[[7.43,47.944],[7.44,47.943],[7.436,47.934],[7.427,47.93],[7.346,47.954],[7.344,47.961],[7.43,47.944]]]}},{"type":"Feature","properties":{"code":"68235","nom":"Niederhergheim","pop":1176},"geometry":{"type":"Polygon","coordinates":[[[7.343,48.005],[7.346,48.017],[7.371,47.995],[7.406,47.996],[7.449,47.975],[7.403,47.974],[7.388,47.986],[7.344,47.993],[7.343,48.005]]]}},{"type":"Feature","properties":{"code":"68237","nom":"Niedermorschwihr","pop":537},"geometry":{"type":"Polygon","coordinates":[[[7.251,48.108],[7.278,48.095],[7.231,48.1],[7.251,48.108]]]}},{"type":"Feature","properties":{"code":"68238","nom":"Niffer","pop":985},"geometry":{"type":"Polygon","coordinates":[[[7.469,47.713],[7.467,47.723],[7.52,47.723],[7.536,47.715],[7.514,47.703],[7.472,47.704],[7.469,47.713]]]}},{"type":"Feature","properties":{"code":"68239","nom":"Oberbruck","pop":380},"geometry":{"type":"Polygon","coordinates":[[[6.895,47.833],[6.897,47.835],[6.921,47.82],[6.955,47.819],[6.946,47.803],[6.916,47.817],[6.895,47.833]]]}},{"type":"Feature","properties":{"code":"68240","nom":"Illtal","pop":1203},"geometry":{"type":"Polygon","coordinates":[[[7.299,47.542],[7.273,47.547],[7.256,47.547],[7.272,47.564],[7.303,47.583],[7.347,47.569],[7.342,47.562],[7.299,47.542]]]}},{"type":"Feature","properties":{"code":"68241","nom":"Oberentzen","pop":723},"geometry":{"type":"Polygon","coordinates":[[[7.371,47.928],[7.343,47.948],[7.335,47.962],[7.344,47.961],[7.346,47.954],[7.427,47.93],[7.417,47.923],[7.371,47.928]]]}},{"type":"Feature","properties":{"code":"68242","nom":"Oberhergheim","pop":1315},"geometry":{"type":"Polygon","coordinates":[[[7.449,47.975],[7.447,47.957],[7.44,47.943],[7.43,47.944],[7.336,47.98],[7.344,47.993],[7.388,47.986],[7.403,47.974],[7.449,47.975]]]}},{"type":"Feature","properties":{"code":"68243","nom":"Oberlarg","pop":143},"geometry":{"type":"Polygon","coordinates":[[[7.23,47.467],[7.243,47.472],[7.252,47.443],[7.236,47.437],[7.206,47.436],[7.213,47.454],[7.23,47.467]]]}},{"type":"Feature","properties":{"code":"68244","nom":"Obermorschwihr","pop":420},"geometry":{"type":"Polygon","coordinates":[[[7.303,48.015],[7.294,48.018],[7.274,48.026],[7.295,48.029],[7.303,48.015]]]}},{"type":"Feature","properties":{"code":"68245","nom":"Obermorschwiller","pop":409},"geometry":{"type":"Polygon","coordinates":[[[7.34,47.642],[7.326,47.634],[7.314,47.627],[7.301,47.634],[7.295,47.637],[7.317,47.656],[7.34,47.642]]]}},{"type":"Feature","properties":{"code":"68246","nom":"Obersaasheim","pop":1060},"geometry":{"type":"Polygon","coordinates":[[[7.512,47.992],[7.517,47.996],[7.584,47.997],[7.599,47.97],[7.519,47.977],[7.512,47.992]]]}},{"type":"Feature","properties":{"code":"68247","nom":"Oderen","pop":1215},"geometry":{"type":"Polygon","coordinates":[[[7.029,47.948],[7.033,47.942],[7.007,47.927],[6.98,47.899],[6.948,47.918],[6.967,47.918],[6.994,47.939],[6.995,47.968],[7.029,47.948]]]}},{"type":"Feature","properties":{"code":"68248","nom":"Oltingue","pop":695},"geometry":{"type":"Polygon","coordinates":[[[7.365,47.494],[7.365,47.494],[7.388,47.505],[7.402,47.501],[7.437,47.508],[7.435,47.498],[7.421,47.48],[7.42,47.478],[7.397,47.47],[7.38,47.476],[7.365,47.494]]]}},{"type":"Feature","properties":{"code":"68249","nom":"Orbey","pop":3429},"geometry":{"type":"Polygon","coordinates":[[[7.084,48.129],[7.117,48.154],[7.15,48.137],[7.192,48.136],[7.179,48.119],[7.176,48.083],[7.163,48.08],[7.15,48.079],[7.133,48.078],[7.077,48.109],[7.084,48.129]]]}},{"type":"Feature","properties":{"code":"68250","nom":"Orschwihr","pop":1010},"geometry":{"type":"Polygon","coordinates":[[[7.253,47.935],[7.26,47.93],[7.247,47.925],[7.206,47.933],[7.207,47.944],[7.241,47.945],[7.253,47.935]]]}},{"type":"Feature","properties":{"code":"68251","nom":"Osenbach","pop":810},"geometry":{"type":"Polygon","coordinates":[[[7.203,47.994],[7.203,48.006],[7.233,48.002],[7.228,47.978],[7.201,47.989],[7.203,47.994]]]}},{"type":"Feature","properties":{"code":"68252","nom":"Ostheim","pop":1651},"geometry":{"type":"Polygon","coordinates":[[[7.367,48.175],[7.39,48.174],[7.391,48.154],[7.368,48.13],[7.354,48.148],[7.36,48.169],[7.367,48.175]]]}},{"type":"Feature","properties":{"code":"68253","nom":"Ottmarsheim","pop":2054},"geometry":{"type":"Polygon","coordinates":[[[7.461,47.806],[7.461,47.807],[7.541,47.803],[7.533,47.767],[7.501,47.77],[7.446,47.764],[7.446,47.766],[7.455,47.785],[7.461,47.806]]]}},{"type":"Feature","properties":{"code":"68254","nom":"Petit-Landau","pop":822},"geometry":{"type":"Polygon","coordinates":[[[7.467,47.723],[7.456,47.744],[7.522,47.748],[7.54,47.755],[7.547,47.728],[7.536,47.715],[7.52,47.723],[7.467,47.723]]]}},{"type":"Feature","properties":{"code":"68255","nom":"Pfaffenheim","pop":1373},"geometry":{"type":"Polygon","coordinates":[[[7.19,48.019],[7.215,48.017],[7.259,47.993],[7.299,48.001],[7.313,48.003],[7.301,47.976],[7.28,47.977],[7.233,48.002],[7.203,48.006],[7.19,48.019]]]}},{"type":"Feature","properties":{"code":"68256","nom":"Pfastatt","pop":10314},"geometry":{"type":"Polygon","coordinates":[[[7.253,47.772],[7.256,47.781],[7.309,47.778],[7.312,47.777],[7.298,47.755],[7.29,47.776],[7.253,47.772]]]}},{"type":"Feature","properties":{"code":"68257","nom":"Pfetterhouse","pop":987},"geometry":{"type":"Polygon","coordinates":[[[7.202,47.495],[7.204,47.492],[7.203,47.491],[7.167,47.489],[7.13,47.503],[7.142,47.525],[7.16,47.521],[7.196,47.515],[7.202,47.495]]]}},{"type":"Feature","properties":{"code":"68258","nom":"Pulversheim","pop":3069},"geometry":{"type":"Polygon","coordinates":[[[7.316,47.836],[7.307,47.831],[7.288,47.825],[7.282,47.825],[7.276,47.841],[7.315,47.856],[7.316,47.836]]]}},{"type":"Feature","properties":{"code":"68259","nom":"Raedersdorf","pop":481},"geometry":{"type":"Polygon","coordinates":[[[7.358,47.495],[7.365,47.494],[7.38,47.476],[7.339,47.453],[7.325,47.453],[7.358,47.495]]]}},{"type":"Feature","properties":{"code":"68260","nom":"Raedersheim","pop":1173},"geometry":{"type":"Polygon","coordinates":[[[7.257,47.89],[7.278,47.895],[7.298,47.895],[7.291,47.876],[7.271,47.872],[7.258,47.875],[7.257,47.89]]]}},{"type":"Feature","properties":{"code":"68261","nom":"Rammersmatt","pop":219},"geometry":{"type":"Polygon","coordinates":[[[7.064,47.779],[7.046,47.788],[7.046,47.806],[7.051,47.808],[7.072,47.801],[7.064,47.779]]]}},{"type":"Feature","properties":{"code":"68262","nom":"Ranspach","pop":769},"geometry":{"type":"Polygon","coordinates":[[[7.014,47.877],[7.005,47.879],[7.006,47.894],[7.006,47.918],[7.038,47.923],[7.051,47.911],[7.014,47.877]]]}},{"type":"Feature","properties":{"code":"68263","nom":"Ranspach-le-Bas","pop":640},"geometry":{"type":"Polygon","coordinates":[[[7.426,47.594],[7.433,47.596],[7.446,47.6],[7.47,47.578],[7.449,47.579],[7.438,47.577],[7.426,47.594]]]}},{"type":"Feature","properties":{"code":"68264","nom":"Ranspach-le-Haut","pop":627},"geometry":{"type":"Polygon","coordinates":[[[7.405,47.577],[7.41,47.59],[7.426,47.594],[7.438,47.577],[7.415,47.568],[7.405,47.577]]]}},{"type":"Feature","properties":{"code":"68265","nom":"Rantzwiller","pop":802},"geometry":{"type":"Polygon","coordinates":[[[7.366,47.633],[7.353,47.646],[7.37,47.662],[7.384,47.661],[7.369,47.633],[7.366,47.633]]]}},{"type":"Feature","properties":{"code":"68266","nom":"Réguisheim","pop":2011},"geometry":{"type":"Polygon","coordinates":[[[7.328,47.911],[7.416,47.904],[7.423,47.885],[7.408,47.873],[7.33,47.877],[7.317,47.901],[7.328,47.911]]]}},{"type":"Feature","properties":{"code":"68267","nom":"Reiningue","pop":1894},"geometry":{"type":"Polygon","coordinates":[[[7.211,47.774],[7.239,47.77],[7.259,47.747],[7.24,47.74],[7.209,47.735],[7.187,47.748],[7.183,47.769],[7.211,47.774]]]}},{"type":"Feature","properties":{"code":"68268","nom":"Retzwiller","pop":689},"geometry":{"type":"Polygon","coordinates":[[[7.088,47.64],[7.109,47.633],[7.106,47.626],[7.079,47.618],[7.075,47.619],[7.07,47.634],[7.088,47.64]]]}},{"type":"Feature","properties":{"code":"68269","nom":"Ribeauvillé","pop":4685},"geometry":{"type":"Polygon","coordinates":[[[7.256,48.236],[7.277,48.238],[7.297,48.22],[7.328,48.213],[7.368,48.191],[7.367,48.185],[7.324,48.174],[7.323,48.19],[7.277,48.194],[7.259,48.205],[7.225,48.192],[7.221,48.214],[7.231,48.227],[7.256,48.236]]]}},{"type":"Feature","properties":{"code":"68270","nom":"Richwiller","pop":3905},"geometry":{"type":"Polygon","coordinates":[[[7.262,47.792],[7.275,47.791],[7.309,47.778],[7.256,47.781],[7.262,47.792]]]}},{"type":"Feature","properties":{"code":"68271","nom":"Riedisheim","pop":12200},"geometry":{"type":"Polygon","coordinates":[[[7.345,47.722],[7.369,47.76],[7.38,47.758],[7.38,47.735],[7.358,47.72],[7.351,47.717],[7.345,47.722]]]}},{"type":"Feature","properties":{"code":"68273","nom":"Riespach","pop":653},"geometry":{"type":"Polygon","coordinates":[[[7.309,47.527],[7.291,47.518],[7.274,47.527],[7.273,47.547],[7.299,47.542],[7.309,47.527]]]}},{"type":"Feature","properties":{"code":"68274","nom":"Rimbach-près-Guebwiller","pop":216},"geometry":{"type":"Polygon","coordinates":[[[7.149,47.91],[7.177,47.91],[7.199,47.897],[7.182,47.9],[7.176,47.904],[7.14,47.898],[7.113,47.909],[7.149,47.91]]]}},{"type":"Feature","properties":{"code":"68275","nom":"Rimbach-près-Masevaux","pop":430},"geometry":{"type":"Polygon","coordinates":[[[6.984,47.843],[6.988,47.842],[6.99,47.835],[6.955,47.819],[6.921,47.82],[6.897,47.835],[6.92,47.85],[6.94,47.851],[6.984,47.843]]]}},{"type":"Feature","properties":{"code":"68276","nom":"Rimbachzell","pop":188},"geometry":{"type":"Polygon","coordinates":[[[7.159,47.896],[7.176,47.904],[7.182,47.9],[7.159,47.896]]]}},{"type":"Feature","properties":{"code":"68277","nom":"Riquewihr","pop":999},"geometry":{"type":"Polygon","coordinates":[[[7.219,48.181],[7.225,48.192],[7.259,48.205],[7.277,48.194],[7.302,48.172],[7.318,48.164],[7.319,48.157],[7.292,48.153],[7.258,48.181],[7.219,48.181]]]}},{"type":"Feature","properties":{"code":"68278","nom":"Rixheim","pop":14380},"geometry":{"type":"Polygon","coordinates":[[[7.446,47.764],[7.455,47.746],[7.397,47.73],[7.364,47.716],[7.358,47.72],[7.38,47.735],[7.38,47.758],[7.393,47.773],[7.446,47.766],[7.446,47.764]]]}},{"type":"Feature","properties":{"code":"68279","nom":"Roderen","pop":902},"geometry":{"type":"Polygon","coordinates":[[[7.08,47.764],[7.064,47.779],[7.072,47.801],[7.076,47.801],[7.115,47.786],[7.092,47.762],[7.08,47.764]]]}},{"type":"Feature","properties":{"code":"68280","nom":"Rodern","pop":401},"geometry":{"type":"Polygon","coordinates":[[[7.277,48.238],[7.256,48.236],[7.258,48.24],[7.301,48.254],[7.329,48.234],[7.362,48.226],[7.348,48.22],[7.302,48.244],[7.277,48.238]]]}},{"type":"Feature","properties":{"code":"68281","nom":"Roggenhouse","pop":458},"geometry":{"type":"Polygon","coordinates":[[[7.488,47.865],[7.487,47.861],[7.45,47.884],[7.48,47.902],[7.486,47.902],[7.488,47.865]]]}},{"type":"Feature","properties":{"code":"68282","nom":"Romagny","pop":273},"geometry":{"type":"Polygon","coordinates":[[[7.074,47.599],[7.074,47.599],[7.05,47.615],[7.075,47.619],[7.079,47.618],[7.074,47.599]]]}},{"type":"Feature","properties":{"code":"68283","nom":"Rombach-le-Franc","pop":775},"geometry":{"type":"Polygon","coordinates":[[[7.282,48.296],[7.291,48.294],[7.291,48.291],[7.271,48.276],[7.241,48.277],[7.194,48.302],[7.198,48.31],[7.204,48.31],[7.259,48.305],[7.282,48.296]]]}},{"type":"Feature","properties":{"code":"68284","nom":"Roppentzwiller","pop":666},"geometry":{"type":"Polygon","coordinates":[[[7.313,47.524],[7.309,47.527],[7.324,47.546],[7.35,47.545],[7.352,47.539],[7.313,47.524]]]}},{"type":"Feature","properties":{"code":"68285","nom":"Rorschwihr","pop":370},"geometry":{"type":"Polygon","coordinates":[[[7.383,48.219],[7.348,48.22],[7.362,48.226],[7.383,48.219]]]}},{"type":"Feature","properties":{"code":"68286","nom":"Rosenau","pop":2396},"geometry":{"type":"Polygon","coordinates":[[[7.533,47.634],[7.524,47.646],[7.524,47.661],[7.567,47.632],[7.554,47.62],[7.533,47.634]]]}},{"type":"Feature","properties":{"code":"68287","nom":"Rouffach","pop":4238},"geometry":{"type":"MultiPolygon","coordinates":[[[[7.323,48.007],[7.343,48.005],[7.344,47.993],[7.336,47.98],[7.335,47.962],[7.343,47.948],[7.329,47.937],[7.291,47.942],[7.267,47.93],[7.26,47.93],[7.253,47.935],[7.274,47.951],[7.28,47.977],[7.301,47.976],[7.313,48.003],[7.323,48.007]]],[[[7.174,47.958],[7.148,47.976],[7.18,48.006],[7.203,47.994],[7.201,47.989],[7.174,47.958]]]]}},{"type":"Feature","properties":{"code":"68288","nom":"Ruederbach","pop":385},"geometry":{"type":"Polygon","coordinates":[[[7.261,47.572],[7.272,47.578],[7.272,47.564],[7.256,47.547],[7.244,47.537],[7.242,47.548],[7.261,47.572]]]}},{"type":"Feature","properties":{"code":"68289","nom":"Ruelisheim","pop":2519},"geometry":{"type":"Polygon","coordinates":[[[7.307,47.831],[7.316,47.836],[7.374,47.832],[7.378,47.808],[7.354,47.805],[7.35,47.826],[7.307,47.831]]]}},{"type":"Feature","properties":{"code":"68290","nom":"Rustenhart","pop":1001},"geometry":{"type":"Polygon","coordinates":[[[7.525,47.945],[7.523,47.941],[7.484,47.924],[7.436,47.934],[7.44,47.943],[7.447,47.957],[7.489,47.945],[7.525,47.945]]]}},{"type":"Feature","properties":{"code":"68291","nom":"Rumersheim-le-Haut","pop":1068},"geometry":{"type":"Polygon","coordinates":[[[7.487,47.861],[7.488,47.865],[7.556,47.871],[7.563,47.852],[7.542,47.836],[7.504,47.842],[7.47,47.836],[7.487,47.861]]]}},{"type":"Feature","properties":{"code":"68292","nom":"Saint-Amarin","pop":2173},"geometry":{"type":"Polygon","coordinates":[[[7.047,47.874],[7.044,47.866],[7.013,47.863],[7.014,47.877],[7.051,47.911],[7.079,47.903],[7.052,47.891],[7.047,47.874]]]}},{"type":"Feature","properties":{"code":"68293","nom":"Saint-Cosme","pop":75},"geometry":{"type":"Polygon","coordinates":[[[7.041,47.672],[7.037,47.675],[7.039,47.688],[7.071,47.686],[7.064,47.678],[7.041,47.672]]]}},{"type":"Feature","properties":{"code":"68294","nom":"Sainte-Croix-aux-Mines","pop":1742},"geometry":{"type":"Polygon","coordinates":[[[7.158,48.268],[7.159,48.268],[7.172,48.297],[7.194,48.302],[7.241,48.277],[7.256,48.236],[7.231,48.227],[7.22,48.259],[7.192,48.251],[7.158,48.268]]]}},{"type":"Feature","properties":{"code":"68295","nom":"Sainte-Croix-en-Plaine","pop":3004},"geometry":{"type":"Polygon","coordinates":[[[7.449,47.975],[7.406,47.996],[7.371,47.995],[7.346,48.017],[7.348,48.028],[7.35,48.04],[7.353,48.043],[7.372,48.042],[7.409,48.031],[7.425,48.011],[7.464,47.993],[7.449,47.975]]]}},{"type":"Feature","properties":{"code":"68296","nom":"Saint-Hippolyte","pop":927},"geometry":{"type":"Polygon","coordinates":[[[7.362,48.226],[7.329,48.234],[7.301,48.254],[7.258,48.24],[7.261,48.253],[7.314,48.264],[7.327,48.244],[7.359,48.245],[7.414,48.225],[7.435,48.218],[7.431,48.211],[7.383,48.219],[7.362,48.226]]]}},{"type":"Feature","properties":{"code":"68297","nom":"Saint-Louis","pop":22805},"geometry":{"type":"Polygon","coordinates":[[[7.509,47.63],[7.533,47.634],[7.554,47.62],[7.566,47.592],[7.575,47.576],[7.552,47.563],[7.538,47.577],[7.515,47.589],[7.509,47.63]]]}},{"type":"Feature","properties":{"code":"68298","nom":"Sainte-Marie-aux-Mines","pop":4851},"geometry":{"type":"Polygon","coordinates":[[[7.106,48.194],[7.105,48.201],[7.126,48.225],[7.133,48.243],[7.158,48.268],[7.192,48.251],[7.22,48.259],[7.231,48.227],[7.221,48.214],[7.189,48.21],[7.151,48.192],[7.14,48.194],[7.106,48.194]]]}},{"type":"Feature","properties":{"code":"68299","nom":"Saint-Ulrich","pop":299},"geometry":{"type":"Polygon","coordinates":[[[7.137,47.603],[7.139,47.601],[7.133,47.595],[7.109,47.582],[7.094,47.573],[7.089,47.584],[7.137,47.603]]]}},{"type":"Feature","properties":{"code":"68300","nom":"Sausheim","pop":5666},"geometry":{"type":"Polygon","coordinates":[[[7.354,47.799],[7.354,47.801],[7.455,47.785],[7.446,47.766],[7.393,47.773],[7.356,47.781],[7.354,47.799]]]}},{"type":"Feature","properties":{"code":"68301","nom":"Schlierbach","pop":1299},"geometry":{"type":"Polygon","coordinates":[[[7.398,47.665],[7.395,47.664],[7.388,47.673],[7.398,47.684],[7.472,47.704],[7.475,47.691],[7.398,47.665]]]}},{"type":"Feature","properties":{"code":"68302","nom":"Schweighouse-Thann","pop":748},"geometry":{"type":"Polygon","coordinates":[[[7.209,47.735],[7.19,47.731],[7.162,47.737],[7.147,47.747],[7.177,47.777],[7.183,47.769],[7.187,47.748],[7.209,47.735]]]}},{"type":"Feature","properties":{"code":"68303","nom":"Schwoben","pop":229},"geometry":{"type":"Polygon","coordinates":[[[7.288,47.595],[7.286,47.607],[7.286,47.608],[7.316,47.616],[7.292,47.595],[7.288,47.595]]]}},{"type":"Feature","properties":{"code":"68304","nom":"Sentheim","pop":1528},"geometry":{"type":"Polygon","coordinates":[[[7.036,47.769],[7.072,47.762],[7.067,47.746],[7.029,47.75],[7.036,47.769]]]}},{"type":"Feature","properties":{"code":"68305","nom":"Seppois-le-Bas","pop":1443},"geometry":{"type":"Polygon","coordinates":[[[7.142,47.525],[7.138,47.531],[7.176,47.555],[7.197,47.548],[7.16,47.521],[7.142,47.525]]]}},{"type":"Feature","properties":{"code":"68306","nom":"Seppois-le-Haut","pop":505},"geometry":{"type":"Polygon","coordinates":[[[7.196,47.515],[7.16,47.521],[7.197,47.548],[7.206,47.55],[7.207,47.523],[7.196,47.515]]]}},{"type":"Feature","properties":{"code":"68307","nom":"Sewen","pop":480},"geometry":{"type":"Polygon","coordinates":[[[6.846,47.823],[6.895,47.833],[6.916,47.817],[6.892,47.779],[6.865,47.785],[6.846,47.823]]]}},{"type":"Feature","properties":{"code":"68308","nom":"Sickert","pop":333},"geometry":{"type":"Polygon","coordinates":[[[6.969,47.789],[6.971,47.797],[6.988,47.806],[6.969,47.789]]]}},{"type":"Feature","properties":{"code":"68309","nom":"Sierentz","pop":4409},"geometry":{"type":"Polygon","coordinates":[[[7.437,47.659],[7.432,47.664],[7.477,47.687],[7.499,47.654],[7.454,47.641],[7.437,47.659]]]}},{"type":"Feature","properties":{"code":"68311","nom":"Sondernach","pop":590},"geometry":{"type":"Polygon","coordinates":[[[7.126,47.981],[7.053,47.948],[7.037,47.953],[7.041,47.967],[7.049,47.991],[7.087,48.008],[7.119,47.989],[7.126,47.981]]]}},{"type":"Feature","properties":{"code":"68312","nom":"Sondersdorf","pop":319},"geometry":{"type":"Polygon","coordinates":[[[7.314,47.486],[7.325,47.491],[7.358,47.495],[7.325,47.453],[7.318,47.449],[7.314,47.486]]]}},{"type":"Feature","properties":{"code":"68313","nom":"Soppe-le-Bas","pop":774},"geometry":{"type":"Polygon","coordinates":[[[7.115,47.71],[7.115,47.71],[7.076,47.706],[7.068,47.715],[7.083,47.734],[7.094,47.733],[7.115,47.719],[7.115,47.71]]]}},{"type":"Feature","properties":{"code":"68315","nom":"Soultz-Haut-Rhin","pop":7012},"geometry":{"type":"MultiPolygon","coordinates":[[[[7.131,47.858],[7.124,47.868],[7.129,47.887],[7.098,47.9],[7.099,47.902],[7.099,47.902],[7.113,47.909],[7.14,47.898],[7.176,47.904],[7.159,47.896],[7.2,47.878],[7.162,47.874],[7.156,47.861],[7.131,47.858]]],[[[7.232,47.858],[7.215,47.872],[7.21,47.879],[7.205,47.896],[7.229,47.896],[7.257,47.89],[7.258,47.875],[7.232,47.858]]]]}},{"type":"Feature","properties":{"code":"68316","nom":"Soultzbach-les-Bains","pop":731},"geometry":{"type":"Polygon","coordinates":[[[7.19,48.019],[7.183,48.012],[7.171,48.015],[7.188,48.03],[7.233,48.034],[7.236,48.026],[7.218,48.023],[7.215,48.017],[7.19,48.019]]]}},{"type":"Feature","properties":{"code":"68317","nom":"Soultzeren","pop":1183},"geometry":{"type":"Polygon","coordinates":[[[7.133,48.078],[7.117,48.063],[7.052,48.083],[7.07,48.106],[7.077,48.109],[7.133,48.078]]]}},{"type":"Feature","properties":{"code":"68318","nom":"Soultzmatt","pop":2487},"geometry":{"type":"MultiPolygon","coordinates":[[[[7.241,47.945],[7.207,47.944],[7.174,47.958],[7.201,47.989],[7.228,47.978],[7.255,47.971],[7.241,47.945]]],[[[7.183,48.012],[7.19,48.019],[7.203,48.006],[7.203,47.994],[7.18,48.006],[7.183,48.012]]]]}},{"type":"Feature","properties":{"code":"68320","nom":"Spechbach","pop":1418},"geometry":{"type":"Polygon","coordinates":[[[7.213,47.695],[7.238,47.691],[7.246,47.67],[7.218,47.658],[7.2,47.682],[7.213,47.695]]]}},{"type":"Feature","properties":{"code":"68321","nom":"Staffelfelden","pop":4072},"geometry":{"type":"Polygon","coordinates":[[[7.272,47.84],[7.276,47.841],[7.282,47.825],[7.252,47.817],[7.221,47.82],[7.224,47.829],[7.227,47.83],[7.259,47.842],[7.272,47.84]]]}},{"type":"Feature","properties":{"code":"68322","nom":"Steinbach","pop":1379},"geometry":{"type":"Polygon","coordinates":[[[7.114,47.839],[7.165,47.819],[7.139,47.808],[7.122,47.824],[7.114,47.839]]]}},{"type":"Feature","properties":{"code":"68323","nom":"Steinbrunn-le-Bas","pop":848},"geometry":{"type":"Polygon","coordinates":[[[7.384,47.661],[7.37,47.662],[7.329,47.678],[7.34,47.685],[7.372,47.69],[7.388,47.673],[7.395,47.664],[7.384,47.661]]]}},{"type":"Feature","properties":{"code":"68324","nom":"Steinbrunn-le-Haut","pop":693},"geometry":{"type":"Polygon","coordinates":[[[7.321,47.668],[7.329,47.678],[7.37,47.662],[7.353,47.646],[7.34,47.642],[7.317,47.656],[7.321,47.668]]]}},{"type":"Feature","properties":{"code":"68325","nom":"Steinsoultz","pop":743},"geometry":{"type":"Polygon","coordinates":[[[7.366,47.573],[7.368,47.572],[7.35,47.545],[7.324,47.546],[7.342,47.562],[7.347,47.569],[7.357,47.572],[7.361,47.574],[7.366,47.573]]]}},{"type":"Feature","properties":{"code":"68326","nom":"Sternenberg","pop":142},"geometry":{"type":"Polygon","coordinates":[[[7.076,47.706],[7.102,47.7],[7.104,47.687],[7.08,47.688],[7.078,47.695],[7.076,47.706]]]}},{"type":"Feature","properties":{"code":"68327","nom":"Stetten","pop":334},"geometry":{"type":"Polygon","coordinates":[[[7.428,47.617],[7.397,47.613],[7.408,47.625],[7.428,47.635],[7.437,47.633],[7.428,47.617]]]}},{"type":"Feature","properties":{"code":"68328","nom":"Storckensohn","pop":184},"geometry":{"type":"Polygon","coordinates":[[[6.964,47.884],[6.967,47.88],[6.94,47.851],[6.92,47.85],[6.919,47.858],[6.964,47.884]]]}},{"type":"Feature","properties":{"code":"68329","nom":"Stosswihr","pop":1323},"geometry":{"type":"Polygon","coordinates":[[[7.019,48.055],[7.052,48.083],[7.117,48.063],[7.119,48.049],[7.097,48.04],[7.089,48.038],[7.034,48.036],[7.016,48.037],[7.01,48.043],[7.019,48.055]]]}},{"type":"Feature","properties":{"code":"68330","nom":"Strueth","pop":360},"geometry":{"type":"Polygon","coordinates":[[[7.094,47.573],[7.109,47.582],[7.135,47.58],[7.108,47.559],[7.094,47.573]]]}},{"type":"Feature","properties":{"code":"68331","nom":"Sundhoffen","pop":1993},"geometry":{"type":"Polygon","coordinates":[[[7.43,48.032],[7.409,48.031],[7.372,48.042],[7.4,48.058],[7.411,48.059],[7.469,48.044],[7.472,48.039],[7.47,48.034],[7.43,48.032]]]}},{"type":"Feature","properties":{"code":"68332","nom":"Tagolsheim","pop":991},"geometry":{"type":"Polygon","coordinates":[[[7.249,47.648],[7.245,47.651],[7.255,47.661],[7.277,47.662],[7.279,47.649],[7.249,47.648]]]}},{"type":"Feature","properties":{"code":"68333","nom":"Tagsdorf","pop":325},"geometry":{"type":"Polygon","coordinates":[[[7.314,47.627],[7.317,47.616],[7.316,47.616],[7.286,47.608],[7.287,47.615],[7.301,47.634],[7.314,47.627]]]}},{"type":"Feature","properties":{"code":"68334","nom":"Thann","pop":7762},"geometry":{"type":"Polygon","coordinates":[[[7.112,47.794],[7.076,47.801],[7.072,47.801],[7.051,47.808],[7.114,47.839],[7.122,47.824],[7.112,47.794]]]}},{"type":"Feature","properties":{"code":"68335","nom":"Thannenkirch","pop":451},"geometry":{"type":"Polygon","coordinates":[[[7.277,48.238],[7.302,48.244],[7.297,48.22],[7.277,48.238]]]}},{"type":"Feature","properties":{"code":"68336","nom":"Traubach-le-Bas","pop":484},"geometry":{"type":"Polygon","coordinates":[[[7.119,47.668],[7.122,47.659],[7.083,47.647],[7.055,47.65],[7.062,47.659],[7.119,47.668]]]}},{"type":"Feature","properties":{"code":"68337","nom":"Traubach-le-Haut","pop":647},"geometry":{"type":"Polygon","coordinates":[[[7.125,47.676],[7.119,47.668],[7.062,47.659],[7.077,47.676],[7.105,47.685],[7.125,47.676]]]}},{"type":"Feature","properties":{"code":"68338","nom":"Turckheim","pop":4139},"geometry":{"type":"Polygon","coordinates":[[[7.207,48.077],[7.196,48.084],[7.219,48.098],[7.231,48.1],[7.278,48.095],[7.288,48.095],[7.304,48.089],[7.306,48.073],[7.25,48.074],[7.207,48.077]]]}},{"type":"Feature","properties":{"code":"68340","nom":"Ueberstrass","pop":333},"geometry":{"type":"Polygon","coordinates":[[[7.138,47.531],[7.133,47.54],[7.132,47.54],[7.154,47.558],[7.176,47.558],[7.176,47.555],[7.138,47.531]]]}},{"type":"Feature","properties":{"code":"68341","nom":"Uffheim","pop":1142},"geometry":{"type":"Polygon","coordinates":[[[7.428,47.635],[7.421,47.648],[7.437,47.659],[7.454,47.641],[7.448,47.635],[7.444,47.634],[7.437,47.633],[7.428,47.635]]]}},{"type":"Feature","properties":{"code":"68342","nom":"Uffholtz","pop":1614},"geometry":{"type":"Polygon","coordinates":[[[7.223,47.83],[7.224,47.829],[7.221,47.82],[7.204,47.81],[7.165,47.819],[7.114,47.839],[7.116,47.848],[7.13,47.854],[7.167,47.83],[7.209,47.823],[7.223,47.83]]]}},{"type":"Feature","properties":{"code":"68343","nom":"Ungersheim","pop":2449},"geometry":{"type":"Polygon","coordinates":[[[7.276,47.841],[7.272,47.84],[7.291,47.876],[7.298,47.895],[7.317,47.901],[7.33,47.877],[7.315,47.856],[7.276,47.841]]]}},{"type":"Feature","properties":{"code":"68344","nom":"Urbès","pop":427},"geometry":{"type":"Polygon","coordinates":[[[6.908,47.872],[6.918,47.898],[6.974,47.89],[6.964,47.884],[6.919,47.858],[6.908,47.872]]]}},{"type":"Feature","properties":{"code":"68345","nom":"Urschenheim","pop":808},"geometry":{"type":"Polygon","coordinates":[[[7.518,48.07],[7.503,48.068],[7.468,48.078],[7.468,48.088],[7.49,48.093],[7.515,48.074],[7.518,48.07]]]}},{"type":"Feature","properties":{"code":"68347","nom":"Vieux-Ferrette","pop":640},"geometry":{"type":"Polygon","coordinates":[[[7.32,47.502],[7.31,47.493],[7.287,47.497],[7.291,47.518],[7.309,47.527],[7.313,47.524],[7.323,47.512],[7.32,47.502]]]}},{"type":"Feature","properties":{"code":"68348","nom":"Vieux-Thann","pop":2866},"geometry":{"type":"Polygon","coordinates":[[[7.117,47.79],[7.112,47.794],[7.122,47.824],[7.139,47.808],[7.149,47.793],[7.117,47.79]]]}},{"type":"Feature","properties":{"code":"68349","nom":"Village-Neuf","pop":4709},"geometry":{"type":"Polygon","coordinates":[[[7.554,47.62],[7.567,47.632],[7.593,47.599],[7.566,47.592],[7.554,47.62]]]}},{"type":"Feature","properties":{"code":"68350","nom":"Vœgtlinshoffen","pop":479},"geometry":{"type":"Polygon","coordinates":[[[7.236,48.037],[7.242,48.036],[7.274,48.026],[7.294,48.018],[7.236,48.026],[7.233,48.034],[7.236,48.037]]]}},{"type":"Feature","properties":{"code":"68351","nom":"Vogelgrun","pop":628},"geometry":{"type":"Polygon","coordinates":[[[7.569,48.013],[7.566,48.028],[7.579,48.025],[7.609,48],[7.586,47.999],[7.569,48.013]]]}},{"type":"Feature","properties":{"code":"68352","nom":"Volgelsheim","pop":2720},"geometry":{"type":"Polygon","coordinates":[[[7.566,48.028],[7.569,48.013],[7.534,48.009],[7.518,48.011],[7.52,48.016],[7.52,48.021],[7.527,48.011],[7.535,48.014],[7.533,48.022],[7.52,48.023],[7.52,48.037],[7.566,48.028]]]}},{"type":"Feature","properties":{"code":"68353","nom":"Wahlbach","pop":508},"geometry":{"type":"Polygon","coordinates":[[[7.353,47.646],[7.366,47.633],[7.359,47.614],[7.349,47.614],[7.338,47.617],[7.336,47.62],[7.326,47.634],[7.34,47.642],[7.353,47.646]]]}},{"type":"Feature","properties":{"code":"68354","nom":"Walbach","pop":936},"geometry":{"type":"Polygon","coordinates":[[[7.196,48.084],[7.207,48.077],[7.234,48.066],[7.225,48.055],[7.182,48.075],[7.186,48.085],[7.196,48.084]]]}},{"type":"Feature","properties":{"code":"68355","nom":"Waldighofen","pop":1558},"geometry":{"type":"Polygon","coordinates":[[[7.342,47.562],[7.324,47.546],[7.309,47.527],[7.299,47.542],[7.342,47.562]]]}},{"type":"Feature","properties":{"code":"68356","nom":"Walheim","pop":889},"geometry":{"type":"Polygon","coordinates":[[[7.281,47.632],[7.269,47.63],[7.25,47.637],[7.249,47.648],[7.279,47.649],[7.29,47.637],[7.281,47.632]]]}},{"type":"Feature","properties":{"code":"68357","nom":"Waltenheim","pop":506},"geometry":{"type":"Polygon","coordinates":[[[7.41,47.649],[7.413,47.661],[7.432,47.664],[7.437,47.659],[7.421,47.648],[7.41,47.649]]]}},{"type":"Feature","properties":{"code":"68358","nom":"Wasserbourg","pop":465},"geometry":{"type":"Polygon","coordinates":[[[7.148,47.976],[7.134,47.977],[7.129,47.981],[7.138,48.005],[7.16,48.014],[7.171,48.015],[7.183,48.012],[7.18,48.006],[7.148,47.976]]]}},{"type":"Feature","properties":{"code":"68359","nom":"Wattwiller","pop":1636},"geometry":{"type":"Polygon","coordinates":[[[7.156,47.861],[7.161,47.861],[7.19,47.85],[7.223,47.83],[7.209,47.823],[7.167,47.83],[7.13,47.854],[7.131,47.858],[7.156,47.861]]]}},{"type":"Feature","properties":{"code":"68360","nom":"Weckolsheim","pop":742},"geometry":{"type":"Polygon","coordinates":[[[7.517,47.996],[7.512,47.992],[7.466,47.994],[7.491,48.015],[7.52,48.016],[7.518,48.011],[7.517,47.996]]]}},{"type":"Feature","properties":{"code":"68361","nom":"Wegscheid","pop":315},"geometry":{"type":"Polygon","coordinates":[[[6.99,47.835],[7.009,47.821],[6.988,47.806],[6.971,47.797],[6.946,47.803],[6.955,47.819],[6.99,47.835]]]}},{"type":"Feature","properties":{"code":"68362","nom":"Wentzwiller","pop":780},"geometry":{"type":"Polygon","coordinates":[[[7.493,47.544],[7.466,47.536],[7.453,47.554],[7.46,47.554],[7.483,47.56],[7.493,47.544]]]}},{"type":"Feature","properties":{"code":"68363","nom":"Werentzhouse","pop":633},"geometry":{"type":"Polygon","coordinates":[[[7.364,47.534],[7.385,47.529],[7.36,47.508],[7.345,47.519],[7.364,47.534]]]}},{"type":"Feature","properties":{"code":"68364","nom":"Westhalten","pop":1017},"geometry":{"type":"Polygon","coordinates":[[[7.253,47.935],[7.241,47.945],[7.255,47.971],[7.228,47.978],[7.233,48.002],[7.28,47.977],[7.274,47.951],[7.253,47.935]]]}},{"type":"Feature","properties":{"code":"68365","nom":"Wettolsheim","pop":1784},"geometry":{"type":"Polygon","coordinates":[[[7.353,48.043],[7.35,48.04],[7.307,48.051],[7.255,48.041],[7.272,48.057],[7.323,48.06],[7.353,48.043]]]}},{"type":"Feature","properties":{"code":"68366","nom":"Wickerschwihr","pop":742},"geometry":{"type":"Polygon","coordinates":[[[7.446,48.121],[7.452,48.11],[7.447,48.105],[7.424,48.104],[7.446,48.121]]]}},{"type":"Feature","properties":{"code":"68367","nom":"Widensolen","pop":1215},"geometry":{"type":"Polygon","coordinates":[[[7.469,48.044],[7.459,48.066],[7.468,48.078],[7.503,48.068],[7.505,48.044],[7.472,48.039],[7.469,48.044]]]}},{"type":"Feature","properties":{"code":"68368","nom":"Wihr-au-Val","pop":1195},"geometry":{"type":"Polygon","coordinates":[[[7.188,48.03],[7.185,48.042],[7.163,48.08],[7.186,48.085],[7.182,48.075],[7.225,48.055],[7.236,48.037],[7.233,48.034],[7.188,48.03]]]}},{"type":"Feature","properties":{"code":"68370","nom":"Wildenstein","pop":155},"geometry":{"type":"Polygon","coordinates":[[[6.982,48.01],[6.983,47.982],[6.944,47.98],[6.944,47.992],[6.982,48.01]]]}},{"type":"Feature","properties":{"code":"68371","nom":"Willer","pop":295},"geometry":{"type":"Polygon","coordinates":[[[7.303,47.583],[7.297,47.595],[7.323,47.589],[7.343,47.579],[7.357,47.572],[7.347,47.569],[7.303,47.583]]]}},{"type":"Feature","properties":{"code":"68372","nom":"Willer-sur-Thur","pop":1773},"geometry":{"type":"Polygon","coordinates":[[[7.026,47.824],[7.052,47.844],[7.072,47.873],[7.081,47.882],[7.095,47.861],[7.124,47.868],[7.131,47.858],[7.13,47.854],[7.116,47.848],[7.026,47.824]]]}},{"type":"Feature","properties":{"code":"68373","nom":"Winkel","pop":301},"geometry":{"type":"Polygon","coordinates":[[[7.243,47.472],[7.246,47.473],[7.251,47.475],[7.276,47.473],[7.28,47.449],[7.252,47.443],[7.243,47.472]]]}},{"type":"Feature","properties":{"code":"68374","nom":"Wintzenheim","pop":8059},"geometry":{"type":"Polygon","coordinates":[[[7.255,48.041],[7.242,48.036],[7.236,48.037],[7.225,48.055],[7.234,48.066],[7.25,48.074],[7.306,48.073],[7.304,48.089],[7.325,48.088],[7.323,48.06],[7.272,48.057],[7.255,48.041]]]}},{"type":"Feature","properties":{"code":"68375","nom":"Wittelsheim","pop":10645},"geometry":{"type":"Polygon","coordinates":[[[7.253,47.772],[7.239,47.77],[7.211,47.774],[7.204,47.81],[7.221,47.82],[7.252,47.817],[7.282,47.825],[7.288,47.825],[7.262,47.792],[7.256,47.781],[7.253,47.772]]]}},{"type":"Feature","properties":{"code":"68376","nom":"Wittenheim","pop":15553},"geometry":{"type":"Polygon","coordinates":[[[7.288,47.825],[7.307,47.831],[7.35,47.826],[7.354,47.805],[7.354,47.801],[7.354,47.799],[7.349,47.798],[7.275,47.791],[7.262,47.792],[7.288,47.825]]]}},{"type":"Feature","properties":{"code":"68377","nom":"Wittersdorf","pop":769},"geometry":{"type":"Polygon","coordinates":[[[7.286,47.608],[7.286,47.607],[7.251,47.608],[7.269,47.63],[7.281,47.632],[7.287,47.615],[7.286,47.608]]]}},{"type":"Feature","properties":{"code":"68378","nom":"Wolfersdorf","pop":354},"geometry":{"type":"Polygon","coordinates":[[[7.109,47.633],[7.088,47.64],[7.083,47.647],[7.122,47.659],[7.125,47.654],[7.118,47.637],[7.109,47.633]]]}},{"type":"Feature","properties":{"code":"68379","nom":"Wolfgantzen","pop":1190},"geometry":{"type":"Polygon","coordinates":[[[7.47,48.034],[7.472,48.039],[7.505,48.044],[7.52,48.037],[7.52,48.023],[7.52,48.021],[7.52,48.016],[7.491,48.015],[7.477,48.021],[7.47,48.034]]]}},{"type":"Feature","properties":{"code":"68380","nom":"Wolschwiller","pop":431},"geometry":{"type":"Polygon","coordinates":[[[7.377,47.443],[7.397,47.47],[7.42,47.478],[7.43,47.459],[7.4,47.436],[7.377,47.443]]]}},{"type":"Feature","properties":{"code":"68381","nom":"Wuenheim","pop":768},"geometry":{"type":"Polygon","coordinates":[[[7.161,47.861],[7.156,47.861],[7.162,47.874],[7.2,47.878],[7.21,47.879],[7.215,47.872],[7.205,47.863],[7.161,47.861]]]}},{"type":"Feature","properties":{"code":"68382","nom":"Zaessingue","pop":375},"geometry":{"type":"Polygon","coordinates":[[[7.366,47.633],[7.369,47.633],[7.382,47.63],[7.39,47.611],[7.39,47.61],[7.369,47.609],[7.359,47.614],[7.366,47.633]]]}},{"type":"Feature","properties":{"code":"68383","nom":"Zellenberg","pop":321},"geometry":{"type":"Polygon","coordinates":[[[7.318,48.164],[7.302,48.172],[7.324,48.174],[7.367,48.185],[7.367,48.175],[7.36,48.169],[7.318,48.164]]]}},{"type":"Feature","properties":{"code":"68384","nom":"Zillisheim","pop":2561},"geometry":{"type":"Polygon","coordinates":[[[7.321,47.668],[7.306,47.672],[7.279,47.688],[7.284,47.696],[7.293,47.702],[7.313,47.701],[7.329,47.678],[7.321,47.668]]]}},{"type":"Feature","properties":{"code":"68385","nom":"Zimmerbach","pop":824},"geometry":{"type":"Polygon","coordinates":[[[7.207,48.077],[7.25,48.074],[7.234,48.066],[7.207,48.077]]]}},{"type":"Feature","properties":{"code":"68386","nom":"Zimmersheim","pop":1083},"geometry":{"type":"Polygon","coordinates":[[[7.397,47.73],[7.399,47.723],[7.374,47.707],[7.364,47.716],[7.397,47.73]]]}}]}