{"type":"FeatureCollection","features":[{"type":"Feature","properties":{"code":"69001","nom":"Affoux"},"geometry":{"type":"Polygon","coordinates":[[[4.391,45.837],[4.396,45.86],[4.419,45.863],[4.441,45.834],[4.441,45.834],[4.416,45.828],[4.391,45.837]]]}},{"type":"Feature","properties":{"code":"69002","nom":"Aigueperse"},"geometry":{"type":"Polygon","coordinates":[[[4.396,46.275],[4.406,46.296],[4.427,46.303],[4.44,46.293],[4.457,46.277],[4.434,46.264],[4.397,46.267],[4.396,46.275]]]}},{"type":"Feature","properties":{"code":"69003","nom":"Albigny-sur-Saône"},"geometry":{"type":"Polygon","coordinates":[[[4.837,45.866],[4.837,45.854],[4.817,45.856],[4.832,45.879],[4.837,45.866]]]}},{"type":"Feature","properties":{"code":"69004","nom":"Alix"},"geometry":{"type":"Polygon","coordinates":[[[4.656,45.927],[4.666,45.925],[4.67,45.905],[4.648,45.908],[4.653,45.926],[4.656,45.927]]]}},{"type":"Feature","properties":{"code":"69005","nom":"Ambérieux"},"geometry":{"type":"Polygon","coordinates":[[[4.761,45.935],[4.734,45.911],[4.733,45.921],[4.731,45.941],[4.745,45.937],[4.761,45.935]]]}},{"type":"Feature","properties":{"code":"69006","nom":"Amplepuis"},"geometry":{"type":"Polygon","coordinates":[[[4.244,45.997],[4.3,45.989],[4.324,45.979],[4.353,45.998],[4.39,45.948],[4.39,45.942],[4.346,45.93],[4.294,45.953],[4.276,45.978],[4.248,45.987],[4.244,45.997]]]}},{"type":"Feature","properties":{"code":"69007","nom":"Ampuis"},"geometry":{"type":"Polygon","coordinates":[[[4.842,45.501],[4.802,45.479],[4.78,45.495],[4.776,45.518],[4.776,45.524],[4.787,45.527],[4.817,45.512],[4.846,45.504],[4.842,45.501]]]}},{"type":"Feature","properties":{"code":"69008","nom":"Ancy"},"geometry":{"type":"Polygon","coordinates":[[[4.496,45.855],[4.541,45.833],[4.518,45.822],[4.476,45.818],[4.496,45.855]]]}},{"type":"Feature","properties":{"code":"69009","nom":"Anse"},"geometry":{"type":"Polygon","coordinates":[[[4.749,45.963],[4.731,45.941],[4.733,45.921],[4.7,45.924],[4.66,45.935],[4.663,45.948],[4.69,45.944],[4.723,45.963],[4.741,45.968],[4.75,45.965],[4.749,45.963]]]}},{"type":"Feature","properties":{"code":"69010","nom":"L'Arbresle"},"geometry":{"type":"Polygon","coordinates":[[[4.625,45.84],[4.622,45.835],[4.607,45.823],[4.6,45.827],[4.596,45.84],[4.603,45.847],[4.625,45.84]]]}},{"type":"Feature","properties":{"code":"69012","nom":"Les Ardillats"},"geometry":{"type":"Polygon","coordinates":[[[4.486,46.205],[4.498,46.2],[4.552,46.211],[4.577,46.191],[4.569,46.165],[4.548,46.169],[4.51,46.173],[4.48,46.198],[4.486,46.205]]]}},{"type":"Feature","properties":{"code":"69013","nom":"Arnas"},"geometry":{"type":"Polygon","coordinates":[[[4.749,46.004],[4.749,46.003],[4.719,46],[4.679,46.003],[4.671,46.016],[4.683,46.033],[4.715,46.039],[4.747,46.028],[4.749,46.004]]]}},{"type":"Feature","properties":{"code":"69014","nom":"Aveize"},"geometry":{"type":"Polygon","coordinates":[[[4.479,45.703],[4.504,45.689],[4.502,45.667],[4.481,45.66],[4.457,45.662],[4.441,45.677],[4.446,45.688],[4.459,45.699],[4.479,45.703]]]}},{"type":"Feature","properties":{"code":"69016","nom":"Azolette"},"geometry":{"type":"Polygon","coordinates":[[[4.414,46.18],[4.406,46.182],[4.423,46.203],[4.414,46.18]]]}},{"type":"Feature","properties":{"code":"69017","nom":"Bagnols"},"geometry":{"type":"Polygon","coordinates":[[[4.647,45.906],[4.646,45.896],[4.629,45.898],[4.607,45.904],[4.594,45.904],[4.595,45.915],[4.612,45.924],[4.647,45.906]]]}},{"type":"Feature","properties":{"code":"69018","nom":"Beaujeu"},"geometry":{"type":"Polygon","coordinates":[[[4.577,46.191],[4.611,46.183],[4.602,46.143],[4.578,46.13],[4.547,46.134],[4.569,46.165],[4.577,46.191]]]}},{"type":"Feature","properties":{"code":"69019","nom":"Belleville-en-Beaujolais"},"geometry":{"type":"Polygon","coordinates":[[[4.767,46.107],[4.76,46.101],[4.749,46.082],[4.723,46.09],[4.699,46.102],[4.696,46.127],[4.691,46.133],[4.703,46.145],[4.743,46.142],[4.755,46.142],[4.747,46.115],[4.767,46.107]]]}},{"type":"Feature","properties":{"code":"69020","nom":"Belmont-d'Azergues"},"geometry":{"type":"Polygon","coordinates":[[[4.66,45.867],[4.67,45.876],[4.677,45.868],[4.669,45.859],[4.66,45.867]]]}},{"type":"Feature","properties":{"code":"69021","nom":"Bessenay"},"geometry":{"type":"Polygon","coordinates":[[[4.532,45.79],[4.569,45.79],[4.585,45.788],[4.572,45.774],[4.548,45.752],[4.525,45.759],[4.512,45.778],[4.532,45.79]]]}},{"type":"Feature","properties":{"code":"69022","nom":"Bibost"},"geometry":{"type":"Polygon","coordinates":[[[4.569,45.79],[4.532,45.79],[4.542,45.808],[4.569,45.79]]]}},{"type":"Feature","properties":{"code":"69023","nom":"Blacé"},"geometry":{"type":"Polygon","coordinates":[[[4.671,46.048],[4.676,46.036],[4.613,46.019],[4.588,46.033],[4.62,46.038],[4.646,46.048],[4.671,46.048]]]}},{"type":"Feature","properties":{"code":"69024","nom":"Val d'Oingt"},"geometry":{"type":"Polygon","coordinates":[[[4.577,45.974],[4.594,45.949],[4.592,45.932],[4.595,45.915],[4.594,45.904],[4.592,45.903],[4.562,45.91],[4.538,45.932],[4.55,45.946],[4.573,45.955],[4.577,45.974]]]}},{"type":"Feature","properties":{"code":"69026","nom":"Le Breuil"},"geometry":{"type":"Polygon","coordinates":[[[4.606,45.88],[4.599,45.877],[4.583,45.879],[4.57,45.895],[4.592,45.903],[4.594,45.904],[4.607,45.904],[4.606,45.88]]]}},{"type":"Feature","properties":{"code":"69027","nom":"Brignais"},"geometry":{"type":"Polygon","coordinates":[[[4.726,45.675],[4.729,45.691],[4.764,45.69],[4.781,45.673],[4.751,45.659],[4.726,45.675]]]}},{"type":"Feature","properties":{"code":"69028","nom":"Brindas"},"geometry":{"type":"Polygon","coordinates":[[[4.71,45.699],[4.708,45.7],[4.671,45.716],[4.698,45.733],[4.712,45.736],[4.727,45.738],[4.735,45.725],[4.71,45.699]]]}},{"type":"Feature","properties":{"code":"69029","nom":"Bron"},"geometry":{"type":"Polygon","coordinates":[[[4.892,45.739],[4.898,45.753],[4.918,45.748],[4.933,45.744],[4.937,45.726],[4.91,45.718],[4.887,45.726],[4.892,45.739]]]}},{"type":"Feature","properties":{"code":"69030","nom":"Brullioles"},"geometry":{"type":"Polygon","coordinates":[[[4.525,45.759],[4.495,45.745],[4.451,45.764],[4.46,45.766],[4.486,45.777],[4.512,45.778],[4.525,45.759]]]}},{"type":"Feature","properties":{"code":"69031","nom":"Brussieu"},"geometry":{"type":"Polygon","coordinates":[[[4.495,45.745],[4.525,45.759],[4.548,45.752],[4.524,45.739],[4.505,45.731],[4.495,45.745]]]}},{"type":"Feature","properties":{"code":"69032","nom":"Bully"},"geometry":{"type":"Polygon","coordinates":[[[4.583,45.879],[4.599,45.877],[4.603,45.847],[4.596,45.84],[4.563,45.846],[4.551,45.865],[4.583,45.879]]]}},{"type":"Feature","properties":{"code":"69033","nom":"Cailloux-sur-Fontaines"},"geometry":{"type":"Polygon","coordinates":[[[4.909,45.874],[4.901,45.858],[4.898,45.85],[4.867,45.838],[4.854,45.856],[4.877,45.861],[4.884,45.88],[4.909,45.874]]]}},{"type":"Feature","properties":{"code":"69034","nom":"Caluire-et-Cuire"},"geometry":{"type":"Polygon","coordinates":[[[4.819,45.79],[4.841,45.804],[4.856,45.818],[4.866,45.815],[4.88,45.795],[4.86,45.787],[4.843,45.779],[4.819,45.79]]]}},{"type":"Feature","properties":{"code":"69035","nom":"Cenves"},"geometry":{"type":"Polygon","coordinates":[[[4.639,46.302],[4.663,46.295],[4.694,46.302],[4.694,46.295],[4.707,46.285],[4.708,46.27],[4.701,46.267],[4.68,46.268],[4.673,46.256],[4.643,46.255],[4.618,46.265],[4.617,46.281],[4.639,46.302]]]}},{"type":"Feature","properties":{"code":"69036","nom":"Cercié"},"geometry":{"type":"Polygon","coordinates":[[[4.648,46.117],[4.641,46.121],[4.676,46.135],[4.691,46.133],[4.696,46.127],[4.648,46.117]]]}},{"type":"Feature","properties":{"code":"69037","nom":"Chambost-Allières"},"geometry":{"type":"Polygon","coordinates":[[[4.516,46.033],[4.54,46.018],[4.546,45.999],[4.536,46.004],[4.497,46.001],[4.468,46.012],[4.496,46.03],[4.516,46.033]]]}},{"type":"Feature","properties":{"code":"69038","nom":"Chambost-Longessaigne"},"geometry":{"type":"Polygon","coordinates":[[[4.391,45.755],[4.359,45.751],[4.349,45.771],[4.376,45.782],[4.388,45.803],[4.398,45.793],[4.407,45.772],[4.391,45.755]]]}},{"type":"Feature","properties":{"code":"69039","nom":"Chamelet"},"geometry":{"type":"Polygon","coordinates":[[[4.459,45.979],[4.497,46.001],[4.536,46.004],[4.512,45.973],[4.481,45.962],[4.459,45.979]]]}},{"type":"Feature","properties":{"code":"69040","nom":"Champagne-au-Mont-d'Or"},"geometry":{"type":"Polygon","coordinates":[[[4.782,45.812],[4.802,45.792],[4.788,45.79],[4.77,45.801],[4.771,45.803],[4.782,45.812]]]}},{"type":"Feature","properties":{"code":"69042","nom":"La Chapelle-sur-Coise"},"geometry":{"type":"Polygon","coordinates":[[[4.479,45.64],[4.481,45.66],[4.502,45.667],[4.513,45.649],[4.515,45.641],[4.479,45.64]]]}},{"type":"Feature","properties":{"code":"69043","nom":"Chaponost"},"geometry":{"type":"Polygon","coordinates":[[[4.729,45.691],[4.71,45.699],[4.735,45.725],[4.772,45.729],[4.78,45.723],[4.778,45.72],[4.764,45.69],[4.729,45.691]]]}},{"type":"Feature","properties":{"code":"69044","nom":"Charbonnières-les-Bains"},"geometry":{"type":"Polygon","coordinates":[[[4.731,45.788],[4.732,45.788],[4.752,45.791],[4.761,45.771],[4.726,45.777],[4.731,45.788]]]}},{"type":"Feature","properties":{"code":"69045","nom":"Charentay"},"geometry":{"type":"Polygon","coordinates":[[[4.668,46.101],[4.699,46.102],[4.723,46.09],[4.682,46.061],[4.665,46.077],[4.668,46.101]]]}},{"type":"Feature","properties":{"code":"69046","nom":"Charly"},"geometry":{"type":"Polygon","coordinates":[[[4.789,45.665],[4.792,45.666],[4.803,45.661],[4.796,45.637],[4.768,45.65],[4.789,45.665]]]}},{"type":"Feature","properties":{"code":"69047","nom":"Charnay"},"geometry":{"type":"Polygon","coordinates":[[[4.646,45.896],[4.647,45.906],[4.648,45.908],[4.67,45.905],[4.676,45.903],[4.674,45.882],[4.67,45.876],[4.66,45.867],[4.646,45.896]]]}},{"type":"Feature","properties":{"code":"69049","nom":"Chasselay"},"geometry":{"type":"Polygon","coordinates":[[[4.771,45.85],[4.766,45.848],[4.746,45.879],[4.764,45.896],[4.793,45.898],[4.788,45.869],[4.771,45.85]]]}},{"type":"Feature","properties":{"code":"69050","nom":"Châtillon"},"geometry":{"type":"Polygon","coordinates":[[[4.669,45.859],[4.67,45.856],[4.637,45.846],[4.628,45.88],[4.629,45.898],[4.646,45.896],[4.66,45.867],[4.669,45.859]]]}},{"type":"Feature","properties":{"code":"69051","nom":"Chaussan"},"geometry":{"type":"Polygon","coordinates":[[[4.612,45.626],[4.61,45.639],[4.652,45.656],[4.654,45.654],[4.656,45.644],[4.65,45.629],[4.612,45.626]]]}},{"type":"Feature","properties":{"code":"69052","nom":"Chazay-d'Azergues"},"geometry":{"type":"Polygon","coordinates":[[[4.73,45.888],[4.73,45.886],[4.72,45.872],[4.698,45.859],[4.69,45.866],[4.694,45.88],[4.73,45.888]]]}},{"type":"Feature","properties":{"code":"69053","nom":"Chénas"},"geometry":{"type":"Polygon","coordinates":[[[4.72,46.229],[4.736,46.212],[4.721,46.198],[4.682,46.213],[4.698,46.229],[4.72,46.229]]]}},{"type":"Feature","properties":{"code":"69054","nom":"Chénelette"},"geometry":{"type":"Polygon","coordinates":[[[4.507,46.159],[4.499,46.144],[4.482,46.15],[4.468,46.183],[4.48,46.198],[4.51,46.173],[4.507,46.159]]]}},{"type":"Feature","properties":{"code":"69055","nom":"Les Chères"},"geometry":{"type":"Polygon","coordinates":[[[4.73,45.886],[4.73,45.888],[4.727,45.908],[4.734,45.911],[4.764,45.896],[4.746,45.879],[4.743,45.878],[4.73,45.886]]]}},{"type":"Feature","properties":{"code":"69056","nom":"Chessy"},"geometry":{"type":"Polygon","coordinates":[[[4.628,45.88],[4.606,45.88],[4.607,45.904],[4.629,45.898],[4.628,45.88]]]}},{"type":"Feature","properties":{"code":"69057","nom":"Chevinay"},"geometry":{"type":"Polygon","coordinates":[[[4.626,45.761],[4.618,45.756],[4.593,45.756],[4.572,45.774],[4.585,45.788],[4.589,45.798],[4.593,45.796],[4.626,45.761]]]}},{"type":"Feature","properties":{"code":"69058","nom":"Chiroubles"},"geometry":{"type":"Polygon","coordinates":[[[4.666,46.197],[4.681,46.177],[4.652,46.175],[4.622,46.189],[4.627,46.194],[4.666,46.197]]]}},{"type":"Feature","properties":{"code":"69059","nom":"Civrieux-d'Azergues"},"geometry":{"type":"Polygon","coordinates":[[[4.72,45.872],[4.727,45.849],[4.699,45.842],[4.698,45.859],[4.72,45.872]]]}},{"type":"Feature","properties":{"code":"69060","nom":"Claveisolles"},"geometry":{"type":"Polygon","coordinates":[[[4.53,46.121],[4.551,46.085],[4.541,46.067],[4.492,46.072],[4.467,46.116],[4.523,46.125],[4.53,46.121]]]}},{"type":"Feature","properties":{"code":"69061","nom":"Cogny"},"geometry":{"type":"Polygon","coordinates":[[[4.562,45.995],[4.614,45.99],[4.626,45.999],[4.636,45.993],[4.639,45.981],[4.618,45.978],[4.565,45.989],[4.562,45.995]]]}},{"type":"Feature","properties":{"code":"69062","nom":"Coise"},"geometry":{"type":"Polygon","coordinates":[[[4.474,45.595],[4.461,45.601],[4.442,45.623],[4.468,45.628],[4.489,45.605],[4.474,45.595]]]}},{"type":"Feature","properties":{"code":"69063","nom":"Collonges-au-Mont-d'Or"},"geometry":{"type":"Polygon","coordinates":[[[4.839,45.834],[4.841,45.833],[4.856,45.818],[4.841,45.804],[4.837,45.808],[4.828,45.83],[4.839,45.834]]]}},{"type":"Feature","properties":{"code":"69064","nom":"Condrieu"},"geometry":{"type":"Polygon","coordinates":[[[4.78,45.455],[4.776,45.454],[4.757,45.456],[4.739,45.473],[4.722,45.494],[4.724,45.495],[4.756,45.493],[4.78,45.47],[4.781,45.458],[4.78,45.455]]]}},{"type":"Feature","properties":{"code":"69065","nom":"Corcelles-en-Beaujolais"},"geometry":{"type":"Polygon","coordinates":[[[4.75,46.168],[4.743,46.142],[4.703,46.145],[4.704,46.168],[4.75,46.168]]]}},{"type":"Feature","properties":{"code":"69066","nom":"Cours"},"geometry":{"type":"Polygon","coordinates":[[[4.362,46.139],[4.382,46.134],[4.389,46.104],[4.367,46.086],[4.341,46.092],[4.297,46.064],[4.301,46.079],[4.309,46.11],[4.322,46.13],[4.333,46.135],[4.362,46.139]]]}},{"type":"Feature","properties":{"code":"69067","nom":"Courzieu"},"geometry":{"type":"Polygon","coordinates":[[[4.572,45.774],[4.593,45.756],[4.618,45.756],[4.618,45.756],[4.602,45.727],[4.566,45.719],[4.521,45.729],[4.524,45.739],[4.548,45.752],[4.572,45.774]]]}},{"type":"Feature","properties":{"code":"69068","nom":"Couzon-au-Mont-d'Or"},"geometry":{"type":"Polygon","coordinates":[[[4.807,45.843],[4.806,45.844],[4.813,45.855],[4.817,45.856],[4.837,45.854],[4.837,45.852],[4.832,45.84],[4.807,45.843]]]}},{"type":"Feature","properties":{"code":"69069","nom":"Craponne"},"geometry":{"type":"Polygon","coordinates":[[[4.744,45.756],[4.753,45.75],[4.727,45.738],[4.712,45.736],[4.716,45.754],[4.744,45.756]]]}},{"type":"Feature","properties":{"code":"69070","nom":"Cublize"},"geometry":{"type":"Polygon","coordinates":[[[4.354,46.027],[4.369,46.04],[4.395,46.046],[4.424,46.027],[4.431,46.02],[4.427,46.018],[4.357,46.004],[4.354,46.027]]]}},{"type":"Feature","properties":{"code":"69071","nom":"Curis-au-Mont-d'Or"},"geometry":{"type":"Polygon","coordinates":[[[4.82,45.882],[4.832,45.879],[4.817,45.856],[4.813,45.855],[4.807,45.869],[4.82,45.882]]]}},{"type":"Feature","properties":{"code":"69072","nom":"Dardilly"},"geometry":{"type":"Polygon","coordinates":[[[4.732,45.788],[4.722,45.823],[4.736,45.837],[4.746,45.839],[4.77,45.819],[4.771,45.803],[4.77,45.801],[4.752,45.791],[4.732,45.788]]]}},{"type":"Feature","properties":{"code":"69074","nom":"Denicé"},"geometry":{"type":"Polygon","coordinates":[[[4.671,46.016],[4.679,46.003],[4.658,45.993],[4.636,45.993],[4.626,45.999],[4.619,46.009],[4.629,46.015],[4.671,46.016]]]}},{"type":"Feature","properties":{"code":"69075","nom":"Dième"},"geometry":{"type":"Polygon","coordinates":[[[4.481,45.962],[4.484,45.961],[4.483,45.947],[4.479,45.94],[4.465,45.945],[4.433,45.966],[4.447,45.979],[4.459,45.979],[4.481,45.962]]]}},{"type":"Feature","properties":{"code":"69076","nom":"Dommartin"},"geometry":{"type":"Polygon","coordinates":[[[4.727,45.849],[4.735,45.851],[4.736,45.837],[4.722,45.823],[4.695,45.825],[4.687,45.838],[4.699,45.842],[4.727,45.849]]]}},{"type":"Feature","properties":{"code":"69077","nom":"Dracé"},"geometry":{"type":"Polygon","coordinates":[[[4.803,46.157],[4.796,46.139],[4.788,46.131],[4.755,46.142],[4.743,46.142],[4.75,46.168],[4.763,46.176],[4.775,46.177],[4.78,46.177],[4.782,46.172],[4.792,46.164],[4.803,46.157]]]}},{"type":"Feature","properties":{"code":"69078","nom":"Duerne"},"geometry":{"type":"Polygon","coordinates":[[[4.504,45.689],[4.511,45.694],[4.548,45.698],[4.513,45.649],[4.502,45.667],[4.504,45.689]]]}},{"type":"Feature","properties":{"code":"69080","nom":"Échalas"},"geometry":{"type":"Polygon","coordinates":[[[4.716,45.529],[4.693,45.551],[4.725,45.574],[4.767,45.557],[4.751,45.532],[4.716,45.529]]]}},{"type":"Feature","properties":{"code":"69081","nom":"Écully"},"geometry":{"type":"Polygon","coordinates":[[[4.788,45.79],[4.792,45.773],[4.761,45.771],[4.752,45.791],[4.77,45.801],[4.788,45.79]]]}},{"type":"Feature","properties":{"code":"69082","nom":"Émeringes"},"geometry":{"type":"Polygon","coordinates":[[[4.653,46.235],[4.696,46.232],[4.698,46.229],[4.682,46.213],[4.674,46.217],[4.653,46.235]]]}},{"type":"Feature","properties":{"code":"69083","nom":"Éveux"},"geometry":{"type":"Polygon","coordinates":[[[4.632,45.817],[4.615,45.816],[4.607,45.823],[4.622,45.835],[4.636,45.823],[4.632,45.817]]]}},{"type":"Feature","properties":{"code":"69084","nom":"Fleurie"},"geometry":{"type":"Polygon","coordinates":[[[4.725,46.184],[4.696,46.174],[4.681,46.177],[4.666,46.197],[4.674,46.217],[4.682,46.213],[4.721,46.198],[4.725,46.184]]]}},{"type":"Feature","properties":{"code":"69085","nom":"Fleurieu-sur-Saône"},"geometry":{"type":"Polygon","coordinates":[[[4.837,45.852],[4.837,45.854],[4.837,45.866],[4.85,45.866],[4.877,45.861],[4.854,45.856],[4.845,45.848],[4.837,45.852]]]}},{"type":"Feature","properties":{"code":"69086","nom":"Fleurieux-sur-l'Arbresle"},"geometry":{"type":"Polygon","coordinates":[[[4.636,45.823],[4.622,45.835],[4.625,45.84],[4.637,45.846],[4.67,45.856],[4.675,45.843],[4.636,45.823]]]}},{"type":"Feature","properties":{"code":"69087","nom":"Fontaines-Saint-Martin"},"geometry":{"type":"Polygon","coordinates":[[[4.867,45.838],[4.864,45.833],[4.841,45.837],[4.845,45.848],[4.854,45.856],[4.867,45.838]]]}},{"type":"Feature","properties":{"code":"69088","nom":"Fontaines-sur-Saône"},"geometry":{"type":"Polygon","coordinates":[[[4.864,45.833],[4.865,45.832],[4.867,45.815],[4.866,45.815],[4.856,45.818],[4.841,45.833],[4.841,45.837],[4.864,45.833]]]}},{"type":"Feature","properties":{"code":"69089","nom":"Francheville"},"geometry":{"type":"Polygon","coordinates":[[[4.772,45.751],[4.778,45.747],[4.772,45.729],[4.735,45.725],[4.727,45.738],[4.753,45.75],[4.772,45.751]]]}},{"type":"Feature","properties":{"code":"69090","nom":"Frontenas"},"geometry":{"type":"Polygon","coordinates":[[[4.648,45.908],[4.647,45.906],[4.612,45.924],[4.613,45.93],[4.653,45.926],[4.648,45.908]]]}},{"type":"Feature","properties":{"code":"69091","nom":"Givors"},"geometry":{"type":"Polygon","coordinates":[[[4.779,45.591],[4.777,45.588],[4.809,45.573],[4.767,45.557],[4.725,45.574],[4.713,45.574],[4.746,45.592],[4.758,45.608],[4.764,45.609],[4.779,45.591]]]}},{"type":"Feature","properties":{"code":"69092","nom":"Gleizé"},"geometry":{"type":"Polygon","coordinates":[[[4.698,45.98],[4.694,45.975],[4.684,45.974],[4.659,45.979],[4.658,45.993],[4.679,46.003],[4.719,46],[4.698,45.98]]]}},{"type":"Feature","properties":{"code":"69093","nom":"Grandris"},"geometry":{"type":"Polygon","coordinates":[[[4.431,46.02],[4.424,46.027],[4.449,46.055],[4.477,46.048],[4.496,46.03],[4.468,46.012],[4.431,46.02]]]}},{"type":"Feature","properties":{"code":"69094","nom":"Grézieu-la-Varenne"},"geometry":{"type":"Polygon","coordinates":[[[4.643,45.748],[4.694,45.76],[4.706,45.761],[4.716,45.754],[4.712,45.736],[4.698,45.733],[4.643,45.748]]]}},{"type":"Feature","properties":{"code":"69095","nom":"Grézieu-le-Marché"},"geometry":{"type":"Polygon","coordinates":[[[4.393,45.662],[4.393,45.663],[4.441,45.677],[4.457,45.662],[4.409,45.637],[4.393,45.654],[4.393,45.662]]]}},{"type":"Feature","properties":{"code":"69096","nom":"Grigny"},"geometry":{"type":"Polygon","coordinates":[[[4.804,45.63],[4.807,45.629],[4.801,45.608],[4.779,45.591],[4.764,45.609],[4.774,45.61],[4.804,45.63]]]}},{"type":"Feature","properties":{"code":"69097","nom":"Les Haies"},"geometry":{"type":"Polygon","coordinates":[[[4.776,45.524],[4.776,45.518],[4.756,45.493],[4.724,45.495],[4.703,45.517],[4.716,45.529],[4.751,45.532],[4.776,45.524]]]}},{"type":"Feature","properties":{"code":"69098","nom":"Les Halles"},"geometry":{"type":"Polygon","coordinates":[[[4.445,45.716],[4.439,45.705],[4.437,45.731],[4.445,45.716]]]}},{"type":"Feature","properties":{"code":"69099","nom":"Haute-Rivoire"},"geometry":{"type":"Polygon","coordinates":[[[4.366,45.699],[4.403,45.744],[4.436,45.737],[4.437,45.731],[4.439,45.705],[4.434,45.691],[4.416,45.698],[4.374,45.691],[4.366,45.699]]]}},{"type":"Feature","properties":{"code":"69100","nom":"Irigny"},"geometry":{"type":"Polygon","coordinates":[[[4.83,45.66],[4.828,45.654],[4.803,45.661],[4.792,45.666],[4.82,45.696],[4.838,45.692],[4.837,45.687],[4.83,45.66]]]}},{"type":"Feature","properties":{"code":"69102","nom":"Joux"},"geometry":{"type":"Polygon","coordinates":[[[4.324,45.904],[4.346,45.916],[4.396,45.908],[4.413,45.891],[4.395,45.865],[4.363,45.864],[4.343,45.877],[4.324,45.904]]]}},{"type":"Feature","properties":{"code":"69103","nom":"Juliénas"},"geometry":{"type":"Polygon","coordinates":[[[4.673,46.256],[4.68,46.268],[4.71,46.248],[4.737,46.233],[4.72,46.229],[4.698,46.229],[4.696,46.232],[4.673,46.256]]]}},{"type":"Feature","properties":{"code":"69104","nom":"Jullié"},"geometry":{"type":"Polygon","coordinates":[[[4.696,46.232],[4.653,46.235],[4.63,46.248],[4.643,46.255],[4.673,46.256],[4.696,46.232]]]}},{"type":"Feature","properties":{"code":"69105","nom":"Lacenas"},"geometry":{"type":"Polygon","coordinates":[[[4.639,45.981],[4.636,45.993],[4.658,45.993],[4.659,45.979],[4.639,45.981]]]}},{"type":"Feature","properties":{"code":"69106","nom":"Lachassagne"},"geometry":{"type":"Polygon","coordinates":[[[4.666,45.925],[4.656,45.927],[4.66,45.935],[4.7,45.924],[4.688,45.917],[4.666,45.925]]]}},{"type":"Feature","properties":{"code":"69107","nom":"Lamure-sur-Azergues"},"geometry":{"type":"Polygon","coordinates":[[[4.516,46.033],[4.496,46.03],[4.477,46.048],[4.492,46.072],[4.541,46.067],[4.536,46.048],[4.516,46.033]]]}},{"type":"Feature","properties":{"code":"69108","nom":"Lancié"},"geometry":{"type":"Polygon","coordinates":[[[4.696,46.174],[4.725,46.184],[4.763,46.176],[4.75,46.168],[4.704,46.168],[4.696,46.174]]]}},{"type":"Feature","properties":{"code":"69109","nom":"Lantignié"},"geometry":{"type":"Polygon","coordinates":[[[4.614,46.181],[4.635,46.155],[4.62,46.134],[4.602,46.143],[4.611,46.183],[4.614,46.181]]]}},{"type":"Feature","properties":{"code":"69110","nom":"Larajasse"},"geometry":{"type":"Polygon","coordinates":[[[4.557,45.613],[4.548,45.58],[4.505,45.577],[4.468,45.586],[4.474,45.595],[4.489,45.605],[4.468,45.628],[4.468,45.636],[4.479,45.64],[4.515,45.641],[4.557,45.613]]]}},{"type":"Feature","properties":{"code":"69111","nom":"Légny"},"geometry":{"type":"Polygon","coordinates":[[[4.557,45.901],[4.562,45.91],[4.592,45.903],[4.57,45.895],[4.557,45.901]]]}},{"type":"Feature","properties":{"code":"69112","nom":"Lentilly"},"geometry":{"type":"Polygon","coordinates":[[[4.657,45.791],[4.632,45.817],[4.636,45.823],[4.675,45.843],[4.687,45.838],[4.695,45.825],[4.706,45.794],[4.692,45.79],[4.679,45.793],[4.657,45.791]]]}},{"type":"Feature","properties":{"code":"69113","nom":"Létra"},"geometry":{"type":"Polygon","coordinates":[[[4.484,45.961],[4.481,45.962],[4.512,45.973],[4.536,46.004],[4.546,45.999],[4.551,45.999],[4.549,45.969],[4.529,45.95],[4.484,45.961]]]}},{"type":"Feature","properties":{"code":"69115","nom":"Limas"},"geometry":{"type":"Polygon","coordinates":[[[4.694,45.975],[4.698,45.98],[4.741,45.968],[4.723,45.963],[4.694,45.975]]]}},{"type":"Feature","properties":{"code":"69116","nom":"Limonest"},"geometry":{"type":"Polygon","coordinates":[[[4.746,45.839],[4.766,45.848],[4.771,45.85],[4.786,45.842],[4.782,45.812],[4.771,45.803],[4.77,45.819],[4.746,45.839]]]}},{"type":"Feature","properties":{"code":"69117","nom":"Lissieu"},"geometry":{"type":"Polygon","coordinates":[[[4.743,45.878],[4.746,45.879],[4.766,45.848],[4.746,45.839],[4.736,45.837],[4.735,45.851],[4.743,45.878]]]}},{"type":"Feature","properties":{"code":"69118","nom":"Loire-sur-Rhône"},"geometry":{"type":"Polygon","coordinates":[[[4.82,45.559],[4.789,45.526],[4.787,45.527],[4.776,45.524],[4.751,45.532],[4.767,45.557],[4.809,45.573],[4.816,45.566],[4.82,45.559]]]}},{"type":"Feature","properties":{"code":"69119","nom":"Longes"},"geometry":{"type":"Polygon","coordinates":[[[4.665,45.543],[4.666,45.543],[4.703,45.517],[4.724,45.495],[4.722,45.494],[4.682,45.48],[4.664,45.485],[4.65,45.497],[4.651,45.531],[4.665,45.543]]]}},{"type":"Feature","properties":{"code":"69120","nom":"Longessaigne"},"geometry":{"type":"Polygon","coordinates":[[[4.451,45.764],[4.407,45.772],[4.398,45.793],[4.439,45.803],[4.46,45.766],[4.451,45.764]]]}},{"type":"Feature","properties":{"code":"69121","nom":"Lozanne"},"geometry":{"type":"Polygon","coordinates":[[[4.677,45.868],[4.69,45.866],[4.698,45.859],[4.699,45.842],[4.687,45.838],[4.675,45.843],[4.67,45.856],[4.669,45.859],[4.677,45.868]]]}},{"type":"Feature","properties":{"code":"69122","nom":"Lucenay"},"geometry":{"type":"Polygon","coordinates":[[[4.734,45.911],[4.734,45.911],[4.727,45.908],[4.685,45.906],[4.688,45.917],[4.7,45.924],[4.733,45.921],[4.734,45.911]]]}},{"type":"Feature","properties":{"code":"69124","nom":"Marchampt"},"geometry":{"type":"Polygon","coordinates":[[[4.551,46.085],[4.53,46.121],[4.547,46.134],[4.578,46.13],[4.584,46.086],[4.551,46.085]]]}},{"type":"Feature","properties":{"code":"69125","nom":"Marcilly-d'Azergues"},"geometry":{"type":"Polygon","coordinates":[[[4.72,45.872],[4.73,45.886],[4.743,45.878],[4.735,45.851],[4.727,45.849],[4.72,45.872]]]}},{"type":"Feature","properties":{"code":"69126","nom":"Marcy"},"geometry":{"type":"Polygon","coordinates":[[[4.685,45.906],[4.676,45.903],[4.67,45.905],[4.666,45.925],[4.688,45.917],[4.685,45.906]]]}},{"type":"Feature","properties":{"code":"69127","nom":"Marcy-l'Étoile"},"geometry":{"type":"Polygon","coordinates":[[[4.731,45.788],[4.726,45.777],[4.712,45.774],[4.692,45.79],[4.706,45.794],[4.731,45.788]]]}},{"type":"Feature","properties":{"code":"69130","nom":"Meaux-la-Montagne"},"geometry":{"type":"Polygon","coordinates":[[[4.396,46.053],[4.441,46.062],[4.449,46.055],[4.424,46.027],[4.395,46.046],[4.396,46.053]]]}},{"type":"Feature","properties":{"code":"69131","nom":"Messimy"},"geometry":{"type":"Polygon","coordinates":[[[4.708,45.7],[4.675,45.679],[4.645,45.703],[4.642,45.704],[4.671,45.716],[4.708,45.7]]]}},{"type":"Feature","properties":{"code":"69132","nom":"Meys"},"geometry":{"type":"Polygon","coordinates":[[[4.393,45.663],[4.366,45.671],[4.374,45.691],[4.416,45.698],[4.434,45.691],[4.446,45.688],[4.441,45.677],[4.393,45.663]]]}},{"type":"Feature","properties":{"code":"69133","nom":"Millery"},"geometry":{"type":"Polygon","coordinates":[[[4.774,45.61],[4.758,45.641],[4.768,45.65],[4.796,45.637],[4.804,45.63],[4.774,45.61]]]}},{"type":"Feature","properties":{"code":"69134","nom":"Moiré"},"geometry":{"type":"Polygon","coordinates":[[[4.612,45.924],[4.595,45.915],[4.592,45.932],[4.613,45.93],[4.612,45.924]]]}},{"type":"Feature","properties":{"code":"69135","nom":"Deux-Grosnes"},"geometry":{"type":"Polygon","coordinates":[[[4.57,46.293],[4.571,46.29],[4.586,46.269],[4.618,46.265],[4.643,46.255],[4.63,46.248],[4.608,46.211],[4.627,46.194],[4.622,46.189],[4.619,46.185],[4.614,46.181],[4.611,46.183],[4.577,46.191],[4.552,46.211],[4.498,46.2],[4.486,46.205],[4.483,46.209],[4.485,46.237],[4.504,46.267],[4.546,46.274],[4.558,46.295],[4.57,46.293]]]}},{"type":"Feature","properties":{"code":"69136","nom":"Montagny"},"geometry":{"type":"Polygon","coordinates":[[[4.758,45.641],[4.774,45.61],[4.764,45.609],[4.758,45.608],[4.73,45.621],[4.749,45.651],[4.758,45.641]]]}},{"type":"Feature","properties":{"code":"69137","nom":"Montmelas-Saint-Sorlin"},"geometry":{"type":"Polygon","coordinates":[[[4.577,46.027],[4.588,46.033],[4.613,46.019],[4.629,46.015],[4.619,46.009],[4.577,46.027]]]}},{"type":"Feature","properties":{"code":"69138","nom":"Montromant"},"geometry":{"type":"Polygon","coordinates":[[[4.564,45.702],[4.548,45.698],[4.511,45.694],[4.505,45.717],[4.521,45.729],[4.566,45.719],[4.564,45.702]]]}},{"type":"Feature","properties":{"code":"69139","nom":"Montrottier"},"geometry":{"type":"Polygon","coordinates":[[[4.486,45.777],[4.46,45.766],[4.439,45.803],[4.441,45.834],[4.441,45.834],[4.476,45.818],[4.502,45.791],[4.486,45.777]]]}},{"type":"Feature","properties":{"code":"69140","nom":"Morancé"},"geometry":{"type":"Polygon","coordinates":[[[4.676,45.903],[4.685,45.906],[4.727,45.908],[4.73,45.888],[4.694,45.88],[4.674,45.882],[4.676,45.903]]]}},{"type":"Feature","properties":{"code":"69141","nom":"Mornant"},"geometry":{"type":"Polygon","coordinates":[[[4.656,45.644],[4.71,45.619],[4.666,45.589],[4.639,45.611],[4.65,45.629],[4.656,45.644]]]}},{"type":"Feature","properties":{"code":"69142","nom":"La Mulatière"},"geometry":{"type":"Polygon","coordinates":[[[4.813,45.748],[4.818,45.749],[4.819,45.727],[4.821,45.719],[4.803,45.723],[4.813,45.748]]]}},{"type":"Feature","properties":{"code":"69143","nom":"Neuville-sur-Saône"},"geometry":{"type":"Polygon","coordinates":[[[4.832,45.879],[4.82,45.882],[4.815,45.884],[4.866,45.891],[4.85,45.866],[4.837,45.866],[4.832,45.879]]]}},{"type":"Feature","properties":{"code":"69145","nom":"Odenas"},"geometry":{"type":"Polygon","coordinates":[[[4.646,46.108],[4.668,46.101],[4.665,46.077],[4.644,46.082],[4.616,46.091],[4.646,46.108]]]}},{"type":"Feature","properties":{"code":"69148","nom":"Orliénas"},"geometry":{"type":"Polygon","coordinates":[[[4.706,45.644],[4.69,45.663],[4.726,45.675],[4.751,45.659],[4.749,45.651],[4.706,45.644]]]}},{"type":"Feature","properties":{"code":"69149","nom":"Oullins-Pierre-Bénite"},"geometry":{"type":"Polygon","coordinates":[[[4.841,45.708],[4.838,45.692],[4.82,45.696],[4.778,45.72],[4.78,45.723],[4.803,45.723],[4.821,45.719],[4.841,45.708]]]}},{"type":"Feature","properties":{"code":"69151","nom":"Le Perréon"},"geometry":{"type":"Polygon","coordinates":[[[4.584,46.086],[4.592,46.08],[4.626,46.062],[4.633,46.057],[4.619,46.05],[4.585,46.062],[4.541,46.067],[4.551,46.085],[4.584,46.086]]]}},{"type":"Feature","properties":{"code":"69153","nom":"Poleymieux-au-Mont-d'Or"},"geometry":{"type":"Polygon","coordinates":[[[4.793,45.843],[4.786,45.842],[4.771,45.85],[4.788,45.869],[4.807,45.869],[4.813,45.855],[4.806,45.844],[4.793,45.843]]]}},{"type":"Feature","properties":{"code":"69154","nom":"Pollionnay"},"geometry":{"type":"Polygon","coordinates":[[[4.694,45.76],[4.643,45.748],[4.618,45.756],[4.618,45.756],[4.626,45.761],[4.64,45.778],[4.657,45.791],[4.679,45.793],[4.694,45.76]]]}},{"type":"Feature","properties":{"code":"69155","nom":"Pomeys"},"geometry":{"type":"Polygon","coordinates":[[[4.41,45.632],[4.409,45.637],[4.457,45.662],[4.481,45.66],[4.479,45.64],[4.468,45.636],[4.423,45.63],[4.41,45.632]]]}},{"type":"Feature","properties":{"code":"69156","nom":"Pommiers"},"geometry":{"type":"Polygon","coordinates":[[[4.663,45.948],[4.663,45.949],[4.684,45.974],[4.694,45.975],[4.723,45.963],[4.69,45.944],[4.663,45.948]]]}},{"type":"Feature","properties":{"code":"69157","nom":"Vindry-sur-Turdine"},"geometry":{"type":"Polygon","coordinates":[[[4.451,45.906],[4.494,45.914],[4.533,45.903],[4.539,45.877],[4.498,45.864],[4.464,45.886],[4.451,45.906]]]}},{"type":"Feature","properties":{"code":"69159","nom":"Porte des Pierres Dorées"},"geometry":{"type":"Polygon","coordinates":[[[4.639,45.981],[4.659,45.979],[4.684,45.974],[4.663,45.949],[4.623,45.955],[4.618,45.978],[4.639,45.981]]]}},{"type":"Feature","properties":{"code":"69160","nom":"Poule-les-Écharmeaux"},"geometry":{"type":"Polygon","coordinates":[[[4.417,46.136],[4.439,46.168],[4.468,46.183],[4.482,46.15],[4.499,46.144],[4.523,46.125],[4.467,46.116],[4.432,46.117],[4.417,46.136]]]}},{"type":"Feature","properties":{"code":"69161","nom":"Propières"},"geometry":{"type":"Polygon","coordinates":[[[4.423,46.203],[4.422,46.207],[4.446,46.207],[4.483,46.209],[4.486,46.205],[4.48,46.198],[4.468,46.183],[4.439,46.168],[4.414,46.18],[4.423,46.203]]]}},{"type":"Feature","properties":{"code":"69162","nom":"Quincié-en-Beaujolais"},"geometry":{"type":"Polygon","coordinates":[[[4.641,46.121],[4.648,46.117],[4.646,46.108],[4.616,46.091],[4.592,46.08],[4.584,46.086],[4.578,46.13],[4.602,46.143],[4.62,46.134],[4.641,46.121]]]}},{"type":"Feature","properties":{"code":"69163","nom":"Quincieux"},"geometry":{"type":"Polygon","coordinates":[[[4.734,45.911],[4.761,45.935],[4.789,45.924],[4.808,45.921],[4.811,45.91],[4.804,45.899],[4.793,45.898],[4.764,45.896],[4.734,45.911],[4.734,45.911]]]}},{"type":"Feature","properties":{"code":"69164","nom":"Ranchal"},"geometry":{"type":"Polygon","coordinates":[[[4.389,46.104],[4.382,46.134],[4.362,46.139],[4.382,46.15],[4.417,46.136],[4.432,46.117],[4.433,46.102],[4.425,46.103],[4.389,46.104]]]}},{"type":"Feature","properties":{"code":"69165","nom":"Régnié-Durette"},"geometry":{"type":"Polygon","coordinates":[[[4.619,46.185],[4.676,46.135],[4.641,46.121],[4.62,46.134],[4.635,46.155],[4.614,46.181],[4.619,46.185]]]}},{"type":"Feature","properties":{"code":"69166","nom":"Riverie"},"geometry":{"type":"Polygon","coordinates":[[[4.586,45.6],[4.592,45.602],[4.593,45.597],[4.589,45.594],[4.586,45.6]]]}},{"type":"Feature","properties":{"code":"69167","nom":"Rivolet"},"geometry":{"type":"Polygon","coordinates":[[[4.626,45.999],[4.614,45.99],[4.562,45.995],[4.551,45.999],[4.546,45.999],[4.54,46.018],[4.562,46.025],[4.577,46.027],[4.619,46.009],[4.626,45.999]]]}},{"type":"Feature","properties":{"code":"69168","nom":"Rochetaillée-sur-Saône"},"geometry":{"type":"Polygon","coordinates":[[[4.839,45.834],[4.832,45.84],[4.837,45.852],[4.845,45.848],[4.841,45.837],[4.841,45.833],[4.839,45.834]]]}},{"type":"Feature","properties":{"code":"69169","nom":"Ronno"},"geometry":{"type":"Polygon","coordinates":[[[4.419,45.99],[4.408,45.972],[4.39,45.948],[4.353,45.998],[4.357,46.004],[4.427,46.018],[4.419,45.99]]]}},{"type":"Feature","properties":{"code":"69170","nom":"Rontalon"},"geometry":{"type":"Polygon","coordinates":[[[4.591,45.647],[4.599,45.671],[4.638,45.67],[4.654,45.658],[4.652,45.656],[4.61,45.639],[4.591,45.647]]]}},{"type":"Feature","properties":{"code":"69171","nom":"Sain-Bel"},"geometry":{"type":"Polygon","coordinates":[[[4.6,45.827],[4.607,45.823],[4.615,45.816],[4.606,45.806],[4.593,45.796],[4.589,45.798],[4.6,45.827]]]}},{"type":"Feature","properties":{"code":"69172","nom":"Salles-Arbuissonnas-en-Beaujolais"},"geometry":{"type":"Polygon","coordinates":[[[4.62,46.038],[4.619,46.05],[4.633,46.057],[4.646,46.048],[4.62,46.038]]]}},{"type":"Feature","properties":{"code":"69173","nom":"Sarcey"},"geometry":{"type":"Polygon","coordinates":[[[4.539,45.877],[4.533,45.903],[4.557,45.901],[4.57,45.895],[4.583,45.879],[4.551,45.865],[4.539,45.877]]]}},{"type":"Feature","properties":{"code":"69174","nom":"Les Sauvages"},"geometry":{"type":"Polygon","coordinates":[[[4.346,45.93],[4.39,45.942],[4.4,45.931],[4.396,45.908],[4.346,45.916],[4.346,45.93]]]}},{"type":"Feature","properties":{"code":"69175","nom":"Savigny"},"geometry":{"type":"Polygon","coordinates":[[[4.542,45.808],[4.518,45.822],[4.541,45.833],[4.563,45.846],[4.596,45.84],[4.6,45.827],[4.589,45.798],[4.585,45.788],[4.569,45.79],[4.542,45.808]]]}},{"type":"Feature","properties":{"code":"69176","nom":"Soucieu-en-Jarrest"},"geometry":{"type":"Polygon","coordinates":[[[4.729,45.691],[4.726,45.675],[4.69,45.663],[4.654,45.654],[4.652,45.656],[4.654,45.658],[4.675,45.679],[4.708,45.7],[4.71,45.699],[4.729,45.691]]]}},{"type":"Feature","properties":{"code":"69177","nom":"Sourcieux-les-Mines"},"geometry":{"type":"Polygon","coordinates":[[[4.632,45.817],[4.657,45.791],[4.64,45.778],[4.606,45.806],[4.615,45.816],[4.632,45.817]]]}},{"type":"Feature","properties":{"code":"69178","nom":"Souzy"},"geometry":{"type":"Polygon","coordinates":[[[4.459,45.699],[4.446,45.688],[4.434,45.691],[4.439,45.705],[4.445,45.716],[4.46,45.717],[4.467,45.71],[4.459,45.699]]]}},{"type":"Feature","properties":{"code":"69179","nom":"Beauvallon"},"geometry":{"type":"Polygon","coordinates":[[[4.713,45.574],[4.687,45.558],[4.658,45.564],[4.649,45.565],[4.666,45.589],[4.71,45.619],[4.712,45.62],[4.73,45.621],[4.758,45.608],[4.746,45.592],[4.713,45.574]]]}},{"type":"Feature","properties":{"code":"69180","nom":"Saint-André-la-Côte"},"geometry":{"type":"Polygon","coordinates":[[[4.61,45.639],[4.612,45.626],[4.604,45.616],[4.583,45.629],[4.591,45.647],[4.61,45.639]]]}},{"type":"Feature","properties":{"code":"69181","nom":"Saint-Appolinaire"},"geometry":{"type":"Polygon","coordinates":[[[4.408,45.972],[4.419,45.99],[4.447,45.979],[4.433,45.966],[4.408,45.972]]]}},{"type":"Feature","properties":{"code":"69182","nom":"Saint-Bonnet-des-Bruyères"},"geometry":{"type":"Polygon","coordinates":[[[4.44,46.293],[4.489,46.288],[4.504,46.267],[4.485,46.237],[4.434,46.264],[4.457,46.277],[4.44,46.293]]]}},{"type":"Feature","properties":{"code":"69183","nom":"Saint-Bonnet-le-Troncy"},"geometry":{"type":"Polygon","coordinates":[[[4.396,46.053],[4.392,46.079],[4.425,46.103],[4.433,46.102],[4.441,46.062],[4.396,46.053]]]}},{"type":"Feature","properties":{"code":"69184","nom":"Sainte-Catherine"},"geometry":{"type":"Polygon","coordinates":[[[4.548,45.58],[4.557,45.613],[4.583,45.629],[4.604,45.616],[4.592,45.602],[4.586,45.6],[4.57,45.583],[4.548,45.58]]]}},{"type":"Feature","properties":{"code":"69186","nom":"Saint-Clément-de-Vers"},"geometry":{"type":"Polygon","coordinates":[[[4.385,46.247],[4.388,46.248],[4.402,46.248],[4.446,46.207],[4.422,46.207],[4.387,46.22],[4.386,46.226],[4.385,46.247]]]}},{"type":"Feature","properties":{"code":"69187","nom":"Saint-Clément-les-Places"},"geometry":{"type":"Polygon","coordinates":[[[4.403,45.744],[4.391,45.755],[4.407,45.772],[4.451,45.764],[4.436,45.737],[4.403,45.744]]]}},{"type":"Feature","properties":{"code":"69188","nom":"Saint-Clément-sur-Valsonne"},"geometry":{"type":"Polygon","coordinates":[[[4.465,45.945],[4.479,45.94],[4.494,45.914],[4.451,45.906],[4.423,45.922],[4.465,45.945]]]}},{"type":"Feature","properties":{"code":"69189","nom":"Sainte-Colombe"},"geometry":{"type":"Polygon","coordinates":[[[4.872,45.527],[4.861,45.517],[4.845,45.524],[4.872,45.527]]]}},{"type":"Feature","properties":{"code":"69190","nom":"Sainte-Consorce"},"geometry":{"type":"Polygon","coordinates":[[[4.706,45.761],[4.694,45.76],[4.679,45.793],[4.692,45.79],[4.712,45.774],[4.715,45.768],[4.706,45.761]]]}},{"type":"Feature","properties":{"code":"69191","nom":"Saint-Cyr-au-Mont-d'Or"},"geometry":{"type":"Polygon","coordinates":[[[4.806,45.844],[4.807,45.843],[4.828,45.83],[4.837,45.808],[4.818,45.799],[4.793,45.843],[4.806,45.844]]]}},{"type":"Feature","properties":{"code":"69192","nom":"Saint-Cyr-le-Chatoux"},"geometry":{"type":"Polygon","coordinates":[[[4.54,46.018],[4.516,46.033],[4.536,46.048],[4.562,46.025],[4.54,46.018]]]}},{"type":"Feature","properties":{"code":"69193","nom":"Saint-Cyr-sur-le-Rhône"},"geometry":{"type":"Polygon","coordinates":[[[4.787,45.527],[4.789,45.526],[4.845,45.524],[4.861,45.517],[4.846,45.504],[4.817,45.512],[4.787,45.527]]]}},{"type":"Feature","properties":{"code":"69194","nom":"Saint-Didier-au-Mont-d'Or"},"geometry":{"type":"Polygon","coordinates":[[[4.786,45.842],[4.793,45.843],[4.818,45.799],[4.802,45.792],[4.782,45.812],[4.786,45.842]]]}},{"type":"Feature","properties":{"code":"69196","nom":"Saint-Didier-sur-Beaujeu"},"geometry":{"type":"Polygon","coordinates":[[[4.499,46.144],[4.507,46.159],[4.529,46.154],[4.548,46.169],[4.569,46.165],[4.547,46.134],[4.53,46.121],[4.523,46.125],[4.499,46.144]]]}},{"type":"Feature","properties":{"code":"69197","nom":"Saint-Étienne-des-Oullières"},"geometry":{"type":"Polygon","coordinates":[[[4.626,46.062],[4.644,46.082],[4.665,46.077],[4.682,46.061],[4.671,46.048],[4.646,46.048],[4.633,46.057],[4.626,46.062]]]}},{"type":"Feature","properties":{"code":"69198","nom":"Saint-Étienne-la-Varenne"},"geometry":{"type":"Polygon","coordinates":[[[4.626,46.062],[4.592,46.08],[4.616,46.091],[4.644,46.082],[4.626,46.062]]]}},{"type":"Feature","properties":{"code":"69199","nom":"Saint-Fons"},"geometry":{"type":"Polygon","coordinates":[[[4.837,45.687],[4.838,45.692],[4.841,45.708],[4.849,45.719],[4.85,45.719],[4.862,45.688],[4.837,45.687]]]}},{"type":"Feature","properties":{"code":"69200","nom":"Saint-Forgeux"},"geometry":{"type":"Polygon","coordinates":[[[4.498,45.864],[4.496,45.855],[4.476,45.818],[4.441,45.834],[4.419,45.863],[4.456,45.871],[4.463,45.886],[4.464,45.886],[4.498,45.864]]]}},{"type":"Feature","properties":{"code":"69201","nom":"Sainte-Foy-l'Argentière"},"geometry":{"type":"Polygon","coordinates":[[[4.479,45.703],[4.459,45.699],[4.467,45.71],[4.479,45.703]]]}},{"type":"Feature","properties":{"code":"69202","nom":"Sainte-Foy-lès-Lyon"},"geometry":{"type":"Polygon","coordinates":[[[4.813,45.748],[4.803,45.723],[4.78,45.723],[4.772,45.729],[4.778,45.747],[4.813,45.748]]]}},{"type":"Feature","properties":{"code":"69203","nom":"Saint-Genis-l'Argentière"},"geometry":{"type":"Polygon","coordinates":[[[4.504,45.689],[4.479,45.703],[4.467,45.71],[4.46,45.717],[4.505,45.731],[4.524,45.739],[4.521,45.729],[4.505,45.717],[4.511,45.694],[4.504,45.689]]]}},{"type":"Feature","properties":{"code":"69204","nom":"Saint-Genis-Laval"},"geometry":{"type":"Polygon","coordinates":[[[4.792,45.666],[4.789,45.665],[4.781,45.673],[4.764,45.69],[4.778,45.72],[4.82,45.696],[4.792,45.666]]]}},{"type":"Feature","properties":{"code":"69205","nom":"Saint-Genis-les-Ollières"},"geometry":{"type":"Polygon","coordinates":[[[4.715,45.768],[4.744,45.756],[4.716,45.754],[4.706,45.761],[4.715,45.768]]]}},{"type":"Feature","properties":{"code":"69206","nom":"Saint-Georges-de-Reneins"},"geometry":{"type":"Polygon","coordinates":[[[4.676,46.036],[4.671,46.048],[4.682,46.061],[4.723,46.09],[4.749,46.082],[4.762,46.068],[4.759,46.062],[4.746,46.035],[4.747,46.028],[4.715,46.039],[4.683,46.033],[4.676,46.036]]]}},{"type":"Feature","properties":{"code":"69207","nom":"Saint-Germain-au-Mont-d'Or"},"geometry":{"type":"Polygon","coordinates":[[[4.807,45.869],[4.788,45.869],[4.793,45.898],[4.804,45.899],[4.805,45.896],[4.815,45.884],[4.82,45.882],[4.807,45.869]]]}},{"type":"Feature","properties":{"code":"69208","nom":"Saint-Germain-Nuelles"},"geometry":{"type":"Polygon","coordinates":[[[4.625,45.84],[4.603,45.847],[4.599,45.877],[4.606,45.88],[4.628,45.88],[4.637,45.846],[4.625,45.84]]]}},{"type":"Feature","properties":{"code":"69209","nom":"Saint-Igny-de-Vers"},"geometry":{"type":"Polygon","coordinates":[[[4.388,46.248],[4.397,46.267],[4.434,46.264],[4.485,46.237],[4.483,46.209],[4.446,46.207],[4.402,46.248],[4.388,46.248]]]}},{"type":"Feature","properties":{"code":"69212","nom":"Saint-Jean-des-Vignes"},"geometry":{"type":"Polygon","coordinates":[[[4.69,45.866],[4.677,45.868],[4.67,45.876],[4.674,45.882],[4.694,45.88],[4.69,45.866]]]}},{"type":"Feature","properties":{"code":"69214","nom":"Saint-Jean-la-Bussière"},"geometry":{"type":"Polygon","coordinates":[[[4.3,45.989],[4.311,46.008],[4.354,46.027],[4.357,46.004],[4.353,45.998],[4.324,45.979],[4.3,45.989]]]}},{"type":"Feature","properties":{"code":"69215","nom":"Saint-Julien"},"geometry":{"type":"Polygon","coordinates":[[[4.683,46.033],[4.671,46.016],[4.629,46.015],[4.613,46.019],[4.676,46.036],[4.683,46.033]]]}},{"type":"Feature","properties":{"code":"69216","nom":"Saint-Julien-sur-Bibost"},"geometry":{"type":"Polygon","coordinates":[[[4.518,45.822],[4.542,45.808],[4.532,45.79],[4.512,45.778],[4.486,45.777],[4.502,45.791],[4.476,45.818],[4.518,45.822]]]}},{"type":"Feature","properties":{"code":"69217","nom":"Saint-Just-d'Avray"},"geometry":{"type":"Polygon","coordinates":[[[4.497,46.001],[4.459,45.979],[4.447,45.979],[4.419,45.99],[4.427,46.018],[4.431,46.02],[4.468,46.012],[4.497,46.001]]]}},{"type":"Feature","properties":{"code":"69218","nom":"Saint-Lager"},"geometry":{"type":"Polygon","coordinates":[[[4.668,46.101],[4.646,46.108],[4.648,46.117],[4.696,46.127],[4.699,46.102],[4.668,46.101]]]}},{"type":"Feature","properties":{"code":"69219","nom":"Saint-Laurent-d'Agny"},"geometry":{"type":"Polygon","coordinates":[[[4.71,45.619],[4.656,45.644],[4.654,45.654],[4.69,45.663],[4.706,45.644],[4.712,45.62],[4.71,45.619]]]}},{"type":"Feature","properties":{"code":"69220","nom":"Saint-Laurent-de-Chamousset"},"geometry":{"type":"Polygon","coordinates":[[[4.437,45.731],[4.436,45.737],[4.451,45.764],[4.495,45.745],[4.505,45.731],[4.46,45.717],[4.445,45.716],[4.437,45.731]]]}},{"type":"Feature","properties":{"code":"69225","nom":"Saint-Marcel-l'Éclairé"},"geometry":{"type":"Polygon","coordinates":[[[4.396,45.86],[4.395,45.865],[4.413,45.891],[4.463,45.886],[4.456,45.871],[4.419,45.863],[4.396,45.86]]]}},{"type":"Feature","properties":{"code":"69227","nom":"Saint-Martin-en-Haut"},"geometry":{"type":"Polygon","coordinates":[[[4.583,45.629],[4.557,45.613],[4.515,45.641],[4.513,45.649],[4.548,45.698],[4.564,45.702],[4.583,45.699],[4.599,45.671],[4.591,45.647],[4.583,45.629]]]}},{"type":"Feature","properties":{"code":"69228","nom":"Chabanière"},"geometry":{"type":"Polygon","coordinates":[[[4.659,45.543],[4.645,45.541],[4.643,45.543],[4.624,45.57],[4.603,45.571],[4.587,45.571],[4.57,45.583],[4.586,45.6],[4.589,45.594],[4.593,45.597],[4.592,45.602],[4.604,45.616],[4.612,45.626],[4.65,45.629],[4.639,45.611],[4.666,45.589],[4.649,45.565],[4.659,45.543]]]}},{"type":"Feature","properties":{"code":"69229","nom":"Saint-Nizier-d'Azergues"},"geometry":{"type":"Polygon","coordinates":[[[4.432,46.117],[4.467,46.116],[4.492,46.072],[4.477,46.048],[4.449,46.055],[4.441,46.062],[4.433,46.102],[4.432,46.117]]]}},{"type":"Feature","properties":{"code":"69230","nom":"Sainte-Paule"},"geometry":{"type":"Polygon","coordinates":[[[4.562,45.995],[4.565,45.989],[4.577,45.974],[4.573,45.955],[4.55,45.946],[4.549,45.969],[4.551,45.999],[4.562,45.995]]]}},{"type":"Feature","properties":{"code":"69231","nom":"Saint-Pierre-la-Palud"},"geometry":{"type":"Polygon","coordinates":[[[4.64,45.778],[4.626,45.761],[4.593,45.796],[4.606,45.806],[4.64,45.778]]]}},{"type":"Feature","properties":{"code":"69233","nom":"Saint-Romain-au-Mont-d'Or"},"geometry":{"type":"Polygon","coordinates":[[[4.832,45.84],[4.839,45.834],[4.828,45.83],[4.807,45.843],[4.832,45.84]]]}},{"type":"Feature","properties":{"code":"69234","nom":"Saint-Romain-de-Popey"},"geometry":{"type":"Polygon","coordinates":[[[4.496,45.855],[4.498,45.864],[4.539,45.877],[4.551,45.865],[4.563,45.846],[4.541,45.833],[4.496,45.855]]]}},{"type":"Feature","properties":{"code":"69235","nom":"Saint-Romain-en-Gal"},"geometry":{"type":"Polygon","coordinates":[[[4.789,45.526],[4.82,45.559],[4.837,45.544],[4.872,45.527],[4.845,45.524],[4.789,45.526]]]}},{"type":"Feature","properties":{"code":"69236","nom":"Saint-Romain-en-Gier"},"geometry":{"type":"Polygon","coordinates":[[[4.685,45.555],[4.685,45.555],[4.687,45.558],[4.713,45.574],[4.725,45.574],[4.693,45.551],[4.685,45.555]]]}},{"type":"Feature","properties":{"code":"69238","nom":"Saint-Symphorien-sur-Coise"},"geometry":{"type":"Polygon","coordinates":[[[4.442,45.623],[4.423,45.63],[4.468,45.636],[4.468,45.628],[4.442,45.623]]]}},{"type":"Feature","properties":{"code":"69239","nom":"Saint-Vérand"},"geometry":{"type":"Polygon","coordinates":[[[4.562,45.91],[4.557,45.901],[4.533,45.903],[4.494,45.914],[4.479,45.94],[4.483,45.947],[4.538,45.932],[4.562,45.91]]]}},{"type":"Feature","properties":{"code":"69240","nom":"Saint-Vincent-de-Reins"},"geometry":{"type":"Polygon","coordinates":[[[4.425,46.103],[4.392,46.079],[4.396,46.053],[4.395,46.046],[4.369,46.04],[4.367,46.086],[4.389,46.104],[4.425,46.103]]]}},{"type":"Feature","properties":{"code":"69241","nom":"Taluyers"},"geometry":{"type":"Polygon","coordinates":[[[4.706,45.644],[4.749,45.651],[4.73,45.621],[4.712,45.62],[4.706,45.644]]]}},{"type":"Feature","properties":{"code":"69242","nom":"Taponas"},"geometry":{"type":"Polygon","coordinates":[[[4.772,46.118],[4.767,46.107],[4.747,46.115],[4.755,46.142],[4.788,46.131],[4.772,46.118]]]}},{"type":"Feature","properties":{"code":"69243","nom":"Tarare"},"geometry":{"type":"Polygon","coordinates":[[[4.464,45.886],[4.463,45.886],[4.413,45.891],[4.396,45.908],[4.4,45.931],[4.423,45.922],[4.451,45.906],[4.464,45.886]]]}},{"type":"Feature","properties":{"code":"69244","nom":"Tassin-la-Demi-Lune"},"geometry":{"type":"Polygon","coordinates":[[[4.753,45.75],[4.744,45.756],[4.715,45.768],[4.712,45.774],[4.726,45.777],[4.761,45.771],[4.792,45.773],[4.787,45.764],[4.772,45.751],[4.753,45.75]]]}},{"type":"Feature","properties":{"code":"69245","nom":"Ternand"},"geometry":{"type":"Polygon","coordinates":[[[4.484,45.961],[4.529,45.95],[4.549,45.969],[4.55,45.946],[4.538,45.932],[4.483,45.947],[4.484,45.961]]]}},{"type":"Feature","properties":{"code":"69246","nom":"Theizé"},"geometry":{"type":"Polygon","coordinates":[[[4.663,45.949],[4.663,45.948],[4.66,45.935],[4.656,45.927],[4.653,45.926],[4.613,45.93],[4.592,45.932],[4.594,45.949],[4.623,45.955],[4.663,45.949]]]}},{"type":"Feature","properties":{"code":"69248","nom":"Thizy-les-Bourgs"},"geometry":{"type":"Polygon","coordinates":[[[4.354,46.027],[4.311,46.008],[4.28,46.022],[4.261,46.037],[4.254,46.052],[4.297,46.064],[4.341,46.092],[4.367,46.086],[4.369,46.04],[4.354,46.027]]]}},{"type":"Feature","properties":{"code":"69249","nom":"Thurins"},"geometry":{"type":"Polygon","coordinates":[[[4.675,45.679],[4.654,45.658],[4.638,45.67],[4.599,45.671],[4.583,45.699],[4.645,45.703],[4.675,45.679]]]}},{"type":"Feature","properties":{"code":"69250","nom":"La Tour-de-Salvagny"},"geometry":{"type":"Polygon","coordinates":[[[4.732,45.788],[4.731,45.788],[4.706,45.794],[4.695,45.825],[4.722,45.823],[4.732,45.788]]]}},{"type":"Feature","properties":{"code":"69252","nom":"Trèves"},"geometry":{"type":"Polygon","coordinates":[[[4.693,45.551],[4.716,45.529],[4.703,45.517],[4.666,45.543],[4.685,45.555],[4.693,45.551]]]}},{"type":"Feature","properties":{"code":"69253","nom":"Tupin-et-Semons"},"geometry":{"type":"Polygon","coordinates":[[[4.8,45.479],[4.78,45.47],[4.756,45.493],[4.776,45.518],[4.78,45.495],[4.802,45.479],[4.8,45.479]]]}},{"type":"Feature","properties":{"code":"69254","nom":"Valsonne"},"geometry":{"type":"Polygon","coordinates":[[[4.433,45.966],[4.465,45.945],[4.423,45.922],[4.4,45.931],[4.39,45.942],[4.39,45.948],[4.408,45.972],[4.433,45.966]]]}},{"type":"Feature","properties":{"code":"69255","nom":"Vaugneray"},"geometry":{"type":"Polygon","coordinates":[[[4.642,45.704],[4.612,45.708],[4.602,45.727],[4.618,45.756],[4.643,45.748],[4.698,45.733],[4.671,45.716],[4.642,45.704]]]}},{"type":"Feature","properties":{"code":"69256","nom":"Vaulx-en-Velin"},"geometry":{"type":"Polygon","coordinates":[[[4.952,45.809],[4.97,45.808],[4.936,45.77],[4.933,45.744],[4.918,45.748],[4.917,45.769],[4.88,45.795],[4.924,45.804],[4.952,45.809]]]}},{"type":"Feature","properties":{"code":"69257","nom":"Vaux-en-Beaujolais"},"geometry":{"type":"Polygon","coordinates":[[[4.536,46.048],[4.541,46.067],[4.585,46.062],[4.619,46.05],[4.62,46.038],[4.588,46.033],[4.577,46.027],[4.562,46.025],[4.536,46.048]]]}},{"type":"Feature","properties":{"code":"69258","nom":"Vauxrenard"},"geometry":{"type":"Polygon","coordinates":[[[4.63,46.248],[4.653,46.235],[4.674,46.217],[4.666,46.197],[4.627,46.194],[4.608,46.211],[4.63,46.248]]]}},{"type":"Feature","properties":{"code":"69259","nom":"Vénissieux"},"geometry":{"type":"Polygon","coordinates":[[[4.887,45.726],[4.91,45.718],[4.895,45.703],[4.911,45.688],[4.886,45.672],[4.862,45.688],[4.85,45.719],[4.887,45.726]]]}},{"type":"Feature","properties":{"code":"69260","nom":"Vernaison"},"geometry":{"type":"Polygon","coordinates":[[[4.796,45.637],[4.803,45.661],[4.828,45.654],[4.809,45.636],[4.807,45.629],[4.804,45.63],[4.796,45.637]]]}},{"type":"Feature","properties":{"code":"69261","nom":"Vernay"},"geometry":{"type":"Polygon","coordinates":[[[4.507,46.159],[4.51,46.173],[4.548,46.169],[4.529,46.154],[4.507,46.159]]]}},{"type":"Feature","properties":{"code":"69263","nom":"Villechenève"},"geometry":{"type":"Polygon","coordinates":[[[4.388,45.803],[4.376,45.825],[4.391,45.837],[4.416,45.828],[4.441,45.834],[4.439,45.803],[4.398,45.793],[4.388,45.803]]]}},{"type":"Feature","properties":{"code":"69264","nom":"Villefranche-sur-Saône"},"geometry":{"type":"Polygon","coordinates":[[[4.749,46.003],[4.749,45.996],[4.75,45.965],[4.741,45.968],[4.698,45.98],[4.719,46],[4.749,46.003]]]}},{"type":"Feature","properties":{"code":"69265","nom":"Ville-sur-Jarnioux"},"geometry":{"type":"Polygon","coordinates":[[[4.577,45.974],[4.565,45.989],[4.618,45.978],[4.623,45.955],[4.594,45.949],[4.577,45.974]]]}},{"type":"Feature","properties":{"code":"69266","nom":"Villeurbanne"},"geometry":{"type":"Polygon","coordinates":[[[4.87,45.764],[4.86,45.787],[4.88,45.795],[4.917,45.769],[4.918,45.748],[4.898,45.753],[4.87,45.764]]]}},{"type":"Feature","properties":{"code":"69267","nom":"Villié-Morgon"},"geometry":{"type":"Polygon","coordinates":[[[4.676,46.135],[4.619,46.185],[4.622,46.189],[4.652,46.175],[4.681,46.177],[4.696,46.174],[4.704,46.168],[4.703,46.145],[4.691,46.133],[4.676,46.135]]]}},{"type":"Feature","properties":{"code":"69268","nom":"Vourles"},"geometry":{"type":"Polygon","coordinates":[[[4.768,45.65],[4.758,45.641],[4.749,45.651],[4.751,45.659],[4.781,45.673],[4.789,45.665],[4.768,45.65]]]}},{"type":"Feature","properties":{"code":"69269","nom":"Yzeron"},"geometry":{"type":"Polygon","coordinates":[[[4.564,45.702],[4.566,45.719],[4.602,45.727],[4.612,45.708],[4.642,45.704],[4.645,45.703],[4.583,45.699],[4.564,45.702]]]}},{"type":"Feature","properties":{"code":"69270","nom":"Chaponnay"},"geometry":{"type":"Polygon","coordinates":[[[4.989,45.619],[4.998,45.603],[4.971,45.613],[4.933,45.607],[4.926,45.606],[4.917,45.648],[4.919,45.66],[4.959,45.642],[4.989,45.619]]]}},{"type":"Feature","properties":{"code":"69271","nom":"Chassieu"},"geometry":{"type":"Polygon","coordinates":[[[4.985,45.754],[4.995,45.747],[4.973,45.721],[4.937,45.726],[4.933,45.744],[4.985,45.754]]]}},{"type":"Feature","properties":{"code":"69272","nom":"Communay"},"geometry":{"type":"Polygon","coordinates":[[[4.842,45.619],[4.853,45.613],[4.86,45.591],[4.858,45.576],[4.849,45.58],[4.81,45.59],[4.828,45.615],[4.842,45.619]]]}},{"type":"Feature","properties":{"code":"69273","nom":"Corbas"},"geometry":{"type":"Polygon","coordinates":[[[4.911,45.688],[4.934,45.684],[4.919,45.66],[4.917,45.648],[4.892,45.642],[4.888,45.664],[4.886,45.672],[4.911,45.688]]]}},{"type":"Feature","properties":{"code":"69275","nom":"Décines-Charpieu"},"geometry":{"type":"Polygon","coordinates":[[[4.97,45.808],[4.98,45.806],[4.985,45.754],[4.933,45.744],[4.936,45.77],[4.97,45.808]]]}},{"type":"Feature","properties":{"code":"69276","nom":"Feyzin"},"geometry":{"type":"Polygon","coordinates":[[[4.857,45.662],[4.83,45.66],[4.837,45.687],[4.862,45.688],[4.886,45.672],[4.888,45.664],[4.857,45.662]]]}},{"type":"Feature","properties":{"code":"69277","nom":"Genas"},"geometry":{"type":"Polygon","coordinates":[[[5.057,45.732],[5.06,45.719],[5.029,45.706],[5,45.708],[4.973,45.721],[4.995,45.747],[5.048,45.751],[5.057,45.732]]]}},{"type":"Feature","properties":{"code":"69278","nom":"Genay"},"geometry":{"type":"Polygon","coordinates":[[[4.872,45.894],[4.866,45.891],[4.815,45.884],[4.805,45.896],[4.848,45.913],[4.872,45.894]]]}},{"type":"Feature","properties":{"code":"69279","nom":"Jonage"},"geometry":{"type":"Polygon","coordinates":[[[5.017,45.806],[5.038,45.809],[5.058,45.81],[5.059,45.782],[5.036,45.768],[5.017,45.806]]]}},{"type":"Feature","properties":{"code":"69280","nom":"Jons"},"geometry":{"type":"Polygon","coordinates":[[[5.092,45.812],[5.101,45.814],[5.089,45.785],[5.06,45.782],[5.059,45.782],[5.058,45.81],[5.092,45.812]]]}},{"type":"Feature","properties":{"code":"69281","nom":"Marennes"},"geometry":{"type":"Polygon","coordinates":[[[4.926,45.606],[4.891,45.602],[4.889,45.631],[4.892,45.642],[4.917,45.648],[4.926,45.606]]]}},{"type":"Feature","properties":{"code":"69282","nom":"Meyzieu"},"geometry":{"type":"Polygon","coordinates":[[[4.981,45.805],[4.994,45.808],[5.001,45.81],[5.017,45.806],[5.036,45.768],[5.048,45.751],[4.995,45.747],[4.985,45.754],[4.98,45.806],[4.981,45.805]]]}},{"type":"Feature","properties":{"code":"69283","nom":"Mions"},"geometry":{"type":"Polygon","coordinates":[[[4.963,45.651],[4.959,45.642],[4.919,45.66],[4.934,45.684],[4.969,45.677],[4.975,45.669],[4.963,45.651]]]}},{"type":"Feature","properties":{"code":"69284","nom":"Montanay"},"geometry":{"type":"Polygon","coordinates":[[[4.866,45.891],[4.872,45.894],[4.881,45.898],[4.884,45.88],[4.877,45.861],[4.85,45.866],[4.866,45.891]]]}},{"type":"Feature","properties":{"code":"69285","nom":"Pusignan"},"geometry":{"type":"Polygon","coordinates":[[[5.094,45.766],[5.094,45.739],[5.057,45.732],[5.048,45.751],[5.036,45.768],[5.059,45.782],[5.06,45.782],[5.094,45.766]]]}},{"type":"Feature","properties":{"code":"69286","nom":"Rillieux-la-Pape"},"geometry":{"type":"Polygon","coordinates":[[[4.901,45.858],[4.921,45.833],[4.924,45.804],[4.88,45.795],[4.866,45.815],[4.867,45.815],[4.894,45.836],[4.898,45.85],[4.901,45.858]]]}},{"type":"Feature","properties":{"code":"69287","nom":"Saint-Bonnet-de-Mure"},"geometry":{"type":"Polygon","coordinates":[[[5.06,45.719],[5.06,45.708],[5.011,45.67],[4.991,45.678],[5,45.708],[5.029,45.706],[5.06,45.719]]]}},{"type":"Feature","properties":{"code":"69288","nom":"Saint-Laurent-de-Mure"},"geometry":{"type":"Polygon","coordinates":[[[5.104,45.699],[5.089,45.677],[5.054,45.661],[5.011,45.67],[5.06,45.708],[5.104,45.699]]]}},{"type":"Feature","properties":{"code":"69289","nom":"Saint-Pierre-de-Chandieu"},"geometry":{"type":"Polygon","coordinates":[[[5.044,45.621],[4.989,45.619],[4.959,45.642],[4.963,45.651],[5,45.653],[4.975,45.669],[4.969,45.677],[4.991,45.678],[5.011,45.67],[5.054,45.661],[5.058,45.653],[5.04,45.647],[5.044,45.621]]]}},{"type":"Feature","properties":{"code":"69290","nom":"Saint-Priest"},"geometry":{"type":"Polygon","coordinates":[[[4.934,45.684],[4.911,45.688],[4.895,45.703],[4.91,45.718],[4.937,45.726],[4.973,45.721],[5,45.708],[4.991,45.678],[4.969,45.677],[4.934,45.684]]]}},{"type":"Feature","properties":{"code":"69291","nom":"Saint-Symphorien-d'Ozon"},"geometry":{"type":"Polygon","coordinates":[[[4.853,45.613],[4.842,45.619],[4.836,45.632],[4.856,45.639],[4.857,45.662],[4.888,45.664],[4.892,45.642],[4.889,45.631],[4.853,45.613]]]}},{"type":"Feature","properties":{"code":"69292","nom":"Sathonay-Camp"},"geometry":{"type":"Polygon","coordinates":[[[4.865,45.832],[4.894,45.836],[4.867,45.815],[4.865,45.832]]]}},{"type":"Feature","properties":{"code":"69293","nom":"Sathonay-Village"},"geometry":{"type":"Polygon","coordinates":[[[4.865,45.832],[4.864,45.833],[4.867,45.838],[4.898,45.85],[4.894,45.836],[4.865,45.832]]]}},{"type":"Feature","properties":{"code":"69294","nom":"Sérézin-du-Rhône"},"geometry":{"type":"Polygon","coordinates":[[[4.842,45.619],[4.828,45.615],[4.807,45.629],[4.809,45.636],[4.836,45.632],[4.842,45.619]]]}},{"type":"Feature","properties":{"code":"69295","nom":"Simandres"},"geometry":{"type":"Polygon","coordinates":[[[4.891,45.602],[4.888,45.601],[4.86,45.591],[4.853,45.613],[4.889,45.631],[4.891,45.602]]]}},{"type":"Feature","properties":{"code":"69296","nom":"Solaize"},"geometry":{"type":"Polygon","coordinates":[[[4.828,45.654],[4.83,45.66],[4.857,45.662],[4.856,45.639],[4.836,45.632],[4.809,45.636],[4.828,45.654]]]}},{"type":"Feature","properties":{"code":"69297","nom":"Ternay"},"geometry":{"type":"Polygon","coordinates":[[[4.81,45.59],[4.777,45.588],[4.779,45.591],[4.801,45.608],[4.807,45.629],[4.828,45.615],[4.81,45.59]]]}},{"type":"Feature","properties":{"code":"69298","nom":"Toussieu"},"geometry":{"type":"Polygon","coordinates":[[[4.975,45.669],[5,45.653],[4.963,45.651],[4.975,45.669]]]}},{"type":"Feature","properties":{"code":"69299","nom":"Colombier-Saugnieu"},"geometry":{"type":"Polygon","coordinates":[[[5.155,45.702],[5.154,45.7],[5.131,45.708],[5.104,45.699],[5.06,45.708],[5.06,45.719],[5.057,45.732],[5.094,45.739],[5.134,45.734],[5.159,45.715],[5.155,45.702]]]}},{"type":"Feature","properties":{"code":"69381","nom":"Lyon 1er Arrondissement"},"geometry":{"type":"Polygon","coordinates":[[[4.84,45.766],[4.83,45.765],[4.82,45.767],[4.813,45.771],[4.84,45.773],[4.84,45.766]]]}},{"type":"Feature","properties":{"code":"69382","nom":"Lyon 2e Arrondissement"},"geometry":{"type":"Polygon","coordinates":[[[4.83,45.765],[4.84,45.766],[4.84,45.764],[4.839,45.757],[4.819,45.727],[4.818,45.749],[4.83,45.765]]]}},{"type":"Feature","properties":{"code":"69383","nom":"Lyon 3e Arrondissement"},"geometry":{"type":"Polygon","coordinates":[[[4.898,45.753],[4.892,45.739],[4.86,45.75],[4.839,45.757],[4.84,45.764],[4.87,45.764],[4.898,45.753]]]}},{"type":"Feature","properties":{"code":"69384","nom":"Lyon 4e Arrondissement"},"geometry":{"type":"Polygon","coordinates":[[[4.819,45.79],[4.843,45.779],[4.84,45.773],[4.813,45.771],[4.819,45.79]]]}},{"type":"Feature","properties":{"code":"69385","nom":"Lyon 5e Arrondissement"},"geometry":{"type":"Polygon","coordinates":[[[4.778,45.747],[4.772,45.751],[4.787,45.764],[4.82,45.767],[4.83,45.765],[4.818,45.749],[4.813,45.748],[4.778,45.747]]]}},{"type":"Feature","properties":{"code":"69386","nom":"Lyon 6e Arrondissement"},"geometry":{"type":"Polygon","coordinates":[[[4.87,45.764],[4.84,45.764],[4.84,45.766],[4.84,45.773],[4.843,45.779],[4.86,45.787],[4.87,45.764]]]}},{"type":"Feature","properties":{"code":"69387","nom":"Lyon 7e Arrondissement"},"geometry":{"type":"Polygon","coordinates":[[[4.849,45.719],[4.841,45.708],[4.821,45.719],[4.819,45.727],[4.839,45.757],[4.86,45.75],[4.849,45.719]]]}},{"type":"Feature","properties":{"code":"69388","nom":"Lyon 8e Arrondissement"},"geometry":{"type":"Polygon","coordinates":[[[4.887,45.726],[4.85,45.719],[4.849,45.719],[4.86,45.75],[4.892,45.739],[4.887,45.726]]]}},{"type":"Feature","properties":{"code":"69389","nom":"Lyon 9e Arrondissement"},"geometry":{"type":"Polygon","coordinates":[[[4.788,45.79],[4.802,45.792],[4.818,45.799],[4.837,45.808],[4.841,45.804],[4.819,45.79],[4.813,45.771],[4.82,45.767],[4.787,45.764],[4.792,45.773],[4.788,45.79]]]}},{"type":"Feature","properties":{"code":"69381","nom":"Lyon 1er Arrondissement"},"geometry":{"type":"Polygon","coordinates":[[[4.839758,45.766268],[4.837402,45.766137],[4.836821,45.766125],[4.836886,45.765319],[4.835898,45.765291],[4.835382,45.765257],[4.834312,45.765093],[4.834303,45.764908],[4.833932,45.764925],[4.83353,45.76491],[4.833125,45.764866],[4.83314,45.764765],[4.832986,45.764683],[4.83235,45.76469],[4.832344,45.764771],[4.830485,45.764712],[4.830265,45.765131],[4.829349,45.766483],[4.828326,45.767265],[4.827913,45.7675],[4.827061,45.767734],[4.826578,45.767824],[4.826284,45.76784],[4.82438,45.767845],[4.823492,45.767854],[4.822729,45.767735],[4.820538,45.767283],[4.819694,45.767151],[4.819071,45.767029],[4.818438,45.76696],[4.817516,45.767034],[4.81645,45.767354],[4.815969,45.767508],[4.815169,45.767732],[4.814334,45.768047],[4.813973,45.768298],[4.813812,45.768445],[4.813729,45.7686],[4.813273,45.769907],[4.813189,45.770342],[4.812872,45.771303],[4.813853,45.771435],[4.814126,45.771365],[4.814361,45.771218],[4.81463,45.771384],[4.814959,45.771714],[4.815898,45.771931],[4.815933,45.771857],[4.816269,45.771478],[4.81659,45.771635],[4.816951,45.771672],[4.817591,45.771878],[4.819071,45.77232],[4.821354,45.773027],[4.821723,45.773128],[4.822583,45.7734],[4.823626,45.773702],[4.824119,45.773758],[4.824538,45.773781],[4.826511,45.773934],[4.829201,45.774155],[4.829447,45.774169],[4.830917,45.774289],[4.832996,45.774448],[4.834688,45.774551],[4.834758,45.774784],[4.834886,45.775474],[4.835096,45.775524],[4.835203,45.775486],[4.835547,45.774991],[4.835936,45.774778],[4.83635,45.774778],[4.836672,45.774753],[4.83696,45.774681],[4.837244,45.774461],[4.837251,45.774238],[4.8375,45.774157],[4.837581,45.774252],[4.837708,45.774213],[4.837675,45.774118],[4.838258,45.773943],[4.839874,45.773314],[4.839624,45.772846],[4.839574,45.772577],[4.839575,45.770631],[4.839629,45.768611],[4.839658,45.767331],[4.839758,45.766268]]]}},{"type":"Feature","properties":{"code":"69382","nom":"Lyon 2e Arrondissement"},"geometry":{"type":"Polygon","coordinates":[[[4.830485,45.764712],[4.832344,45.764771],[4.83235,45.76469],[4.832986,45.764683],[4.83314,45.764765],[4.833125,45.764866],[4.83353,45.76491],[4.833932,45.764925],[4.834303,45.764908],[4.834312,45.765093],[4.835382,45.765257],[4.835898,45.765291],[4.836886,45.765319],[4.836821,45.766125],[4.837402,45.766137],[4.839758,45.766268],[4.839933,45.764387],[4.839953,45.763856],[4.839947,45.763554],[4.83989,45.762627],[4.838986,45.758665],[4.83856,45.756739],[4.83701,45.754589],[4.835487,45.752494],[4.832054,45.748327],[4.828662,45.744206],[4.821402,45.735386],[4.819226,45.728233],[4.818719,45.726569],[4.817852,45.726472],[4.81754,45.727831],[4.817252,45.729214],[4.81696,45.730451],[4.816745,45.730786],[4.816566,45.730924],[4.816237,45.731104],[4.815212,45.731519],[4.814936,45.73179],[4.814594,45.732325],[4.814282,45.732955],[4.814205,45.733248],[4.813559,45.736008],[4.813334,45.73692],[4.813127,45.738142],[4.813041,45.73872],[4.813034,45.739937],[4.813253,45.741609],[4.813359,45.742314],[4.813522,45.743129],[4.81365,45.743522],[4.813863,45.744108],[4.814153,45.744749],[4.814295,45.744998],[4.814612,45.745478],[4.815147,45.746191],[4.815501,45.746589],[4.815605,45.746678],[4.816627,45.747764],[4.817157,45.748241],[4.817515,45.748502],[4.818214,45.748966],[4.820315,45.75016],[4.822828,45.751796],[4.824523,45.753886],[4.825802,45.756589],[4.826387,45.757154],[4.829608,45.76091],[4.83017,45.7617],[4.830338,45.763108],[4.8304,45.763511],[4.830374,45.763925],[4.830485,45.764524],[4.830485,45.764712]]]}},{"type":"Feature","properties":{"code":"69383","nom":"Lyon 3e Arrondissement"},"geometry":{"type":"Polygon","coordinates":[[[4.898396,45.752916],[4.898295,45.752744],[4.89786,45.751894],[4.897708,45.751629],[4.897511,45.750985],[4.897431,45.750589],[4.897357,45.750386],[4.897179,45.750108],[4.897063,45.749514],[4.896956,45.749213],[4.896799,45.74808],[4.896606,45.747248],[4.89642,45.746754],[4.896255,45.746416],[4.894896,45.743867],[4.894767,45.743614],[4.894509,45.743309],[4.894354,45.743079],[4.89366,45.741823],[4.89338,45.741304],[4.892711,45.740033],[4.892355,45.739826],[4.892062,45.739598],[4.891939,45.739426],[4.89188,45.7391],[4.891217,45.739334],[4.890291,45.739642],[4.885569,45.741196],[4.885193,45.741314],[4.883383,45.741916],[4.883084,45.741994],[4.882761,45.742046],[4.881383,45.742234],[4.880715,45.742355],[4.87964,45.742567],[4.879237,45.742708],[4.878398,45.743112],[4.878084,45.74318],[4.877548,45.743392],[4.876982,45.743587],[4.87589,45.743945],[4.874564,45.744402],[4.873223,45.744877],[4.869765,45.746057],[4.867116,45.746967],[4.865221,45.747629],[4.862564,45.748542],[4.861602,45.748856],[4.860433,45.749361],[4.859909,45.749553],[4.859549,45.749654],[4.858917,45.749796],[4.857035,45.750439],[4.856518,45.750621],[4.855188,45.751058],[4.854158,45.75143],[4.852927,45.751863],[4.852545,45.752008],[4.851087,45.752497],[4.850336,45.752741],[4.849257,45.753128],[4.849017,45.753206],[4.843712,45.755036],[4.842927,45.75532],[4.840029,45.756291],[4.83856,45.756739],[4.838986,45.758665],[4.83989,45.762627],[4.839947,45.763554],[4.843865,45.763587],[4.84499,45.763582],[4.847064,45.763597],[4.850023,45.763613],[4.851466,45.763631],[4.852652,45.763626],[4.856275,45.763652],[4.858093,45.763676],[4.86039,45.763674],[4.861243,45.763683],[4.862869,45.763685],[4.864837,45.763705],[4.867034,45.763709],[4.867585,45.763721],[4.868806,45.763713],[4.869957,45.763726],[4.871815,45.761223],[4.87448,45.760547],[4.873785,45.758751],[4.874466,45.758626],[4.875104,45.758493],[4.876574,45.758168],[4.876206,45.756092],[4.876173,45.755817],[4.8762,45.755691],[4.876109,45.755379],[4.876004,45.755263],[4.875588,45.755041],[4.875396,45.754879],[4.876593,45.754927],[4.878008,45.754956],[4.878306,45.754951],[4.878766,45.754915],[4.879809,45.754789],[4.881035,45.754615],[4.882778,45.754391],[4.88326,45.754337],[4.884517,45.754239],[4.885515,45.754245],[4.886012,45.754266],[4.887503,45.754261],[4.888012,45.754245],[4.889563,45.754171],[4.89027,45.754151],[4.891303,45.754102],[4.892216,45.75402],[4.893542,45.753949],[4.89429,45.753866],[4.895012,45.753726],[4.895294,45.753649],[4.896228,45.753458],[4.89673,45.753412],[4.89703,45.753325],[4.897362,45.753199],[4.898096,45.752987],[4.898396,45.752916]]]}},{"type":"Feature","properties":{"code":"69384","nom":"Lyon 4e Arrondissement"},"geometry":{"type":"Polygon","coordinates":[[[4.819006,45.789789],[4.819892,45.789219],[4.820753,45.788688],[4.821675,45.788154],[4.821863,45.788026],[4.822442,45.787679],[4.822492,45.787469],[4.82246,45.787381],[4.821558,45.786985],[4.821498,45.786922],[4.821573,45.786748],[4.821977,45.786288],[4.822135,45.786208],[4.822521,45.7862],[4.823,45.786234],[4.823047,45.786025],[4.823413,45.784939],[4.823617,45.784302],[4.82402,45.784217],[4.825235,45.783918],[4.826273,45.783674],[4.826933,45.783466],[4.827775,45.783234],[4.829112,45.782947],[4.829289,45.782929],[4.829269,45.782588],[4.829713,45.782881],[4.830141,45.783203],[4.831718,45.782972],[4.831661,45.78252],[4.831237,45.782599],[4.83116,45.7821],[4.832044,45.781936],[4.832724,45.781818],[4.832724,45.781673],[4.833109,45.781633],[4.833105,45.781733],[4.833302,45.781773],[4.834293,45.781832],[4.837183,45.782684],[4.837753,45.782616],[4.838053,45.78248],[4.83824,45.782344],[4.838506,45.782102],[4.839212,45.781546],[4.839948,45.780836],[4.840743,45.780114],[4.841054,45.77969],[4.841222,45.779504],[4.843064,45.778778],[4.842805,45.778374],[4.842104,45.777353],[4.841546,45.776409],[4.840766,45.775038],[4.84031,45.774084],[4.839878,45.773355],[4.839874,45.773314],[4.838258,45.773943],[4.837675,45.774118],[4.837708,45.774213],[4.837581,45.774252],[4.8375,45.774157],[4.837251,45.774238],[4.837244,45.774461],[4.83696,45.774681],[4.836672,45.774753],[4.83635,45.774778],[4.835936,45.774778],[4.835547,45.774991],[4.835203,45.775486],[4.835096,45.775524],[4.834886,45.775474],[4.834758,45.774784],[4.834688,45.774551],[4.832996,45.774448],[4.830917,45.774289],[4.829447,45.774169],[4.829201,45.774155],[4.826511,45.773934],[4.824538,45.773781],[4.824119,45.773758],[4.823626,45.773702],[4.822583,45.7734],[4.821723,45.773128],[4.821354,45.773027],[4.819071,45.77232],[4.817591,45.771878],[4.816951,45.771672],[4.81659,45.771635],[4.816269,45.771478],[4.815933,45.771857],[4.815898,45.771931],[4.814959,45.771714],[4.81463,45.771384],[4.814361,45.771218],[4.814126,45.771365],[4.813853,45.771435],[4.812872,45.771303],[4.81258,45.771966],[4.812306,45.772459],[4.811594,45.772924],[4.81075,45.7736],[4.810112,45.77428],[4.80943,45.775151],[4.809045,45.775735],[4.808969,45.776061],[4.808927,45.776521],[4.809,45.777042],[4.809156,45.77767],[4.809581,45.778553],[4.810319,45.779772],[4.811044,45.780766],[4.811949,45.782017],[4.812941,45.783203],[4.813585,45.78409],[4.814483,45.785198],[4.815403,45.786477],[4.816297,45.787512],[4.816552,45.787741],[4.816951,45.788029],[4.818047,45.788926],[4.819006,45.789789]]]}},{"type":"Feature","properties":{"code":"69385","nom":"Lyon 5e Arrondissement"},"geometry":{"type":"Polygon","coordinates":[[[4.777579,45.747184],[4.775606,45.748096],[4.775534,45.748139],[4.774766,45.748831],[4.774405,45.749226],[4.774246,45.749373],[4.773128,45.750049],[4.772963,45.750235],[4.772896,45.750658],[4.772785,45.750722],[4.772416,45.750787],[4.772053,45.750807],[4.771912,45.750786],[4.771865,45.751098],[4.772441,45.751979],[4.773117,45.752957],[4.773239,45.753063],[4.773678,45.75311],[4.773964,45.75316],[4.774668,45.753367],[4.775811,45.753716],[4.776608,45.753972],[4.77748,45.75419],[4.777925,45.754276],[4.779522,45.754513],[4.78007,45.754587],[4.780563,45.754572],[4.782141,45.754455],[4.782134,45.756022],[4.782138,45.756671],[4.782397,45.756975],[4.782621,45.757204],[4.782944,45.757498],[4.783408,45.75784],[4.783935,45.758322],[4.784159,45.758426],[4.784845,45.758658],[4.785159,45.758834],[4.785286,45.759095],[4.785469,45.759586],[4.785751,45.760548],[4.785884,45.761093],[4.786137,45.762035],[4.786341,45.762375],[4.786733,45.764161],[4.789027,45.764101],[4.790402,45.764086],[4.791466,45.764081],[4.792219,45.764037],[4.792765,45.763981],[4.794642,45.763761],[4.795375,45.76367],[4.795995,45.763565],[4.796413,45.763557],[4.796828,45.763593],[4.797716,45.763645],[4.798417,45.763657],[4.799498,45.763615],[4.799812,45.763577],[4.800134,45.763499],[4.800883,45.763261],[4.801274,45.763126],[4.801672,45.762942],[4.802029,45.762732],[4.802488,45.762375],[4.802816,45.762076],[4.804077,45.761162],[4.80434,45.760919],[4.804612,45.760608],[4.804916,45.760383],[4.805387,45.760197],[4.805674,45.760148],[4.806099,45.760111],[4.807387,45.759676],[4.810032,45.758877],[4.810704,45.7588],[4.811647,45.758725],[4.812197,45.758705],[4.812154,45.758786],[4.811808,45.759047],[4.81164,45.759145],[4.810964,45.7597],[4.810362,45.76018],[4.81048,45.76028],[4.81051,45.760451],[4.810457,45.760774],[4.810369,45.761143],[4.810175,45.761654],[4.81018,45.761985],[4.810148,45.762308],[4.81008,45.762471],[4.809882,45.762766],[4.80968,45.763451],[4.809572,45.763771],[4.80936,45.764296],[4.809393,45.76436],[4.809579,45.76444],[4.810253,45.764631],[4.810634,45.764725],[4.810973,45.764767],[4.811476,45.76477],[4.81181,45.764794],[4.812122,45.76464],[4.812665,45.764257],[4.812915,45.763916],[4.812694,45.762773],[4.813439,45.762886],[4.813159,45.763183],[4.813152,45.763286],[4.813287,45.76392],[4.813391,45.763984],[4.814313,45.764037],[4.814701,45.764146],[4.814832,45.764213],[4.814909,45.764357],[4.814986,45.764703],[4.815037,45.765439],[4.815021,45.765665],[4.814918,45.76574],[4.815182,45.765863],[4.815611,45.765913],[4.815991,45.765868],[4.816879,45.765729],[4.817343,45.765461],[4.817819,45.765268],[4.818777,45.765159],[4.819889,45.764964],[4.819888,45.765091],[4.819813,45.765412],[4.81997,45.765584],[4.819935,45.765792],[4.819757,45.766581],[4.819694,45.767151],[4.820538,45.767283],[4.822729,45.767735],[4.823492,45.767854],[4.82438,45.767845],[4.826284,45.76784],[4.826578,45.767824],[4.827061,45.767734],[4.827913,45.7675],[4.828326,45.767265],[4.829349,45.766483],[4.830265,45.765131],[4.830485,45.764712],[4.830485,45.764524],[4.830374,45.763925],[4.8304,45.763511],[4.830338,45.763108],[4.83017,45.7617],[4.829608,45.76091],[4.826387,45.757154],[4.825802,45.756589],[4.824523,45.753886],[4.822828,45.751796],[4.820315,45.75016],[4.818214,45.748966],[4.817261,45.749459],[4.816964,45.749585],[4.814643,45.749668],[4.814495,45.749363],[4.814336,45.748894],[4.814024,45.748604],[4.81356,45.748236],[4.813455,45.748098],[4.812114,45.748561],[4.811982,45.748446],[4.811595,45.74834],[4.811355,45.748048],[4.811109,45.747601],[4.81059,45.747781],[4.809508,45.74811],[4.810356,45.748922],[4.810578,45.749252],[4.80945,45.749468],[4.809163,45.749499],[4.807424,45.75003],[4.806517,45.750284],[4.804918,45.750825],[4.802376,45.751703],[4.801601,45.751413],[4.801155,45.751224],[4.800321,45.750843],[4.799584,45.750519],[4.799415,45.750458],[4.798898,45.750323],[4.798561,45.750267],[4.797695,45.750187],[4.797031,45.750072],[4.795683,45.749601],[4.795363,45.749507],[4.794253,45.749115],[4.792836,45.748458],[4.79183,45.747957],[4.790087,45.747239],[4.789227,45.746871],[4.786974,45.745858],[4.785455,45.745086],[4.784429,45.744614],[4.784117,45.744487],[4.783566,45.744204],[4.783276,45.744534],[4.782442,45.745212],[4.782059,45.745449],[4.781696,45.745631],[4.78088,45.746003],[4.779379,45.747092],[4.77878,45.747539],[4.777966,45.747199],[4.777806,45.747164],[4.777579,45.747184]]]}},{"type":"Feature","properties":{"code":"69386","nom":"Lyon 6e Arrondissement"},"geometry":{"type":"Polygon","coordinates":[[[4.869957,45.763726],[4.868806,45.763713],[4.867585,45.763721],[4.867034,45.763709],[4.864837,45.763705],[4.862869,45.763685],[4.861243,45.763683],[4.86039,45.763674],[4.858093,45.763676],[4.856275,45.763652],[4.852652,45.763626],[4.851466,45.763631],[4.850023,45.763613],[4.847064,45.763597],[4.84499,45.763582],[4.843865,45.763587],[4.839947,45.763554],[4.839953,45.763856],[4.839933,45.764387],[4.839758,45.766268],[4.839658,45.767331],[4.839629,45.768611],[4.839575,45.770631],[4.839574,45.772577],[4.839624,45.772846],[4.839874,45.773314],[4.839878,45.773355],[4.84031,45.774084],[4.840766,45.775038],[4.841546,45.776409],[4.842104,45.777353],[4.842805,45.778374],[4.843064,45.778778],[4.843473,45.779399],[4.844279,45.780546],[4.844751,45.781125],[4.845447,45.781933],[4.845803,45.782289],[4.846303,45.782713],[4.84698,45.783233],[4.847554,45.78362],[4.849062,45.784527],[4.849679,45.784855],[4.85096,45.785494],[4.851494,45.785729],[4.852386,45.786073],[4.853053,45.786303],[4.853651,45.786525],[4.854699,45.786787],[4.855529,45.78691],[4.856612,45.786973],[4.857542,45.786964],[4.858852,45.786921],[4.859902,45.786944],[4.859737,45.785505],[4.859659,45.784662],[4.85962,45.784416],[4.85933,45.781616],[4.85929,45.781479],[4.859112,45.779584],[4.858993,45.778035],[4.858905,45.777139],[4.858837,45.776842],[4.858641,45.775016],[4.85854,45.773996],[4.858448,45.772946],[4.858431,45.772428],[4.861115,45.771861],[4.861145,45.771801],[4.861966,45.770677],[4.862352,45.770125],[4.863173,45.769206],[4.86373,45.768802],[4.863903,45.768717],[4.864687,45.768455],[4.865396,45.768275],[4.865423,45.767874],[4.865806,45.767459],[4.866507,45.766973],[4.86719,45.766757],[4.867993,45.766371],[4.868861,45.765212],[4.869957,45.763726]]]}},{"type":"Feature","properties":{"code":"69387","nom":"Lyon 7e Arrondissement"},"geometry":{"type":"Polygon","coordinates":[[[4.849234,45.718841],[4.84485,45.718715],[4.837557,45.718521],[4.838138,45.713597],[4.839927,45.709229],[4.840505,45.707779],[4.839693,45.707703],[4.838925,45.707611],[4.837637,45.707481],[4.837197,45.70775],[4.836568,45.708087],[4.835346,45.708769],[4.834256,45.709366],[4.833585,45.709668],[4.832965,45.709934],[4.832317,45.710177],[4.83091,45.710622],[4.830231,45.710813],[4.829531,45.711032],[4.828232,45.711516],[4.827404,45.711841],[4.826837,45.712105],[4.826232,45.712416],[4.825104,45.713072],[4.824191,45.713732],[4.823704,45.714184],[4.823092,45.714891],[4.822543,45.715613],[4.821873,45.71698],[4.821123,45.718448],[4.820791,45.719168],[4.820398,45.719973],[4.819975,45.721622],[4.819139,45.72492],[4.818719,45.726569],[4.819226,45.728233],[4.821402,45.735386],[4.828662,45.744206],[4.832054,45.748327],[4.835487,45.752494],[4.83701,45.754589],[4.83856,45.756739],[4.840029,45.756291],[4.842927,45.75532],[4.843712,45.755036],[4.849017,45.753206],[4.849257,45.753128],[4.850336,45.752741],[4.851087,45.752497],[4.852545,45.752008],[4.852927,45.751863],[4.854158,45.75143],[4.855188,45.751058],[4.856518,45.750621],[4.857035,45.750439],[4.858917,45.749796],[4.859549,45.749654],[4.859909,45.749553],[4.859514,45.748122],[4.859046,45.746479],[4.858849,45.745715],[4.858504,45.744465],[4.858357,45.74398],[4.858121,45.743133],[4.857952,45.742584],[4.85783,45.742306],[4.857434,45.741695],[4.857233,45.741456],[4.856599,45.740873],[4.856,45.74046],[4.855525,45.740218],[4.855059,45.740025],[4.85449,45.73985],[4.853842,45.739692],[4.853101,45.739458],[4.852346,45.739316],[4.851735,45.73917],[4.850326,45.738915],[4.849752,45.738677],[4.849374,45.738458],[4.849102,45.738246],[4.848644,45.737714],[4.848557,45.737519],[4.848494,45.737072],[4.848393,45.736782],[4.848383,45.736216],[4.848253,45.735465],[4.848272,45.73521],[4.84817,45.734296],[4.847919,45.732208],[4.847777,45.731155],[4.847716,45.730815],[4.847715,45.730575],[4.847621,45.728217],[4.847431,45.727511],[4.847371,45.727104],[4.847317,45.726524],[4.847244,45.726076],[4.847196,45.725449],[4.847217,45.725252],[4.847444,45.724409],[4.847611,45.722684],[4.847699,45.722629],[4.848016,45.722229],[4.84828,45.721824],[4.848507,45.721275],[4.848622,45.72109],[4.848701,45.720772],[4.848812,45.720228],[4.849234,45.718841]]]}},{"type":"Feature","properties":{"code":"69388","nom":"Lyon 8e Arrondissement"},"geometry":{"type":"Polygon","coordinates":[[[4.886998,45.726118],[4.887033,45.725872],[4.887166,45.724383],[4.887235,45.723554],[4.887272,45.723433],[4.887313,45.72265],[4.887433,45.721044],[4.88756,45.720351],[4.886055,45.721502],[4.885489,45.721349],[4.884833,45.72155],[4.88294,45.721814],[4.882051,45.721889],[4.881274,45.721927],[4.880999,45.721886],[4.880873,45.721743],[4.876106,45.723089],[4.872461,45.724123],[4.871469,45.724407],[4.8698,45.724872],[4.866478,45.725816],[4.865484,45.726102],[4.863252,45.726722],[4.862917,45.726822],[4.862374,45.726936],[4.862207,45.727106],[4.860699,45.729238],[4.859986,45.73034],[4.859815,45.730725],[4.859474,45.730656],[4.858915,45.730582],[4.858064,45.730454],[4.856862,45.730235],[4.854896,45.729865],[4.854388,45.729816],[4.853714,45.729774],[4.853736,45.729069],[4.853782,45.728253],[4.853845,45.727373],[4.854016,45.724666],[4.854067,45.72398],[4.854208,45.721849],[4.854343,45.720419],[4.854438,45.719345],[4.854485,45.718989],[4.849715,45.718854],[4.849234,45.718841],[4.848812,45.720228],[4.848701,45.720772],[4.848622,45.72109],[4.848507,45.721275],[4.84828,45.721824],[4.848016,45.722229],[4.847699,45.722629],[4.847611,45.722684],[4.847444,45.724409],[4.847217,45.725252],[4.847196,45.725449],[4.847244,45.726076],[4.847317,45.726524],[4.847371,45.727104],[4.847431,45.727511],[4.847621,45.728217],[4.847715,45.730575],[4.847716,45.730815],[4.847777,45.731155],[4.847919,45.732208],[4.84817,45.734296],[4.848272,45.73521],[4.848253,45.735465],[4.848383,45.736216],[4.848393,45.736782],[4.848494,45.737072],[4.848557,45.737519],[4.848644,45.737714],[4.849102,45.738246],[4.849374,45.738458],[4.849752,45.738677],[4.850326,45.738915],[4.851735,45.73917],[4.852346,45.739316],[4.853101,45.739458],[4.853842,45.739692],[4.85449,45.73985],[4.855059,45.740025],[4.855525,45.740218],[4.856,45.74046],[4.856599,45.740873],[4.857233,45.741456],[4.857434,45.741695],[4.85783,45.742306],[4.857952,45.742584],[4.858121,45.743133],[4.858357,45.74398],[4.858504,45.744465],[4.858849,45.745715],[4.859046,45.746479],[4.859514,45.748122],[4.859909,45.749553],[4.860433,45.749361],[4.861602,45.748856],[4.862564,45.748542],[4.865221,45.747629],[4.867116,45.746967],[4.869765,45.746057],[4.873223,45.744877],[4.874564,45.744402],[4.87589,45.743945],[4.876982,45.743587],[4.877548,45.743392],[4.878084,45.74318],[4.878398,45.743112],[4.879237,45.742708],[4.87964,45.742567],[4.880715,45.742355],[4.881383,45.742234],[4.882761,45.742046],[4.883084,45.741994],[4.883383,45.741916],[4.885193,45.741314],[4.885569,45.741196],[4.890291,45.739642],[4.891217,45.739334],[4.89188,45.7391],[4.891851,45.73853],[4.891498,45.73793],[4.891131,45.737374],[4.890386,45.736176],[4.889733,45.735094],[4.889443,45.734565],[4.888659,45.733073],[4.888391,45.73237],[4.888133,45.731562],[4.88784,45.730753],[4.887392,45.730504],[4.886951,45.73002],[4.886787,45.729621],[4.886728,45.729225],[4.886748,45.728883],[4.88696,45.72662],[4.886998,45.726118]]]}},{"type":"Feature","properties":{"code":"69389","nom":"Lyon 9e Arrondissement"},"geometry":{"type":"Polygon","coordinates":[[[4.788346,45.789771],[4.788668,45.789909],[4.789328,45.790254],[4.789712,45.789901],[4.790085,45.790296],[4.790331,45.790595],[4.790526,45.7909],[4.790876,45.790782],[4.79165,45.790421],[4.792613,45.789958],[4.792831,45.789799],[4.79351,45.789353],[4.794166,45.789397],[4.795389,45.789564],[4.797069,45.789781],[4.79747,45.789855],[4.797403,45.790191],[4.797272,45.790518],[4.79674,45.791189],[4.796635,45.791492],[4.796971,45.791511],[4.799707,45.7916],[4.799931,45.791599],[4.800679,45.79153],[4.80098,45.791466],[4.801307,45.791334],[4.801819,45.791648],[4.801982,45.791786],[4.802447,45.791983],[4.802697,45.791967],[4.802757,45.791681],[4.802844,45.791683],[4.803091,45.791384],[4.803714,45.79109],[4.803995,45.790908],[4.804375,45.790522],[4.804713,45.790257],[4.8052,45.789956],[4.805474,45.789831],[4.806047,45.789644],[4.806347,45.789513],[4.806817,45.789227],[4.807054,45.788999],[4.807328,45.789272],[4.807663,45.789119],[4.807782,45.789224],[4.80809,45.79003],[4.80845,45.791035],[4.80874,45.791733],[4.808958,45.792002],[4.809239,45.792232],[4.809489,45.792392],[4.80975,45.792509],[4.811097,45.793012],[4.812532,45.793632],[4.813994,45.794272],[4.814233,45.794408],[4.814437,45.794574],[4.814759,45.794909],[4.814996,45.795921],[4.815389,45.796193],[4.815704,45.796502],[4.815944,45.796698],[4.816354,45.797286],[4.816495,45.79781],[4.816635,45.798118],[4.816601,45.798289],[4.816662,45.798382],[4.817205,45.798472],[4.817567,45.798617],[4.817771,45.798504],[4.817922,45.798469],[4.818118,45.798526],[4.818315,45.798707],[4.818372,45.798855],[4.818385,45.799051],[4.818349,45.799157],[4.818427,45.799349],[4.818703,45.799307],[4.819426,45.799374],[4.81957,45.799417],[4.819657,45.799708],[4.819689,45.799938],[4.819832,45.800371],[4.820042,45.801224],[4.820133,45.801546],[4.820187,45.80188],[4.820281,45.802151],[4.821265,45.802099],[4.822291,45.80206],[4.823609,45.801988],[4.823783,45.801986],[4.823931,45.803018],[4.823534,45.803521],[4.822891,45.804679],[4.824142,45.804678],[4.824158,45.804507],[4.824856,45.804498],[4.825617,45.804537],[4.825621,45.804616],[4.827159,45.804696],[4.827143,45.804571],[4.832154,45.806988],[4.832177,45.806818],[4.832106,45.806409],[4.832089,45.805922],[4.832099,45.805711],[4.832163,45.805608],[4.832428,45.805517],[4.83307,45.805261],[4.833702,45.80504],[4.83384,45.804935],[4.834331,45.804321],[4.834507,45.804311],[4.835063,45.804993],[4.835687,45.805667],[4.835802,45.805906],[4.836045,45.806816],[4.836578,45.807722],[4.836988,45.808264],[4.837065,45.80842],[4.837134,45.808171],[4.837423,45.807851],[4.837582,45.807507],[4.837736,45.806796],[4.837851,45.806456],[4.837937,45.805494],[4.837989,45.80509],[4.838215,45.804638],[4.838384,45.804385],[4.838796,45.803975],[4.83883,45.8039],[4.841468,45.803556],[4.841145,45.802945],[4.840884,45.802385],[4.840575,45.801951],[4.839608,45.800913],[4.838642,45.799916],[4.837996,45.799435],[4.837874,45.79931],[4.837541,45.798867],[4.837113,45.798331],[4.836647,45.79806],[4.835418,45.797422],[4.834719,45.797308],[4.834275,45.79717],[4.833724,45.79697],[4.832961,45.796744],[4.832088,45.796587],[4.831277,45.796456],[4.829542,45.796238],[4.829046,45.796199],[4.827934,45.795645],[4.826872,45.795072],[4.82491,45.79386],[4.824227,45.793424],[4.822351,45.792301],[4.820883,45.791279],[4.819006,45.789789],[4.818047,45.788926],[4.816951,45.788029],[4.816552,45.787741],[4.816297,45.787512],[4.815403,45.786477],[4.814483,45.785198],[4.813585,45.78409],[4.812941,45.783203],[4.811949,45.782017],[4.811044,45.780766],[4.810319,45.779772],[4.809581,45.778553],[4.809156,45.77767],[4.809,45.777042],[4.808927,45.776521],[4.808969,45.776061],[4.809045,45.775735],[4.80943,45.775151],[4.810112,45.77428],[4.81075,45.7736],[4.811594,45.772924],[4.812306,45.772459],[4.81258,45.771966],[4.812872,45.771303],[4.813189,45.770342],[4.813273,45.769907],[4.813729,45.7686],[4.813812,45.768445],[4.813973,45.768298],[4.814334,45.768047],[4.815169,45.767732],[4.815969,45.767508],[4.81645,45.767354],[4.817516,45.767034],[4.818438,45.76696],[4.819071,45.767029],[4.819694,45.767151],[4.819757,45.766581],[4.819935,45.765792],[4.81997,45.765584],[4.819813,45.765412],[4.819888,45.765091],[4.819889,45.764964],[4.818777,45.765159],[4.817819,45.765268],[4.817343,45.765461],[4.816879,45.765729],[4.815991,45.765868],[4.815611,45.765913],[4.815182,45.765863],[4.814918,45.76574],[4.815021,45.765665],[4.815037,45.765439],[4.814986,45.764703],[4.814909,45.764357],[4.814832,45.764213],[4.814701,45.764146],[4.814313,45.764037],[4.813391,45.763984],[4.813287,45.76392],[4.813152,45.763286],[4.813159,45.763183],[4.813439,45.762886],[4.812694,45.762773],[4.812915,45.763916],[4.812665,45.764257],[4.812122,45.76464],[4.81181,45.764794],[4.811476,45.76477],[4.810973,45.764767],[4.810634,45.764725],[4.810253,45.764631],[4.809579,45.76444],[4.809393,45.76436],[4.80936,45.764296],[4.809572,45.763771],[4.80968,45.763451],[4.809882,45.762766],[4.81008,45.762471],[4.810148,45.762308],[4.81018,45.761985],[4.810175,45.761654],[4.810369,45.761143],[4.810457,45.760774],[4.81051,45.760451],[4.81048,45.76028],[4.810362,45.76018],[4.810964,45.7597],[4.81164,45.759145],[4.811808,45.759047],[4.812154,45.758786],[4.812197,45.758705],[4.811647,45.758725],[4.810704,45.7588],[4.810032,45.758877],[4.807387,45.759676],[4.806099,45.760111],[4.805674,45.760148],[4.805387,45.760197],[4.804916,45.760383],[4.804612,45.760608],[4.80434,45.760919],[4.804077,45.761162],[4.802816,45.762076],[4.802488,45.762375],[4.802029,45.762732],[4.801672,45.762942],[4.801274,45.763126],[4.800883,45.763261],[4.800134,45.763499],[4.799812,45.763577],[4.799498,45.763615],[4.798417,45.763657],[4.797716,45.763645],[4.796828,45.763593],[4.796413,45.763557],[4.795995,45.763565],[4.795375,45.76367],[4.794642,45.763761],[4.792765,45.763981],[4.792219,45.764037],[4.791466,45.764081],[4.790402,45.764086],[4.789027,45.764101],[4.786733,45.764161],[4.787129,45.765433],[4.786969,45.765648],[4.787376,45.765809],[4.788024,45.766044],[4.788502,45.766257],[4.789021,45.766436],[4.789221,45.766758],[4.789397,45.766934],[4.790525,45.767852],[4.790593,45.767942],[4.790703,45.768254],[4.790815,45.768642],[4.790875,45.769037],[4.790913,45.769792],[4.79105,45.770647],[4.791082,45.771151],[4.791144,45.771368],[4.791466,45.771697],[4.792186,45.772256],[4.79242,45.772482],[4.792592,45.772752],[4.792616,45.7733],[4.792598,45.773509],[4.792444,45.773471],[4.793936,45.774749],[4.794314,45.775052],[4.794604,45.775338],[4.795153,45.775802],[4.79471,45.777303],[4.794423,45.777352],[4.793791,45.777503],[4.793673,45.777505],[4.793626,45.777616],[4.793352,45.777822],[4.793034,45.778198],[4.793175,45.778315],[4.793153,45.778581],[4.792923,45.778801],[4.792564,45.778952],[4.792464,45.779062],[4.792245,45.779203],[4.792006,45.779252],[4.792052,45.779538],[4.791731,45.780099],[4.791776,45.780668],[4.791661,45.780935],[4.791435,45.781154],[4.791289,45.781348],[4.791193,45.781418],[4.791119,45.781705],[4.79106,45.782196],[4.791125,45.782575],[4.791476,45.782989],[4.791833,45.783336],[4.791869,45.78377],[4.791932,45.78421],[4.791997,45.784368],[4.792028,45.785417],[4.791953,45.785555],[4.791817,45.785605],[4.791913,45.785904],[4.792006,45.786332],[4.792101,45.786503],[4.791932,45.786572],[4.790607,45.786371],[4.789968,45.786235],[4.789411,45.786263],[4.788698,45.786221],[4.788266,45.786153],[4.785678,45.785822],[4.785514,45.786003],[4.785676,45.786224],[4.785758,45.786514],[4.785721,45.78684],[4.785651,45.786989],[4.785489,45.787146],[4.785108,45.787304],[4.784827,45.7873],[4.784299,45.787255],[4.784098,45.787811],[4.784491,45.78787],[4.784944,45.78806],[4.785849,45.788727],[4.786434,45.789014],[4.786934,45.789197],[4.788346,45.789771]]]}}]}