{"type":"FeatureCollection","features":[{"type":"Feature","properties":{"code":"72001","nom":"Aigné","pop":1695},"geometry":{"type":"Polygon","coordinates":[[[0.083,48.068],[0.097,48.089],[0.126,48.078],[0.121,48.053],[0.103,48.044],[0.096,48.043],[0.083,48.068]]]}},{"type":"Feature","properties":{"code":"72002","nom":"Aillières-Beauvoir","pop":200},"geometry":{"type":"Polygon","coordinates":[[[0.345,48.374],[0.329,48.376],[0.291,48.416],[0.33,48.415],[0.356,48.389],[0.345,48.374]]]}},{"type":"Feature","properties":{"code":"72003","nom":"Allonnes","pop":10739},"geometry":{"type":"Polygon","coordinates":[[[0.111,47.945],[0.114,47.956],[0.121,47.977],[0.143,47.984],[0.152,47.984],[0.178,47.954],[0.175,47.943],[0.117,47.939],[0.111,47.945]]]}},{"type":"Feature","properties":{"code":"72004","nom":"Amné","pop":569},"geometry":{"type":"Polygon","coordinates":[[[-0.079,48.034],[-0.078,48.043],[-0.065,48.056],[-0.033,48.061],[-0.007,48.05],[-0.012,48.031],[-0.04,48.033],[-0.058,48.011],[-0.07,48.013],[-0.079,48.034]]]}},{"type":"Feature","properties":{"code":"72005","nom":"Ancinnes","pop":895},"geometry":{"type":"Polygon","coordinates":[[[0.201,48.396],[0.222,48.359],[0.222,48.358],[0.2,48.355],[0.169,48.328],[0.127,48.339],[0.129,48.345],[0.135,48.342],[0.138,48.346],[0.13,48.35],[0.134,48.364],[0.154,48.376],[0.178,48.378],[0.201,48.396]]]}},{"type":"Feature","properties":{"code":"72006","nom":"Arçonnay","pop":1902},"geometry":{"type":"Polygon","coordinates":[[[0.067,48.406],[0.083,48.411],[0.089,48.411],[0.111,48.395],[0.094,48.383],[0.062,48.383],[0.067,48.406]]]}},{"type":"Feature","properties":{"code":"72007","nom":"Ardenay-sur-Mérize","pop":504},"geometry":{"type":"Polygon","coordinates":[[[0.434,47.978],[0.411,47.968],[0.403,47.989],[0.422,48.012],[0.453,48.007],[0.458,47.992],[0.434,47.978]]]}},{"type":"Feature","properties":{"code":"72008","nom":"Arnage","pop":5445},"geometry":{"type":"Polygon","coordinates":[[[0.169,47.911],[0.175,47.943],[0.178,47.954],[0.217,47.928],[0.22,47.922],[0.169,47.911]]]}},{"type":"Feature","properties":{"code":"72009","nom":"Arthezé","pop":350},"geometry":{"type":"Polygon","coordinates":[[[-0.143,47.793],[-0.134,47.795],[-0.099,47.801],[-0.084,47.788],[-0.09,47.782],[-0.132,47.779],[-0.143,47.793]]]}},{"type":"Feature","properties":{"code":"72010","nom":"Asnières-sur-Vègre","pop":331},"geometry":{"type":"Polygon","coordinates":[[[-0.271,47.89],[-0.272,47.894],[-0.237,47.908],[-0.219,47.887],[-0.192,47.891],[-0.178,47.885],[-0.198,47.875],[-0.252,47.877],[-0.271,47.89]]]}},{"type":"Feature","properties":{"code":"72011","nom":"Assé-le-Boisne","pop":881},"geometry":{"type":"Polygon","coordinates":[[[0.033,48.337],[0.026,48.297],[0.028,48.29],[0.01,48.277],[-0.009,48.276],[-0.016,48.295],[-0.019,48.324],[-0.048,48.345],[-0.043,48.362],[0.002,48.349],[0.033,48.337]]]}},{"type":"Feature","properties":{"code":"72012","nom":"Assé-le-Riboul","pop":479},"geometry":{"type":"Polygon","coordinates":[[[0.095,48.19],[0.065,48.183],[0.052,48.178],[0.046,48.192],[0.068,48.226],[0.087,48.227],[0.114,48.213],[0.121,48.193],[0.095,48.19]]]}},{"type":"Feature","properties":{"code":"72013","nom":"Aubigné-Racan","pop":2158},"geometry":{"type":"Polygon","coordinates":[[[0.261,47.726],[0.269,47.722],[0.292,47.701],[0.281,47.662],[0.246,47.657],[0.234,47.645],[0.219,47.655],[0.21,47.671],[0.225,47.702],[0.261,47.726]]]}},{"type":"Feature","properties":{"code":"72015","nom":"Les Aulneaux","pop":111},"geometry":{"type":"Polygon","coordinates":[[[0.368,48.438],[0.341,48.424],[0.312,48.432],[0.319,48.435],[0.351,48.459],[0.353,48.46],[0.368,48.438]]]}},{"type":"Feature","properties":{"code":"72016","nom":"Auvers-le-Hamon","pop":1445},"geometry":{"type":"Polygon","coordinates":[[[-0.272,47.894],[-0.271,47.89],[-0.336,47.87],[-0.371,47.875],[-0.391,47.889],[-0.411,47.895],[-0.413,47.916],[-0.375,47.933],[-0.32,47.935],[-0.288,47.9],[-0.272,47.894]]]}},{"type":"Feature","properties":{"code":"72017","nom":"Auvers-sous-Montfaucon","pop":231},"geometry":{"type":"Polygon","coordinates":[[[-0.07,48.013],[-0.058,48.011],[-0.057,47.992],[-0.074,47.984],[-0.106,48.003],[-0.107,48.005],[-0.103,48.011],[-0.07,48.013]]]}},{"type":"Feature","properties":{"code":"72018","nom":"Avesnes-en-Saosnois","pop":93},"geometry":{"type":"Polygon","coordinates":[[[0.387,48.261],[0.379,48.255],[0.363,48.255],[0.347,48.279],[0.349,48.282],[0.387,48.261]]]}},{"type":"Feature","properties":{"code":"72019","nom":"Avessé","pop":332},"geometry":{"type":"Polygon","coordinates":[[[-0.237,47.954],[-0.246,47.932],[-0.282,47.93],[-0.312,47.94],[-0.289,47.961],[-0.271,47.999],[-0.263,47.995],[-0.262,47.971],[-0.237,47.954]]]}},{"type":"Feature","properties":{"code":"72020","nom":"Avezé","pop":690},"geometry":{"type":"Polygon","coordinates":[[[0.722,48.203],[0.665,48.209],[0.639,48.235],[0.632,48.255],[0.652,48.264],[0.684,48.254],[0.722,48.203]]]}},{"type":"Feature","properties":{"code":"72021","nom":"Avoise","pop":594},"geometry":{"type":"Polygon","coordinates":[[[-0.246,47.849],[-0.249,47.852],[-0.252,47.877],[-0.198,47.875],[-0.178,47.885],[-0.148,47.874],[-0.157,47.846],[-0.162,47.841],[-0.194,47.835],[-0.2,47.861],[-0.246,47.849]]]}},{"type":"Feature","properties":{"code":"72022","nom":"Le Bailleul","pop":1217},"geometry":{"type":"Polygon","coordinates":[[[-0.185,47.74],[-0.225,47.764],[-0.211,47.795],[-0.143,47.793],[-0.132,47.779],[-0.136,47.763],[-0.151,47.764],[-0.185,47.74]]]}},{"type":"Feature","properties":{"code":"72023","nom":"Ballon-Saint Mars","pop":2273},"geometry":{"type":"Polygon","coordinates":[[[0.307,48.157],[0.298,48.153],[0.267,48.15],[0.209,48.154],[0.206,48.162],[0.21,48.196],[0.228,48.2],[0.255,48.199],[0.308,48.174],[0.307,48.157]]]}},{"type":"Feature","properties":{"code":"72024","nom":"La Bazoge","pop":3796},"geometry":{"type":"Polygon","coordinates":[[[0.174,48.072],[0.155,48.075],[0.106,48.096],[0.102,48.118],[0.114,48.124],[0.134,48.132],[0.156,48.126],[0.182,48.11],[0.191,48.1],[0.174,48.072]]]}},{"type":"Feature","properties":{"code":"72025","nom":"Bazouges Cré sur Loir","pop":1977},"geometry":{"type":"Polygon","coordinates":[[[-0.136,47.714],[-0.123,47.694],[-0.141,47.683],[-0.105,47.657],[-0.135,47.632],[-0.159,47.647],[-0.193,47.648],[-0.197,47.663],[-0.22,47.69],[-0.174,47.714],[-0.136,47.714]]]}},{"type":"Feature","properties":{"code":"72026","nom":"Beaufay","pop":1522},"geometry":{"type":"Polygon","coordinates":[[[0.317,48.115],[0.305,48.117],[0.298,48.153],[0.307,48.157],[0.375,48.164],[0.403,48.151],[0.37,48.145],[0.345,48.118],[0.317,48.115]]]}},{"type":"Feature","properties":{"code":"72027","nom":"Beaumont-sur-Dême","pop":326},"geometry":{"type":"Polygon","coordinates":[[[0.558,47.671],[0.558,47.673],[0.554,47.694],[0.58,47.712],[0.615,47.694],[0.597,47.673],[0.558,47.671]]]}},{"type":"Feature","properties":{"code":"72028","nom":"Beaumont-Pied-de-Bœuf","pop":472},"geometry":{"type":"Polygon","coordinates":[[[0.419,47.73],[0.358,47.74],[0.34,47.762],[0.346,47.775],[0.358,47.782],[0.427,47.765],[0.427,47.763],[0.419,47.73]]]}},{"type":"Feature","properties":{"code":"72029","nom":"Beaumont-sur-Sarthe","pop":1972},"geometry":{"type":"Polygon","coordinates":[[[0.087,48.227],[0.108,48.236],[0.132,48.232],[0.145,48.224],[0.114,48.213],[0.087,48.227]]]}},{"type":"Feature","properties":{"code":"72031","nom":"Beillé","pop":542},"geometry":{"type":"Polygon","coordinates":[[[0.533,48.084],[0.492,48.065],[0.482,48.072],[0.492,48.088],[0.539,48.089],[0.533,48.084]]]}},{"type":"Feature","properties":{"code":"72032","nom":"Berfay","pop":333},"geometry":{"type":"Polygon","coordinates":[[[0.776,47.978],[0.766,47.978],[0.721,47.995],[0.71,48.009],[0.711,48.02],[0.776,48.023],[0.785,47.998],[0.776,47.978]]]}},{"type":"Feature","properties":{"code":"72034","nom":"Bérus","pop":435},"geometry":{"type":"Polygon","coordinates":[[[0.072,48.363],[0.052,48.363],[0.04,48.381],[0.062,48.383],[0.094,48.383],[0.096,48.376],[0.072,48.363]]]}},{"type":"Feature","properties":{"code":"72035","nom":"Bessé-sur-Braye","pop":1972},"geometry":{"type":"MultiPolygon","coordinates":[[[[0.691,47.837],[0.729,47.848],[0.759,47.834],[0.734,47.808],[0.713,47.79],[0.69,47.828],[0.691,47.837]]],[[[0.774,47.842],[0.768,47.831],[0.763,47.834],[0.774,47.842]]]]}},{"type":"Feature","properties":{"code":"72036","nom":"Béthon","pop":323},"geometry":{"type":"Polygon","coordinates":[[[0.072,48.363],[0.096,48.376],[0.11,48.367],[0.092,48.354],[0.072,48.363]]]}},{"type":"Feature","properties":{"code":"72037","nom":"Blèves","pop":128},"geometry":{"type":"Polygon","coordinates":[[[0.341,48.461],[0.351,48.459],[0.319,48.435],[0.341,48.461]]]}},{"type":"Feature","properties":{"code":"72038","nom":"Boëssé-le-Sec","pop":515},"geometry":{"type":"Polygon","coordinates":[[[0.572,48.152],[0.588,48.135],[0.579,48.116],[0.565,48.113],[0.525,48.136],[0.521,48.149],[0.572,48.152]]]}},{"type":"Feature","properties":{"code":"72039","nom":"Bonnétable","pop":3703},"geometry":{"type":"Polygon","coordinates":[[[0.413,48.156],[0.398,48.186],[0.42,48.212],[0.472,48.219],[0.491,48.213],[0.505,48.176],[0.477,48.167],[0.453,48.151],[0.44,48.149],[0.413,48.156]]]}},{"type":"Feature","properties":{"code":"72040","nom":"La Bosse","pop":155},"geometry":{"type":"Polygon","coordinates":[[[0.523,48.178],[0.547,48.185],[0.562,48.154],[0.595,48.162],[0.572,48.152],[0.521,48.149],[0.523,48.178]]]}},{"type":"Feature","properties":{"code":"72041","nom":"Bouër","pop":350},"geometry":{"type":"Polygon","coordinates":[[[0.596,48.058],[0.625,48.087],[0.622,48.099],[0.678,48.079],[0.625,48.059],[0.596,48.058]]]}},{"type":"Feature","properties":{"code":"72042","nom":"Bouloire","pop":2127},"geometry":{"type":"Polygon","coordinates":[[[0.485,47.969],[0.486,47.982],[0.537,47.983],[0.555,47.992],[0.577,47.987],[0.614,47.957],[0.608,47.947],[0.548,47.951],[0.523,47.95],[0.508,47.967],[0.485,47.969]]]}},{"type":"Feature","properties":{"code":"72043","nom":"Bourg-le-Roi","pop":325},"geometry":{"type":"Polygon","coordinates":[[[0.13,48.35],[0.138,48.346],[0.135,48.342],[0.129,48.345],[0.13,48.35]]]}},{"type":"Feature","properties":{"code":"72044","nom":"Bousse","pop":431},"geometry":{"type":"Polygon","coordinates":[[[-0.09,47.782],[-0.084,47.788],[-0.077,47.783],[-0.048,47.779],[-0.04,47.754],[-0.052,47.739],[-0.079,47.745],[-0.09,47.782]]]}},{"type":"Feature","properties":{"code":"72045","nom":"Brains-sur-Gée","pop":757},"geometry":{"type":"Polygon","coordinates":[[[0.013,47.996],[-0.001,47.995],[-0.057,47.992],[-0.058,48.011],[-0.04,48.033],[-0.012,48.031],[-0.015,48.02],[0.013,47.996]]]}},{"type":"Feature","properties":{"code":"72046","nom":"Le Breil-sur-Mérize","pop":1552},"geometry":{"type":"Polygon","coordinates":[[[0.506,48.007],[0.547,48.009],[0.555,47.992],[0.537,47.983],[0.486,47.982],[0.458,47.992],[0.453,48.007],[0.47,48.012],[0.506,48.007]]]}},{"type":"Feature","properties":{"code":"72047","nom":"Brette-les-Pins","pop":2131},"geometry":{"type":"Polygon","coordinates":[[[0.291,47.927],[0.304,47.931],[0.362,47.917],[0.364,47.904],[0.335,47.891],[0.301,47.895],[0.291,47.927]]]}},{"type":"Feature","properties":{"code":"72048","nom":"Briosne-lès-Sables","pop":558},"geometry":{"type":"Polygon","coordinates":[[[0.374,48.2],[0.393,48.194],[0.398,48.186],[0.413,48.156],[0.403,48.151],[0.375,48.164],[0.37,48.193],[0.374,48.2]]]}},{"type":"Feature","properties":{"code":"72049","nom":"La Bruère-sur-Loir","pop":250},"geometry":{"type":"Polygon","coordinates":[[[0.369,47.676],[0.372,47.676],[0.379,47.647],[0.328,47.636],[0.324,47.642],[0.369,47.676]]]}},{"type":"Feature","properties":{"code":"72050","nom":"Brûlon","pop":1549},"geometry":{"type":"Polygon","coordinates":[[[-0.229,48.008],[-0.2,47.992],[-0.204,47.971],[-0.209,47.967],[-0.237,47.954],[-0.262,47.971],[-0.263,47.995],[-0.229,48.008]]]}},{"type":"Feature","properties":{"code":"72051","nom":"Cérans-Foulletourte","pop":3341},"geometry":{"type":"Polygon","coordinates":[[[0.063,47.864],[0.084,47.863],[0.093,47.847],[0.127,47.834],[0.126,47.832],[0.077,47.804],[0.041,47.817],[0.013,47.831],[0.033,47.848],[0.063,47.864]]]}},{"type":"Feature","properties":{"code":"72052","nom":"Chahaignes","pop":664},"geometry":{"type":"Polygon","coordinates":[[[0.541,47.782],[0.54,47.735],[0.5,47.722],[0.481,47.748],[0.494,47.78],[0.541,47.782]]]}},{"type":"Feature","properties":{"code":"72053","nom":"Challes","pop":1156},"geometry":{"type":"Polygon","coordinates":[[[0.434,47.892],[0.393,47.941],[0.411,47.968],[0.434,47.978],[0.437,47.976],[0.451,47.946],[0.455,47.915],[0.46,47.908],[0.46,47.906],[0.434,47.892]]]}},{"type":"Feature","properties":{"code":"72054","nom":"Champagné","pop":3666},"geometry":{"type":"Polygon","coordinates":[[[0.307,48.006],[0.315,48.038],[0.344,48.037],[0.365,48.001],[0.354,47.992],[0.307,48.006]]]}},{"type":"Feature","properties":{"code":"72056","nom":"Champfleur","pop":1282},"geometry":{"type":"Polygon","coordinates":[[[0.134,48.364],[0.11,48.367],[0.096,48.376],[0.094,48.383],[0.111,48.395],[0.132,48.409],[0.154,48.376],[0.134,48.364]]]}},{"type":"Feature","properties":{"code":"72057","nom":"Champrond","pop":69},"geometry":{"type":"Polygon","coordinates":[[[0.746,48.103],[0.763,48.084],[0.764,48.073],[0.724,48.076],[0.746,48.103]]]}},{"type":"Feature","properties":{"code":"72058","nom":"Changé","pop":6911},"geometry":{"type":"Polygon","coordinates":[[[0.296,47.951],[0.243,47.963],[0.246,47.989],[0.307,48.006],[0.354,47.992],[0.358,47.977],[0.296,47.951]]]}},{"type":"Feature","properties":{"code":"72059","nom":"Chantenay-Villedieu","pop":807},"geometry":{"type":"Polygon","coordinates":[[[-0.2,47.925],[-0.192,47.938],[-0.16,47.946],[-0.129,47.928],[-0.112,47.951],[-0.092,47.938],[-0.127,47.903],[-0.155,47.89],[-0.189,47.897],[-0.2,47.925]]]}},{"type":"Feature","properties":{"code":"72060","nom":"La Chapelle-aux-Choux","pop":283},"geometry":{"type":"Polygon","coordinates":[[[0.259,47.612],[0.23,47.608],[0.202,47.616],[0.219,47.655],[0.234,47.645],[0.249,47.643],[0.259,47.612]]]}},{"type":"Feature","properties":{"code":"72061","nom":"La Chapelle-d'Aligné","pop":1729},"geometry":{"type":"Polygon","coordinates":[[[-0.202,47.725],[-0.233,47.707],[-0.287,47.719],[-0.29,47.723],[-0.249,47.769],[-0.225,47.764],[-0.185,47.74],[-0.202,47.725]]]}},{"type":"Feature","properties":{"code":"72062","nom":"La Chapelle-du-Bois","pop":768},"geometry":{"type":"Polygon","coordinates":[[[0.579,48.244],[0.594,48.245],[0.624,48.204],[0.613,48.196],[0.567,48.227],[0.554,48.226],[0.537,48.249],[0.579,48.244]]]}},{"type":"Feature","properties":{"code":"72064","nom":"La Chapelle-Huon","pop":513},"geometry":{"type":"Polygon","coordinates":[[[0.759,47.834],[0.729,47.848],[0.691,47.837],[0.679,47.851],[0.696,47.879],[0.726,47.862],[0.759,47.859],[0.774,47.851],[0.774,47.842],[0.763,47.834],[0.759,47.834]]]}},{"type":"Feature","properties":{"code":"72065","nom":"La Chapelle-Saint-Aubin","pop":2256},"geometry":{"type":"Polygon","coordinates":[[[0.14,48.03],[0.13,48.045],[0.162,48.046],[0.177,48.045],[0.183,48.035],[0.14,48.03]]]}},{"type":"Feature","properties":{"code":"72066","nom":"La Chapelle-Saint-Fray","pop":421},"geometry":{"type":"Polygon","coordinates":[[[0.102,48.118],[0.106,48.096],[0.096,48.09],[0.075,48.105],[0.073,48.124],[0.102,48.118]]]}},{"type":"Feature","properties":{"code":"72067","nom":"La Chapelle-Saint-Rémy","pop":995},"geometry":{"type":"Polygon","coordinates":[[[0.482,48.072],[0.46,48.075],[0.432,48.103],[0.466,48.142],[0.474,48.141],[0.473,48.122],[0.492,48.088],[0.482,48.072]]]}},{"type":"Feature","properties":{"code":"72068","nom":"La Chartre-sur-le-Loir","pop":1370},"geometry":{"type":"Polygon","coordinates":[[[0.611,47.732],[0.611,47.728],[0.581,47.713],[0.552,47.734],[0.59,47.747],[0.611,47.732]]]}},{"type":"Feature","properties":{"code":"72070","nom":"Chassillé","pop":249},"geometry":{"type":"Polygon","coordinates":[[[-0.103,48.011],[-0.107,48.005],[-0.148,48.017],[-0.16,48.029],[-0.163,48.035],[-0.1,48.029],[-0.103,48.011]]]}},{"type":"Feature","properties":{"code":"72071","nom":"Montval-sur-Loir","pop":5641},"geometry":{"type":"Polygon","coordinates":[[[0.372,47.676],[0.369,47.676],[0.361,47.686],[0.395,47.691],[0.431,47.727],[0.477,47.707],[0.481,47.689],[0.428,47.679],[0.417,47.666],[0.372,47.676]]]}},{"type":"Feature","properties":{"code":"72072","nom":"Château-l'Hermitage","pop":256},"geometry":{"type":"Polygon","coordinates":[[[0.204,47.815],[0.228,47.808],[0.199,47.786],[0.173,47.806],[0.18,47.816],[0.204,47.815]]]}},{"type":"Feature","properties":{"code":"72073","nom":"Chaufour-Notre-Dame","pop":1173},"geometry":{"type":"Polygon","coordinates":[[[0.038,47.981],[0.041,48.032],[0.066,48.038],[0.096,48.043],[0.103,48.044],[0.093,48.02],[0.054,48.005],[0.048,47.981],[0.038,47.981]]]}},{"type":"Feature","properties":{"code":"72074","nom":"Chemiré-en-Charnie","pop":212},"geometry":{"type":"Polygon","coordinates":[[[-0.208,48.039],[-0.231,48.059],[-0.226,48.072],[-0.191,48.066],[-0.171,48.064],[-0.18,48.054],[-0.179,48.039],[-0.208,48.039]]]}},{"type":"Feature","properties":{"code":"72075","nom":"Chemiré-le-Gaudin","pop":998},"geometry":{"type":"Polygon","coordinates":[[[-0.035,47.962],[-0.006,47.968],[0.011,47.942],[0.029,47.915],[0.016,47.905],[-0.005,47.899],[-0.045,47.916],[-0.029,47.942],[-0.035,47.962]]]}},{"type":"Feature","properties":{"code":"72076","nom":"Chenay","pop":255},"geometry":{"type":"Polygon","coordinates":[[[0.144,48.455],[0.174,48.451],[0.156,48.436],[0.153,48.438],[0.155,48.445],[0.144,48.455]]]}},{"type":"Feature","properties":{"code":"72077","nom":"Chenu","pop":421},"geometry":{"type":"Polygon","coordinates":[[[0.378,47.568],[0.339,47.58],[0.322,47.595],[0.308,47.617],[0.328,47.636],[0.379,47.647],[0.383,47.643],[0.365,47.62],[0.395,47.595],[0.402,47.578],[0.378,47.568]]]}},{"type":"Feature","properties":{"code":"72078","nom":"Chérancé","pop":353},"geometry":{"type":"Polygon","coordinates":[[[0.2,48.297],[0.201,48.296],[0.192,48.268],[0.167,48.261],[0.147,48.276],[0.145,48.277],[0.155,48.293],[0.167,48.303],[0.2,48.297]]]}},{"type":"Feature","properties":{"code":"72079","nom":"Chérisay","pop":303},"geometry":{"type":"Polygon","coordinates":[[[0.11,48.367],[0.134,48.364],[0.13,48.35],[0.129,48.345],[0.127,48.339],[0.122,48.331],[0.1,48.337],[0.092,48.354],[0.11,48.367]]]}},{"type":"Feature","properties":{"code":"72080","nom":"Cherré-Au","pop":2758},"geometry":{"type":"Polygon","coordinates":[[[0.722,48.203],[0.724,48.198],[0.68,48.175],[0.692,48.15],[0.672,48.136],[0.641,48.129],[0.618,48.157],[0.621,48.159],[0.667,48.18],[0.663,48.197],[0.665,48.209],[0.722,48.203]]]}},{"type":"Feature","properties":{"code":"72083","nom":"Chevillé","pop":351},"geometry":{"type":"Polygon","coordinates":[[[-0.192,47.938],[-0.2,47.925],[-0.235,47.923],[-0.246,47.932],[-0.237,47.954],[-0.209,47.967],[-0.192,47.938]]]}},{"type":"Feature","properties":{"code":"72084","nom":"Clermont-Créans","pop":1293},"geometry":{"type":"Polygon","coordinates":[[[0.007,47.753],[0.016,47.748],[-0.017,47.712],[-0.01,47.703],[-0.031,47.701],[-0.052,47.739],[-0.04,47.754],[0.007,47.753]]]}},{"type":"Feature","properties":{"code":"72085","nom":"Cogners","pop":170},"geometry":{"type":"Polygon","coordinates":[[[0.624,47.843],[0.633,47.871],[0.66,47.879],[0.694,47.883],[0.696,47.879],[0.679,47.851],[0.624,47.843]]]}},{"type":"Feature","properties":{"code":"72086","nom":"Commerveil","pop":138},"geometry":{"type":"Polygon","coordinates":[[[0.338,48.306],[0.347,48.333],[0.38,48.314],[0.355,48.312],[0.342,48.294],[0.339,48.3],[0.338,48.306]]]}},{"type":"Feature","properties":{"code":"72087","nom":"Conflans-sur-Anille","pop":468},"geometry":{"type":"Polygon","coordinates":[[[0.769,47.967],[0.768,47.941],[0.738,47.937],[0.686,47.978],[0.689,48.01],[0.71,48.009],[0.721,47.995],[0.766,47.978],[0.769,47.967]]]}},{"type":"Feature","properties":{"code":"72088","nom":"Congé-sur-Orne","pop":314},"geometry":{"type":"Polygon","coordinates":[[[0.251,48.227],[0.274,48.228],[0.284,48.211],[0.255,48.199],[0.228,48.2],[0.233,48.214],[0.251,48.227]]]}},{"type":"Feature","properties":{"code":"72089","nom":"Conlie","pop":1833},"geometry":{"type":"Polygon","coordinates":[[[0.001,48.107],[-0.02,48.101],[-0.042,48.101],[-0.038,48.138],[0.036,48.137],[0.046,48.136],[0.001,48.107]]]}},{"type":"Feature","properties":{"code":"72090","nom":"Connerré","pop":2780},"geometry":{"type":"Polygon","coordinates":[[[0.46,48.075],[0.482,48.072],[0.492,48.065],[0.502,48.058],[0.483,48.037],[0.47,48.033],[0.43,48.038],[0.442,48.056],[0.46,48.075]]]}},{"type":"Feature","properties":{"code":"72091","nom":"Contilly","pop":134},"geometry":{"type":"Polygon","coordinates":[[[0.341,48.424],[0.368,48.438],[0.376,48.43],[0.374,48.387],[0.356,48.389],[0.33,48.415],[0.341,48.424]]]}},{"type":"Feature","properties":{"code":"72093","nom":"Cormes","pop":893},"geometry":{"type":"Polygon","coordinates":[[[0.724,48.198],[0.755,48.182],[0.753,48.176],[0.705,48.149],[0.703,48.133],[0.675,48.135],[0.672,48.136],[0.692,48.15],[0.68,48.175],[0.724,48.198]]]}},{"type":"Feature","properties":{"code":"72094","nom":"Coudrecieux","pop":636},"geometry":{"type":"Polygon","coordinates":[[[0.577,47.987],[0.617,48.009],[0.639,48.012],[0.676,48.004],[0.665,47.999],[0.653,47.954],[0.614,47.957],[0.577,47.987]]]}},{"type":"Feature","properties":{"code":"72095","nom":"Coulaines","pop":8121},"geometry":{"type":"Polygon","coordinates":[[[0.222,48.052],[0.218,48.024],[0.193,48.022],[0.209,48.042],[0.222,48.052]]]}},{"type":"Feature","properties":{"code":"72096","nom":"Coulans-sur-Gée","pop":1605},"geometry":{"type":"Polygon","coordinates":[[[0.025,48.066],[0.041,48.032],[0.038,47.981],[0.013,47.996],[-0.015,48.02],[-0.012,48.031],[-0.007,48.05],[0.025,48.066]]]}},{"type":"Feature","properties":{"code":"72098","nom":"Coulongé","pop":506},"geometry":{"type":"Polygon","coordinates":[[[0.199,47.716],[0.225,47.702],[0.21,47.671],[0.182,47.67],[0.169,47.706],[0.184,47.709],[0.199,47.716]]]}},{"type":"Feature","properties":{"code":"72099","nom":"Courcebœufs","pop":640},"geometry":{"type":"Polygon","coordinates":[[[0.255,48.103],[0.252,48.111],[0.267,48.15],[0.298,48.153],[0.305,48.117],[0.255,48.103]]]}},{"type":"Feature","properties":{"code":"72100","nom":"Courcelles-la-Forêt","pop":397},"geometry":{"type":"Polygon","coordinates":[[[0.024,47.807],[0.018,47.789],[-0.048,47.779],[-0.077,47.783],[-0.075,47.801],[0.012,47.814],[0.024,47.807]]]}},{"type":"Feature","properties":{"code":"72101","nom":"Courcemont","pop":664},"geometry":{"type":"Polygon","coordinates":[[[0.375,48.164],[0.307,48.157],[0.308,48.174],[0.329,48.202],[0.37,48.193],[0.375,48.164]]]}},{"type":"Feature","properties":{"code":"72102","nom":"Courcival","pop":80},"geometry":{"type":"Polygon","coordinates":[[[0.355,48.241],[0.384,48.244],[0.404,48.253],[0.413,48.239],[0.409,48.218],[0.397,48.218],[0.376,48.228],[0.355,48.241]]]}},{"type":"Feature","properties":{"code":"72103","nom":"Courdemanche","pop":623},"geometry":{"type":"Polygon","coordinates":[[[0.54,47.782],[0.528,47.82],[0.534,47.846],[0.542,47.854],[0.572,47.842],[0.583,47.797],[0.583,47.785],[0.54,47.782]]]}},{"type":"Feature","properties":{"code":"72104","nom":"Courgains","pop":581},"geometry":{"type":"Polygon","coordinates":[[[0.303,48.283],[0.283,48.258],[0.269,48.269],[0.261,48.301],[0.241,48.301],[0.248,48.316],[0.284,48.311],[0.305,48.291],[0.303,48.283]]]}},{"type":"Feature","properties":{"code":"72105","nom":"Courgenard","pop":454},"geometry":{"type":"Polygon","coordinates":[[[0.753,48.176],[0.765,48.15],[0.754,48.136],[0.705,48.149],[0.753,48.176]]]}},{"type":"Feature","properties":{"code":"72106","nom":"Courtillers","pop":901},"geometry":{"type":"Polygon","coordinates":[[[-0.282,47.8],[-0.326,47.794],[-0.344,47.805],[-0.347,47.805],[-0.3,47.817],[-0.282,47.8]]]}},{"type":"Feature","properties":{"code":"72107","nom":"Crannes-en-Champagne","pop":340},"geometry":{"type":"Polygon","coordinates":[[[-0.006,47.968],[-0.035,47.962],[-0.045,47.963],[-0.078,47.976],[-0.074,47.984],[-0.057,47.992],[-0.001,47.995],[-0.006,47.968]]]}},{"type":"Feature","properties":{"code":"72109","nom":"Crissé","pop":534},"geometry":{"type":"Polygon","coordinates":[[[-0.077,48.214],[-0.06,48.188],[-0.016,48.185],[-0.012,48.178],[-0.045,48.161],[-0.055,48.151],[-0.098,48.16],[-0.08,48.19],[-0.103,48.21],[-0.077,48.214]]]}},{"type":"Feature","properties":{"code":"72110","nom":"Crosmières","pop":974},"geometry":{"type":"Polygon","coordinates":[[[-0.174,47.714],[-0.202,47.725],[-0.185,47.74],[-0.151,47.764],[-0.136,47.763],[-0.118,47.73],[-0.136,47.714],[-0.174,47.714]]]}},{"type":"Feature","properties":{"code":"72111","nom":"Cures","pop":489},"geometry":{"type":"Polygon","coordinates":[[[0.054,48.067],[0.024,48.067],[-0.02,48.101],[0.001,48.107],[0.029,48.088],[0.061,48.069],[0.054,48.067]]]}},{"type":"Feature","properties":{"code":"72112","nom":"Dangeul","pop":486},"geometry":{"type":"Polygon","coordinates":[[[0.274,48.228],[0.251,48.227],[0.234,48.262],[0.246,48.269],[0.269,48.269],[0.283,48.258],[0.281,48.236],[0.274,48.228]]]}},{"type":"Feature","properties":{"code":"72113","nom":"Degré","pop":751},"geometry":{"type":"Polygon","coordinates":[[[0.083,48.068],[0.096,48.043],[0.066,48.038],[0.054,48.067],[0.061,48.069],[0.083,48.068]]]}},{"type":"Feature","properties":{"code":"72114","nom":"Dehault","pop":241},"geometry":{"type":"Polygon","coordinates":[[[0.606,48.184],[0.586,48.201],[0.558,48.199],[0.55,48.219],[0.554,48.226],[0.567,48.227],[0.613,48.196],[0.606,48.184]]]}},{"type":"Feature","properties":{"code":"72115","nom":"Dissay-sous-Courcillon","pop":966},"geometry":{"type":"Polygon","coordinates":[[[0.559,47.666],[0.498,47.645],[0.462,47.643],[0.425,47.655],[0.417,47.666],[0.428,47.679],[0.481,47.689],[0.558,47.673],[0.558,47.671],[0.559,47.666]]]}},{"type":"Feature","properties":{"code":"72118","nom":"Dollon","pop":1427},"geometry":{"type":"Polygon","coordinates":[[[0.617,48.009],[0.587,48.018],[0.578,48.033],[0.548,48.034],[0.532,48.049],[0.557,48.065],[0.595,48.054],[0.637,48.037],[0.639,48.012],[0.617,48.009]]]}},{"type":"Feature","properties":{"code":"72119","nom":"Domfront-en-Champagne","pop":1069},"geometry":{"type":"Polygon","coordinates":[[[0.096,48.09],[0.097,48.089],[0.06,48.097],[0.029,48.088],[0.001,48.107],[0.046,48.136],[0.057,48.131],[0.073,48.124],[0.075,48.105],[0.096,48.09]]]}},{"type":"Feature","properties":{"code":"72120","nom":"Doucelles","pop":223},"geometry":{"type":"Polygon","coordinates":[[[0.203,48.257],[0.188,48.248],[0.167,48.261],[0.192,48.268],[0.203,48.257]]]}},{"type":"Feature","properties":{"code":"72121","nom":"Douillet","pop":319},"geometry":{"type":"Polygon","coordinates":[[[-0.066,48.255],[-0.084,48.273],[-0.069,48.293],[-0.016,48.295],[-0.009,48.276],[-0.025,48.264],[-0.066,48.255]]]}},{"type":"Feature","properties":{"code":"72122","nom":"Duneau","pop":1078},"geometry":{"type":"Polygon","coordinates":[[[0.492,48.065],[0.533,48.084],[0.57,48.079],[0.575,48.078],[0.557,48.065],[0.532,48.049],[0.502,48.058],[0.492,48.065]]]}},{"type":"Feature","properties":{"code":"72123","nom":"Dureil","pop":61},"geometry":{"type":"Polygon","coordinates":[[[-0.104,47.82],[-0.13,47.817],[-0.162,47.841],[-0.157,47.846],[-0.125,47.84],[-0.104,47.82]]]}},{"type":"Feature","properties":{"code":"72124","nom":"Écommoy","pop":4868},"geometry":{"type":"Polygon","coordinates":[[[0.302,47.797],[0.253,47.789],[0.25,47.797],[0.262,47.809],[0.252,47.834],[0.256,47.842],[0.254,47.853],[0.285,47.858],[0.32,47.845],[0.319,47.805],[0.302,47.797]]]}},{"type":"Feature","properties":{"code":"72125","nom":"Écorpain","pop":296},"geometry":{"type":"Polygon","coordinates":[[[0.683,47.918],[0.652,47.914],[0.63,47.905],[0.605,47.928],[0.608,47.947],[0.614,47.957],[0.653,47.954],[0.683,47.918]]]}},{"type":"Feature","properties":{"code":"72126","nom":"Épineu-le-Chevreuil","pop":286},"geometry":{"type":"Polygon","coordinates":[[[-0.078,48.043],[-0.079,48.034],[-0.1,48.029],[-0.163,48.035],[-0.179,48.039],[-0.18,48.054],[-0.123,48.044],[-0.078,48.043]]]}},{"type":"Feature","properties":{"code":"72127","nom":"Étival-lès-le-Mans","pop":1826},"geometry":{"type":"Polygon","coordinates":[[[0.053,47.978],[0.071,47.98],[0.083,47.981],[0.114,47.956],[0.111,47.945],[0.098,47.944],[0.069,47.968],[0.048,47.958],[0.053,47.978]]]}},{"type":"Feature","properties":{"code":"72128","nom":"Val-d'Étangson","pop":530},"geometry":{"type":"Polygon","coordinates":[[[0.624,47.843],[0.62,47.839],[0.62,47.84],[0.604,47.849],[0.587,47.882],[0.608,47.901],[0.603,47.927],[0.605,47.928],[0.63,47.905],[0.652,47.914],[0.66,47.879],[0.633,47.871],[0.624,47.843]]]}},{"type":"Feature","properties":{"code":"72129","nom":"Fatines","pop":929},"geometry":{"type":"Polygon","coordinates":[[[0.315,48.038],[0.336,48.057],[0.347,48.057],[0.344,48.037],[0.315,48.038]]]}},{"type":"Feature","properties":{"code":"72130","nom":"Fay","pop":751},"geometry":{"type":"Polygon","coordinates":[[[0.071,47.98],[0.053,47.978],[0.048,47.981],[0.054,48.005],[0.093,48.02],[0.103,48.011],[0.071,47.98]]]}},{"type":"Feature","properties":{"code":"72131","nom":"Fercé-sur-Sarthe","pop":575},"geometry":{"type":"Polygon","coordinates":[[[-0.048,47.878],[-0.058,47.888],[-0.053,47.916],[-0.045,47.916],[-0.005,47.899],[-0.015,47.888],[-0.048,47.878]]]}},{"type":"Feature","properties":{"code":"72132","nom":"La Ferté-Bernard","pop":8740},"geometry":{"type":"Polygon","coordinates":[[[0.621,48.165],[0.606,48.184],[0.613,48.196],[0.624,48.204],[0.642,48.21],[0.663,48.197],[0.667,48.18],[0.621,48.159],[0.621,48.165]]]}},{"type":"Feature","properties":{"code":"72133","nom":"Fillé","pop":1562},"geometry":{"type":"Polygon","coordinates":[[[0.11,47.878],[0.092,47.917],[0.119,47.918],[0.133,47.906],[0.11,47.878]]]}},{"type":"Feature","properties":{"code":"72134","nom":"Flée","pop":528},"geometry":{"type":"Polygon","coordinates":[[[0.431,47.727],[0.419,47.73],[0.427,47.763],[0.438,47.739],[0.481,47.748],[0.5,47.722],[0.477,47.707],[0.431,47.727]]]}},{"type":"Feature","properties":{"code":"72135","nom":"La Fontaine-Saint-Martin","pop":599},"geometry":{"type":"Polygon","coordinates":[[[0.025,47.78],[0.018,47.789],[0.024,47.807],[0.041,47.817],[0.077,47.804],[0.08,47.787],[0.054,47.776],[0.025,47.78]]]}},{"type":"Feature","properties":{"code":"72136","nom":"Fontenay-sur-Vègre","pop":307},"geometry":{"type":"Polygon","coordinates":[[[-0.189,47.897],[-0.192,47.891],[-0.219,47.887],[-0.237,47.908],[-0.235,47.923],[-0.2,47.925],[-0.189,47.897]]]}},{"type":"Feature","properties":{"code":"72137","nom":"Villeneuve-en-Perseigne","pop":2174},"geometry":{"type":"Polygon","coordinates":[[[0.154,48.376],[0.132,48.409],[0.152,48.409],[0.156,48.436],[0.174,48.451],[0.195,48.464],[0.218,48.474],[0.262,48.483],[0.284,48.482],[0.315,48.473],[0.341,48.461],[0.319,48.435],[0.312,48.432],[0.295,48.441],[0.258,48.426],[0.259,48.417],[0.201,48.396],[0.178,48.378],[0.154,48.376]]]}},{"type":"Feature","properties":{"code":"72138","nom":"Fresnay-sur-Sarthe","pop":2928},"geometry":{"type":"Polygon","coordinates":[[[0.145,48.277],[0.097,48.274],[0.085,48.258],[0.044,48.255],[0.038,48.276],[0.01,48.277],[0.028,48.29],[0.062,48.28],[0.072,48.305],[0.115,48.316],[0.155,48.293],[0.145,48.277]]]}},{"type":"Feature","properties":{"code":"72139","nom":"Fyé","pop":1013},"geometry":{"type":"Polygon","coordinates":[[[0.063,48.308],[0.043,48.336],[0.052,48.343],[0.1,48.337],[0.122,48.331],[0.115,48.316],[0.072,48.305],[0.063,48.308]]]}},{"type":"Feature","properties":{"code":"72141","nom":"Gesnes-le-Gandelin","pop":879},"geometry":{"type":"Polygon","coordinates":[[[0.023,48.38],[0.04,48.381],[0.052,48.363],[0.052,48.343],[0.043,48.336],[0.033,48.337],[0.002,48.349],[0.023,48.38]]]}},{"type":"Feature","properties":{"code":"72142","nom":"Grandchamp","pop":137},"geometry":{"type":"Polygon","coordinates":[[[0.184,48.327],[0.19,48.323],[0.2,48.297],[0.167,48.303],[0.184,48.327]]]}},{"type":"Feature","properties":{"code":"72143","nom":"Le Grand-Lucé","pop":1949},"geometry":{"type":"Polygon","coordinates":[[[0.45,47.84],[0.44,47.86],[0.403,47.862],[0.434,47.892],[0.46,47.906],[0.476,47.892],[0.482,47.857],[0.534,47.858],[0.542,47.854],[0.534,47.846],[0.45,47.84]]]}},{"type":"Feature","properties":{"code":"72144","nom":"Gréez-sur-Roc","pop":344},"geometry":{"type":"Polygon","coordinates":[[[0.909,48.144],[0.917,48.139],[0.85,48.133],[0.797,48.114],[0.758,48.131],[0.754,48.136],[0.765,48.15],[0.787,48.15],[0.812,48.144],[0.855,48.154],[0.909,48.144]]]}},{"type":"Feature","properties":{"code":"72145","nom":"Le Grez","pop":380},"geometry":{"type":"Polygon","coordinates":[[[-0.147,48.205],[-0.132,48.189],[-0.162,48.175],[-0.186,48.183],[-0.147,48.205]]]}},{"type":"Feature","properties":{"code":"72146","nom":"Guécélard","pop":3202},"geometry":{"type":"Polygon","coordinates":[[[0.154,47.904],[0.166,47.872],[0.161,47.872],[0.107,47.87],[0.11,47.878],[0.133,47.906],[0.154,47.904]]]}},{"type":"Feature","properties":{"code":"72147","nom":"La Guierche","pop":1300},"geometry":{"type":"Polygon","coordinates":[[[0.182,48.11],[0.187,48.128],[0.213,48.141],[0.223,48.125],[0.207,48.102],[0.191,48.1],[0.182,48.11]]]}},{"type":"Feature","properties":{"code":"72148","nom":"Jauzé","pop":80},"geometry":{"type":"Polygon","coordinates":[[[0.397,48.218],[0.393,48.194],[0.374,48.2],[0.376,48.228],[0.397,48.218]]]}},{"type":"Feature","properties":{"code":"72149","nom":"Joué-en-Charnie","pop":589},"geometry":{"type":"Polygon","coordinates":[[[-0.208,48.039],[-0.179,48.039],[-0.163,48.035],[-0.16,48.029],[-0.168,47.992],[-0.2,47.992],[-0.229,48.008],[-0.232,48.031],[-0.208,48.039]]]}},{"type":"Feature","properties":{"code":"72150","nom":"Joué-l'Abbé","pop":1267},"geometry":{"type":"Polygon","coordinates":[[[0.223,48.125],[0.252,48.111],[0.255,48.103],[0.234,48.089],[0.207,48.102],[0.223,48.125]]]}},{"type":"Feature","properties":{"code":"72151","nom":"Juigné-sur-Sarthe","pop":1141},"geometry":{"type":"Polygon","coordinates":[[[-0.271,47.89],[-0.252,47.877],[-0.249,47.852],[-0.288,47.858],[-0.321,47.846],[-0.336,47.87],[-0.271,47.89]]]}},{"type":"Feature","properties":{"code":"72152","nom":"Juillé","pop":407},"geometry":{"type":"Polygon","coordinates":[[[0.108,48.236],[0.114,48.254],[0.139,48.258],[0.132,48.232],[0.108,48.236]]]}},{"type":"Feature","properties":{"code":"72153","nom":"Jupilles","pop":566},"geometry":{"type":"Polygon","coordinates":[[[0.358,47.782],[0.392,47.821],[0.424,47.813],[0.459,47.789],[0.427,47.765],[0.358,47.782]]]}},{"type":"Feature","properties":{"code":"72154","nom":"La Flèche","pop":14947},"geometry":{"type":"Polygon","coordinates":[[[-0.136,47.714],[-0.118,47.73],[-0.079,47.745],[-0.052,47.739],[-0.031,47.701],[-0.01,47.703],[0.021,47.698],[-0.004,47.648],[-0.055,47.648],[-0.105,47.657],[-0.141,47.683],[-0.123,47.694],[-0.136,47.714]]]}},{"type":"Feature","properties":{"code":"72155","nom":"Laigné-en-Belin","pop":4252},"geometry":{"type":"Polygon","coordinates":[[[0.254,47.853],[0.256,47.842],[0.239,47.855],[0.192,47.85],[0.226,47.88],[0.222,47.89],[0.238,47.895],[0.25,47.894],[0.254,47.853]]]}},{"type":"Feature","properties":{"code":"72156","nom":"Lamnay","pop":928},"geometry":{"type":"Polygon","coordinates":[[[0.704,48.082],[0.689,48.093],[0.677,48.099],[0.675,48.135],[0.703,48.133],[0.747,48.108],[0.746,48.103],[0.724,48.076],[0.704,48.082]]]}},{"type":"Feature","properties":{"code":"72157","nom":"Lavardin","pop":693},"geometry":{"type":"Polygon","coordinates":[[[0.097,48.089],[0.083,48.068],[0.061,48.069],[0.029,48.088],[0.06,48.097],[0.097,48.089]]]}},{"type":"Feature","properties":{"code":"72158","nom":"Lavaré","pop":815},"geometry":{"type":"Polygon","coordinates":[[[0.689,48.093],[0.704,48.082],[0.686,48.063],[0.684,48.037],[0.637,48.037],[0.595,48.054],[0.596,48.058],[0.625,48.059],[0.678,48.079],[0.689,48.093]]]}},{"type":"Feature","properties":{"code":"72160","nom":"Lavernat","pop":586},"geometry":{"type":"Polygon","coordinates":[[[0.34,47.762],[0.358,47.74],[0.364,47.708],[0.395,47.691],[0.361,47.686],[0.318,47.703],[0.309,47.748],[0.34,47.762]]]}},{"type":"Feature","properties":{"code":"72161","nom":"Lhomme","pop":933},"geometry":{"type":"Polygon","coordinates":[[[0.541,47.782],[0.54,47.782],[0.583,47.785],[0.59,47.747],[0.552,47.734],[0.54,47.735],[0.541,47.782]]]}},{"type":"Feature","properties":{"code":"72163","nom":"Ligron","pop":494},"geometry":{"type":"Polygon","coordinates":[[[0.018,47.789],[0.025,47.78],[0.007,47.753],[-0.04,47.754],[-0.048,47.779],[0.018,47.789]]]}},{"type":"Feature","properties":{"code":"72164","nom":"Livet-en-Saosnois","pop":63},"geometry":{"type":"Polygon","coordinates":[[[0.216,48.349],[0.2,48.355],[0.222,48.358],[0.216,48.349]]]}},{"type":"Feature","properties":{"code":"72165","nom":"Lombron","pop":1960},"geometry":{"type":"Polygon","coordinates":[[[0.442,48.056],[0.381,48.078],[0.362,48.079],[0.372,48.101],[0.382,48.109],[0.409,48.112],[0.432,48.103],[0.46,48.075],[0.442,48.056]]]}},{"type":"Feature","properties":{"code":"72166","nom":"Longnes","pop":286},"geometry":{"type":"Polygon","coordinates":[[[-0.1,48.029],[-0.079,48.034],[-0.07,48.013],[-0.103,48.011],[-0.1,48.029]]]}},{"type":"Feature","properties":{"code":"72167","nom":"Louailles","pop":691},"geometry":{"type":"Polygon","coordinates":[[[-0.225,47.764],[-0.249,47.769],[-0.268,47.79],[-0.241,47.798],[-0.211,47.795],[-0.225,47.764]]]}},{"type":"Feature","properties":{"code":"72168","nom":"Loué","pop":2156},"geometry":{"type":"Polygon","coordinates":[[[-0.107,48.005],[-0.106,48.003],[-0.108,47.978],[-0.115,47.978],[-0.147,47.978],[-0.168,47.992],[-0.16,48.029],[-0.148,48.017],[-0.107,48.005]]]}},{"type":"Feature","properties":{"code":"72169","nom":"Louplande","pop":1505},"geometry":{"type":"Polygon","coordinates":[[[0.035,47.914],[0.029,47.915],[0.011,47.942],[0.048,47.958],[0.069,47.968],[0.098,47.944],[0.043,47.927],[0.035,47.914]]]}},{"type":"Feature","properties":{"code":"72170","nom":"Louvigny","pop":178},"geometry":{"type":"Polygon","coordinates":[[[0.184,48.327],[0.169,48.328],[0.2,48.355],[0.216,48.349],[0.227,48.327],[0.221,48.324],[0.19,48.323],[0.184,48.327]]]}},{"type":"Feature","properties":{"code":"72171","nom":"Louzes","pop":103},"geometry":{"type":"Polygon","coordinates":[[[0.291,48.416],[0.258,48.426],[0.295,48.441],[0.312,48.432],[0.341,48.424],[0.33,48.415],[0.291,48.416]]]}},{"type":"Feature","properties":{"code":"72172","nom":"Le Luart","pop":1460},"geometry":{"type":"Polygon","coordinates":[[[0.557,48.065],[0.575,48.078],[0.615,48.113],[0.622,48.099],[0.625,48.087],[0.596,48.058],[0.595,48.054],[0.557,48.065]]]}},{"type":"Feature","properties":{"code":"72173","nom":"Luceau","pop":1225},"geometry":{"type":"Polygon","coordinates":[[[0.419,47.73],[0.431,47.727],[0.395,47.691],[0.364,47.708],[0.358,47.74],[0.419,47.73]]]}},{"type":"Feature","properties":{"code":"72174","nom":"Lucé-sous-Ballon","pop":108},"geometry":{"type":"Polygon","coordinates":[[[0.21,48.196],[0.189,48.208],[0.188,48.214],[0.197,48.222],[0.217,48.225],[0.233,48.214],[0.228,48.2],[0.21,48.196]]]}},{"type":"Feature","properties":{"code":"72175","nom":"Luché-Pringé","pop":1535},"geometry":{"type":"Polygon","coordinates":[[[0.182,47.67],[0.098,47.689],[0.081,47.675],[0.024,47.699],[0.03,47.725],[0.078,47.737],[0.121,47.729],[0.12,47.708],[0.169,47.706],[0.182,47.67]]]}},{"type":"Feature","properties":{"code":"72176","nom":"Le Lude","pop":3983},"geometry":{"type":"Polygon","coordinates":[[[0.081,47.675],[0.098,47.689],[0.182,47.67],[0.21,47.671],[0.219,47.655],[0.202,47.616],[0.151,47.583],[0.111,47.606],[0.121,47.623],[0.09,47.664],[0.077,47.658],[0.081,47.675]]]}},{"type":"Feature","properties":{"code":"72177","nom":"Maigné","pop":326},"geometry":{"type":"Polygon","coordinates":[[[-0.084,47.937],[-0.06,47.941],[-0.045,47.963],[-0.035,47.962],[-0.029,47.942],[-0.045,47.916],[-0.053,47.916],[-0.084,47.937]]]}},{"type":"Feature","properties":{"code":"72178","nom":"Maisoncelles","pop":201},"geometry":{"type":"Polygon","coordinates":[[[0.545,47.93],[0.548,47.951],[0.608,47.947],[0.605,47.928],[0.603,47.927],[0.545,47.93]]]}},{"type":"Feature","properties":{"code":"72179","nom":"Malicorne-sur-Sarthe","pop":1854},"geometry":{"type":"Polygon","coordinates":[[[-0.134,47.795],[-0.13,47.817],[-0.104,47.82],[-0.088,47.815],[-0.06,47.842],[-0.075,47.801],[-0.077,47.783],[-0.084,47.788],[-0.099,47.801],[-0.134,47.795]]]}},{"type":"Feature","properties":{"code":"72180","nom":"Mamers","pop":4996},"geometry":{"type":"Polygon","coordinates":[[[0.388,48.347],[0.38,48.343],[0.36,48.341],[0.353,48.365],[0.38,48.369],[0.388,48.347]]]}},{"type":"Feature","properties":{"code":"72181","nom":"Le Mans","pop":146249},"geometry":{"type":"Polygon","coordinates":[[[0.183,48.035],[0.193,48.022],[0.218,48.024],[0.244,48.018],[0.246,47.989],[0.243,47.963],[0.234,47.945],[0.217,47.928],[0.178,47.954],[0.152,47.984],[0.163,48.008],[0.14,48.015],[0.14,48.03],[0.183,48.035]]]}},{"type":"Feature","properties":{"code":"72182","nom":"Mansigné","pop":1555},"geometry":{"type":"Polygon","coordinates":[[[0.169,47.706],[0.12,47.708],[0.121,47.729],[0.078,47.737],[0.117,47.779],[0.126,47.786],[0.14,47.766],[0.164,47.767],[0.161,47.733],[0.184,47.709],[0.169,47.706]]]}},{"type":"Feature","properties":{"code":"72183","nom":"Marçon","pop":1057},"geometry":{"type":"Polygon","coordinates":[[[0.558,47.673],[0.481,47.689],[0.477,47.707],[0.5,47.722],[0.54,47.735],[0.552,47.734],[0.581,47.713],[0.58,47.712],[0.554,47.694],[0.558,47.673]]]}},{"type":"Feature","properties":{"code":"72184","nom":"Mareil-en-Champagne","pop":342},"geometry":{"type":"Polygon","coordinates":[[[-0.156,47.968],[-0.204,47.971],[-0.2,47.992],[-0.168,47.992],[-0.147,47.978],[-0.156,47.968]]]}},{"type":"Feature","properties":{"code":"72185","nom":"Mareil-sur-Loir","pop":653},"geometry":{"type":"Polygon","coordinates":[[[0.024,47.699],[0.021,47.698],[-0.01,47.703],[-0.017,47.712],[0.016,47.748],[0.03,47.725],[0.024,47.699]]]}},{"type":"Feature","properties":{"code":"72186","nom":"Maresché","pop":876},"geometry":{"type":"Polygon","coordinates":[[[0.189,48.208],[0.175,48.19],[0.146,48.19],[0.121,48.193],[0.114,48.213],[0.145,48.224],[0.188,48.214],[0.189,48.208]]]}},{"type":"Feature","properties":{"code":"72187","nom":"Marigné-Laillé","pop":1653},"geometry":{"type":"Polygon","coordinates":[[[0.385,47.842],[0.392,47.821],[0.358,47.782],[0.346,47.775],[0.339,47.787],[0.302,47.797],[0.319,47.805],[0.32,47.845],[0.37,47.853],[0.385,47.842]]]}},{"type":"Feature","properties":{"code":"72188","nom":"Marollette","pop":159},"geometry":{"type":"Polygon","coordinates":[[[0.374,48.387],[0.379,48.383],[0.38,48.369],[0.353,48.365],[0.345,48.374],[0.356,48.389],[0.374,48.387]]]}},{"type":"Feature","properties":{"code":"72189","nom":"Marolles-les-Braults","pop":2039},"geometry":{"type":"Polygon","coordinates":[[[0.347,48.279],[0.363,48.255],[0.355,48.241],[0.309,48.219],[0.281,48.236],[0.283,48.258],[0.303,48.283],[0.326,48.27],[0.347,48.279]]]}},{"type":"Feature","properties":{"code":"72190","nom":"Marolles-lès-Saint-Calais","pop":284},"geometry":{"type":"Polygon","coordinates":[[[0.817,47.892],[0.768,47.902],[0.772,47.927],[0.796,47.941],[0.816,47.934],[0.807,47.908],[0.817,47.892]]]}},{"type":"Feature","properties":{"code":"72191","nom":"Mayet","pop":3187},"geometry":{"type":"Polygon","coordinates":[[[0.253,47.789],[0.302,47.797],[0.339,47.787],[0.346,47.775],[0.34,47.762],[0.309,47.748],[0.269,47.722],[0.261,47.726],[0.219,47.747],[0.225,47.781],[0.253,47.789]]]}},{"type":"Feature","properties":{"code":"72192","nom":"Les Mées","pop":103},"geometry":{"type":"Polygon","coordinates":[[[0.241,48.301],[0.231,48.296],[0.214,48.298],[0.221,48.324],[0.227,48.327],[0.261,48.33],[0.248,48.316],[0.241,48.301]]]}},{"type":"Feature","properties":{"code":"72193","nom":"Melleray","pop":454},"geometry":{"type":"Polygon","coordinates":[[[0.794,48.069],[0.764,48.073],[0.763,48.084],[0.79,48.092],[0.797,48.114],[0.85,48.133],[0.841,48.103],[0.843,48.073],[0.794,48.069]]]}},{"type":"Feature","properties":{"code":"72194","nom":"Meurcé","pop":275},"geometry":{"type":"Polygon","coordinates":[[[0.188,48.248],[0.203,48.257],[0.208,48.256],[0.217,48.225],[0.197,48.222],[0.188,48.248]]]}},{"type":"Feature","properties":{"code":"72195","nom":"Mézeray","pop":1841},"geometry":{"type":"Polygon","coordinates":[[[0.033,47.848],[0.013,47.831],[0.041,47.817],[0.024,47.807],[0.012,47.814],[-0.075,47.801],[-0.06,47.842],[0.009,47.863],[0.033,47.848]]]}},{"type":"Feature","properties":{"code":"72196","nom":"Mézières-sur-Ponthouin","pop":725},"geometry":{"type":"Polygon","coordinates":[[[0.274,48.228],[0.281,48.236],[0.309,48.219],[0.329,48.202],[0.308,48.174],[0.255,48.199],[0.284,48.211],[0.274,48.228]]]}},{"type":"Feature","properties":{"code":"72197","nom":"Mézières-sous-Lavardin","pop":676},"geometry":{"type":"Polygon","coordinates":[[[0.073,48.169],[0.077,48.154],[0.057,48.131],[0.046,48.136],[0.036,48.137],[0.008,48.151],[0.031,48.169],[0.052,48.178],[0.065,48.183],[0.073,48.169]]]}},{"type":"Feature","properties":{"code":"72198","nom":"La Milesse","pop":2617},"geometry":{"type":"Polygon","coordinates":[[[0.121,48.053],[0.126,48.078],[0.097,48.089],[0.096,48.09],[0.106,48.096],[0.155,48.075],[0.162,48.046],[0.13,48.045],[0.121,48.053]]]}},{"type":"Feature","properties":{"code":"72199","nom":"Moitron-sur-Sarthe","pop":258},"geometry":{"type":"Polygon","coordinates":[[[0.102,48.251],[0.002,48.23],[0.002,48.234],[0.044,48.255],[0.085,48.258],[0.102,48.251]]]}},{"type":"Feature","properties":{"code":"72200","nom":"Moncé-en-Belin","pop":3697},"geometry":{"type":"Polygon","coordinates":[[[0.154,47.904],[0.169,47.911],[0.22,47.922],[0.238,47.895],[0.222,47.89],[0.173,47.871],[0.166,47.872],[0.154,47.904]]]}},{"type":"Feature","properties":{"code":"72201","nom":"Moncé-en-Saosnois","pop":221},"geometry":{"type":"Polygon","coordinates":[[[0.353,48.284],[0.403,48.283],[0.417,48.269],[0.41,48.257],[0.387,48.261],[0.349,48.282],[0.353,48.284]]]}},{"type":"Feature","properties":{"code":"72202","nom":"Monhoudou","pop":214},"geometry":{"type":"Polygon","coordinates":[[[0.347,48.279],[0.326,48.27],[0.303,48.283],[0.305,48.291],[0.339,48.3],[0.342,48.294],[0.353,48.284],[0.349,48.282],[0.347,48.279]]]}},{"type":"Feature","properties":{"code":"72204","nom":"Montaillé","pop":516},"geometry":{"type":"Polygon","coordinates":[[[0.687,47.918],[0.683,47.918],[0.653,47.954],[0.665,47.999],[0.676,48.004],[0.689,48.01],[0.686,47.978],[0.738,47.937],[0.687,47.918]]]}},{"type":"Feature","properties":{"code":"72205","nom":"Montbizot","pop":1841},"geometry":{"type":"Polygon","coordinates":[[[0.186,48.132],[0.152,48.157],[0.177,48.172],[0.206,48.162],[0.209,48.154],[0.213,48.141],[0.187,48.128],[0.186,48.132]]]}},{"type":"Feature","properties":{"code":"72208","nom":"Montmirail","pop":366},"geometry":{"type":"Polygon","coordinates":[[[0.763,48.084],[0.746,48.103],[0.747,48.108],[0.758,48.131],[0.797,48.114],[0.79,48.092],[0.763,48.084]]]}},{"type":"Feature","properties":{"code":"72209","nom":"Montreuil-le-Chétif","pop":318},"geometry":{"type":"Polygon","coordinates":[[[-0.044,48.221],[-0.061,48.221],[-0.066,48.255],[-0.025,48.264],[0.002,48.234],[-0.044,48.221]]]}},{"type":"Feature","properties":{"code":"72210","nom":"Montreuil-le-Henri","pop":295},"geometry":{"type":"Polygon","coordinates":[[[0.534,47.858],[0.545,47.878],[0.587,47.882],[0.604,47.849],[0.572,47.842],[0.542,47.854],[0.534,47.858]]]}},{"type":"Feature","properties":{"code":"72211","nom":"Mont-Saint-Jean","pop":628},"geometry":{"type":"Polygon","coordinates":[[[-0.084,48.273],[-0.066,48.255],[-0.061,48.221],[-0.077,48.214],[-0.103,48.21],[-0.112,48.206],[-0.145,48.222],[-0.161,48.239],[-0.15,48.276],[-0.084,48.273]]]}},{"type":"Feature","properties":{"code":"72212","nom":"Moulins-le-Carbonnel","pop":697},"geometry":{"type":"Polygon","coordinates":[[[-0.05,48.375],[-0.02,48.394],[0.003,48.396],[0.023,48.38],[0.002,48.349],[-0.043,48.362],[-0.05,48.375]]]}},{"type":"Feature","properties":{"code":"72213","nom":"Mulsanne","pop":5244},"geometry":{"type":"Polygon","coordinates":[[[0.22,47.922],[0.217,47.928],[0.234,47.945],[0.269,47.928],[0.273,47.913],[0.25,47.894],[0.238,47.895],[0.22,47.922]]]}},{"type":"Feature","properties":{"code":"72214","nom":"Nauvay","pop":12},"geometry":{"type":"Polygon","coordinates":[[[0.379,48.255],[0.387,48.261],[0.41,48.257],[0.404,48.253],[0.384,48.244],[0.379,48.255]]]}},{"type":"Feature","properties":{"code":"72215","nom":"Neufchâtel-en-Saosnois","pop":1003},"geometry":{"type":"Polygon","coordinates":[[[0.259,48.417],[0.277,48.412],[0.27,48.377],[0.244,48.358],[0.222,48.359],[0.201,48.396],[0.259,48.417]]]}},{"type":"Feature","properties":{"code":"72216","nom":"Neuvillalais","pop":585},"geometry":{"type":"Polygon","coordinates":[[[-0.012,48.178],[0.031,48.169],[0.008,48.151],[0.036,48.137],[-0.038,48.138],[-0.049,48.144],[-0.045,48.161],[-0.012,48.178]]]}},{"type":"Feature","properties":{"code":"72217","nom":"Neuville-sur-Sarthe","pop":2463},"geometry":{"type":"Polygon","coordinates":[[[0.25,48.061],[0.222,48.052],[0.209,48.042],[0.206,48.058],[0.174,48.072],[0.191,48.1],[0.207,48.102],[0.234,48.089],[0.26,48.074],[0.25,48.061]]]}},{"type":"Feature","properties":{"code":"72218","nom":"Neuvillette-en-Charnie","pop":305},"geometry":{"type":"Polygon","coordinates":[[[-0.191,48.066],[-0.226,48.072],[-0.239,48.085],[-0.216,48.113],[-0.187,48.103],[-0.191,48.066]]]}},{"type":"Feature","properties":{"code":"72219","nom":"Bernay-Neuvy-en-Champagne","pop":756},"geometry":{"type":"Polygon","coordinates":[[[0.025,48.066],[-0.007,48.05],[-0.033,48.061],[-0.065,48.056],[-0.082,48.074],[-0.092,48.079],[-0.042,48.101],[-0.02,48.101],[0.024,48.067],[0.025,48.066]]]}},{"type":"Feature","properties":{"code":"72220","nom":"Nogent-le-Bernard","pop":864},"geometry":{"type":"Polygon","coordinates":[[[0.455,48.251],[0.488,48.27],[0.513,48.268],[0.53,48.265],[0.537,48.249],[0.554,48.226],[0.55,48.219],[0.491,48.213],[0.472,48.219],[0.455,48.251]]]}},{"type":"Feature","properties":{"code":"72221","nom":"Nogent-sur-Loir","pop":361},"geometry":{"type":"Polygon","coordinates":[[[0.396,47.641],[0.383,47.643],[0.379,47.647],[0.372,47.676],[0.417,47.666],[0.425,47.655],[0.396,47.641]]]}},{"type":"Feature","properties":{"code":"72222","nom":"Nouans","pop":252},"geometry":{"type":"Polygon","coordinates":[[[0.208,48.256],[0.234,48.262],[0.251,48.227],[0.233,48.214],[0.217,48.225],[0.208,48.256]]]}},{"type":"Feature","properties":{"code":"72223","nom":"Noyen-sur-Sarthe","pop":2556},"geometry":{"type":"Polygon","coordinates":[[[-0.058,47.888],[-0.048,47.878],[-0.066,47.868],[-0.06,47.842],[-0.088,47.815],[-0.104,47.82],[-0.125,47.84],[-0.157,47.846],[-0.148,47.874],[-0.114,47.893],[-0.085,47.898],[-0.058,47.888]]]}},{"type":"Feature","properties":{"code":"72224","nom":"Nuillé-le-Jalais","pop":528},"geometry":{"type":"Polygon","coordinates":[[[0.483,48.037],[0.506,48.007],[0.47,48.012],[0.47,48.033],[0.483,48.037]]]}},{"type":"Feature","properties":{"code":"72225","nom":"Oisseau-le-Petit","pop":671},"geometry":{"type":"Polygon","coordinates":[[[0.052,48.343],[0.052,48.363],[0.072,48.363],[0.092,48.354],[0.1,48.337],[0.052,48.343]]]}},{"type":"Feature","properties":{"code":"72226","nom":"Oizé","pop":1322},"geometry":{"type":"Polygon","coordinates":[[[0.08,47.787],[0.077,47.804],[0.126,47.832],[0.135,47.803],[0.126,47.786],[0.117,47.779],[0.08,47.787]]]}},{"type":"Feature","properties":{"code":"72227","nom":"Panon","pop":33},"geometry":{"type":"Polygon","coordinates":[[[0.315,48.342],[0.317,48.339],[0.287,48.34],[0.315,48.342]]]}},{"type":"Feature","properties":{"code":"72228","nom":"Parcé-sur-Sarthe","pop":1950},"geometry":{"type":"Polygon","coordinates":[[[-0.134,47.795],[-0.143,47.793],[-0.211,47.795],[-0.241,47.798],[-0.228,47.823],[-0.256,47.835],[-0.246,47.849],[-0.2,47.861],[-0.194,47.835],[-0.162,47.841],[-0.13,47.817],[-0.134,47.795]]]}},{"type":"Feature","properties":{"code":"72229","nom":"Parennes","pop":444},"geometry":{"type":"Polygon","coordinates":[[[-0.183,48.136],[-0.15,48.12],[-0.151,48.102],[-0.158,48.099],[-0.187,48.103],[-0.216,48.113],[-0.223,48.123],[-0.183,48.136]]]}},{"type":"Feature","properties":{"code":"72230","nom":"Parigné-le-Pôlin","pop":1037},"geometry":{"type":"Polygon","coordinates":[[[0.161,47.872],[0.127,47.834],[0.093,47.847],[0.084,47.863],[0.107,47.87],[0.161,47.872]]]}},{"type":"Feature","properties":{"code":"72231","nom":"Parigné-l'Évêque","pop":5358},"geometry":{"type":"Polygon","coordinates":[[[0.411,47.968],[0.393,47.941],[0.434,47.892],[0.403,47.862],[0.364,47.904],[0.362,47.917],[0.304,47.931],[0.296,47.951],[0.358,47.977],[0.394,47.977],[0.403,47.989],[0.411,47.968]]]}},{"type":"Feature","properties":{"code":"72232","nom":"Notre-Dame-du-Pé","pop":710},"geometry":{"type":"Polygon","coordinates":[[[-0.287,47.719],[-0.309,47.717],[-0.357,47.731],[-0.373,47.743],[-0.302,47.721],[-0.29,47.723],[-0.287,47.719]]]}},{"type":"Feature","properties":{"code":"72233","nom":"Peray","pop":70},"geometry":{"type":"Polygon","coordinates":[[[0.384,48.244],[0.355,48.241],[0.355,48.241],[0.363,48.255],[0.379,48.255],[0.384,48.244]]]}},{"type":"Feature","properties":{"code":"72234","nom":"Pezé-le-Robert","pop":343},"geometry":{"type":"Polygon","coordinates":[[[-0.016,48.185],[-0.06,48.188],[-0.077,48.214],[-0.061,48.221],[-0.044,48.221],[-0.019,48.217],[-0.004,48.191],[-0.016,48.185]]]}},{"type":"Feature","properties":{"code":"72235","nom":"Piacé","pop":370},"geometry":{"type":"Polygon","coordinates":[[[0.145,48.277],[0.147,48.276],[0.139,48.258],[0.114,48.254],[0.102,48.251],[0.085,48.258],[0.097,48.274],[0.145,48.277]]]}},{"type":"Feature","properties":{"code":"72236","nom":"Pincé","pop":192},"geometry":{"type":"Polygon","coordinates":[[[-0.38,47.782],[-0.387,47.804],[-0.347,47.805],[-0.344,47.805],[-0.38,47.782]]]}},{"type":"Feature","properties":{"code":"72237","nom":"Pirmil","pop":512},"geometry":{"type":"Polygon","coordinates":[[[-0.092,47.938],[-0.084,47.937],[-0.053,47.916],[-0.058,47.888],[-0.085,47.898],[-0.114,47.893],[-0.127,47.903],[-0.092,47.938]]]}},{"type":"Feature","properties":{"code":"72238","nom":"Pizieux","pop":75},"geometry":{"type":"Polygon","coordinates":[[[0.347,48.333],[0.338,48.306],[0.321,48.321],[0.334,48.336],[0.342,48.336],[0.347,48.333]]]}},{"type":"Feature","properties":{"code":"72239","nom":"Poillé-sur-Vègre","pop":582},"geometry":{"type":"Polygon","coordinates":[[[-0.312,47.94],[-0.312,47.94],[-0.282,47.93],[-0.246,47.932],[-0.235,47.923],[-0.237,47.908],[-0.272,47.894],[-0.288,47.9],[-0.32,47.935],[-0.312,47.94]]]}},{"type":"Feature","properties":{"code":"72241","nom":"Montfort-le-Gesnois","pop":2939},"geometry":{"type":"Polygon","coordinates":[[[0.362,48.079],[0.381,48.078],[0.442,48.056],[0.43,48.038],[0.413,48.036],[0.391,48.042],[0.355,48.077],[0.362,48.079]]]}},{"type":"Feature","properties":{"code":"72243","nom":"Pontvallain","pop":1607},"geometry":{"type":"Polygon","coordinates":[[[0.25,47.797],[0.253,47.789],[0.225,47.781],[0.219,47.747],[0.199,47.716],[0.184,47.709],[0.161,47.733],[0.164,47.767],[0.199,47.786],[0.228,47.808],[0.25,47.797]]]}},{"type":"Feature","properties":{"code":"72244","nom":"Précigné","pop":2877},"geometry":{"type":"Polygon","coordinates":[[[-0.249,47.769],[-0.29,47.723],[-0.302,47.721],[-0.373,47.743],[-0.382,47.761],[-0.38,47.782],[-0.344,47.805],[-0.326,47.794],[-0.282,47.8],[-0.268,47.79],[-0.249,47.769]]]}},{"type":"Feature","properties":{"code":"72245","nom":"Préval","pop":656},"geometry":{"type":"Polygon","coordinates":[[[0.594,48.245],[0.632,48.235],[0.642,48.21],[0.624,48.204],[0.594,48.245]]]}},{"type":"Feature","properties":{"code":"72246","nom":"Prévelles","pop":188},"geometry":{"type":"Polygon","coordinates":[[[0.466,48.142],[0.453,48.151],[0.477,48.167],[0.494,48.15],[0.474,48.141],[0.466,48.142]]]}},{"type":"Feature","properties":{"code":"72247","nom":"Pruillé-le-Chétif","pop":1329},"geometry":{"type":"Polygon","coordinates":[[[0.083,47.981],[0.071,47.98],[0.103,48.011],[0.12,48.013],[0.143,47.984],[0.121,47.977],[0.083,47.981]]]}},{"type":"Feature","properties":{"code":"72248","nom":"Pruillé-l'Éguillé","pop":801},"geometry":{"type":"Polygon","coordinates":[[[0.403,47.862],[0.44,47.86],[0.45,47.84],[0.448,47.822],[0.424,47.813],[0.392,47.821],[0.385,47.842],[0.403,47.862]]]}},{"type":"Feature","properties":{"code":"72249","nom":"La Quinte","pop":823},"geometry":{"type":"Polygon","coordinates":[[[0.041,48.032],[0.025,48.066],[0.024,48.067],[0.054,48.067],[0.066,48.038],[0.041,48.032]]]}},{"type":"Feature","properties":{"code":"72250","nom":"Rahay","pop":167},"geometry":{"type":"Polygon","coordinates":[[[0.796,47.941],[0.769,47.967],[0.766,47.978],[0.776,47.978],[0.793,47.968],[0.824,47.982],[0.845,47.954],[0.816,47.934],[0.796,47.941]]]}},{"type":"Feature","properties":{"code":"72251","nom":"René","pop":387},"geometry":{"type":"Polygon","coordinates":[[[0.201,48.296],[0.214,48.298],[0.231,48.296],[0.246,48.269],[0.234,48.262],[0.208,48.256],[0.203,48.257],[0.192,48.268],[0.201,48.296]]]}},{"type":"Feature","properties":{"code":"72252","nom":"Requeil","pop":1108},"geometry":{"type":"Polygon","coordinates":[[[0.126,47.786],[0.135,47.803],[0.173,47.806],[0.199,47.786],[0.164,47.767],[0.14,47.766],[0.126,47.786]]]}},{"type":"Feature","properties":{"code":"72253","nom":"Roëzé-sur-Sarthe","pop":2514},"geometry":{"type":"Polygon","coordinates":[[[0.084,47.863],[0.063,47.864],[0.046,47.897],[0.016,47.905],[0.029,47.915],[0.035,47.914],[0.065,47.926],[0.092,47.917],[0.11,47.878],[0.107,47.87],[0.084,47.863]]]}},{"type":"Feature","properties":{"code":"72254","nom":"Rouessé-Fontaine","pop":261},"geometry":{"type":"Polygon","coordinates":[[[0.167,48.303],[0.155,48.293],[0.115,48.316],[0.122,48.331],[0.127,48.339],[0.169,48.328],[0.184,48.327],[0.167,48.303]]]}},{"type":"Feature","properties":{"code":"72255","nom":"Rouessé-Vassé","pop":785},"geometry":{"type":"Polygon","coordinates":[[[-0.137,48.156],[-0.177,48.15],[-0.183,48.136],[-0.223,48.123],[-0.254,48.137],[-0.247,48.16],[-0.186,48.183],[-0.162,48.175],[-0.137,48.156]]]}},{"type":"Feature","properties":{"code":"72256","nom":"Rouez","pop":804},"geometry":{"type":"Polygon","coordinates":[[[-0.049,48.144],[-0.086,48.136],[-0.151,48.102],[-0.15,48.12],[-0.183,48.136],[-0.177,48.15],[-0.137,48.156],[-0.11,48.161],[-0.098,48.16],[-0.055,48.151],[-0.045,48.161],[-0.049,48.144]]]}},{"type":"Feature","properties":{"code":"72257","nom":"Rouillon","pop":2382},"geometry":{"type":"Polygon","coordinates":[[[0.12,48.013],[0.14,48.015],[0.163,48.008],[0.152,47.984],[0.143,47.984],[0.12,48.013]]]}},{"type":"Feature","properties":{"code":"72259","nom":"Rouperroux-le-Coquet","pop":266},"geometry":{"type":"Polygon","coordinates":[[[0.413,48.239],[0.455,48.251],[0.472,48.219],[0.42,48.212],[0.409,48.218],[0.413,48.239]]]}},{"type":"Feature","properties":{"code":"72260","nom":"Ruaudin","pop":3481},"geometry":{"type":"Polygon","coordinates":[[[0.243,47.963],[0.296,47.951],[0.304,47.931],[0.291,47.927],[0.269,47.928],[0.234,47.945],[0.243,47.963]]]}},{"type":"Feature","properties":{"code":"72261","nom":"Ruillé-en-Champagne","pop":310},"geometry":{"type":"Polygon","coordinates":[[[-0.171,48.064],[-0.085,48.062],[-0.082,48.074],[-0.065,48.056],[-0.078,48.043],[-0.123,48.044],[-0.18,48.054],[-0.171,48.064]]]}},{"type":"Feature","properties":{"code":"72262","nom":"Loir en Vallée","pop":2044},"geometry":{"type":"Polygon","coordinates":[[[0.713,47.79],[0.697,47.764],[0.673,47.768],[0.621,47.748],[0.611,47.732],[0.59,47.747],[0.583,47.785],[0.583,47.797],[0.62,47.84],[0.62,47.839],[0.65,47.823],[0.69,47.828],[0.713,47.79]]]}},{"type":"Feature","properties":{"code":"72264","nom":"Sablé-sur-Sarthe","pop":12326},"geometry":{"type":"Polygon","coordinates":[[[-0.387,47.804],[-0.388,47.806],[-0.375,47.833],[-0.411,47.847],[-0.412,47.858],[-0.378,47.857],[-0.371,47.875],[-0.336,47.87],[-0.321,47.846],[-0.295,47.825],[-0.3,47.817],[-0.347,47.805],[-0.387,47.804]]]}},{"type":"Feature","properties":{"code":"72265","nom":"Saint-Aignan","pop":264},"geometry":{"type":"Polygon","coordinates":[[[0.355,48.241],[0.376,48.228],[0.374,48.2],[0.37,48.193],[0.329,48.202],[0.309,48.219],[0.355,48.241],[0.355,48.241]]]}},{"type":"Feature","properties":{"code":"72266","nom":"Saint-Aubin-de-Locquenay","pop":761},"geometry":{"type":"Polygon","coordinates":[[[0.002,48.234],[-0.025,48.264],[-0.009,48.276],[0.01,48.277],[0.038,48.276],[0.044,48.255],[0.002,48.234],[0.002,48.234]]]}},{"type":"Feature","properties":{"code":"72267","nom":"Saint-Aubin-des-Coudrais","pop":890},"geometry":{"type":"Polygon","coordinates":[[[0.558,48.199],[0.586,48.201],[0.606,48.184],[0.621,48.165],[0.595,48.162],[0.562,48.154],[0.547,48.185],[0.558,48.199]]]}},{"type":"Feature","properties":{"code":"72268","nom":"Saint-Biez-en-Belin","pop":710},"geometry":{"type":"Polygon","coordinates":[[[0.228,47.808],[0.204,47.815],[0.228,47.835],[0.252,47.834],[0.262,47.809],[0.25,47.797],[0.228,47.808]]]}},{"type":"Feature","properties":{"code":"72269","nom":"Saint-Calais","pop":2948},"geometry":{"type":"Polygon","coordinates":[[[0.738,47.937],[0.768,47.941],[0.769,47.967],[0.796,47.941],[0.772,47.927],[0.768,47.902],[0.759,47.898],[0.727,47.905],[0.687,47.918],[0.738,47.937]]]}},{"type":"Feature","properties":{"code":"72270","nom":"Saint-Calez-en-Saosnois","pop":179},"geometry":{"type":"Polygon","coordinates":[[[0.339,48.3],[0.305,48.291],[0.284,48.311],[0.321,48.321],[0.338,48.306],[0.339,48.3]]]}},{"type":"Feature","properties":{"code":"72271","nom":"Saint-Célerin","pop":882},"geometry":{"type":"Polygon","coordinates":[[[0.453,48.151],[0.466,48.142],[0.432,48.103],[0.409,48.112],[0.44,48.149],[0.453,48.151]]]}},{"type":"Feature","properties":{"code":"72272","nom":"Sainte-Cérotte","pop":337},"geometry":{"type":"Polygon","coordinates":[[[0.687,47.918],[0.727,47.905],[0.694,47.883],[0.66,47.879],[0.652,47.914],[0.683,47.918],[0.687,47.918]]]}},{"type":"Feature","properties":{"code":"72273","nom":"Saint-Christophe-du-Jambet","pop":231},"geometry":{"type":"Polygon","coordinates":[[[0.068,48.226],[0.01,48.223],[0.002,48.23],[0.102,48.251],[0.114,48.254],[0.108,48.236],[0.087,48.227],[0.068,48.226]]]}},{"type":"Feature","properties":{"code":"72274","nom":"Saint-Christophe-en-Champagne","pop":218},"geometry":{"type":"Polygon","coordinates":[[[-0.156,47.968],[-0.147,47.978],[-0.115,47.978],[-0.118,47.96],[-0.16,47.946],[-0.156,47.968]]]}},{"type":"Feature","properties":{"code":"72275","nom":"Saint-Corneille","pop":1510},"geometry":{"type":"Polygon","coordinates":[[[0.355,48.077],[0.347,48.057],[0.336,48.057],[0.317,48.063],[0.326,48.093],[0.372,48.101],[0.362,48.079],[0.355,48.077]]]}},{"type":"Feature","properties":{"code":"72276","nom":"Saint-Cosme-en-Vairais","pop":1927},"geometry":{"type":"Polygon","coordinates":[[[0.513,48.268],[0.488,48.27],[0.455,48.251],[0.413,48.239],[0.404,48.253],[0.41,48.257],[0.417,48.269],[0.438,48.279],[0.443,48.305],[0.463,48.305],[0.506,48.294],[0.513,48.268]]]}},{"type":"Feature","properties":{"code":"72277","nom":"Saint-Denis-des-Coudrais","pop":113},"geometry":{"type":"Polygon","coordinates":[[[0.477,48.167],[0.505,48.176],[0.523,48.178],[0.521,48.149],[0.494,48.15],[0.477,48.167]]]}},{"type":"Feature","properties":{"code":"72278","nom":"Saint-Denis-d'Orques","pop":760},"geometry":{"type":"Polygon","coordinates":[[[-0.231,48.059],[-0.208,48.039],[-0.232,48.031],[-0.229,48.008],[-0.263,47.995],[-0.271,47.999],[-0.309,48.006],[-0.309,48.006],[-0.341,48.012],[-0.334,48.032],[-0.286,48.058],[-0.231,48.059]]]}},{"type":"Feature","properties":{"code":"72279","nom":"Saint-Georges-de-la-Couée","pop":181},"geometry":{"type":"Polygon","coordinates":[[[0.572,47.842],[0.604,47.849],[0.62,47.84],[0.583,47.797],[0.572,47.842]]]}},{"type":"Feature","properties":{"code":"72280","nom":"Saint-Georges-du-Bois","pop":2285},"geometry":{"type":"Polygon","coordinates":[[[0.083,47.981],[0.121,47.977],[0.114,47.956],[0.083,47.981]]]}},{"type":"Feature","properties":{"code":"72281","nom":"Saint-Georges-du-Rosay","pop":452},"geometry":{"type":"Polygon","coordinates":[[[0.547,48.185],[0.523,48.178],[0.505,48.176],[0.491,48.213],[0.55,48.219],[0.558,48.199],[0.547,48.185]]]}},{"type":"Feature","properties":{"code":"72282","nom":"Saint-Georges-le-Gaultier","pop":517},"geometry":{"type":"Polygon","coordinates":[[[-0.148,48.314],[-0.083,48.316],[-0.069,48.308],[-0.069,48.293],[-0.084,48.273],[-0.15,48.276],[-0.151,48.277],[-0.138,48.296],[-0.148,48.314]]]}},{"type":"Feature","properties":{"code":"72283","nom":"Saint-Germain-d'Arcé","pop":337},"geometry":{"type":"Polygon","coordinates":[[[0.322,47.595],[0.277,47.598],[0.259,47.612],[0.249,47.643],[0.234,47.645],[0.246,47.657],[0.324,47.642],[0.328,47.636],[0.308,47.617],[0.322,47.595]]]}},{"type":"Feature","properties":{"code":"72286","nom":"Saint-Gervais-de-Vic","pop":383},"geometry":{"type":"Polygon","coordinates":[[[0.696,47.879],[0.694,47.883],[0.727,47.905],[0.759,47.898],[0.759,47.859],[0.726,47.862],[0.696,47.879]]]}},{"type":"Feature","properties":{"code":"72287","nom":"Saint-Gervais-en-Belin","pop":0},"geometry":{"type":"Polygon","coordinates":[[[0.186,47.846],[0.173,47.871],[0.222,47.89],[0.226,47.88],[0.192,47.85],[0.186,47.846]]]}},{"type":"Feature","properties":{"code":"72289","nom":"Sainte-Jamme-sur-Sarthe","pop":1950},"geometry":{"type":"Polygon","coordinates":[[[0.152,48.157],[0.186,48.132],[0.156,48.126],[0.134,48.132],[0.152,48.157]]]}},{"type":"Feature","properties":{"code":"72290","nom":"Saint-Jean-d'Assé","pop":1790},"geometry":{"type":"Polygon","coordinates":[[[0.114,48.124],[0.115,48.149],[0.077,48.154],[0.073,48.169],[0.094,48.176],[0.134,48.171],[0.152,48.181],[0.177,48.172],[0.152,48.157],[0.134,48.132],[0.114,48.124]]]}},{"type":"Feature","properties":{"code":"72291","nom":"Saint-Jean-de-la-Motte","pop":955},"geometry":{"type":"Polygon","coordinates":[[[0.03,47.725],[0.016,47.748],[0.007,47.753],[0.025,47.78],[0.054,47.776],[0.08,47.787],[0.117,47.779],[0.078,47.737],[0.03,47.725]]]}},{"type":"Feature","properties":{"code":"72292","nom":"Saint-Jean-des-Échelles","pop":222},"geometry":{"type":"Polygon","coordinates":[[[0.758,48.131],[0.747,48.108],[0.703,48.133],[0.705,48.149],[0.754,48.136],[0.758,48.131]]]}},{"type":"Feature","properties":{"code":"72293","nom":"Saint-Jean-du-Bois","pop":616},"geometry":{"type":"Polygon","coordinates":[[[-0.06,47.842],[-0.066,47.868],[-0.048,47.878],[-0.015,47.888],[0.009,47.863],[-0.06,47.842]]]}},{"type":"Feature","properties":{"code":"72294","nom":"Saint-Léonard-des-Bois","pop":471},"geometry":{"type":"Polygon","coordinates":[[[-0.122,48.338],[-0.137,48.364],[-0.112,48.374],[-0.055,48.382],[-0.05,48.375],[-0.043,48.362],[-0.048,48.345],[-0.068,48.327],[-0.122,48.338]]]}},{"type":"Feature","properties":{"code":"72295","nom":"Saint-Longis","pop":509},"geometry":{"type":"Polygon","coordinates":[[[0.313,48.36],[0.329,48.376],[0.345,48.374],[0.353,48.365],[0.36,48.341],[0.342,48.336],[0.334,48.336],[0.317,48.339],[0.315,48.342],[0.313,48.36]]]}},{"type":"Feature","properties":{"code":"72296","nom":"Saint-Maixent","pop":741},"geometry":{"type":"Polygon","coordinates":[[[0.641,48.129],[0.672,48.136],[0.675,48.135],[0.677,48.099],[0.689,48.093],[0.678,48.079],[0.622,48.099],[0.615,48.113],[0.604,48.119],[0.641,48.129]]]}},{"type":"Feature","properties":{"code":"72297","nom":"Saint-Marceau","pop":530},"geometry":{"type":"Polygon","coordinates":[[[0.152,48.181],[0.134,48.171],[0.094,48.176],[0.095,48.19],[0.121,48.193],[0.146,48.19],[0.152,48.181]]]}},{"type":"Feature","properties":{"code":"72298","nom":"Saint-Mars-de-Locquenay","pop":0},"geometry":{"type":"Polygon","coordinates":[[[0.515,47.906],[0.46,47.908],[0.455,47.915],[0.502,47.947],[0.508,47.967],[0.523,47.95],[0.548,47.951],[0.545,47.93],[0.515,47.906]]]}},{"type":"Feature","properties":{"code":"72299","nom":"Saint-Mars-d'Outillé","pop":2483},"geometry":{"type":"Polygon","coordinates":[[[0.364,47.904],[0.403,47.862],[0.385,47.842],[0.37,47.853],[0.32,47.845],[0.285,47.858],[0.301,47.895],[0.335,47.891],[0.364,47.904]]]}},{"type":"Feature","properties":{"code":"72300","nom":"Saint-Mars-la-Brière","pop":2681},"geometry":{"type":"Polygon","coordinates":[[[0.347,48.057],[0.355,48.077],[0.391,48.042],[0.413,48.036],[0.422,48.012],[0.403,47.989],[0.394,47.977],[0.358,47.977],[0.354,47.992],[0.365,48.001],[0.344,48.037],[0.347,48.057]]]}},{"type":"Feature","properties":{"code":"72302","nom":"Saint-Martin-des-Monts","pop":178},"geometry":{"type":"Polygon","coordinates":[[[0.621,48.159],[0.618,48.157],[0.588,48.135],[0.572,48.152],[0.595,48.162],[0.621,48.165],[0.621,48.159]]]}},{"type":"Feature","properties":{"code":"72303","nom":"Saint-Michel-de-Chavaignes","pop":737},"geometry":{"type":"Polygon","coordinates":[[[0.548,48.034],[0.578,48.033],[0.587,48.018],[0.617,48.009],[0.577,47.987],[0.555,47.992],[0.547,48.009],[0.548,48.034]]]}},{"type":"Feature","properties":{"code":"72305","nom":"Saint-Ouen-de-Mimbré","pop":901},"geometry":{"type":"Polygon","coordinates":[[[0.028,48.29],[0.026,48.297],[0.063,48.308],[0.072,48.305],[0.062,48.28],[0.028,48.29]]]}},{"type":"Feature","properties":{"code":"72306","nom":"Saint-Ouen-en-Belin","pop":1313},"geometry":{"type":"Polygon","coordinates":[[[0.18,47.816],[0.186,47.846],[0.192,47.85],[0.239,47.855],[0.256,47.842],[0.252,47.834],[0.228,47.835],[0.204,47.815],[0.18,47.816]]]}},{"type":"Feature","properties":{"code":"72307","nom":"Saint-Ouen-en-Champagne","pop":237},"geometry":{"type":"Polygon","coordinates":[[[-0.204,47.971],[-0.156,47.968],[-0.16,47.946],[-0.16,47.946],[-0.192,47.938],[-0.209,47.967],[-0.204,47.971]]]}},{"type":"Feature","properties":{"code":"72308","nom":"Saint-Paterne - Le Chevain","pop":2076},"geometry":{"type":"Polygon","coordinates":[[[0.089,48.411],[0.122,48.436],[0.153,48.438],[0.156,48.436],[0.152,48.409],[0.132,48.409],[0.111,48.395],[0.089,48.411]]]}},{"type":"Feature","properties":{"code":"72309","nom":"Saint-Paul-le-Gaultier","pop":285},"geometry":{"type":"Polygon","coordinates":[[[-0.069,48.308],[-0.083,48.316],[-0.148,48.314],[-0.155,48.314],[-0.158,48.334],[-0.148,48.344],[-0.122,48.338],[-0.068,48.327],[-0.069,48.308]]]}},{"type":"Feature","properties":{"code":"72310","nom":"Saint-Pavace","pop":2007},"geometry":{"type":"Polygon","coordinates":[[[0.183,48.035],[0.177,48.045],[0.206,48.058],[0.209,48.042],[0.193,48.022],[0.183,48.035]]]}},{"type":"Feature","properties":{"code":"72311","nom":"Saint-Pierre-de-Chevillé","pop":334},"geometry":{"type":"Polygon","coordinates":[[[0.432,47.618],[0.396,47.641],[0.425,47.655],[0.462,47.643],[0.432,47.618]]]}},{"type":"Feature","properties":{"code":"72312","nom":"Saint-Pierre-des-Bois","pop":220},"geometry":{"type":"Polygon","coordinates":[[[-0.16,47.946],[-0.16,47.946],[-0.118,47.96],[-0.112,47.951],[-0.129,47.928],[-0.16,47.946]]]}},{"type":"Feature","properties":{"code":"72313","nom":"Saint-Pierre-des-Ormes","pop":206},"geometry":{"type":"Polygon","coordinates":[[[0.428,48.315],[0.443,48.305],[0.438,48.279],[0.417,48.269],[0.403,48.283],[0.4,48.299],[0.415,48.322],[0.428,48.315]]]}},{"type":"Feature","properties":{"code":"72314","nom":"Saint-Pierre-du-Lorouër","pop":356},"geometry":{"type":"Polygon","coordinates":[[[0.54,47.782],[0.541,47.782],[0.494,47.78],[0.474,47.794],[0.478,47.81],[0.528,47.82],[0.54,47.782]]]}},{"type":"Feature","properties":{"code":"72315","nom":"Saint-Rémy-de-Sillé","pop":828},"geometry":{"type":"Polygon","coordinates":[[[-0.11,48.161],[-0.124,48.177],[-0.112,48.206],[-0.103,48.21],[-0.08,48.19],[-0.098,48.16],[-0.11,48.161]]]}},{"type":"Feature","properties":{"code":"72316","nom":"Saint-Rémy-des-Monts","pop":713},"geometry":{"type":"Polygon","coordinates":[[[0.38,48.343],[0.415,48.322],[0.4,48.299],[0.38,48.314],[0.347,48.333],[0.342,48.336],[0.36,48.341],[0.38,48.343]]]}},{"type":"Feature","properties":{"code":"72317","nom":"Saint-Rémy-du-Val","pop":493},"geometry":{"type":"Polygon","coordinates":[[[0.27,48.377],[0.281,48.367],[0.277,48.343],[0.261,48.33],[0.227,48.327],[0.216,48.349],[0.222,48.358],[0.222,48.359],[0.244,48.358],[0.27,48.377]]]}},{"type":"Feature","properties":{"code":"72319","nom":"Sainte-Sabine-sur-Longève","pop":743},"geometry":{"type":"Polygon","coordinates":[[[0.077,48.154],[0.115,48.149],[0.114,48.124],[0.102,48.118],[0.073,48.124],[0.057,48.131],[0.077,48.154]]]}},{"type":"Feature","properties":{"code":"72320","nom":"Saint-Saturnin","pop":2774},"geometry":{"type":"Polygon","coordinates":[[[0.155,48.075],[0.174,48.072],[0.206,48.058],[0.177,48.045],[0.162,48.046],[0.155,48.075]]]}},{"type":"Feature","properties":{"code":"72321","nom":"Saint-Symphorien","pop":509},"geometry":{"type":"Polygon","coordinates":[[[-0.092,48.079],[-0.082,48.074],[-0.085,48.062],[-0.171,48.064],[-0.191,48.066],[-0.187,48.103],[-0.158,48.099],[-0.092,48.079]]]}},{"type":"Feature","properties":{"code":"72322","nom":"Saint-Ulphace","pop":222},"geometry":{"type":"Polygon","coordinates":[[[0.787,48.15],[0.791,48.163],[0.828,48.173],[0.836,48.168],[0.86,48.168],[0.911,48.147],[0.909,48.144],[0.855,48.154],[0.812,48.144],[0.787,48.15]]]}},{"type":"Feature","properties":{"code":"72323","nom":"Saint-Victeur","pop":432},"geometry":{"type":"Polygon","coordinates":[[[0.026,48.297],[0.033,48.337],[0.043,48.336],[0.063,48.308],[0.026,48.297]]]}},{"type":"Feature","properties":{"code":"72324","nom":"Saint-Vincent-des-Prés","pop":502},"geometry":{"type":"Polygon","coordinates":[[[0.403,48.283],[0.353,48.284],[0.342,48.294],[0.355,48.312],[0.38,48.314],[0.4,48.299],[0.403,48.283]]]}},{"type":"Feature","properties":{"code":"72325","nom":"Saint-Vincent-du-Lorouër","pop":814},"geometry":{"type":"Polygon","coordinates":[[[0.528,47.82],[0.478,47.81],[0.474,47.794],[0.459,47.789],[0.424,47.813],[0.448,47.822],[0.45,47.84],[0.534,47.846],[0.528,47.82]]]}},{"type":"Feature","properties":{"code":"72326","nom":"Saosnes","pop":216},"geometry":{"type":"Polygon","coordinates":[[[0.321,48.321],[0.284,48.311],[0.248,48.316],[0.261,48.33],[0.277,48.343],[0.287,48.34],[0.317,48.339],[0.334,48.336],[0.321,48.321]]]}},{"type":"Feature","properties":{"code":"72327","nom":"Sarcé","pop":264},"geometry":{"type":"Polygon","coordinates":[[[0.199,47.716],[0.219,47.747],[0.261,47.726],[0.225,47.702],[0.199,47.716]]]}},{"type":"Feature","properties":{"code":"72328","nom":"Sargé-lès-le-Mans","pop":3851},"geometry":{"type":"Polygon","coordinates":[[[0.218,48.024],[0.222,48.052],[0.25,48.061],[0.275,48.05],[0.244,48.018],[0.218,48.024]]]}},{"type":"Feature","properties":{"code":"72329","nom":"Savigné-l'Évêque","pop":4031},"geometry":{"type":"Polygon","coordinates":[[[0.305,48.117],[0.317,48.115],[0.326,48.093],[0.317,48.063],[0.275,48.05],[0.25,48.061],[0.26,48.074],[0.234,48.089],[0.255,48.103],[0.305,48.117]]]}},{"type":"Feature","properties":{"code":"72330","nom":"Savigné-sous-le-Lude","pop":446},"geometry":{"type":"Polygon","coordinates":[[[0.013,47.629],[0.028,47.646],[0.077,47.658],[0.09,47.664],[0.121,47.623],[0.111,47.606],[0.053,47.606],[0.01,47.624],[0.013,47.629]]]}},{"type":"Feature","properties":{"code":"72331","nom":"Sceaux-sur-Huisne","pop":587},"geometry":{"type":"Polygon","coordinates":[[[0.579,48.116],[0.604,48.119],[0.615,48.113],[0.575,48.078],[0.57,48.079],[0.543,48.093],[0.565,48.113],[0.579,48.116]]]}},{"type":"Feature","properties":{"code":"72332","nom":"Ségrie","pop":592},"geometry":{"type":"Polygon","coordinates":[[[0.002,48.23],[0.01,48.223],[0.068,48.226],[0.046,48.192],[-0.004,48.191],[-0.019,48.217],[-0.044,48.221],[0.002,48.234],[0.002,48.234],[0.002,48.23]]]}},{"type":"Feature","properties":{"code":"72333","nom":"Semur-en-Vallon","pop":428},"geometry":{"type":"Polygon","coordinates":[[[0.689,48.01],[0.676,48.004],[0.639,48.012],[0.637,48.037],[0.684,48.037],[0.711,48.02],[0.71,48.009],[0.689,48.01]]]}},{"type":"Feature","properties":{"code":"72334","nom":"Sillé-le-Guillaume","pop":2195},"geometry":{"type":"Polygon","coordinates":[[[-0.162,48.175],[-0.132,48.189],[-0.147,48.205],[-0.145,48.222],[-0.112,48.206],[-0.124,48.177],[-0.11,48.161],[-0.137,48.156],[-0.162,48.175]]]}},{"type":"Feature","properties":{"code":"72335","nom":"Sillé-le-Philippe","pop":1085},"geometry":{"type":"Polygon","coordinates":[[[0.345,48.118],[0.382,48.109],[0.372,48.101],[0.326,48.093],[0.317,48.115],[0.345,48.118]]]}},{"type":"Feature","properties":{"code":"72336","nom":"Solesmes","pop":1240},"geometry":{"type":"Polygon","coordinates":[[[-0.249,47.852],[-0.246,47.849],[-0.256,47.835],[-0.295,47.825],[-0.321,47.846],[-0.288,47.858],[-0.249,47.852]]]}},{"type":"Feature","properties":{"code":"72337","nom":"Sougé-le-Ganelon","pop":826},"geometry":{"type":"Polygon","coordinates":[[[-0.048,48.345],[-0.019,48.324],[-0.016,48.295],[-0.069,48.293],[-0.069,48.308],[-0.068,48.327],[-0.048,48.345]]]}},{"type":"Feature","properties":{"code":"72338","nom":"Souillé","pop":797},"geometry":{"type":"Polygon","coordinates":[[[0.186,48.132],[0.187,48.128],[0.182,48.11],[0.156,48.126],[0.186,48.132]]]}},{"type":"Feature","properties":{"code":"72339","nom":"Souligné-Flacé","pop":636},"geometry":{"type":"Polygon","coordinates":[[[0.048,47.981],[0.053,47.978],[0.048,47.958],[0.011,47.942],[-0.006,47.968],[-0.001,47.995],[0.013,47.996],[0.038,47.981],[0.048,47.981]]]}},{"type":"Feature","properties":{"code":"72340","nom":"Souligné-sous-Ballon","pop":1244},"geometry":{"type":"Polygon","coordinates":[[[0.252,48.111],[0.223,48.125],[0.213,48.141],[0.209,48.154],[0.267,48.15],[0.252,48.111]]]}},{"type":"Feature","properties":{"code":"72341","nom":"Soulitré","pop":597},"geometry":{"type":"Polygon","coordinates":[[[0.413,48.036],[0.43,48.038],[0.47,48.033],[0.47,48.012],[0.453,48.007],[0.422,48.012],[0.413,48.036]]]}},{"type":"Feature","properties":{"code":"72342","nom":"Souvigné-sur-Même","pop":164},"geometry":{"type":"Polygon","coordinates":[[[0.632,48.235],[0.639,48.235],[0.665,48.209],[0.663,48.197],[0.642,48.21],[0.632,48.235]]]}},{"type":"Feature","properties":{"code":"72343","nom":"Souvigné-sur-Sarthe","pop":603},"geometry":{"type":"Polygon","coordinates":[[[-0.388,47.806],[-0.434,47.809],[-0.448,47.832],[-0.411,47.847],[-0.375,47.833],[-0.388,47.806]]]}},{"type":"Feature","properties":{"code":"72344","nom":"Spay","pop":2808},"geometry":{"type":"Polygon","coordinates":[[[0.169,47.911],[0.154,47.904],[0.133,47.906],[0.119,47.918],[0.117,47.939],[0.175,47.943],[0.169,47.911]]]}},{"type":"Feature","properties":{"code":"72345","nom":"Surfonds","pop":339},"geometry":{"type":"Polygon","coordinates":[[[0.486,47.982],[0.485,47.969],[0.437,47.976],[0.434,47.978],[0.458,47.992],[0.486,47.982]]]}},{"type":"Feature","properties":{"code":"72346","nom":"La Suze-sur-Sarthe","pop":4693},"geometry":{"type":"Polygon","coordinates":[[[0.016,47.905],[0.046,47.897],[0.063,47.864],[0.033,47.848],[0.009,47.863],[-0.015,47.888],[-0.005,47.899],[0.016,47.905]]]}},{"type":"Feature","properties":{"code":"72347","nom":"Tassé","pop":287},"geometry":{"type":"Polygon","coordinates":[[[-0.192,47.891],[-0.189,47.897],[-0.155,47.89],[-0.127,47.903],[-0.114,47.893],[-0.148,47.874],[-0.178,47.885],[-0.192,47.891]]]}},{"type":"Feature","properties":{"code":"72348","nom":"Tassillé","pop":136},"geometry":{"type":"Polygon","coordinates":[[[-0.074,47.984],[-0.078,47.976],[-0.108,47.978],[-0.106,48.003],[-0.074,47.984]]]}},{"type":"Feature","properties":{"code":"72349","nom":"Teillé","pop":543},"geometry":{"type":"Polygon","coordinates":[[[0.177,48.172],[0.152,48.181],[0.146,48.19],[0.175,48.19],[0.189,48.208],[0.21,48.196],[0.206,48.162],[0.177,48.172]]]}},{"type":"Feature","properties":{"code":"72350","nom":"Teloché","pop":3067},"geometry":{"type":"Polygon","coordinates":[[[0.285,47.858],[0.254,47.853],[0.25,47.894],[0.273,47.913],[0.269,47.928],[0.291,47.927],[0.301,47.895],[0.285,47.858]]]}},{"type":"Feature","properties":{"code":"72351","nom":"Tennie","pop":1000},"geometry":{"type":"Polygon","coordinates":[[[-0.151,48.102],[-0.086,48.136],[-0.049,48.144],[-0.038,48.138],[-0.042,48.101],[-0.092,48.079],[-0.158,48.099],[-0.151,48.102]]]}},{"type":"Feature","properties":{"code":"72352","nom":"Terrehault","pop":139},"geometry":{"type":"Polygon","coordinates":[[[0.393,48.194],[0.397,48.218],[0.409,48.218],[0.42,48.212],[0.398,48.186],[0.393,48.194]]]}},{"type":"Feature","properties":{"code":"72353","nom":"Théligny","pop":215},"geometry":{"type":"Polygon","coordinates":[[[0.828,48.173],[0.791,48.163],[0.787,48.15],[0.765,48.15],[0.753,48.176],[0.755,48.182],[0.798,48.195],[0.828,48.173]]]}},{"type":"Feature","properties":{"code":"72354","nom":"Thoigné","pop":165},"geometry":{"type":"Polygon","coordinates":[[[0.231,48.296],[0.241,48.301],[0.261,48.301],[0.269,48.269],[0.246,48.269],[0.231,48.296]]]}},{"type":"Feature","properties":{"code":"72355","nom":"Thoiré-sous-Contensor","pop":111},"geometry":{"type":"Polygon","coordinates":[[[0.201,48.296],[0.2,48.297],[0.19,48.323],[0.221,48.324],[0.214,48.298],[0.201,48.296]]]}},{"type":"Feature","properties":{"code":"72356","nom":"Thoiré-sur-Dinan","pop":399},"geometry":{"type":"Polygon","coordinates":[[[0.474,47.794],[0.494,47.78],[0.481,47.748],[0.438,47.739],[0.427,47.763],[0.427,47.765],[0.459,47.789],[0.474,47.794]]]}},{"type":"Feature","properties":{"code":"72357","nom":"Thorée-les-Pins","pop":744},"geometry":{"type":"Polygon","coordinates":[[[0.021,47.698],[0.024,47.699],[0.081,47.675],[0.077,47.658],[0.028,47.646],[0.013,47.629],[-0.004,47.648],[0.021,47.698]]]}},{"type":"Feature","properties":{"code":"72358","nom":"Thorigné-sur-Dué","pop":1637},"geometry":{"type":"Polygon","coordinates":[[[0.502,48.058],[0.532,48.049],[0.548,48.034],[0.547,48.009],[0.506,48.007],[0.483,48.037],[0.502,48.058]]]}},{"type":"Feature","properties":{"code":"72359","nom":"Torcé-en-Vallée","pop":1397},"geometry":{"type":"Polygon","coordinates":[[[0.413,48.156],[0.44,48.149],[0.409,48.112],[0.382,48.109],[0.345,48.118],[0.37,48.145],[0.403,48.151],[0.413,48.156]]]}},{"type":"Feature","properties":{"code":"72360","nom":"Trangé","pop":1637},"geometry":{"type":"Polygon","coordinates":[[[0.103,48.011],[0.093,48.02],[0.103,48.044],[0.121,48.053],[0.13,48.045],[0.14,48.03],[0.14,48.015],[0.12,48.013],[0.103,48.011]]]}},{"type":"Feature","properties":{"code":"72361","nom":"Tresson","pop":511},"geometry":{"type":"Polygon","coordinates":[[[0.587,47.882],[0.545,47.878],[0.515,47.906],[0.545,47.93],[0.603,47.927],[0.608,47.901],[0.587,47.882]]]}},{"type":"Feature","properties":{"code":"72362","nom":"Le Tronchet","pop":170},"geometry":{"type":"Polygon","coordinates":[[[0.094,48.176],[0.073,48.169],[0.065,48.183],[0.095,48.19],[0.094,48.176]]]}},{"type":"Feature","properties":{"code":"72363","nom":"Tuffé Val de la Chéronne","pop":1680},"geometry":{"type":"Polygon","coordinates":[[[0.539,48.089],[0.492,48.088],[0.473,48.122],[0.474,48.141],[0.494,48.15],[0.521,48.149],[0.525,48.136],[0.565,48.113],[0.543,48.093],[0.539,48.089]]]}},{"type":"Feature","properties":{"code":"72364","nom":"Vaas","pop":1371},"geometry":{"type":"Polygon","coordinates":[[[0.246,47.657],[0.281,47.662],[0.292,47.701],[0.318,47.703],[0.361,47.686],[0.369,47.676],[0.324,47.642],[0.246,47.657]]]}},{"type":"Feature","properties":{"code":"72366","nom":"Valennes","pop":303},"geometry":{"type":"Polygon","coordinates":[[[0.798,48.037],[0.842,48.03],[0.837,48.009],[0.824,47.982],[0.793,47.968],[0.776,47.978],[0.785,47.998],[0.776,48.023],[0.798,48.037]]]}},{"type":"Feature","properties":{"code":"72367","nom":"Vallon-sur-Gée","pop":774},"geometry":{"type":"Polygon","coordinates":[[[-0.045,47.963],[-0.06,47.941],[-0.084,47.937],[-0.092,47.938],[-0.112,47.951],[-0.118,47.96],[-0.115,47.978],[-0.108,47.978],[-0.078,47.976],[-0.045,47.963]]]}},{"type":"Feature","properties":{"code":"72368","nom":"Vancé","pop":283},"geometry":{"type":"Polygon","coordinates":[[[0.691,47.837],[0.69,47.828],[0.65,47.823],[0.62,47.839],[0.624,47.843],[0.679,47.851],[0.691,47.837]]]}},{"type":"Feature","properties":{"code":"72369","nom":"Verneil-le-Chétif","pop":584},"geometry":{"type":"Polygon","coordinates":[[[0.269,47.722],[0.309,47.748],[0.318,47.703],[0.292,47.701],[0.269,47.722]]]}},{"type":"Feature","properties":{"code":"72370","nom":"Vernie","pop":346},"geometry":{"type":"Polygon","coordinates":[[[-0.012,48.178],[-0.016,48.185],[-0.004,48.191],[0.046,48.192],[0.052,48.178],[0.031,48.169],[-0.012,48.178]]]}},{"type":"Feature","properties":{"code":"72372","nom":"Vezot","pop":75},"geometry":{"type":"Polygon","coordinates":[[[0.287,48.34],[0.277,48.343],[0.281,48.367],[0.313,48.36],[0.315,48.342],[0.287,48.34]]]}},{"type":"Feature","properties":{"code":"72373","nom":"Vibraye","pop":2523},"geometry":{"type":"Polygon","coordinates":[[[0.764,48.073],[0.794,48.069],[0.798,48.037],[0.776,48.023],[0.711,48.02],[0.684,48.037],[0.686,48.063],[0.704,48.082],[0.724,48.076],[0.764,48.073]]]}},{"type":"Feature","properties":{"code":"72374","nom":"Villaines-la-Carelle","pop":132},"geometry":{"type":"Polygon","coordinates":[[[0.27,48.377],[0.277,48.412],[0.259,48.417],[0.258,48.426],[0.291,48.416],[0.329,48.376],[0.313,48.36],[0.281,48.367],[0.27,48.377]]]}},{"type":"Feature","properties":{"code":"72375","nom":"Villaines-la-Gonais","pop":510},"geometry":{"type":"Polygon","coordinates":[[[0.604,48.119],[0.579,48.116],[0.588,48.135],[0.618,48.157],[0.641,48.129],[0.604,48.119]]]}},{"type":"Feature","properties":{"code":"72376","nom":"Villaines-sous-Lucé","pop":645},"geometry":{"type":"Polygon","coordinates":[[[0.534,47.858],[0.482,47.857],[0.476,47.892],[0.46,47.906],[0.46,47.908],[0.515,47.906],[0.545,47.878],[0.534,47.858]]]}},{"type":"Feature","properties":{"code":"72377","nom":"Villaines-sous-Malicorne","pop":1032},"geometry":{"type":"Polygon","coordinates":[[[-0.132,47.779],[-0.09,47.782],[-0.079,47.745],[-0.118,47.73],[-0.136,47.763],[-0.132,47.779]]]}},{"type":"Feature","properties":{"code":"72378","nom":"Vion","pop":1366},"geometry":{"type":"Polygon","coordinates":[[[-0.241,47.798],[-0.268,47.79],[-0.282,47.8],[-0.3,47.817],[-0.295,47.825],[-0.256,47.835],[-0.228,47.823],[-0.241,47.798]]]}},{"type":"Feature","properties":{"code":"72379","nom":"Viré-en-Champagne","pop":204},"geometry":{"type":"Polygon","coordinates":[[[-0.289,47.961],[-0.313,48.001],[-0.309,48.006],[-0.271,47.999],[-0.289,47.961]]]}},{"type":"Feature","properties":{"code":"72380","nom":"Vivoin","pop":892},"geometry":{"type":"Polygon","coordinates":[[[0.197,48.222],[0.188,48.214],[0.145,48.224],[0.132,48.232],[0.139,48.258],[0.147,48.276],[0.167,48.261],[0.188,48.248],[0.197,48.222]]]}},{"type":"Feature","properties":{"code":"72381","nom":"Voivres-lès-le-Mans","pop":1345},"geometry":{"type":"Polygon","coordinates":[[[0.119,47.918],[0.092,47.917],[0.065,47.926],[0.035,47.914],[0.043,47.927],[0.098,47.944],[0.111,47.945],[0.117,47.939],[0.119,47.918]]]}},{"type":"Feature","properties":{"code":"72382","nom":"Volnay","pop":1521},"geometry":{"type":"Polygon","coordinates":[[[0.455,47.915],[0.451,47.946],[0.437,47.976],[0.485,47.969],[0.508,47.967],[0.502,47.947],[0.455,47.915]]]}},{"type":"Feature","properties":{"code":"72383","nom":"Vouvray-sur-Huisne","pop":131},"geometry":{"type":"Polygon","coordinates":[[[0.543,48.093],[0.57,48.079],[0.533,48.084],[0.539,48.089],[0.543,48.093]]]}},{"type":"Feature","properties":{"code":"72385","nom":"Yvré-le-Pôlin","pop":1717},"geometry":{"type":"Polygon","coordinates":[[[0.173,47.871],[0.186,47.846],[0.18,47.816],[0.173,47.806],[0.135,47.803],[0.126,47.832],[0.127,47.834],[0.161,47.872],[0.166,47.872],[0.173,47.871]]]}},{"type":"Feature","properties":{"code":"72386","nom":"Yvré-l'Évêque","pop":4181},"geometry":{"type":"Polygon","coordinates":[[[0.244,48.018],[0.275,48.05],[0.317,48.063],[0.336,48.057],[0.315,48.038],[0.307,48.006],[0.246,47.989],[0.244,48.018]]]}}]}