{"type":"FeatureCollection","features":[{"type":"Feature","properties":{"code":"73001","nom":"Aiguebelette-le-Lac","pop":255},"geometry":{"type":"Polygon","coordinates":[[[5.803,45.563],[5.82,45.567],[5.83,45.55],[5.819,45.522],[5.792,45.545],[5.801,45.56],[5.803,45.563]]]}},{"type":"Feature","properties":{"code":"73003","nom":"Grand-Aigueblanche","pop":3780},"geometry":{"type":"Polygon","coordinates":[[[6.496,45.467],[6.484,45.474],[6.474,45.495],[6.47,45.515],[6.497,45.522],[6.517,45.546],[6.562,45.563],[6.529,45.519],[6.523,45.491],[6.522,45.487],[6.496,45.467]]]}},{"type":"Feature","properties":{"code":"73004","nom":"Aillon-le-Jeune","pop":430},"geometry":{"type":"Polygon","coordinates":[[[6.14,45.631],[6.111,45.59],[6.094,45.562],[6.071,45.567],[6.078,45.593],[6.035,45.63],[6.036,45.638],[6.036,45.638],[6.06,45.644],[6.102,45.623],[6.12,45.645],[6.14,45.631]]]}},{"type":"Feature","properties":{"code":"73005","nom":"Aillon-le-Vieux","pop":221},"geometry":{"type":"Polygon","coordinates":[[[6.088,45.683],[6.089,45.682],[6.123,45.653],[6.12,45.645],[6.102,45.623],[6.06,45.644],[6.036,45.638],[6.088,45.683]]]}},{"type":"Feature","properties":{"code":"73006","nom":"Aime-la-Plagne","pop":4385},"geometry":{"type":"Polygon","coordinates":[[[6.562,45.563],[6.578,45.596],[6.562,45.62],[6.582,45.641],[6.645,45.63],[6.665,45.574],[6.656,45.56],[6.669,45.509],[6.663,45.493],[6.641,45.495],[6.613,45.528],[6.58,45.517],[6.559,45.522],[6.562,45.563]]]}},{"type":"Feature","properties":{"code":"73007","nom":"Aiton","pop":1874},"geometry":{"type":"Polygon","coordinates":[[[6.27,45.584],[6.277,45.598],[6.295,45.588],[6.295,45.573],[6.281,45.56],[6.237,45.561],[6.214,45.581],[6.24,45.586],[6.27,45.584]]]}},{"type":"Feature","properties":{"code":"73008","nom":"Aix-les-Bains","pop":32406},"geometry":{"type":"Polygon","coordinates":[[[5.871,45.688],[5.871,45.708],[5.908,45.724],[5.936,45.703],[5.935,45.697],[5.921,45.674],[5.907,45.665],[5.906,45.665],[5.904,45.686],[5.871,45.688]]]}},{"type":"Feature","properties":{"code":"73010","nom":"Entrelacs","pop":6461},"geometry":{"type":"Polygon","coordinates":[[[5.963,45.813],[5.98,45.796],[5.974,45.769],[5.976,45.743],[5.973,45.741],[5.962,45.733],[5.931,45.749],[5.933,45.78],[5.886,45.762],[5.857,45.762],[5.847,45.781],[5.864,45.781],[5.867,45.842],[5.873,45.839],[5.881,45.831],[5.934,45.815],[5.963,45.813]]]}},{"type":"Feature","properties":{"code":"73011","nom":"Albertville","pop":19978},"geometry":{"type":"Polygon","coordinates":[[[6.375,45.677],[6.4,45.688],[6.44,45.684],[6.46,45.684],[6.43,45.657],[6.402,45.641],[6.396,45.661],[6.367,45.654],[6.361,45.67],[6.375,45.677]]]}},{"type":"Feature","properties":{"code":"73012","nom":"Albiez-le-Jeune","pop":139},"geometry":{"type":"Polygon","coordinates":[[[6.39,45.234],[6.38,45.22],[6.366,45.219],[6.33,45.247],[6.355,45.259],[6.39,45.234]]]}},{"type":"Feature","properties":{"code":"73013","nom":"Albiez-Montrond","pop":350},"geometry":{"type":"Polygon","coordinates":[[[6.38,45.22],[6.374,45.181],[6.341,45.132],[6.308,45.162],[6.302,45.197],[6.316,45.21],[6.312,45.23],[6.328,45.244],[6.33,45.247],[6.366,45.219],[6.38,45.22]]]}},{"type":"Feature","properties":{"code":"73014","nom":"Allondaz","pop":298},"geometry":{"type":"Polygon","coordinates":[[[6.387,45.703],[6.376,45.701],[6.359,45.721],[6.387,45.703]]]}},{"type":"Feature","properties":{"code":"73015","nom":"Les Allues","pop":1736},"geometry":{"type":"Polygon","coordinates":[[[6.64,45.277],[6.624,45.281],[6.618,45.302],[6.574,45.32],[6.567,45.353],[6.536,45.392],[6.521,45.44],[6.547,45.453],[6.564,45.448],[6.602,45.409],[6.613,45.368],[6.665,45.328],[6.635,45.301],[6.64,45.277]]]}},{"type":"Feature","properties":{"code":"73017","nom":"Apremont","pop":979},"geometry":{"type":"Polygon","coordinates":[[[5.894,45.497],[5.927,45.515],[5.964,45.523],[5.981,45.506],[5.915,45.477],[5.894,45.497]]]}},{"type":"Feature","properties":{"code":"73018","nom":"Arbin","pop":841},"geometry":{"type":"Polygon","coordinates":[[[6.074,45.519],[6.086,45.509],[6.074,45.503],[6.074,45.519]]]}},{"type":"Feature","properties":{"code":"73019","nom":"Argentine","pop":959},"geometry":{"type":"Polygon","coordinates":[[[6.377,45.497],[6.368,45.465],[6.338,45.471],[6.29,45.47],[6.29,45.478],[6.296,45.489],[6.313,45.517],[6.315,45.523],[6.377,45.497]]]}},{"type":"Feature","properties":{"code":"73020","nom":"Arith","pop":456},"geometry":{"type":"Polygon","coordinates":[[[6.096,45.743],[6.097,45.734],[6.104,45.72],[6.079,45.699],[6.018,45.697],[6.042,45.739],[6.096,45.743]]]}},{"type":"Feature","properties":{"code":"73021","nom":"Arvillard","pop":861},"geometry":{"type":"Polygon","coordinates":[[[6.17,45.36],[6.192,45.369],[6.178,45.393],[6.145,45.414],[6.122,45.439],[6.103,45.434],[6.111,45.447],[6.127,45.449],[6.179,45.433],[6.212,45.415],[6.2,45.407],[6.206,45.371],[6.198,45.353],[6.195,45.352],[6.17,45.36]]]}},{"type":"Feature","properties":{"code":"73022","nom":"Attignat-Oncin","pop":574},"geometry":{"type":"Polygon","coordinates":[[[5.76,45.542],[5.817,45.522],[5.815,45.52],[5.794,45.488],[5.758,45.492],[5.748,45.512],[5.75,45.517],[5.76,45.542]]]}},{"type":"Feature","properties":{"code":"73023","nom":"Aussois","pop":676},"geometry":{"type":"Polygon","coordinates":[[[6.715,45.234],[6.694,45.246],[6.685,45.269],[6.687,45.291],[6.732,45.298],[6.773,45.243],[6.761,45.215],[6.77,45.199],[6.715,45.234]]]}},{"type":"Feature","properties":{"code":"73024","nom":"Les Avanchers-Valmorel","pop":724},"geometry":{"type":"Polygon","coordinates":[[[6.411,45.427],[6.407,45.428],[6.412,45.461],[6.439,45.486],[6.474,45.495],[6.484,45.474],[6.438,45.428],[6.411,45.427]]]}},{"type":"Feature","properties":{"code":"73025","nom":"Avressieux","pop":544},"geometry":{"type":"Polygon","coordinates":[[[5.712,45.559],[5.685,45.56],[5.672,45.579],[5.691,45.589],[5.725,45.565],[5.712,45.559]]]}},{"type":"Feature","properties":{"code":"73026","nom":"Avrieux","pop":386},"geometry":{"type":"Polygon","coordinates":[[[6.711,45.145],[6.715,45.163],[6.726,45.2],[6.71,45.214],[6.715,45.234],[6.77,45.199],[6.802,45.166],[6.797,45.153],[6.768,45.16],[6.74,45.137],[6.711,45.145]]]}},{"type":"Feature","properties":{"code":"73027","nom":"Ayn","pop":392},"geometry":{"type":"Polygon","coordinates":[[[5.729,45.586],[5.764,45.58],[5.771,45.563],[5.733,45.56],[5.731,45.567],[5.729,45.586]]]}},{"type":"Feature","properties":{"code":"73028","nom":"La Balme","pop":360},"geometry":{"type":"Polygon","coordinates":[[[5.7,45.71],[5.728,45.709],[5.719,45.687],[5.708,45.659],[5.705,45.652],[5.688,45.644],[5.687,45.653],[5.704,45.678],[5.704,45.698],[5.7,45.71]]]}},{"type":"Feature","properties":{"code":"73029","nom":"Barberaz","pop":5306},"geometry":{"type":"Polygon","coordinates":[[[5.94,45.568],[5.95,45.571],[5.951,45.571],[5.946,45.546],[5.931,45.535],[5.927,45.541],[5.93,45.548],[5.94,45.568]]]}},{"type":"Feature","properties":{"code":"73030","nom":"Barby","pop":3772},"geometry":{"type":"Polygon","coordinates":[[[5.993,45.565],[5.974,45.559],[5.973,45.572],[5.985,45.582],[5.99,45.58],[5.993,45.565]]]}},{"type":"Feature","properties":{"code":"73031","nom":"Bassens","pop":5175},"geometry":{"type":"Polygon","coordinates":[[[5.932,45.596],[5.95,45.571],[5.94,45.568],[5.932,45.596]]]}},{"type":"Feature","properties":{"code":"73032","nom":"La Bâthie","pop":2176},"geometry":{"type":"Polygon","coordinates":[[[6.444,45.598],[6.45,45.614],[6.434,45.645],[6.501,45.668],[6.521,45.638],[6.503,45.646],[6.457,45.601],[6.444,45.598]]]}},{"type":"Feature","properties":{"code":"73033","nom":"La Bauche","pop":542},"geometry":{"type":"Polygon","coordinates":[[[5.794,45.488],[5.791,45.485],[5.793,45.482],[5.748,45.476],[5.758,45.492],[5.794,45.488]]]}},{"type":"Feature","properties":{"code":"73034","nom":"Beaufort","pop":1989},"geometry":{"type":"Polygon","coordinates":[[[6.501,45.668],[6.492,45.68],[6.512,45.687],[6.552,45.738],[6.583,45.744],[6.616,45.731],[6.645,45.733],[6.687,45.755],[6.712,45.723],[6.692,45.707],[6.697,45.687],[6.671,45.666],[6.664,45.656],[6.645,45.63],[6.582,45.641],[6.562,45.62],[6.55,45.621],[6.521,45.638],[6.501,45.668]]]}},{"type":"Feature","properties":{"code":"73036","nom":"Bellecombe-en-Bauges","pop":793},"geometry":{"type":"Polygon","coordinates":[[[6.103,45.764],[6.138,45.761],[6.167,45.757],[6.178,45.747],[6.184,45.733],[6.196,45.732],[6.192,45.72],[6.162,45.709],[6.147,45.715],[6.135,45.734],[6.104,45.72],[6.097,45.734],[6.103,45.764]]]}},{"type":"Feature","properties":{"code":"73039","nom":"Belmont-Tramonet","pop":505},"geometry":{"type":"Polygon","coordinates":[[[5.674,45.553],[5.647,45.577],[5.672,45.579],[5.685,45.56],[5.712,45.559],[5.707,45.552],[5.674,45.553]]]}},{"type":"Feature","properties":{"code":"73040","nom":"Bessans","pop":341},"geometry":{"type":"Polygon","coordinates":[[[6.988,45.367],[6.998,45.367],[7.045,45.357],[7.11,45.327],[7.136,45.281],[7.138,45.257],[7.11,45.247],[7.077,45.211],[7.051,45.226],[7.019,45.238],[6.975,45.266],[6.957,45.301],[6.973,45.329],[6.96,45.337],[6.988,45.367]]]}},{"type":"Feature","properties":{"code":"73041","nom":"Betton-Bettonet","pop":306},"geometry":{"type":"Polygon","coordinates":[[[6.207,45.546],[6.186,45.522],[6.171,45.512],[6.162,45.518],[6.185,45.535],[6.207,45.546]]]}},{"type":"Feature","properties":{"code":"73042","nom":"Billième","pop":273},"geometry":{"type":"Polygon","coordinates":[[[5.831,45.73],[5.837,45.722],[5.804,45.705],[5.794,45.721],[5.823,45.733],[5.831,45.73]]]}},{"type":"Feature","properties":{"code":"73043","nom":"La Biolle","pop":2948},"geometry":{"type":"Polygon","coordinates":[[[5.931,45.749],[5.911,45.734],[5.886,45.762],[5.933,45.78],[5.931,45.749]]]}},{"type":"Feature","properties":{"code":"73047","nom":"Bonneval-sur-Arc","pop":285},"geometry":{"type":"Polygon","coordinates":[[[7.11,45.327],[7.045,45.357],[6.998,45.367],[7.017,45.411],[7.042,45.433],[7.071,45.426],[7.113,45.434],[7.185,45.407],[7.175,45.386],[7.139,45.351],[7.135,45.331],[7.11,45.327]]]}},{"type":"Feature","properties":{"code":"73048","nom":"Bonvillard","pop":351},"geometry":{"type":"Polygon","coordinates":[[[6.295,45.573],[6.295,45.588],[6.323,45.604],[6.375,45.581],[6.365,45.566],[6.355,45.565],[6.295,45.573]]]}},{"type":"Feature","properties":{"code":"73049","nom":"Bonvillaret","pop":154},"geometry":{"type":"Polygon","coordinates":[[[6.292,45.554],[6.281,45.56],[6.295,45.573],[6.355,45.565],[6.353,45.561],[6.292,45.554]]]}},{"type":"Feature","properties":{"code":"73050","nom":"Bourdeau","pop":572},"geometry":{"type":"Polygon","coordinates":[[[5.871,45.688],[5.873,45.668],[5.826,45.667],[5.827,45.669],[5.845,45.69],[5.871,45.688]]]}},{"type":"Feature","properties":{"code":"73051","nom":"Le Bourget-du-Lac","pop":5216},"geometry":{"type":"Polygon","coordinates":[[[5.873,45.668],[5.874,45.662],[5.891,45.642],[5.885,45.64],[5.86,45.64],[5.851,45.615],[5.818,45.618],[5.817,45.644],[5.821,45.658],[5.826,45.667],[5.873,45.668]]]}},{"type":"Feature","properties":{"code":"73052","nom":"Bourget-en-Huile","pop":142},"geometry":{"type":"Polygon","coordinates":[[[6.194,45.497],[6.207,45.5],[6.233,45.475],[6.22,45.461],[6.191,45.482],[6.194,45.497]]]}},{"type":"Feature","properties":{"code":"73053","nom":"Bourgneuf","pop":656},"geometry":{"type":"Polygon","coordinates":[[[6.293,45.548],[6.256,45.545],[6.208,45.548],[6.205,45.551],[6.237,45.561],[6.281,45.56],[6.292,45.554],[6.293,45.548]]]}},{"type":"Feature","properties":{"code":"73054","nom":"Bourg-Saint-Maurice","pop":7270},"geometry":{"type":"Polygon","coordinates":[[[6.802,45.779],[6.809,45.725],[6.846,45.691],[6.786,45.639],[6.8,45.607],[6.829,45.596],[6.842,45.587],[6.845,45.548],[6.804,45.554],[6.743,45.581],[6.746,45.592],[6.75,45.605],[6.694,45.628],[6.691,45.654],[6.671,45.666],[6.697,45.687],[6.692,45.707],[6.712,45.723],[6.766,45.771],[6.802,45.779]]]}},{"type":"Feature","properties":{"code":"73055","nom":"Bozel","pop":2098},"geometry":{"type":"Polygon","coordinates":[[[6.612,45.445],[6.625,45.49],[6.641,45.495],[6.663,45.493],[6.696,45.485],[6.673,45.448],[6.677,45.42],[6.646,45.44],[6.612,45.445]]]}},{"type":"Feature","properties":{"code":"73057","nom":"Brides-les-Bains","pop":442},"geometry":{"type":"Polygon","coordinates":[[[6.593,45.448],[6.564,45.448],[6.547,45.453],[6.552,45.458],[6.556,45.461],[6.562,45.46],[6.593,45.448]]]}},{"type":"Feature","properties":{"code":"73058","nom":"La Bridoire","pop":1202},"geometry":{"type":"Polygon","coordinates":[[[5.753,45.542],[5.761,45.542],[5.76,45.542],[5.75,45.517],[5.72,45.521],[5.726,45.543],[5.738,45.543],[5.753,45.542]]]}},{"type":"Feature","properties":{"code":"73059","nom":"Brison-Saint-Innocent","pop":2445},"geometry":{"type":"Polygon","coordinates":[[[5.908,45.724],[5.871,45.708],[5.869,45.735],[5.857,45.762],[5.886,45.762],[5.911,45.734],[5.908,45.724]]]}},{"type":"Feature","properties":{"code":"73061","nom":"Césarches","pop":441},"geometry":{"type":"Polygon","coordinates":[[[6.419,45.692],[6.403,45.694],[6.406,45.708],[6.41,45.714],[6.424,45.711],[6.419,45.692]]]}},{"type":"Feature","properties":{"code":"73063","nom":"Cevins","pop":706},"geometry":{"type":"Polygon","coordinates":[[[6.55,45.621],[6.529,45.594],[6.462,45.575],[6.45,45.591],[6.444,45.598],[6.457,45.601],[6.503,45.646],[6.521,45.638],[6.55,45.621]]]}},{"type":"Feature","properties":{"code":"73064","nom":"Challes-les-Eaux","pop":5630},"geometry":{"type":"Polygon","coordinates":[[[5.969,45.536],[5.974,45.559],[5.993,45.565],[5.999,45.545],[5.97,45.535],[5.969,45.536]]]}},{"type":"Feature","properties":{"code":"73065","nom":"Chambéry","pop":59964},"geometry":{"type":"Polygon","coordinates":[[[5.879,45.568],[5.871,45.571],[5.893,45.6],[5.884,45.615],[5.898,45.615],[5.937,45.6],[5.932,45.596],[5.94,45.568],[5.93,45.548],[5.903,45.557],[5.879,45.568]]]}},{"type":"Feature","properties":{"code":"73067","nom":"La Chambre","pop":1221},"geometry":{"type":"Polygon","coordinates":[[[6.278,45.382],[6.297,45.372],[6.305,45.365],[6.308,45.359],[6.301,45.353],[6.285,45.372],[6.278,45.382]]]}},{"type":"Feature","properties":{"code":"73068","nom":"Chamousset","pop":621},"geometry":{"type":"Polygon","coordinates":[[[6.214,45.581],[6.237,45.561],[6.205,45.551],[6.187,45.565],[6.196,45.574],[6.214,45.581]]]}},{"type":"Feature","properties":{"code":"73069","nom":"Chamoux-sur-Gelon","pop":966},"geometry":{"type":"Polygon","coordinates":[[[6.208,45.548],[6.256,45.545],[6.254,45.535],[6.216,45.52],[6.197,45.514],[6.186,45.522],[6.207,45.546],[6.208,45.548]]]}},{"type":"Feature","properties":{"code":"73070","nom":"Champagneux","pop":675},"geometry":{"type":"Polygon","coordinates":[[[5.648,45.627],[5.688,45.644],[5.705,45.652],[5.703,45.643],[5.68,45.616],[5.637,45.617],[5.648,45.627]]]}},{"type":"Feature","properties":{"code":"73071","nom":"Champagny-en-Vanoise","pop":540},"geometry":{"type":"Polygon","coordinates":[[[6.769,45.499],[6.798,45.492],[6.821,45.461],[6.862,45.454],[6.86,45.441],[6.89,45.422],[6.866,45.409],[6.828,45.405],[6.812,45.415],[6.761,45.417],[6.75,45.433],[6.673,45.448],[6.696,45.485],[6.725,45.486],[6.769,45.499]]]}},{"type":"Feature","properties":{"code":"73072","nom":"Champ-Laurent","pop":31},"geometry":{"type":"Polygon","coordinates":[[[6.194,45.497],[6.188,45.499],[6.197,45.514],[6.216,45.52],[6.242,45.51],[6.207,45.5],[6.194,45.497]]]}},{"type":"Feature","properties":{"code":"73073","nom":"Chanaz","pop":551},"geometry":{"type":"Polygon","coordinates":[[[5.781,45.781],[5.785,45.797],[5.788,45.823],[5.795,45.83],[5.809,45.817],[5.818,45.806],[5.802,45.794],[5.796,45.78],[5.781,45.781]]]}},{"type":"Feature","properties":{"code":"73074","nom":"La Chapelle","pop":326},"geometry":{"type":"Polygon","coordinates":[[[6.271,45.423],[6.287,45.445],[6.322,45.424],[6.299,45.4],[6.275,45.4],[6.271,45.423]]]}},{"type":"Feature","properties":{"code":"73075","nom":"La Chapelle-Blanche","pop":596},"geometry":{"type":"Polygon","coordinates":[[[6.091,45.444],[6.077,45.443],[6.054,45.44],[6.055,45.453],[6.061,45.457],[6.09,45.459],[6.091,45.444]]]}},{"type":"Feature","properties":{"code":"73076","nom":"La Chapelle-du-Mont-du-Chat","pop":269},"geometry":{"type":"Polygon","coordinates":[[[5.831,45.73],[5.832,45.747],[5.869,45.735],[5.871,45.708],[5.871,45.688],[5.845,45.69],[5.837,45.722],[5.831,45.73]]]}},{"type":"Feature","properties":{"code":"73077","nom":"Les Chapelles","pop":568},"geometry":{"type":"Polygon","coordinates":[[[6.664,45.656],[6.671,45.666],[6.691,45.654],[6.694,45.628],[6.75,45.605],[6.746,45.592],[6.727,45.574],[6.699,45.587],[6.689,45.643],[6.664,45.656]]]}},{"type":"Feature","properties":{"code":"73078","nom":"La Chapelle-Saint-Martin","pop":150},"geometry":{"type":"Polygon","coordinates":[[[5.752,45.639],[5.742,45.639],[5.753,45.659],[5.763,45.664],[5.765,45.648],[5.752,45.639]]]}},{"type":"Feature","properties":{"code":"73079","nom":"Châteauneuf","pop":901},"geometry":{"type":"Polygon","coordinates":[[[6.15,45.548],[6.187,45.565],[6.205,45.551],[6.208,45.548],[6.207,45.546],[6.185,45.535],[6.169,45.535],[6.151,45.546],[6.15,45.548]]]}},{"type":"Feature","properties":{"code":"73081","nom":"Le Châtelard","pop":686},"geometry":{"type":"Polygon","coordinates":[[[6.123,45.653],[6.089,45.682],[6.117,45.698],[6.147,45.715],[6.162,45.709],[6.156,45.683],[6.123,45.653]]]}},{"type":"Feature","properties":{"code":"73082","nom":"La Chavanne","pop":720},"geometry":{"type":"Polygon","coordinates":[[[6.047,45.491],[6.074,45.503],[6.083,45.494],[6.047,45.491]]]}},{"type":"Feature","properties":{"code":"73083","nom":"Les Chavannes-en-Maurienne","pop":220},"geometry":{"type":"Polygon","coordinates":[[[6.297,45.372],[6.278,45.382],[6.275,45.4],[6.299,45.4],[6.301,45.376],[6.297,45.372]]]}},{"type":"Feature","properties":{"code":"73084","nom":"Chignin","pop":923},"geometry":{"type":"Polygon","coordinates":[[[6.016,45.54],[6.027,45.534],[6.034,45.515],[6.001,45.514],[5.991,45.521],[6.016,45.54]]]}},{"type":"Feature","properties":{"code":"73085","nom":"Chindrieux","pop":1531},"geometry":{"type":"Polygon","coordinates":[[[5.818,45.806],[5.809,45.817],[5.822,45.838],[5.867,45.842],[5.864,45.781],[5.847,45.781],[5.818,45.806]]]}},{"type":"Feature","properties":{"code":"73086","nom":"Cléry","pop":367},"geometry":{"type":"Polygon","coordinates":[[[6.238,45.646],[6.254,45.66],[6.299,45.654],[6.307,45.643],[6.297,45.637],[6.286,45.63],[6.24,45.644],[6.238,45.646]]]}},{"type":"Feature","properties":{"code":"73087","nom":"Cognin","pop":6954},"geometry":{"type":"Polygon","coordinates":[[[5.903,45.557],[5.908,45.551],[5.898,45.545],[5.888,45.548],[5.875,45.558],[5.879,45.568],[5.903,45.557]]]}},{"type":"Feature","properties":{"code":"73088","nom":"Cohennoz","pop":137},"geometry":{"type":"Polygon","coordinates":[[[6.518,45.767],[6.524,45.753],[6.484,45.739],[6.466,45.75],[6.485,45.784],[6.52,45.787],[6.518,45.767]]]}},{"type":"Feature","properties":{"code":"73089","nom":"Coise-Saint-Jean-Pied-Gauthier","pop":1305},"geometry":{"type":"Polygon","coordinates":[[[6.093,45.492],[6.09,45.496],[6.108,45.521],[6.117,45.534],[6.151,45.546],[6.169,45.535],[6.153,45.529],[6.119,45.509],[6.093,45.492]]]}},{"type":"Feature","properties":{"code":"73090","nom":"La Compôte","pop":273},"geometry":{"type":"Polygon","coordinates":[[[6.156,45.683],[6.168,45.675],[6.163,45.66],[6.148,45.642],[6.12,45.645],[6.123,45.653],[6.156,45.683]]]}},{"type":"Feature","properties":{"code":"73091","nom":"Conjux","pop":218},"geometry":{"type":"Polygon","coordinates":[[[5.818,45.806],[5.847,45.781],[5.802,45.794],[5.818,45.806]]]}},{"type":"Feature","properties":{"code":"73092","nom":"Corbel","pop":161},"geometry":{"type":"Polygon","coordinates":[[[5.834,45.42],[5.81,45.426],[5.811,45.446],[5.836,45.455],[5.847,45.441],[5.834,45.42]]]}},{"type":"Feature","properties":{"code":"73094","nom":"Crest-Voland","pop":346},"geometry":{"type":"Polygon","coordinates":[[[6.487,45.794],[6.506,45.806],[6.532,45.802],[6.53,45.777],[6.518,45.767],[6.52,45.787],[6.485,45.784],[6.487,45.794]]]}},{"type":"Feature","properties":{"code":"73095","nom":"La Croix-de-la-Rochette","pop":380},"geometry":{"type":"Polygon","coordinates":[[[6.124,45.468],[6.1,45.47],[6.119,45.486],[6.134,45.476],[6.124,45.468]]]}},{"type":"Feature","properties":{"code":"73096","nom":"Cruet","pop":1056},"geometry":{"type":"Polygon","coordinates":[[[6.108,45.521],[6.086,45.509],[6.074,45.519],[6.069,45.524],[6.091,45.556],[6.117,45.534],[6.108,45.521]]]}},{"type":"Feature","properties":{"code":"73097","nom":"Curienne","pop":704},"geometry":{"type":"Polygon","coordinates":[[[5.99,45.58],[6.004,45.58],[6.032,45.558],[6.027,45.534],[6.016,45.54],[5.999,45.545],[5.993,45.565],[5.99,45.58]]]}},{"type":"Feature","properties":{"code":"73098","nom":"Les Déserts","pop":845},"geometry":{"type":"Polygon","coordinates":[[[5.966,45.665],[5.974,45.683],[5.98,45.682],[5.997,45.675],[6.003,45.674],[6.02,45.652],[6.036,45.638],[6.035,45.63],[6.02,45.608],[5.967,45.613],[5.967,45.629],[5.966,45.645],[5.966,45.665]]]}},{"type":"Feature","properties":{"code":"73099","nom":"Détrier","pop":427},"geometry":{"type":"Polygon","coordinates":[[[6.095,45.432],[6.091,45.444],[6.09,45.459],[6.092,45.462],[6.111,45.447],[6.103,45.434],[6.095,45.432]]]}},{"type":"Feature","properties":{"code":"73100","nom":"Domessin","pop":2005},"geometry":{"type":"Polygon","coordinates":[[[5.696,45.52],[5.691,45.522],[5.691,45.528],[5.681,45.541],[5.674,45.553],[5.707,45.552],[5.726,45.543],[5.72,45.521],[5.701,45.518],[5.696,45.52]]]}},{"type":"Feature","properties":{"code":"73101","nom":"Doucy-en-Bauges","pop":94},"geometry":{"type":"Polygon","coordinates":[[[6.192,45.72],[6.196,45.693],[6.168,45.675],[6.156,45.683],[6.162,45.709],[6.192,45.72]]]}},{"type":"Feature","properties":{"code":"73103","nom":"Drumettaz-Clarafond","pop":3012},"geometry":{"type":"Polygon","coordinates":[[[5.907,45.665],[5.921,45.674],[5.966,45.665],[5.966,45.645],[5.956,45.646],[5.912,45.645],[5.907,45.665]]]}},{"type":"Feature","properties":{"code":"73104","nom":"Dullin","pop":497},"geometry":{"type":"Polygon","coordinates":[[[5.753,45.542],[5.738,45.543],[5.733,45.56],[5.771,45.563],[5.77,45.559],[5.753,45.542]]]}},{"type":"Feature","properties":{"code":"73105","nom":"Les Échelles","pop":1286},"geometry":{"type":"Polygon","coordinates":[[[5.761,45.436],[5.758,45.435],[5.74,45.438],[5.736,45.472],[5.742,45.472],[5.756,45.441],[5.761,45.436]]]}},{"type":"Feature","properties":{"code":"73106","nom":"École","pop":305},"geometry":{"type":"Polygon","coordinates":[[[6.238,45.646],[6.24,45.644],[6.24,45.624],[6.22,45.612],[6.177,45.596],[6.173,45.6],[6.176,45.613],[6.14,45.631],[6.12,45.645],[6.148,45.642],[6.163,45.66],[6.195,45.637],[6.238,45.646]]]}},{"type":"Feature","properties":{"code":"73107","nom":"Entremont-le-Vieux","pop":648},"geometry":{"type":"Polygon","coordinates":[[[5.84,45.463],[5.872,45.495],[5.894,45.497],[5.915,45.477],[5.926,45.464],[5.904,45.432],[5.905,45.43],[5.847,45.441],[5.836,45.455],[5.84,45.463]]]}},{"type":"Feature","properties":{"code":"73109","nom":"Épierre","pop":757},"geometry":{"type":"Polygon","coordinates":[[[6.368,45.465],[6.355,45.444],[6.322,45.424],[6.287,45.445],[6.292,45.458],[6.29,45.47],[6.338,45.471],[6.368,45.465]]]}},{"type":"Feature","properties":{"code":"73110","nom":"Esserts-Blay","pop":755},"geometry":{"type":"Polygon","coordinates":[[[6.394,45.623],[6.402,45.641],[6.43,45.657],[6.434,45.645],[6.45,45.614],[6.39,45.603],[6.394,45.623]]]}},{"type":"Feature","properties":{"code":"73113","nom":"Feissons-sur-Salins","pop":175},"geometry":{"type":"Polygon","coordinates":[[[6.54,45.476],[6.55,45.48],[6.589,45.483],[6.598,45.483],[6.562,45.46],[6.556,45.461],[6.54,45.476]]]}},{"type":"Feature","properties":{"code":"73114","nom":"Flumet","pop":799},"geometry":{"type":"Polygon","coordinates":[[[6.535,45.862],[6.566,45.816],[6.51,45.814],[6.5,45.854],[6.535,45.862]]]}},{"type":"Feature","properties":{"code":"73116","nom":"Fontcouverte-la-Toussuire","pop":473},"geometry":{"type":"Polygon","coordinates":[[[6.218,45.248],[6.257,45.274],[6.262,45.277],[6.276,45.263],[6.315,45.256],[6.328,45.244],[6.312,45.23],[6.316,45.21],[6.287,45.223],[6.293,45.243],[6.265,45.255],[6.227,45.245],[6.218,45.248]]]}},{"type":"Feature","properties":{"code":"73117","nom":"Fourneaux","pop":701},"geometry":{"type":"Polygon","coordinates":[[[6.616,45.16],[6.638,45.193],[6.645,45.197],[6.65,45.178],[6.616,45.16]]]}},{"type":"Feature","properties":{"code":"73119","nom":"Freney","pop":116},"geometry":{"type":"Polygon","coordinates":[[[6.638,45.193],[6.616,45.16],[6.601,45.163],[6.583,45.204],[6.638,45.193]]]}},{"type":"Feature","properties":{"code":"73120","nom":"Fréterive","pop":640},"geometry":{"type":"Polygon","coordinates":[[[6.24,45.586],[6.214,45.581],[6.196,45.574],[6.177,45.596],[6.22,45.612],[6.24,45.586]]]}},{"type":"Feature","properties":{"code":"73121","nom":"Frontenex","pop":1912},"geometry":{"type":"Polygon","coordinates":[[[6.307,45.643],[6.315,45.642],[6.327,45.625],[6.325,45.624],[6.318,45.623],[6.297,45.637],[6.307,45.643]]]}},{"type":"Feature","properties":{"code":"73122","nom":"Gerbaix","pop":461},"geometry":{"type":"Polygon","coordinates":[[[5.762,45.615],[5.762,45.598],[5.728,45.594],[5.714,45.604],[5.718,45.62],[5.762,45.615]]]}},{"type":"Feature","properties":{"code":"73123","nom":"La Giettaz","pop":381},"geometry":{"type":"Polygon","coordinates":[[[6.571,45.881],[6.573,45.877],[6.568,45.862],[6.535,45.862],[6.5,45.854],[6.445,45.845],[6.45,45.861],[6.471,45.885],[6.495,45.89],[6.51,45.909],[6.571,45.881]]]}},{"type":"Feature","properties":{"code":"73124","nom":"Gilly-sur-Isère","pop":3149},"geometry":{"type":"Polygon","coordinates":[[[6.356,45.64],[6.349,45.638],[6.346,45.637],[6.326,45.652],[6.332,45.657],[6.361,45.67],[6.367,45.654],[6.356,45.64]]]}},{"type":"Feature","properties":{"code":"73128","nom":"Grésy-sur-Aix","pop":4740},"geometry":{"type":"Polygon","coordinates":[[[5.908,45.724],[5.911,45.734],[5.931,45.749],[5.962,45.733],[5.964,45.724],[5.945,45.703],[5.936,45.703],[5.908,45.724]]]}},{"type":"Feature","properties":{"code":"73129","nom":"Grésy-sur-Isère","pop":1195},"geometry":{"type":"Polygon","coordinates":[[[6.27,45.584],[6.24,45.586],[6.22,45.612],[6.24,45.624],[6.27,45.584]]]}},{"type":"Feature","properties":{"code":"73130","nom":"Grignon","pop":2099},"geometry":{"type":"Polygon","coordinates":[[[6.402,45.641],[6.394,45.623],[6.356,45.64],[6.367,45.654],[6.396,45.661],[6.402,45.641]]]}},{"type":"Feature","properties":{"code":"73131","nom":"Hautecour","pop":298},"geometry":{"type":"Polygon","coordinates":[[[6.553,45.497],[6.523,45.491],[6.529,45.519],[6.562,45.563],[6.559,45.522],[6.553,45.497]]]}},{"type":"Feature","properties":{"code":"73132","nom":"Hauteluce","pop":734},"geometry":{"type":"Polygon","coordinates":[[[6.599,45.792],[6.637,45.8],[6.659,45.801],[6.691,45.771],[6.687,45.755],[6.645,45.733],[6.616,45.731],[6.583,45.744],[6.552,45.738],[6.524,45.753],[6.518,45.767],[6.53,45.777],[6.556,45.766],[6.599,45.792]]]}},{"type":"Feature","properties":{"code":"73133","nom":"Hauteville","pop":350},"geometry":{"type":"Polygon","coordinates":[[[6.162,45.518],[6.154,45.516],[6.153,45.529],[6.169,45.535],[6.185,45.535],[6.162,45.518]]]}},{"type":"Feature","properties":{"code":"73135","nom":"La Tour-en-Maurienne","pop":1087},"geometry":{"type":"Polygon","coordinates":[[[6.428,45.321],[6.384,45.29],[6.378,45.271],[6.347,45.298],[6.3,45.302],[6.324,45.322],[6.343,45.351],[6.396,45.351],[6.423,45.337],[6.428,45.321]]]}},{"type":"Feature","properties":{"code":"73137","nom":"Jacob-Bellecombette","pop":4499},"geometry":{"type":"Polygon","coordinates":[[[5.93,45.548],[5.927,45.541],[5.908,45.551],[5.903,45.557],[5.93,45.548]]]}},{"type":"Feature","properties":{"code":"73138","nom":"Jarrier","pop":506},"geometry":{"type":"Polygon","coordinates":[[[6.3,45.302],[6.347,45.298],[6.327,45.273],[6.292,45.269],[6.264,45.278],[6.281,45.293],[6.3,45.302]]]}},{"type":"Feature","properties":{"code":"73139","nom":"Jarsy","pop":255},"geometry":{"type":"Polygon","coordinates":[[[6.254,45.66],[6.238,45.646],[6.195,45.637],[6.163,45.66],[6.168,45.675],[6.196,45.693],[6.215,45.709],[6.229,45.704],[6.232,45.703],[6.258,45.684],[6.259,45.682],[6.254,45.66]]]}},{"type":"Feature","properties":{"code":"73140","nom":"Jongieux","pop":289},"geometry":{"type":"Polygon","coordinates":[[[5.781,45.743],[5.784,45.745],[5.812,45.75],[5.823,45.733],[5.794,45.721],[5.781,45.743]]]}},{"type":"Feature","properties":{"code":"73141","nom":"Laissaud","pop":778},"geometry":{"type":"Polygon","coordinates":[[[6.054,45.44],[6.05,45.438],[6.008,45.454],[6.011,45.458],[6.02,45.471],[6.03,45.465],[6.055,45.453],[6.054,45.44]]]}},{"type":"Feature","properties":{"code":"73142","nom":"Landry","pop":813},"geometry":{"type":"Polygon","coordinates":[[[6.804,45.554],[6.748,45.55],[6.743,45.581],[6.804,45.554]]]}},{"type":"Feature","properties":{"code":"73145","nom":"Lépin-le-Lac","pop":466},"geometry":{"type":"Polygon","coordinates":[[[5.819,45.522],[5.817,45.522],[5.76,45.542],[5.761,45.542],[5.792,45.545],[5.819,45.522]]]}},{"type":"Feature","properties":{"code":"73146","nom":"Lescheraines","pop":803},"geometry":{"type":"Polygon","coordinates":[[[6.089,45.682],[6.088,45.683],[6.078,45.699],[6.079,45.699],[6.104,45.72],[6.135,45.734],[6.117,45.698],[6.089,45.682]]]}},{"type":"Feature","properties":{"code":"73147","nom":"Loisieux","pop":236},"geometry":{"type":"Polygon","coordinates":[[[5.703,45.643],[5.705,45.652],[5.708,45.659],[5.753,45.659],[5.742,45.639],[5.71,45.633],[5.703,45.643]]]}},{"type":"Feature","properties":{"code":"73149","nom":"Lucey","pop":286},"geometry":{"type":"Polygon","coordinates":[[[5.783,45.772],[5.781,45.781],[5.796,45.78],[5.819,45.764],[5.812,45.75],[5.784,45.745],[5.783,45.772]]]}},{"type":"Feature","properties":{"code":"73150","nom":"La Plagne Tarentaise","pop":3836},"geometry":{"type":"Polygon","coordinates":[[[6.769,45.499],[6.725,45.486],[6.696,45.485],[6.663,45.493],[6.669,45.509],[6.656,45.56],[6.665,45.574],[6.645,45.63],[6.664,45.656],[6.689,45.643],[6.699,45.587],[6.727,45.574],[6.746,45.592],[6.743,45.581],[6.748,45.55],[6.741,45.522],[6.769,45.499]]]}},{"type":"Feature","properties":{"code":"73151","nom":"Porte-de-Savoie","pop":3974},"geometry":{"type":"Polygon","coordinates":[[[6.034,45.515],[6.039,45.515],[6.046,45.49],[6.02,45.471],[6.011,45.458],[5.966,45.492],[5.915,45.477],[5.981,45.506],[6.001,45.514],[6.034,45.515]]]}},{"type":"Feature","properties":{"code":"73152","nom":"Marcieux","pop":240},"geometry":{"type":"Polygon","coordinates":[[[5.815,45.606],[5.807,45.607],[5.779,45.613],[5.762,45.598],[5.762,45.615],[5.764,45.628],[5.766,45.633],[5.781,45.618],[5.815,45.613],[5.815,45.606]]]}},{"type":"Feature","properties":{"code":"73153","nom":"Marthod","pop":1346},"geometry":{"type":"Polygon","coordinates":[[[6.351,45.729],[6.351,45.73],[6.371,45.753],[6.423,45.74],[6.438,45.728],[6.424,45.711],[6.41,45.714],[6.367,45.732],[6.355,45.725],[6.351,45.729]]]}},{"type":"Feature","properties":{"code":"73154","nom":"Mercury","pop":3495},"geometry":{"type":"Polygon","coordinates":[[[6.332,45.657],[6.328,45.66],[6.309,45.672],[6.308,45.693],[6.329,45.693],[6.351,45.729],[6.355,45.725],[6.359,45.721],[6.376,45.701],[6.375,45.677],[6.361,45.67],[6.332,45.657]]]}},{"type":"Feature","properties":{"code":"73155","nom":"Méry","pop":2150},"geometry":{"type":"Polygon","coordinates":[[[5.912,45.645],[5.956,45.646],[5.939,45.614],[5.912,45.643],[5.912,45.645]]]}},{"type":"Feature","properties":{"code":"73156","nom":"Meyrieux-Trouet","pop":354},"geometry":{"type":"Polygon","coordinates":[[[5.821,45.658],[5.817,45.644],[5.766,45.633],[5.764,45.628],[5.752,45.639],[5.765,45.648],[5.789,45.665],[5.821,45.658]]]}},{"type":"Feature","properties":{"code":"73157","nom":"Modane","pop":2849},"geometry":{"type":"Polygon","coordinates":[[[6.63,45.109],[6.615,45.122],[6.577,45.123],[6.601,45.163],[6.616,45.16],[6.65,45.178],[6.645,45.197],[6.651,45.226],[6.64,45.247],[6.61,45.265],[6.624,45.281],[6.64,45.277],[6.664,45.269],[6.661,45.222],[6.684,45.208],[6.715,45.163],[6.711,45.145],[6.68,45.14],[6.673,45.124],[6.63,45.109]]]}},{"type":"Feature","properties":{"code":"73159","nom":"Les Mollettes","pop":870},"geometry":{"type":"Polygon","coordinates":[[[6.03,45.465],[6.078,45.48],[6.084,45.471],[6.061,45.457],[6.055,45.453],[6.03,45.465]]]}},{"type":"Feature","properties":{"code":"73160","nom":"Montagnole","pop":1038},"geometry":{"type":"Polygon","coordinates":[[[5.927,45.515],[5.894,45.497],[5.904,45.525],[5.898,45.545],[5.908,45.551],[5.927,45.541],[5.931,45.535],[5.927,45.515]]]}},{"type":"Feature","properties":{"code":"73161","nom":"Montagny","pop":658},"geometry":{"type":"Polygon","coordinates":[[[6.612,45.445],[6.593,45.448],[6.562,45.46],[6.598,45.483],[6.625,45.49],[6.612,45.445]]]}},{"type":"Feature","properties":{"code":"73162","nom":"Montailleur","pop":671},"geometry":{"type":"Polygon","coordinates":[[[6.277,45.598],[6.27,45.584],[6.24,45.624],[6.24,45.644],[6.286,45.63],[6.3,45.616],[6.277,45.598]]]}},{"type":"Feature","properties":{"code":"73164","nom":"Montcel","pop":1111},"geometry":{"type":"Polygon","coordinates":[[[5.997,45.675],[5.98,45.682],[5.977,45.687],[5.964,45.724],[5.962,45.733],[5.973,45.741],[6.017,45.705],[5.997,45.675]]]}},{"type":"Feature","properties":{"code":"73166","nom":"Montendry","pop":49},"geometry":{"type":"Polygon","coordinates":[[[6.266,45.514],[6.264,45.511],[6.242,45.51],[6.216,45.52],[6.254,45.535],[6.266,45.514]]]}},{"type":"Feature","properties":{"code":"73168","nom":"Montgilbert","pop":114},"geometry":{"type":"Polygon","coordinates":[[[6.256,45.545],[6.293,45.548],[6.293,45.528],[6.266,45.514],[6.254,45.535],[6.256,45.545]]]}},{"type":"Feature","properties":{"code":"73170","nom":"Monthion","pop":520},"geometry":{"type":"Polygon","coordinates":[[[6.349,45.638],[6.356,45.64],[6.394,45.623],[6.39,45.603],[6.353,45.624],[6.349,45.638]]]}},{"type":"Feature","properties":{"code":"73171","nom":"Montmélian","pop":4024},"geometry":{"type":"Polygon","coordinates":[[[6.069,45.524],[6.074,45.519],[6.074,45.503],[6.047,45.491],[6.046,45.49],[6.039,45.515],[6.069,45.524]]]}},{"type":"Feature","properties":{"code":"73173","nom":"Montricher-Albanne","pop":476},"geometry":{"type":"Polygon","coordinates":[[[6.374,45.181],[6.38,45.22],[6.39,45.234],[6.398,45.249],[6.429,45.243],[6.445,45.223],[6.434,45.194],[6.374,45.181]]]}},{"type":"Feature","properties":{"code":"73175","nom":"Montsapey","pop":85},"geometry":{"type":"Polygon","coordinates":[[[6.315,45.523],[6.338,45.528],[6.353,45.561],[6.355,45.565],[6.365,45.566],[6.378,45.561],[6.392,45.549],[6.404,45.536],[6.377,45.497],[6.315,45.523]]]}},{"type":"Feature","properties":{"code":"73176","nom":"Montvalezan","pop":734},"geometry":{"type":"Polygon","coordinates":[[[6.844,45.607],[6.844,45.607],[6.828,45.617],[6.87,45.656],[6.902,45.664],[6.915,45.652],[6.901,45.623],[6.87,45.603],[6.844,45.607]]]}},{"type":"Feature","properties":{"code":"73177","nom":"Montvernier","pop":240},"geometry":{"type":"Polygon","coordinates":[[[6.324,45.322],[6.32,45.334],[6.334,45.351],[6.343,45.351],[6.324,45.322]]]}},{"type":"Feature","properties":{"code":"73178","nom":"La Motte-en-Bauges","pop":539},"geometry":{"type":"Polygon","coordinates":[[[6.147,45.715],[6.117,45.698],[6.135,45.734],[6.147,45.715]]]}},{"type":"Feature","properties":{"code":"73179","nom":"La Motte-Servolex","pop":12067},"geometry":{"type":"Polygon","coordinates":[[[5.871,45.571],[5.85,45.565],[5.817,45.579],[5.815,45.606],[5.815,45.613],[5.818,45.618],[5.851,45.615],[5.86,45.64],[5.885,45.64],[5.884,45.615],[5.893,45.6],[5.871,45.571]]]}},{"type":"Feature","properties":{"code":"73180","nom":"Motz","pop":482},"geometry":{"type":"Polygon","coordinates":[[[5.862,45.932],[5.866,45.919],[5.866,45.903],[5.826,45.904],[5.829,45.938],[5.862,45.932]]]}},{"type":"Feature","properties":{"code":"73181","nom":"Moûtiers","pop":3487},"geometry":{"type":"Polygon","coordinates":[[[6.522,45.487],[6.523,45.491],[6.553,45.497],[6.55,45.48],[6.54,45.476],[6.522,45.487]]]}},{"type":"Feature","properties":{"code":"73182","nom":"Mouxy","pop":2311},"geometry":{"type":"Polygon","coordinates":[[[5.935,45.697],[5.974,45.683],[5.966,45.665],[5.921,45.674],[5.935,45.697]]]}},{"type":"Feature","properties":{"code":"73183","nom":"Myans","pop":1318},"geometry":{"type":"Polygon","coordinates":[[[5.964,45.536],[5.969,45.536],[5.97,45.535],[5.991,45.521],[6.001,45.514],[5.981,45.506],[5.964,45.523],[5.964,45.536]]]}},{"type":"Feature","properties":{"code":"73184","nom":"Nances","pop":554},"geometry":{"type":"Polygon","coordinates":[[[5.82,45.567],[5.803,45.563],[5.78,45.593],[5.807,45.607],[5.815,45.606],[5.817,45.579],[5.82,45.567]]]}},{"type":"Feature","properties":{"code":"73186","nom":"Notre-Dame-de-Bellecombe","pop":463},"geometry":{"type":"Polygon","coordinates":[[[6.566,45.816],[6.599,45.792],[6.556,45.766],[6.53,45.777],[6.532,45.802],[6.506,45.806],[6.51,45.814],[6.566,45.816]]]}},{"type":"Feature","properties":{"code":"73187","nom":"La Léchère","pop":2538},"geometry":{"type":"Polygon","coordinates":[[[6.392,45.549],[6.449,45.576],[6.462,45.575],[6.529,45.594],[6.55,45.621],[6.562,45.62],[6.578,45.596],[6.562,45.563],[6.517,45.546],[6.497,45.522],[6.47,45.515],[6.474,45.495],[6.439,45.486],[6.412,45.461],[6.407,45.428],[6.355,45.444],[6.368,45.465],[6.377,45.497],[6.404,45.536],[6.392,45.549]]]}},{"type":"Feature","properties":{"code":"73188","nom":"Notre-Dame-des-Millières","pop":988},"geometry":{"type":"Polygon","coordinates":[[[6.327,45.625],[6.346,45.637],[6.349,45.638],[6.353,45.624],[6.39,45.603],[6.385,45.592],[6.354,45.601],[6.325,45.624],[6.327,45.625]]]}},{"type":"Feature","properties":{"code":"73189","nom":"Notre-Dame-du-Cruet","pop":222},"geometry":{"type":"Polygon","coordinates":[[[6.301,45.376],[6.324,45.39],[6.305,45.365],[6.297,45.372],[6.301,45.376]]]}},{"type":"Feature","properties":{"code":"73190","nom":"Notre-Dame-du-Pré","pop":258},"geometry":{"type":"Polygon","coordinates":[[[6.625,45.49],[6.598,45.483],[6.589,45.483],[6.569,45.497],[6.58,45.517],[6.613,45.528],[6.641,45.495],[6.625,45.49]]]}},{"type":"Feature","properties":{"code":"73191","nom":"Novalaise","pop":2261},"geometry":{"type":"Polygon","coordinates":[[[5.803,45.563],[5.801,45.56],[5.77,45.559],[5.771,45.563],[5.764,45.58],[5.729,45.586],[5.728,45.589],[5.728,45.594],[5.762,45.598],[5.779,45.613],[5.807,45.607],[5.78,45.593],[5.803,45.563]]]}},{"type":"Feature","properties":{"code":"73192","nom":"Le Noyer","pop":230},"geometry":{"type":"Polygon","coordinates":[[[6.036,45.638],[6.02,45.652],[6.078,45.699],[6.088,45.683],[6.036,45.638],[6.036,45.638]]]}},{"type":"Feature","properties":{"code":"73193","nom":"Ontex","pop":84},"geometry":{"type":"Polygon","coordinates":[[[5.832,45.747],[5.831,45.73],[5.823,45.733],[5.812,45.75],[5.819,45.764],[5.832,45.747]]]}},{"type":"Feature","properties":{"code":"73194","nom":"Orelle","pop":324},"geometry":{"type":"Polygon","coordinates":[[[6.577,45.123],[6.564,45.114],[6.552,45.125],[6.539,45.168],[6.517,45.199],[6.534,45.252],[6.568,45.266],[6.61,45.265],[6.601,45.244],[6.579,45.236],[6.583,45.204],[6.601,45.163],[6.577,45.123]]]}},{"type":"Feature","properties":{"code":"73196","nom":"Pallud","pop":784},"geometry":{"type":"Polygon","coordinates":[[[6.375,45.677],[6.376,45.701],[6.387,45.703],[6.406,45.708],[6.403,45.694],[6.4,45.688],[6.375,45.677]]]}},{"type":"Feature","properties":{"code":"73197","nom":"Peisey-Nancroix","pop":632},"geometry":{"type":"Polygon","coordinates":[[[6.804,45.554],[6.845,45.548],[6.87,45.511],[6.871,45.464],[6.862,45.454],[6.821,45.461],[6.798,45.492],[6.769,45.499],[6.741,45.522],[6.748,45.55],[6.804,45.554]]]}},{"type":"Feature","properties":{"code":"73200","nom":"Planaise","pop":560},"geometry":{"type":"Polygon","coordinates":[[[6.086,45.509],[6.108,45.521],[6.09,45.496],[6.083,45.494],[6.074,45.503],[6.086,45.509]]]}},{"type":"Feature","properties":{"code":"73201","nom":"Planay","pop":442},"geometry":{"type":"Polygon","coordinates":[[[6.677,45.42],[6.673,45.448],[6.75,45.433],[6.761,45.417],[6.748,45.401],[6.687,45.407],[6.677,45.42]]]}},{"type":"Feature","properties":{"code":"73202","nom":"Plancherine","pop":471},"geometry":{"type":"Polygon","coordinates":[[[6.259,45.682],[6.258,45.684],[6.308,45.693],[6.309,45.672],[6.328,45.66],[6.259,45.682]]]}},{"type":"Feature","properties":{"code":"73204","nom":"Le Pont-de-Beauvoisin","pop":2124},"geometry":{"type":"Polygon","coordinates":[[[5.673,45.543],[5.681,45.541],[5.691,45.528],[5.673,45.543]]]}},{"type":"Feature","properties":{"code":"73205","nom":"Le Pontet","pop":133},"geometry":{"type":"Polygon","coordinates":[[[6.264,45.511],[6.253,45.497],[6.233,45.475],[6.207,45.5],[6.242,45.51],[6.264,45.511]]]}},{"type":"Feature","properties":{"code":"73206","nom":"Pralognan-la-Vanoise","pop":689},"geometry":{"type":"Polygon","coordinates":[[[6.664,45.269],[6.64,45.277],[6.635,45.301],[6.665,45.328],[6.688,45.362],[6.687,45.407],[6.748,45.401],[6.761,45.417],[6.812,45.415],[6.828,45.405],[6.792,45.383],[6.796,45.367],[6.745,45.346],[6.753,45.331],[6.732,45.298],[6.687,45.291],[6.685,45.269],[6.664,45.269]]]}},{"type":"Feature","properties":{"code":"73207","nom":"Presle","pop":424},"geometry":{"type":"Polygon","coordinates":[[[6.154,45.462],[6.208,45.432],[6.211,45.428],[6.218,45.423],[6.212,45.415],[6.179,45.433],[6.127,45.449],[6.154,45.462]]]}},{"type":"Feature","properties":{"code":"73208","nom":"Pugny-Chatenod","pop":1071},"geometry":{"type":"Polygon","coordinates":[[[5.98,45.682],[5.974,45.683],[5.935,45.697],[5.936,45.703],[5.945,45.703],[5.977,45.687],[5.98,45.682]]]}},{"type":"Feature","properties":{"code":"73210","nom":"Puygros","pop":406},"geometry":{"type":"Polygon","coordinates":[[[6.004,45.58],[6.017,45.584],[6.061,45.578],[6.07,45.566],[6.032,45.558],[6.004,45.58]]]}},{"type":"Feature","properties":{"code":"73211","nom":"Queige","pop":904},"geometry":{"type":"Polygon","coordinates":[[[6.44,45.684],[6.419,45.692],[6.424,45.711],[6.438,45.728],[6.484,45.738],[6.512,45.687],[6.492,45.68],[6.46,45.684],[6.44,45.684]]]}},{"type":"Feature","properties":{"code":"73212","nom":"Val-d'Arc","pop":2026},"geometry":{"type":"Polygon","coordinates":[[[6.292,45.554],[6.353,45.561],[6.338,45.528],[6.315,45.523],[6.313,45.517],[6.293,45.528],[6.293,45.548],[6.292,45.554]]]}},{"type":"Feature","properties":{"code":"73213","nom":"La Ravoire","pop":9332},"geometry":{"type":"Polygon","coordinates":[[[5.969,45.536],[5.964,45.536],[5.946,45.546],[5.951,45.571],[5.973,45.572],[5.974,45.559],[5.969,45.536]]]}},{"type":"Feature","properties":{"code":"73214","nom":"Rochefort","pop":253},"geometry":{"type":"Polygon","coordinates":[[[5.731,45.567],[5.725,45.565],[5.691,45.589],[5.702,45.592],[5.728,45.589],[5.729,45.586],[5.731,45.567]]]}},{"type":"Feature","properties":{"code":"73215","nom":"Valgelon-La Rochette","pop":4207},"geometry":{"type":"Polygon","coordinates":[[[6.097,45.467],[6.1,45.47],[6.124,45.468],[6.149,45.477],[6.158,45.468],[6.154,45.462],[6.127,45.449],[6.111,45.447],[6.092,45.462],[6.097,45.467]]]}},{"type":"Feature","properties":{"code":"73216","nom":"Rognaix","pop":479},"geometry":{"type":"Polygon","coordinates":[[[6.392,45.549],[6.378,45.561],[6.45,45.591],[6.462,45.575],[6.449,45.576],[6.392,45.549]]]}},{"type":"Feature","properties":{"code":"73217","nom":"Rotherens","pop":371},"geometry":{"type":"Polygon","coordinates":[[[6.124,45.468],[6.134,45.476],[6.143,45.481],[6.149,45.477],[6.124,45.468]]]}},{"type":"Feature","properties":{"code":"73218","nom":"Ruffieux","pop":819},"geometry":{"type":"Polygon","coordinates":[[[5.801,45.846],[5.808,45.861],[5.876,45.864],[5.873,45.839],[5.867,45.842],[5.822,45.838],[5.801,45.846]]]}},{"type":"Feature","properties":{"code":"73219","nom":"Saint-Alban-de-Montbel","pop":688},"geometry":{"type":"Polygon","coordinates":[[[5.801,45.56],[5.792,45.545],[5.761,45.542],[5.753,45.542],[5.77,45.559],[5.801,45.56]]]}},{"type":"Feature","properties":{"code":"73220","nom":"Saint-Alban-d'Hurtières","pop":404},"geometry":{"type":"Polygon","coordinates":[[[6.29,45.478],[6.211,45.428],[6.208,45.432],[6.215,45.446],[6.22,45.461],[6.233,45.475],[6.253,45.497],[6.296,45.489],[6.29,45.478]]]}},{"type":"Feature","properties":{"code":"73221","nom":"Saint-Alban-des-Villards","pop":92},"geometry":{"type":"Polygon","coordinates":[[[6.187,45.32],[6.188,45.333],[6.191,45.34],[6.216,45.344],[6.274,45.322],[6.281,45.293],[6.264,45.278],[6.262,45.277],[6.257,45.274],[6.245,45.3],[6.218,45.317],[6.187,45.32]]]}},{"type":"Feature","properties":{"code":"73222","nom":"Saint-Alban-Leysse","pop":6734},"geometry":{"type":"Polygon","coordinates":[[[5.932,45.596],[5.937,45.6],[5.937,45.607],[5.96,45.609],[5.985,45.582],[5.973,45.572],[5.951,45.571],[5.95,45.571],[5.932,45.596]]]}},{"type":"Feature","properties":{"code":"73223","nom":"Saint-André","pop":449},"geometry":{"type":"Polygon","coordinates":[[[6.645,45.197],[6.638,45.193],[6.583,45.204],[6.579,45.236],[6.601,45.244],[6.61,45.265],[6.64,45.247],[6.651,45.226],[6.645,45.197]]]}},{"type":"Feature","properties":{"code":"73224","nom":"Saint-Avre","pop":925},"geometry":{"type":"Polygon","coordinates":[[[6.329,45.356],[6.334,45.351],[6.32,45.334],[6.304,45.352],[6.301,45.353],[6.308,45.359],[6.329,45.356]]]}},{"type":"Feature","properties":{"code":"73225","nom":"Saint-Baldoph","pop":2949},"geometry":{"type":"Polygon","coordinates":[[[5.931,45.535],[5.946,45.546],[5.964,45.536],[5.964,45.523],[5.927,45.515],[5.931,45.535]]]}},{"type":"Feature","properties":{"code":"73226","nom":"Saint-Béron","pop":1713},"geometry":{"type":"Polygon","coordinates":[[[5.714,45.497],[5.701,45.518],[5.72,45.521],[5.75,45.517],[5.748,45.512],[5.72,45.483],[5.714,45.497]]]}},{"type":"Feature","properties":{"code":"73227","nom":"Courchevel","pop":2290},"geometry":{"type":"Polygon","coordinates":[[[6.593,45.448],[6.612,45.445],[6.646,45.44],[6.677,45.42],[6.687,45.407],[6.688,45.362],[6.665,45.328],[6.613,45.368],[6.602,45.409],[6.564,45.448],[6.593,45.448]]]}},{"type":"Feature","properties":{"code":"73228","nom":"Saint-Cassin","pop":1046},"geometry":{"type":"Polygon","coordinates":[[[5.894,45.497],[5.872,45.495],[5.855,45.523],[5.888,45.548],[5.898,45.545],[5.904,45.525],[5.894,45.497]]]}},{"type":"Feature","properties":{"code":"73229","nom":"Saint-Christophe","pop":545},"geometry":{"type":"Polygon","coordinates":[[[5.81,45.426],[5.783,45.442],[5.761,45.436],[5.756,45.441],[5.791,45.475],[5.811,45.446],[5.81,45.426]]]}},{"type":"Feature","properties":{"code":"73230","nom":"Saint-Colomban-des-Villards","pop":143},"geometry":{"type":"Polygon","coordinates":[[[6.126,45.244],[6.139,45.256],[6.132,45.288],[6.154,45.311],[6.187,45.32],[6.218,45.317],[6.245,45.3],[6.257,45.274],[6.218,45.248],[6.18,45.224],[6.162,45.189],[6.138,45.214],[6.126,45.244]]]}},{"type":"Feature","properties":{"code":"73231","nom":"Saint-Étienne-de-Cuines","pop":1186},"geometry":{"type":"Polygon","coordinates":[[[6.195,45.352],[6.198,45.353],[6.241,45.348],[6.285,45.372],[6.301,45.353],[6.304,45.352],[6.274,45.322],[6.216,45.344],[6.191,45.34],[6.195,45.352]]]}},{"type":"Feature","properties":{"code":"73232","nom":"Sainte-Foy-Tarentaise","pop":686},"geometry":{"type":"Polygon","coordinates":[[[6.915,45.652],[6.931,45.646],[6.97,45.654],[6.989,45.627],[6.981,45.583],[6.995,45.576],[6.991,45.53],[7,45.505],[6.969,45.519],[6.911,45.527],[6.905,45.547],[6.875,45.561],[6.876,45.596],[6.844,45.607],[6.87,45.603],[6.901,45.623],[6.915,45.652]]]}},{"type":"Feature","properties":{"code":"73233","nom":"Saint-Franc","pop":155},"geometry":{"type":"Polygon","coordinates":[[[5.736,45.472],[5.72,45.483],[5.748,45.512],[5.758,45.492],[5.748,45.476],[5.742,45.472],[5.736,45.472]]]}},{"type":"Feature","properties":{"code":"73234","nom":"Saint-François-de-Sales","pop":190},"geometry":{"type":"Polygon","coordinates":[[[6.079,45.699],[6.078,45.699],[6.02,45.652],[6.003,45.674],[6.018,45.697],[6.079,45.699]]]}},{"type":"Feature","properties":{"code":"73235","nom":"Saint François Longchamp","pop":433},"geometry":{"type":"Polygon","coordinates":[[[6.407,45.428],[6.411,45.427],[6.392,45.397],[6.396,45.351],[6.343,45.351],[6.334,45.351],[6.329,45.356],[6.324,45.39],[6.301,45.376],[6.299,45.4],[6.322,45.424],[6.355,45.444],[6.407,45.428]]]}},{"type":"Feature","properties":{"code":"73236","nom":"Saint-Genix-les-Villages","pop":3095},"geometry":{"type":"Polygon","coordinates":[[[5.647,45.577],[5.638,45.59],[5.624,45.613],[5.637,45.617],[5.68,45.616],[5.703,45.643],[5.71,45.633],[5.718,45.62],[5.714,45.604],[5.702,45.592],[5.691,45.589],[5.672,45.579],[5.647,45.577]]]}},{"type":"Feature","properties":{"code":"73237","nom":"Saint-Georges-d'Hurtières","pop":410},"geometry":{"type":"Polygon","coordinates":[[[6.253,45.497],[6.264,45.511],[6.266,45.514],[6.293,45.528],[6.313,45.517],[6.296,45.489],[6.253,45.497]]]}},{"type":"Feature","properties":{"code":"73240","nom":"Sainte-Hélène-du-Lac","pop":855},"geometry":{"type":"Polygon","coordinates":[[[6.078,45.48],[6.03,45.465],[6.02,45.471],[6.046,45.49],[6.047,45.491],[6.083,45.494],[6.09,45.496],[6.093,45.492],[6.078,45.48]]]}},{"type":"Feature","properties":{"code":"73241","nom":"Sainte-Hélène-sur-Isère","pop":1248},"geometry":{"type":"Polygon","coordinates":[[[6.385,45.592],[6.375,45.581],[6.323,45.604],[6.295,45.588],[6.277,45.598],[6.3,45.616],[6.318,45.623],[6.325,45.624],[6.354,45.601],[6.385,45.592]]]}},{"type":"Feature","properties":{"code":"73242","nom":"Saint-Jean-d'Arves","pop":273},"geometry":{"type":"Polygon","coordinates":[[[6.334,45.123],[6.286,45.11],[6.261,45.127],[6.181,45.165],[6.22,45.176],[6.255,45.212],[6.247,45.231],[6.287,45.223],[6.316,45.21],[6.302,45.197],[6.308,45.162],[6.341,45.132],[6.334,45.123]]]}},{"type":"Feature","properties":{"code":"73243","nom":"Saint-Jean-d'Arvey","pop":1721},"geometry":{"type":"Polygon","coordinates":[[[5.99,45.58],[5.985,45.582],[5.96,45.609],[5.967,45.629],[5.967,45.613],[6.02,45.608],[6.017,45.584],[6.004,45.58],[5.99,45.58]]]}},{"type":"Feature","properties":{"code":"73245","nom":"Saint-Jean-de-Chevelu","pop":834},"geometry":{"type":"Polygon","coordinates":[[[5.837,45.722],[5.845,45.69],[5.827,45.669],[5.802,45.697],[5.804,45.705],[5.837,45.722]]]}},{"type":"Feature","properties":{"code":"73246","nom":"Saint-Jean-de-Couz","pop":304},"geometry":{"type":"Polygon","coordinates":[[[5.84,45.463],[5.836,45.455],[5.811,45.446],[5.791,45.475],[5.793,45.482],[5.791,45.485],[5.84,45.463]]]}},{"type":"Feature","properties":{"code":"73247","nom":"Saint-Jean-de-la-Porte","pop":989},"geometry":{"type":"Polygon","coordinates":[[[6.094,45.562],[6.111,45.59],[6.122,45.584],[6.15,45.548],[6.151,45.546],[6.117,45.534],[6.091,45.556],[6.094,45.562]]]}},{"type":"Feature","properties":{"code":"73248","nom":"Saint-Jean-de-Maurienne","pop":7524},"geometry":{"type":"Polygon","coordinates":[[[6.347,45.298],[6.378,45.271],[6.355,45.259],[6.33,45.247],[6.328,45.244],[6.315,45.256],[6.327,45.273],[6.347,45.298]]]}},{"type":"Feature","properties":{"code":"73249","nom":"Saint-Jeoire-Prieuré","pop":1999},"geometry":{"type":"Polygon","coordinates":[[[6.016,45.54],[5.991,45.521],[5.97,45.535],[5.999,45.545],[6.016,45.54]]]}},{"type":"Feature","properties":{"code":"73250","nom":"Saint-Julien-Mont-Denis","pop":1506},"geometry":{"type":"Polygon","coordinates":[[[6.428,45.321],[6.45,45.297],[6.444,45.258],[6.429,45.243],[6.398,45.249],[6.378,45.271],[6.384,45.29],[6.428,45.321]]]}},{"type":"Feature","properties":{"code":"73252","nom":"Saint-Léger","pop":257},"geometry":{"type":"Polygon","coordinates":[[[6.287,45.445],[6.271,45.423],[6.227,45.427],[6.278,45.46],[6.292,45.458],[6.287,45.445]]]}},{"type":"Feature","properties":{"code":"73253","nom":"Saint-Marcel","pop":611},"geometry":{"type":"Polygon","coordinates":[[[6.559,45.522],[6.58,45.517],[6.569,45.497],[6.589,45.483],[6.55,45.48],[6.553,45.497],[6.559,45.522]]]}},{"type":"Feature","properties":{"code":"73254","nom":"Sainte-Marie-d'Alvey","pop":133},"geometry":{"type":"Polygon","coordinates":[[[5.702,45.592],[5.714,45.604],[5.728,45.594],[5.728,45.589],[5.702,45.592]]]}},{"type":"Feature","properties":{"code":"73255","nom":"Sainte-Marie-de-Cuines","pop":847},"geometry":{"type":"Polygon","coordinates":[[[6.32,45.334],[6.324,45.322],[6.3,45.302],[6.281,45.293],[6.274,45.322],[6.304,45.352],[6.32,45.334]]]}},{"type":"Feature","properties":{"code":"73256","nom":"Saint-Martin-d'Arc","pop":298},"geometry":{"type":"Polygon","coordinates":[[[6.457,45.196],[6.453,45.221],[6.456,45.22],[6.472,45.194],[6.457,45.196]]]}},{"type":"Feature","properties":{"code":"73257","nom":"Les Belleville","pop":3498},"geometry":{"type":"Polygon","coordinates":[[[6.552,45.458],[6.547,45.453],[6.521,45.44],[6.536,45.392],[6.567,45.353],[6.574,45.32],[6.618,45.302],[6.624,45.281],[6.61,45.265],[6.568,45.266],[6.534,45.252],[6.504,45.286],[6.45,45.297],[6.428,45.321],[6.423,45.337],[6.396,45.351],[6.392,45.397],[6.411,45.427],[6.438,45.428],[6.484,45.474],[6.496,45.467],[6.552,45.458]]]}},{"type":"Feature","properties":{"code":"73258","nom":"Saint-Martin-de-la-Porte","pop":698},"geometry":{"type":"Polygon","coordinates":[[[6.429,45.243],[6.444,45.258],[6.45,45.297],[6.504,45.286],[6.466,45.262],[6.456,45.22],[6.453,45.221],[6.445,45.223],[6.429,45.243]]]}},{"type":"Feature","properties":{"code":"73259","nom":"Saint-Martin-sur-la-Chambre","pop":525},"geometry":{"type":"Polygon","coordinates":[[[6.324,45.39],[6.329,45.356],[6.308,45.359],[6.305,45.365],[6.324,45.39]]]}},{"type":"Feature","properties":{"code":"73261","nom":"Saint-Michel-de-Maurienne","pop":2395},"geometry":{"type":"Polygon","coordinates":[[[6.517,45.199],[6.472,45.194],[6.456,45.22],[6.466,45.262],[6.504,45.286],[6.534,45.252],[6.517,45.199]]]}},{"type":"Feature","properties":{"code":"73262","nom":"Saint-Nicolas-la-Chapelle","pop":502},"geometry":{"type":"Polygon","coordinates":[[[6.444,45.831],[6.445,45.845],[6.5,45.854],[6.51,45.814],[6.506,45.806],[6.487,45.794],[6.45,45.809],[6.444,45.831]]]}},{"type":"Feature","properties":{"code":"73263","nom":"Saint-Offenge","pop":1179},"geometry":{"type":"Polygon","coordinates":[[[5.973,45.741],[5.976,45.743],[5.994,45.748],[6.042,45.739],[6.018,45.697],[6.003,45.674],[5.997,45.675],[6.017,45.705],[5.973,45.741]]]}},{"type":"Feature","properties":{"code":"73265","nom":"Saint-Ours","pop":775},"geometry":{"type":"Polygon","coordinates":[[[5.994,45.763],[5.994,45.748],[5.976,45.743],[5.974,45.769],[5.994,45.763]]]}},{"type":"Feature","properties":{"code":"73267","nom":"Saint-Pancrace","pop":307},"geometry":{"type":"Polygon","coordinates":[[[6.264,45.278],[6.292,45.269],[6.327,45.273],[6.315,45.256],[6.276,45.263],[6.262,45.277],[6.264,45.278]]]}},{"type":"Feature","properties":{"code":"73268","nom":"Saint-Paul-sur-Isère","pop":543},"geometry":{"type":"Polygon","coordinates":[[[6.378,45.561],[6.365,45.566],[6.375,45.581],[6.385,45.592],[6.39,45.603],[6.45,45.614],[6.444,45.598],[6.45,45.591],[6.378,45.561]]]}},{"type":"Feature","properties":{"code":"73269","nom":"Saint-Paul-sur-Yenne","pop":747},"geometry":{"type":"Polygon","coordinates":[[[5.826,45.667],[5.821,45.658],[5.789,45.665],[5.765,45.648],[5.763,45.664],[5.77,45.673],[5.802,45.697],[5.827,45.669],[5.826,45.667]]]}},{"type":"Feature","properties":{"code":"73270","nom":"Saint-Pierre-d'Albigny","pop":4217},"geometry":{"type":"Polygon","coordinates":[[[6.173,45.6],[6.177,45.596],[6.196,45.574],[6.187,45.565],[6.15,45.548],[6.122,45.584],[6.173,45.6]]]}},{"type":"Feature","properties":{"code":"73271","nom":"Saint-Pierre-d'Alvey","pop":305},"geometry":{"type":"Polygon","coordinates":[[[5.764,45.628],[5.762,45.615],[5.718,45.62],[5.71,45.633],[5.742,45.639],[5.752,45.639],[5.764,45.628]]]}},{"type":"Feature","properties":{"code":"73272","nom":"Saint-Pierre-de-Belleville","pop":184},"geometry":{"type":"Polygon","coordinates":[[[6.211,45.428],[6.29,45.478],[6.29,45.47],[6.292,45.458],[6.278,45.46],[6.227,45.427],[6.218,45.423],[6.211,45.428]]]}},{"type":"Feature","properties":{"code":"73273","nom":"Saint-Pierre-de-Curtille","pop":472},"geometry":{"type":"Polygon","coordinates":[[[5.847,45.781],[5.857,45.762],[5.869,45.735],[5.832,45.747],[5.819,45.764],[5.796,45.78],[5.802,45.794],[5.847,45.781]]]}},{"type":"Feature","properties":{"code":"73274","nom":"Saint-Pierre-d'Entremont","pop":383},"geometry":{"type":"Polygon","coordinates":[[[5.905,45.43],[5.895,45.389],[5.881,45.407],[5.834,45.42],[5.847,45.441],[5.905,45.43]]]}},{"type":"Feature","properties":{"code":"73275","nom":"Saint-Pierre-de-Genebroz","pop":334},"geometry":{"type":"Polygon","coordinates":[[[5.756,45.441],[5.742,45.472],[5.748,45.476],[5.793,45.482],[5.791,45.475],[5.756,45.441]]]}},{"type":"Feature","properties":{"code":"73276","nom":"Saint-Pierre-de-Soucy","pop":437},"geometry":{"type":"Polygon","coordinates":[[[6.119,45.509],[6.135,45.499],[6.132,45.497],[6.119,45.486],[6.1,45.47],[6.097,45.467],[6.084,45.471],[6.078,45.48],[6.093,45.492],[6.119,45.509]]]}},{"type":"Feature","properties":{"code":"73277","nom":"Sainte-Reine","pop":177},"geometry":{"type":"Polygon","coordinates":[[[6.111,45.59],[6.14,45.631],[6.176,45.613],[6.173,45.6],[6.122,45.584],[6.111,45.59]]]}},{"type":"Feature","properties":{"code":"73278","nom":"Saint-Rémy-de-Maurienne","pop":1289},"geometry":{"type":"Polygon","coordinates":[[[6.212,45.415],[6.218,45.423],[6.227,45.427],[6.271,45.423],[6.275,45.4],[6.278,45.382],[6.285,45.372],[6.241,45.348],[6.198,45.353],[6.206,45.371],[6.2,45.407],[6.212,45.415]]]}},{"type":"Feature","properties":{"code":"73280","nom":"Saint-Sorlin-d'Arves","pop":347},"geometry":{"type":"Polygon","coordinates":[[[6.181,45.165],[6.169,45.154],[6.144,45.155],[6.162,45.189],[6.18,45.224],[6.218,45.248],[6.227,45.245],[6.247,45.231],[6.255,45.212],[6.22,45.176],[6.181,45.165]]]}},{"type":"Feature","properties":{"code":"73281","nom":"Saint-Sulpice","pop":821},"geometry":{"type":"Polygon","coordinates":[[[5.82,45.567],[5.817,45.579],[5.85,45.565],[5.871,45.571],[5.879,45.568],[5.875,45.558],[5.83,45.55],[5.82,45.567]]]}},{"type":"Feature","properties":{"code":"73282","nom":"Saint-Thibaud-de-Couz","pop":1107},"geometry":{"type":"Polygon","coordinates":[[[5.872,45.495],[5.84,45.463],[5.791,45.485],[5.794,45.488],[5.815,45.52],[5.855,45.523],[5.872,45.495]]]}},{"type":"Feature","properties":{"code":"73283","nom":"Saint-Vital","pop":767},"geometry":{"type":"Polygon","coordinates":[[[6.3,45.616],[6.286,45.63],[6.297,45.637],[6.318,45.623],[6.3,45.616]]]}},{"type":"Feature","properties":{"code":"73284","nom":"Salins-Fontaine","pop":941},"geometry":{"type":"Polygon","coordinates":[[[6.496,45.467],[6.522,45.487],[6.54,45.476],[6.556,45.461],[6.552,45.458],[6.496,45.467]]]}},{"type":"Feature","properties":{"code":"73285","nom":"Séez","pop":2459},"geometry":{"type":"Polygon","coordinates":[[[6.844,45.607],[6.829,45.596],[6.8,45.607],[6.786,45.639],[6.846,45.691],[6.902,45.664],[6.87,45.656],[6.828,45.617],[6.844,45.607]]]}},{"type":"Feature","properties":{"code":"73286","nom":"Serrières-en-Chautagne","pop":1156},"geometry":{"type":"Polygon","coordinates":[[[5.866,45.903],[5.867,45.899],[5.876,45.864],[5.808,45.861],[5.815,45.877],[5.826,45.904],[5.866,45.903]]]}},{"type":"Feature","properties":{"code":"73288","nom":"Sonnaz","pop":2130},"geometry":{"type":"Polygon","coordinates":[[[5.939,45.614],[5.937,45.607],[5.937,45.6],[5.898,45.615],[5.902,45.636],[5.912,45.643],[5.939,45.614]]]}},{"type":"Feature","properties":{"code":"73289","nom":"La Table","pop":445},"geometry":{"type":"Polygon","coordinates":[[[6.149,45.477],[6.143,45.481],[6.15,45.49],[6.188,45.499],[6.194,45.497],[6.191,45.482],[6.22,45.461],[6.215,45.446],[6.158,45.468],[6.149,45.477]]]}},{"type":"Feature","properties":{"code":"73290","nom":"Val-Cenis","pop":2112},"geometry":{"type":"Polygon","coordinates":[[[7.051,45.226],[6.966,45.208],[6.954,45.18],[6.885,45.154],[6.893,45.137],[6.846,45.136],[6.797,45.153],[6.802,45.166],[6.77,45.199],[6.761,45.215],[6.773,45.243],[6.732,45.298],[6.753,45.331],[6.745,45.346],[6.796,45.367],[6.792,45.383],[6.828,45.405],[6.866,45.409],[6.89,45.422],[6.917,45.417],[6.918,45.386],[6.968,45.379],[6.988,45.367],[6.96,45.337],[6.973,45.329],[6.957,45.301],[6.975,45.266],[7.019,45.238],[7.051,45.226]]]}},{"type":"Feature","properties":{"code":"73292","nom":"Thénésol","pop":326},"geometry":{"type":"Polygon","coordinates":[[[6.406,45.708],[6.387,45.703],[6.359,45.721],[6.355,45.725],[6.367,45.732],[6.41,45.714],[6.406,45.708]]]}},{"type":"Feature","properties":{"code":"73293","nom":"Thoiry","pop":456},"geometry":{"type":"Polygon","coordinates":[[[6.071,45.567],[6.07,45.566],[6.061,45.578],[6.017,45.584],[6.02,45.608],[6.035,45.63],[6.078,45.593],[6.071,45.567]]]}},{"type":"Feature","properties":{"code":"73294","nom":"La Thuile","pop":353},"geometry":{"type":"Polygon","coordinates":[[[6.07,45.566],[6.071,45.567],[6.094,45.562],[6.091,45.556],[6.069,45.524],[6.039,45.515],[6.034,45.515],[6.027,45.534],[6.032,45.558],[6.07,45.566]]]}},{"type":"Feature","properties":{"code":"73296","nom":"Tignes","pop":1919},"geometry":{"type":"Polygon","coordinates":[[[6.911,45.527],[6.969,45.519],[7,45.505],[7.045,45.497],[7.046,45.48],[7.025,45.469],[6.974,45.472],[6.926,45.448],[6.917,45.417],[6.89,45.422],[6.86,45.441],[6.862,45.454],[6.871,45.464],[6.87,45.511],[6.911,45.527]]]}},{"type":"Feature","properties":{"code":"73297","nom":"Tournon","pop":569},"geometry":{"type":"Polygon","coordinates":[[[6.346,45.637],[6.327,45.625],[6.315,45.642],[6.326,45.652],[6.346,45.637]]]}},{"type":"Feature","properties":{"code":"73298","nom":"Tours-en-Savoie","pop":945},"geometry":{"type":"Polygon","coordinates":[[[6.492,45.68],[6.501,45.668],[6.434,45.645],[6.43,45.657],[6.46,45.684],[6.492,45.68]]]}},{"type":"Feature","properties":{"code":"73299","nom":"Traize","pop":335},"geometry":{"type":"Polygon","coordinates":[[[5.719,45.687],[5.77,45.673],[5.763,45.664],[5.753,45.659],[5.708,45.659],[5.719,45.687]]]}},{"type":"Feature","properties":{"code":"73300","nom":"Tresserve","pop":2909},"geometry":{"type":"Polygon","coordinates":[[[5.874,45.662],[5.873,45.668],[5.871,45.688],[5.904,45.686],[5.906,45.665],[5.874,45.662]]]}},{"type":"Feature","properties":{"code":"73301","nom":"Trévignin","pop":870},"geometry":{"type":"Polygon","coordinates":[[[5.964,45.724],[5.977,45.687],[5.945,45.703],[5.964,45.724]]]}},{"type":"Feature","properties":{"code":"73302","nom":"La Trinité","pop":381},"geometry":{"type":"Polygon","coordinates":[[[6.154,45.516],[6.162,45.518],[6.171,45.512],[6.15,45.49],[6.132,45.497],[6.135,45.499],[6.154,45.516]]]}},{"type":"Feature","properties":{"code":"73303","nom":"Ugine","pop":7154},"geometry":{"type":"Polygon","coordinates":[[[6.42,45.802],[6.444,45.831],[6.45,45.809],[6.487,45.794],[6.485,45.784],[6.466,45.75],[6.484,45.739],[6.484,45.738],[6.438,45.728],[6.423,45.74],[6.371,45.753],[6.365,45.771],[6.393,45.784],[6.42,45.802]]]}},{"type":"Feature","properties":{"code":"73304","nom":"Val-d'Isère","pop":1567},"geometry":{"type":"Polygon","coordinates":[[[6.998,45.367],[6.988,45.367],[6.968,45.379],[6.918,45.386],[6.917,45.417],[6.926,45.448],[6.974,45.472],[7.025,45.469],[7.046,45.48],[7.105,45.468],[7.113,45.434],[7.071,45.426],[7.042,45.433],[7.017,45.411],[6.998,45.367]]]}},{"type":"Feature","properties":{"code":"73306","nom":"Valloire","pop":1064},"geometry":{"type":"Polygon","coordinates":[[[6.365,45.07],[6.363,45.105],[6.334,45.123],[6.341,45.132],[6.374,45.181],[6.434,45.194],[6.445,45.223],[6.453,45.221],[6.457,45.196],[6.454,45.186],[6.481,45.132],[6.51,45.109],[6.48,45.091],[6.487,45.056],[6.454,45.052],[6.439,45.063],[6.396,45.061],[6.365,45.07]]]}},{"type":"Feature","properties":{"code":"73307","nom":"Valmeinier","pop":593},"geometry":{"type":"Polygon","coordinates":[[[6.564,45.114],[6.53,45.099],[6.51,45.109],[6.481,45.132],[6.454,45.186],[6.457,45.196],[6.472,45.194],[6.517,45.199],[6.539,45.168],[6.552,45.125],[6.564,45.114]]]}},{"type":"Feature","properties":{"code":"73308","nom":"Venthon","pop":606},"geometry":{"type":"Polygon","coordinates":[[[6.403,45.694],[6.419,45.692],[6.44,45.684],[6.4,45.688],[6.403,45.694]]]}},{"type":"Feature","properties":{"code":"73309","nom":"Verel-de-Montbel","pop":341},"geometry":{"type":"Polygon","coordinates":[[[5.707,45.552],[5.712,45.559],[5.725,45.565],[5.731,45.567],[5.733,45.56],[5.738,45.543],[5.726,45.543],[5.707,45.552]]]}},{"type":"Feature","properties":{"code":"73310","nom":"Verel-Pragondran","pop":640},"geometry":{"type":"Polygon","coordinates":[[[5.956,45.646],[5.966,45.645],[5.967,45.629],[5.96,45.609],[5.937,45.607],[5.939,45.614],[5.956,45.646]]]}},{"type":"Feature","properties":{"code":"73311","nom":"Le Verneil","pop":88},"geometry":{"type":"Polygon","coordinates":[[[6.208,45.432],[6.154,45.462],[6.158,45.468],[6.215,45.446],[6.208,45.432]]]}},{"type":"Feature","properties":{"code":"73312","nom":"Verrens-Arvey","pop":959},"geometry":{"type":"Polygon","coordinates":[[[6.315,45.642],[6.307,45.643],[6.299,45.654],[6.254,45.66],[6.259,45.682],[6.328,45.66],[6.332,45.657],[6.326,45.652],[6.315,45.642]]]}},{"type":"Feature","properties":{"code":"73313","nom":"Verthemex","pop":244},"geometry":{"type":"Polygon","coordinates":[[[5.817,45.644],[5.818,45.618],[5.815,45.613],[5.781,45.618],[5.766,45.633],[5.817,45.644]]]}},{"type":"Feature","properties":{"code":"73314","nom":"Villard-d'Héry","pop":270},"geometry":{"type":"Polygon","coordinates":[[[6.135,45.499],[6.119,45.509],[6.153,45.529],[6.154,45.516],[6.135,45.499]]]}},{"type":"Feature","properties":{"code":"73315","nom":"Villard-Léger","pop":433},"geometry":{"type":"Polygon","coordinates":[[[6.15,45.49],[6.15,45.49],[6.171,45.512],[6.186,45.522],[6.197,45.514],[6.188,45.499],[6.15,45.49]]]}},{"type":"Feature","properties":{"code":"73316","nom":"Villard-Sallet","pop":310},"geometry":{"type":"Polygon","coordinates":[[[6.15,45.49],[6.15,45.49],[6.143,45.481],[6.134,45.476],[6.119,45.486],[6.132,45.497],[6.15,45.49]]]}},{"type":"Feature","properties":{"code":"73317","nom":"Villard-sur-Doron","pop":702},"geometry":{"type":"Polygon","coordinates":[[[6.484,45.738],[6.484,45.739],[6.524,45.753],[6.552,45.738],[6.512,45.687],[6.484,45.738]]]}},{"type":"Feature","properties":{"code":"73318","nom":"Villarembert","pop":253},"geometry":{"type":"Polygon","coordinates":[[[6.287,45.223],[6.247,45.231],[6.227,45.245],[6.265,45.255],[6.293,45.243],[6.287,45.223]]]}},{"type":"Feature","properties":{"code":"73320","nom":"Villargondran","pop":790},"geometry":{"type":"Polygon","coordinates":[[[6.378,45.271],[6.398,45.249],[6.39,45.234],[6.355,45.259],[6.378,45.271]]]}},{"type":"Feature","properties":{"code":"73322","nom":"Villarodin-Bourget","pop":499},"geometry":{"type":"Polygon","coordinates":[[[6.685,45.269],[6.694,45.246],[6.715,45.234],[6.71,45.214],[6.726,45.2],[6.715,45.163],[6.684,45.208],[6.661,45.222],[6.664,45.269],[6.685,45.269]]]}},{"type":"Feature","properties":{"code":"73323","nom":"Villaroger","pop":355},"geometry":{"type":"Polygon","coordinates":[[[6.844,45.607],[6.844,45.607],[6.876,45.596],[6.875,45.561],[6.905,45.547],[6.911,45.527],[6.87,45.511],[6.845,45.548],[6.842,45.587],[6.829,45.596],[6.844,45.607]]]}},{"type":"Feature","properties":{"code":"73324","nom":"Villaroux","pop":192},"geometry":{"type":"Polygon","coordinates":[[[6.092,45.462],[6.09,45.459],[6.061,45.457],[6.084,45.471],[6.097,45.467],[6.092,45.462]]]}},{"type":"Feature","properties":{"code":"73326","nom":"Vimines","pop":2372},"geometry":{"type":"Polygon","coordinates":[[[5.817,45.522],[5.819,45.522],[5.83,45.55],[5.875,45.558],[5.888,45.548],[5.855,45.523],[5.815,45.52],[5.817,45.522]]]}},{"type":"Feature","properties":{"code":"73327","nom":"Vions","pop":425},"geometry":{"type":"Polygon","coordinates":[[[5.795,45.83],[5.801,45.846],[5.822,45.838],[5.809,45.817],[5.795,45.83]]]}},{"type":"Feature","properties":{"code":"73328","nom":"Viviers-du-Lac","pop":2355},"geometry":{"type":"Polygon","coordinates":[[[5.912,45.643],[5.902,45.636],[5.891,45.642],[5.874,45.662],[5.906,45.665],[5.907,45.665],[5.912,45.645],[5.912,45.643]]]}},{"type":"Feature","properties":{"code":"73329","nom":"Voglans","pop":2021},"geometry":{"type":"Polygon","coordinates":[[[5.898,45.615],[5.884,45.615],[5.885,45.64],[5.891,45.642],[5.902,45.636],[5.898,45.615]]]}},{"type":"Feature","properties":{"code":"73330","nom":"Yenne","pop":3026},"geometry":{"type":"Polygon","coordinates":[[[5.77,45.741],[5.781,45.743],[5.794,45.721],[5.804,45.705],[5.802,45.697],[5.77,45.673],[5.719,45.687],[5.728,45.709],[5.731,45.71],[5.748,45.705],[5.777,45.729],[5.77,45.741]]]}}]}