{"type":"FeatureCollection","features":[{"type":"Feature","properties":{"code":"74001","nom":"Abondance","pop":1583},"geometry":{"type":"Polygon","coordinates":[[[6.803,46.203],[6.807,46.196],[6.797,46.198],[6.786,46.211],[6.772,46.22],[6.768,46.226],[6.73,46.231],[6.696,46.238],[6.691,46.268],[6.665,46.265],[6.664,46.273],[6.688,46.306],[6.736,46.301],[6.76,46.309],[6.781,46.263],[6.786,46.251],[6.778,46.235],[6.774,46.22],[6.803,46.203]]]}},{"type":"Feature","properties":{"code":"74002","nom":"Alby-sur-Chéran","pop":2664},"geometry":{"type":"Polygon","coordinates":[[[5.994,45.819],[6.015,45.827],[6.021,45.828],[6.042,45.827],[6.045,45.823],[6.024,45.805],[5.995,45.804],[5.994,45.819]]]}},{"type":"Feature","properties":{"code":"74003","nom":"Alex","pop":1139},"geometry":{"type":"Polygon","coordinates":[[[6.196,45.883],[6.197,45.901],[6.204,45.907],[6.242,45.896],[6.271,45.882],[6.258,45.859],[6.261,45.845],[6.241,45.861],[6.218,45.878],[6.196,45.883]]]}},{"type":"Feature","properties":{"code":"74004","nom":"Allèves","pop":397},"geometry":{"type":"Polygon","coordinates":[[[6.097,45.734],[6.096,45.743],[6.06,45.762],[6.096,45.776],[6.103,45.764],[6.097,45.734]]]}},{"type":"Feature","properties":{"code":"74005","nom":"Allinges","pop":5019},"geometry":{"type":"Polygon","coordinates":[[[6.425,46.316],[6.443,46.345],[6.451,46.346],[6.492,46.354],[6.496,46.341],[6.493,46.333],[6.474,46.317],[6.469,46.315],[6.425,46.316]]]}},{"type":"Feature","properties":{"code":"74006","nom":"Allonzier-la-Caille","pop":2253},"geometry":{"type":"Polygon","coordinates":[[[6.125,45.993],[6.122,45.984],[6.099,45.988],[6.077,46.008],[6.083,46.018],[6.129,46.01],[6.125,45.993]]]}},{"type":"Feature","properties":{"code":"74007","nom":"Amancy","pop":2792},"geometry":{"type":"Polygon","coordinates":[[[6.302,46.083],[6.325,46.092],[6.344,46.084],[6.343,46.053],[6.337,46.054],[6.322,46.058],[6.302,46.083]]]}},{"type":"Feature","properties":{"code":"74008","nom":"Ambilly","pop":6355},"geometry":{"type":"Polygon","coordinates":[[[6.23,46.204],[6.234,46.198],[6.217,46.188],[6.214,46.194],[6.23,46.204]]]}},{"type":"Feature","properties":{"code":"74009","nom":"Andilly","pop":1013},"geometry":{"type":"Polygon","coordinates":[[[6.094,46.075],[6.084,46.062],[6.051,46.051],[6.054,46.081],[6.052,46.084],[6.094,46.075]]]}},{"type":"Feature","properties":{"code":"74010","nom":"Annecy","pop":132117},"geometry":{"type":"Polygon","coordinates":[[[6.175,45.936],[6.193,45.921],[6.204,45.907],[6.197,45.901],[6.149,45.897],[6.156,45.883],[6.127,45.875],[6.103,45.838],[6.073,45.83],[6.048,45.832],[6.052,45.847],[6.06,45.869],[6.083,45.902],[6.086,45.921],[6.124,45.935],[6.096,45.959],[6.075,45.964],[6.088,45.977],[6.105,45.967],[6.138,45.953],[6.156,45.939],[6.175,45.936]]]}},{"type":"Feature","properties":{"code":"74012","nom":"Annemasse","pop":37628},"geometry":{"type":"Polygon","coordinates":[[[6.234,46.198],[6.276,46.199],[6.278,46.197],[6.238,46.176],[6.224,46.184],[6.217,46.188],[6.234,46.198]]]}},{"type":"Feature","properties":{"code":"74013","nom":"Anthy-sur-Léman","pop":2495},"geometry":{"type":"Polygon","coordinates":[[[6.443,46.364],[6.451,46.346],[6.443,46.345],[6.404,46.351],[6.443,46.364]]]}},{"type":"Feature","properties":{"code":"74014","nom":"Arâches-la-Frasse","pop":1764},"geometry":{"type":"Polygon","coordinates":[[[6.733,45.998],[6.723,45.984],[6.697,46.005],[6.666,46.002],[6.628,46.015],[6.608,46.044],[6.596,46.059],[6.644,46.072],[6.646,46.071],[6.664,46.042],[6.695,46.031],[6.733,45.998]]]}},{"type":"Feature","properties":{"code":"74015","nom":"Arbusigny","pop":1167},"geometry":{"type":"Polygon","coordinates":[[[6.194,46.1],[6.217,46.112],[6.228,46.11],[6.229,46.084],[6.218,46.07],[6.2,46.067],[6.171,46.077],[6.194,46.1]]]}},{"type":"Feature","properties":{"code":"74016","nom":"Archamps","pop":2375},"geometry":{"type":"Polygon","coordinates":[[[6.163,46.112],[6.149,46.1],[6.136,46.109],[6.112,46.135],[6.127,46.141],[6.136,46.142],[6.172,46.12],[6.163,46.112]]]}},{"type":"Feature","properties":{"code":"74018","nom":"Arenthon","pop":2097},"geometry":{"type":"Polygon","coordinates":[[[6.347,46.111],[6.372,46.087],[6.344,46.084],[6.325,46.092],[6.303,46.105],[6.345,46.114],[6.347,46.111]]]}},{"type":"Feature","properties":{"code":"74019","nom":"Argonay","pop":3807},"geometry":{"type":"Polygon","coordinates":[[[6.138,45.953],[6.168,45.958],[6.156,45.939],[6.138,45.953]]]}},{"type":"Feature","properties":{"code":"74020","nom":"Armoy","pop":1564},"geometry":{"type":"Polygon","coordinates":[[[6.537,46.345],[6.496,46.341],[6.492,46.354],[6.516,46.364],[6.518,46.362],[6.537,46.345]]]}},{"type":"Feature","properties":{"code":"74021","nom":"Arthaz-Pont-Notre-Dame","pop":1713},"geometry":{"type":"Polygon","coordinates":[[[6.245,46.169],[6.246,46.171],[6.275,46.17],[6.286,46.171],[6.29,46.159],[6.289,46.15],[6.242,46.164],[6.245,46.169]]]}},{"type":"Feature","properties":{"code":"74024","nom":"Ayse","pop":2376},"geometry":{"type":"Polygon","coordinates":[[[6.427,46.098],[6.455,46.107],[6.458,46.105],[6.467,46.072],[6.461,46.073],[6.422,46.075],[6.427,46.098]]]}},{"type":"Feature","properties":{"code":"74025","nom":"Ballaison","pop":1472},"geometry":{"type":"Polygon","coordinates":[[[6.385,46.299],[6.327,46.269],[6.317,46.296],[6.328,46.307],[6.354,46.312],[6.385,46.299]]]}},{"type":"Feature","properties":{"code":"74026","nom":"La Balme-de-Sillingy","pop":5336},"geometry":{"type":"Polygon","coordinates":[[[6.083,45.981],[6.088,45.977],[6.075,45.964],[6.066,45.952],[6.011,45.962],[5.994,45.973],[6.033,45.987],[6.083,45.981]]]}},{"type":"Feature","properties":{"code":"74027","nom":"La Balme-de-Thuy","pop":460},"geometry":{"type":"Polygon","coordinates":[[[6.242,45.896],[6.252,45.913],[6.295,45.928],[6.315,45.948],[6.337,45.941],[6.334,45.937],[6.294,45.911],[6.279,45.879],[6.258,45.859],[6.271,45.882],[6.242,45.896]]]}},{"type":"Feature","properties":{"code":"74029","nom":"Bassy","pop":423},"geometry":{"type":"Polygon","coordinates":[[[5.81,45.993],[5.81,46.008],[5.829,46.005],[5.851,45.991],[5.833,45.972],[5.81,45.993]]]}},{"type":"Feature","properties":{"code":"74030","nom":"La Baume","pop":320},"geometry":{"type":"Polygon","coordinates":[[[6.645,46.313],[6.647,46.304],[6.644,46.3],[6.62,46.284],[6.62,46.265],[6.578,46.252],[6.58,46.273],[6.584,46.288],[6.617,46.301],[6.635,46.316],[6.645,46.313]]]}},{"type":"Feature","properties":{"code":"74031","nom":"Beaumont","pop":3097},"geometry":{"type":"Polygon","coordinates":[[[6.091,46.096],[6.094,46.102],[6.136,46.109],[6.149,46.1],[6.126,46.08],[6.091,46.096]]]}},{"type":"Feature","properties":{"code":"74032","nom":"Bellevaux","pop":1450},"geometry":{"type":"Polygon","coordinates":[[[6.603,46.189],[6.595,46.173],[6.574,46.171],[6.559,46.2],[6.528,46.214],[6.519,46.236],[6.489,46.228],[6.489,46.232],[6.489,46.253],[6.538,46.278],[6.56,46.262],[6.58,46.273],[6.578,46.252],[6.572,46.225],[6.599,46.213],[6.603,46.189]]]}},{"type":"Feature","properties":{"code":"74033","nom":"Bernex","pop":1472},"geometry":{"type":"Polygon","coordinates":[[[6.671,46.375],[6.698,46.374],[6.742,46.37],[6.75,46.348],[6.703,46.336],[6.677,46.346],[6.633,46.35],[6.634,46.352],[6.662,46.359],[6.671,46.375]]]}},{"type":"Feature","properties":{"code":"74034","nom":"Le Biot","pop":633},"geometry":{"type":"Polygon","coordinates":[[[6.644,46.3],[6.664,46.273],[6.665,46.265],[6.634,46.249],[6.62,46.265],[6.62,46.284],[6.644,46.3]]]}},{"type":"Feature","properties":{"code":"74035","nom":"Bloye","pop":571},"geometry":{"type":"Polygon","coordinates":[[[5.963,45.813],[5.934,45.815],[5.94,45.832],[5.965,45.825],[5.966,45.821],[5.963,45.813]]]}},{"type":"Feature","properties":{"code":"74036","nom":"Bluffy","pop":395},"geometry":{"type":"Polygon","coordinates":[[[6.241,45.861],[6.211,45.857],[6.218,45.878],[6.241,45.861]]]}},{"type":"Feature","properties":{"code":"74037","nom":"Boëge","pop":1983},"geometry":{"type":"Polygon","coordinates":[[[6.41,46.234],[6.422,46.213],[6.422,46.205],[6.418,46.196],[6.355,46.214],[6.353,46.216],[6.355,46.23],[6.379,46.241],[6.41,46.234]]]}},{"type":"Feature","properties":{"code":"74038","nom":"Bogève","pop":1200},"geometry":{"type":"Polygon","coordinates":[[[6.454,46.184],[6.45,46.18],[6.416,46.193],[6.418,46.196],[6.422,46.205],[6.464,46.199],[6.454,46.184]]]}},{"type":"Feature","properties":{"code":"74040","nom":"Bonne","pop":3267},"geometry":{"type":"Polygon","coordinates":[[[6.317,46.161],[6.29,46.159],[6.286,46.171],[6.31,46.18],[6.35,46.19],[6.344,46.165],[6.317,46.161]]]}},{"type":"Feature","properties":{"code":"74041","nom":"Bonnevaux","pop":284},"geometry":{"type":"Polygon","coordinates":[[[6.664,46.273],[6.644,46.3],[6.647,46.304],[6.688,46.306],[6.664,46.273]]]}},{"type":"Feature","properties":{"code":"74042","nom":"Bonneville","pop":13335},"geometry":{"type":"Polygon","coordinates":[[[6.372,46.087],[6.347,46.111],[6.353,46.115],[6.387,46.103],[6.427,46.098],[6.422,46.075],[6.461,46.073],[6.46,46.06],[6.455,46.054],[6.417,46.043],[6.405,46.042],[6.384,46.057],[6.397,46.084],[6.372,46.087]]]}},{"type":"Feature","properties":{"code":"74043","nom":"Bons-en-Chablais","pop":6343},"geometry":{"type":"Polygon","coordinates":[[[6.386,46.299],[6.387,46.298],[6.386,46.293],[6.376,46.28],[6.39,46.25],[6.379,46.241],[6.355,46.23],[6.347,46.234],[6.326,46.266],[6.327,46.269],[6.385,46.299],[6.386,46.299]]]}},{"type":"Feature","properties":{"code":"74044","nom":"Bossey","pop":941},"geometry":{"type":"Polygon","coordinates":[[[6.184,46.14],[6.147,46.147],[6.175,46.158],[6.19,46.154],[6.184,46.14]]]}},{"type":"Feature","properties":{"code":"74045","nom":"Le Bouchet-Mont-Charvin","pop":245},"geometry":{"type":"Polygon","coordinates":[[[6.42,45.802],[6.393,45.784],[6.349,45.779],[6.372,45.828],[6.405,45.823],[6.42,45.802]]]}},{"type":"Feature","properties":{"code":"74046","nom":"Boussy","pop":506},"geometry":{"type":"Polygon","coordinates":[[[6.005,45.849],[5.993,45.837],[5.972,45.845],[5.962,45.858],[5.973,45.861],[6.005,45.849]]]}},{"type":"Feature","properties":{"code":"74048","nom":"Brenthonne","pop":1128},"geometry":{"type":"Polygon","coordinates":[[[6.386,46.293],[6.417,46.258],[6.39,46.25],[6.376,46.28],[6.386,46.293]]]}},{"type":"Feature","properties":{"code":"74049","nom":"Brizon","pop":457},"geometry":{"type":"Polygon","coordinates":[[[6.417,46.043],[6.455,46.054],[6.449,46.022],[6.421,46.015],[6.417,46.043]]]}},{"type":"Feature","properties":{"code":"74050","nom":"Burdignin","pop":712},"geometry":{"type":"Polygon","coordinates":[[[6.41,46.234],[6.425,46.251],[6.436,46.258],[6.443,46.227],[6.422,46.213],[6.41,46.234]]]}},{"type":"Feature","properties":{"code":"74051","nom":"Cercier","pop":734},"geometry":{"type":"Polygon","coordinates":[[[6.077,46.008],[6.047,46.017],[6.027,46.008],[6.027,46.034],[6.037,46.037],[6.07,46.029],[6.083,46.018],[6.077,46.008]]]}},{"type":"Feature","properties":{"code":"74052","nom":"Cernex","pop":1184},"geometry":{"type":"Polygon","coordinates":[[[6.011,46.061],[6.017,46.075],[6.054,46.081],[6.051,46.051],[6.037,46.037],[6.027,46.034],[6.026,46.04],[6.011,46.061]]]}},{"type":"Feature","properties":{"code":"74053","nom":"Cervens","pop":1270},"geometry":{"type":"Polygon","coordinates":[[[6.461,46.277],[6.447,46.257],[6.447,46.257],[6.431,46.288],[6.429,46.293],[6.449,46.298],[6.461,46.277]]]}},{"type":"Feature","properties":{"code":"74054","nom":"Chainaz-les-Frasses","pop":681},"geometry":{"type":"Polygon","coordinates":[[[5.994,45.763],[5.974,45.769],[5.98,45.796],[5.985,45.797],[6.006,45.774],[5.994,45.763]]]}},{"type":"Feature","properties":{"code":"74055","nom":"Challonges","pop":610},"geometry":{"type":"Polygon","coordinates":[[[5.81,46.008],[5.806,46.016],[5.809,46.033],[5.845,46.039],[5.848,46.035],[5.829,46.005],[5.81,46.008]]]}},{"type":"Feature","properties":{"code":"74056","nom":"Chamonix-Mont-Blanc","pop":8705},"geometry":{"type":"Polygon","coordinates":[[[6.843,45.843],[6.855,45.871],[6.827,45.899],[6.818,45.941],[6.825,45.955],[6.838,46],[6.855,46.007],[6.874,45.988],[6.93,46.005],[6.963,46.03],[6.986,46.004],[7.011,45.997],[7.036,45.956],[7.044,45.923],[7.003,45.897],[6.997,45.872],[6.951,45.86],[6.914,45.841],[6.873,45.846],[6.87,45.828],[6.861,45.832],[6.854,45.837],[6.843,45.843]]]}},{"type":"Feature","properties":{"code":"74057","nom":"Champanges","pop":1208},"geometry":{"type":"Polygon","coordinates":[[[6.537,46.368],[6.546,46.378],[6.572,46.38],[6.562,46.364],[6.537,46.368]]]}},{"type":"Feature","properties":{"code":"74058","nom":"La Chapelle-d'Abondance","pop":872},"geometry":{"type":"Polygon","coordinates":[[[6.76,46.309],[6.754,46.344],[6.775,46.347],[6.786,46.332],[6.851,46.291],[6.8,46.261],[6.781,46.263],[6.76,46.309]]]}},{"type":"Feature","properties":{"code":"74059","nom":"La Chapelle-Rambaud","pop":249},"geometry":{"type":"Polygon","coordinates":[[[6.229,46.084],[6.259,46.075],[6.247,46.063],[6.218,46.07],[6.229,46.084]]]}},{"type":"Feature","properties":{"code":"74060","nom":"La Chapelle-Saint-Maurice","pop":121},"geometry":{"type":"Polygon","coordinates":[[[6.138,45.761],[6.14,45.786],[6.174,45.78],[6.167,45.757],[6.138,45.761]]]}},{"type":"Feature","properties":{"code":"74061","nom":"Chapeiry","pop":984},"geometry":{"type":"Polygon","coordinates":[[[6.025,45.85],[6.033,45.853],[6.052,45.847],[6.048,45.832],[6.042,45.827],[6.021,45.828],[6.025,45.85]]]}},{"type":"Feature","properties":{"code":"74062","nom":"Charvonnex","pop":1537},"geometry":{"type":"Polygon","coordinates":[[[6.143,45.99],[6.15,45.998],[6.172,45.99],[6.143,45.99]]]}},{"type":"Feature","properties":{"code":"74063","nom":"Châtel","pop":1174},"geometry":{"type":"Polygon","coordinates":[[[6.781,46.263],[6.8,46.261],[6.851,46.291],[6.864,46.283],[6.803,46.203],[6.774,46.22],[6.778,46.235],[6.786,46.251],[6.781,46.263]]]}},{"type":"Feature","properties":{"code":"74064","nom":"Châtillon-sur-Cluses","pop":1250},"geometry":{"type":"Polygon","coordinates":[[[6.556,46.106],[6.56,46.11],[6.59,46.097],[6.609,46.089],[6.598,46.068],[6.557,46.085],[6.556,46.106]]]}},{"type":"Feature","properties":{"code":"74065","nom":"Chaumont","pop":555},"geometry":{"type":"Polygon","coordinates":[[[5.949,46.019],[5.924,46.044],[5.921,46.056],[5.921,46.077],[5.944,46.054],[5.967,46.05],[5.973,46.036],[5.963,46.023],[5.949,46.019]]]}},{"type":"Feature","properties":{"code":"74066","nom":"Chavannaz","pop":249},"geometry":{"type":"Polygon","coordinates":[[[6.011,46.061],[6.026,46.04],[6.003,46.047],[6.011,46.061]]]}},{"type":"Feature","properties":{"code":"74067","nom":"Chavanod","pop":3135},"geometry":{"type":"Polygon","coordinates":[[[6.057,45.899],[6.083,45.902],[6.06,45.869],[6.029,45.867],[6.02,45.881],[6.021,45.896],[6.057,45.899]]]}},{"type":"Feature","properties":{"code":"74068","nom":"Chêne-en-Semine","pop":544},"geometry":{"type":"Polygon","coordinates":[[[5.876,46.058],[5.854,46.036],[5.848,46.035],[5.845,46.039],[5.829,46.055],[5.851,46.067],[5.868,46.066],[5.876,46.058]]]}},{"type":"Feature","properties":{"code":"74069","nom":"Chênex","pop":791},"geometry":{"type":"Polygon","coordinates":[[[6.002,46.087],[5.988,46.089],[5.979,46.097],[5.986,46.124],[6.005,46.1],[6.002,46.087]]]}},{"type":"Feature","properties":{"code":"74070","nom":"Chens-sur-Léman","pop":3068},"geometry":{"type":"Polygon","coordinates":[[[6.269,46.337],[6.29,46.331],[6.293,46.326],[6.277,46.289],[6.278,46.284],[6.252,46.292],[6.248,46.306],[6.269,46.337]]]}},{"type":"Feature","properties":{"code":"74071","nom":"Chessenaz","pop":239},"geometry":{"type":"Polygon","coordinates":[[[5.89,46.027],[5.894,46.048],[5.921,46.056],[5.924,46.044],[5.897,46.025],[5.89,46.027]]]}},{"type":"Feature","properties":{"code":"74072","nom":"Chevaline","pop":181},"geometry":{"type":"Polygon","coordinates":[[[6.196,45.732],[6.215,45.709],[6.196,45.693],[6.192,45.72],[6.196,45.732]]]}},{"type":"Feature","properties":{"code":"74073","nom":"Chevenoz","pop":709},"geometry":{"type":"Polygon","coordinates":[[[6.603,46.331],[6.633,46.35],[6.677,46.346],[6.645,46.313],[6.635,46.316],[6.603,46.331]]]}},{"type":"Feature","properties":{"code":"74074","nom":"Chevrier","pop":757},"geometry":{"type":"Polygon","coordinates":[[[5.893,46.119],[5.897,46.12],[5.907,46.122],[5.907,46.095],[5.893,46.119]]]}},{"type":"Feature","properties":{"code":"74075","nom":"Chilly","pop":1705},"geometry":{"type":"Polygon","coordinates":[[[5.965,46.008],[5.979,46.006],[5.983,45.994],[5.992,45.974],[5.988,45.963],[5.962,45.962],[5.934,45.98],[5.921,45.991],[5.922,46.002],[5.937,46.014],[5.965,46.008]]]}},{"type":"Feature","properties":{"code":"74076","nom":"Choisy","pop":1731},"geometry":{"type":"Polygon","coordinates":[[[6.027,46.008],[6.047,46.017],[6.077,46.008],[6.099,45.988],[6.083,45.981],[6.033,45.987],[6.005,46],[6.003,46.008],[6.027,46.008]]]}},{"type":"Feature","properties":{"code":"74077","nom":"Clarafond-Arcine","pop":1068},"geometry":{"type":"Polygon","coordinates":[[[5.866,46.086],[5.891,46.088],[5.893,46.119],[5.907,46.095],[5.911,46.084],[5.921,46.077],[5.921,46.056],[5.894,46.048],[5.876,46.058],[5.868,46.066],[5.866,46.086]]]}},{"type":"Feature","properties":{"code":"74078","nom":"Clermont","pop":474},"geometry":{"type":"Polygon","coordinates":[[[5.913,45.955],[5.894,45.963],[5.884,45.979],[5.921,45.991],[5.934,45.98],[5.913,45.955]]]}},{"type":"Feature","properties":{"code":"74079","nom":"Les Clefs","pop":714},"geometry":{"type":"Polygon","coordinates":[[[6.358,45.875],[6.353,45.842],[6.372,45.829],[6.332,45.834],[6.29,45.821],[6.285,45.83],[6.303,45.858],[6.358,45.875]]]}},{"type":"Feature","properties":{"code":"74080","nom":"La Clusaz","pop":1623},"geometry":{"type":"Polygon","coordinates":[[[6.403,45.905],[6.448,45.922],[6.504,45.935],[6.531,45.925],[6.515,45.916],[6.51,45.909],[6.495,45.89],[6.471,45.885],[6.45,45.861],[6.408,45.884],[6.407,45.894],[6.403,45.905]]]}},{"type":"Feature","properties":{"code":"74081","nom":"Cluses","pop":17795},"geometry":{"type":"Polygon","coordinates":[[[6.547,46.073],[6.557,46.085],[6.598,46.068],[6.596,46.059],[6.608,46.044],[6.597,46.04],[6.57,46.052],[6.547,46.073]]]}},{"type":"Feature","properties":{"code":"74082","nom":"Collonges-sous-Salève","pop":3832},"geometry":{"type":"Polygon","coordinates":[[[6.147,46.147],[6.184,46.14],[6.172,46.12],[6.136,46.142],[6.147,46.147]]]}},{"type":"Feature","properties":{"code":"74083","nom":"Combloux","pop":2093},"geometry":{"type":"Polygon","coordinates":[[[6.634,45.913],[6.653,45.899],[6.683,45.896],[6.662,45.861],[6.638,45.885],[6.595,45.877],[6.589,45.88],[6.596,45.896],[6.634,45.913]]]}},{"type":"Feature","properties":{"code":"74085","nom":"Les Contamines-Montjoie","pop":1109},"geometry":{"type":"Polygon","coordinates":[[[6.659,45.801],[6.697,45.825],[6.704,45.84],[6.791,45.813],[6.808,45.813],[6.802,45.779],[6.766,45.771],[6.712,45.723],[6.687,45.755],[6.691,45.771],[6.659,45.801]]]}},{"type":"Feature","properties":{"code":"74086","nom":"Contamine-Sarzin","pop":733},"geometry":{"type":"Polygon","coordinates":[[[5.979,46.006],[5.965,46.008],[5.963,46.023],[5.973,46.036],[5.984,46.04],[5.991,46.014],[5.979,46.006]]]}},{"type":"Feature","properties":{"code":"74087","nom":"Contamine-sur-Arve","pop":2403},"geometry":{"type":"Polygon","coordinates":[[[6.339,46.147],[6.361,46.132],[6.364,46.129],[6.353,46.115],[6.347,46.111],[6.345,46.114],[6.319,46.137],[6.318,46.148],[6.339,46.147]]]}},{"type":"Feature","properties":{"code":"74088","nom":"Copponex","pop":1340},"geometry":{"type":"Polygon","coordinates":[[[6.037,46.037],[6.051,46.051],[6.084,46.062],[6.095,46.057],[6.101,46.044],[6.07,46.029],[6.037,46.037]]]}},{"type":"Feature","properties":{"code":"74089","nom":"Cordon","pop":998},"geometry":{"type":"Polygon","coordinates":[[[6.571,45.881],[6.51,45.909],[6.515,45.916],[6.546,45.91],[6.576,45.928],[6.62,45.924],[6.571,45.881]]]}},{"type":"Feature","properties":{"code":"74090","nom":"Cornier","pop":1507},"geometry":{"type":"Polygon","coordinates":[[[6.264,46.075],[6.261,46.086],[6.303,46.105],[6.303,46.105],[6.325,46.092],[6.302,46.083],[6.291,46.081],[6.264,46.075]]]}},{"type":"Feature","properties":{"code":"74091","nom":"La Côte-d'Arbroz","pop":349},"geometry":{"type":"Polygon","coordinates":[[[6.595,46.173],[6.603,46.189],[6.642,46.196],[6.68,46.192],[6.68,46.191],[6.619,46.162],[6.6,46.168],[6.595,46.173]]]}},{"type":"Feature","properties":{"code":"74094","nom":"Cranves-Sales","pop":7762},"geometry":{"type":"Polygon","coordinates":[[[6.354,46.212],[6.323,46.203],[6.31,46.18],[6.286,46.171],[6.275,46.17],[6.278,46.197],[6.276,46.199],[6.286,46.207],[6.304,46.222],[6.321,46.212],[6.353,46.216],[6.355,46.214],[6.354,46.212]]]}},{"type":"Feature","properties":{"code":"74095","nom":"Crempigny-Bonneguête","pop":325},"geometry":{"type":"Polygon","coordinates":[[[5.894,45.963],[5.913,45.955],[5.921,45.939],[5.912,45.932],[5.881,45.946],[5.894,45.963]]]}},{"type":"Feature","properties":{"code":"74096","nom":"Cruseilles","pop":5376},"geometry":{"type":"Polygon","coordinates":[[[6.122,46.075],[6.148,46.045],[6.151,46.032],[6.135,46.01],[6.129,46.01],[6.083,46.018],[6.07,46.029],[6.101,46.044],[6.095,46.057],[6.105,46.067],[6.122,46.075]]]}},{"type":"Feature","properties":{"code":"74097","nom":"Cusy","pop":1842},"geometry":{"type":"Polygon","coordinates":[[[5.994,45.748],[5.994,45.763],[6.006,45.774],[6.029,45.783],[6.06,45.762],[6.096,45.743],[6.042,45.739],[5.994,45.748]]]}},{"type":"Feature","properties":{"code":"74098","nom":"Cuvat","pop":1665},"geometry":{"type":"Polygon","coordinates":[[[6.122,45.984],[6.105,45.967],[6.088,45.977],[6.083,45.981],[6.099,45.988],[6.122,45.984]]]}},{"type":"Feature","properties":{"code":"74099","nom":"Demi-Quartier","pop":801},"geometry":{"type":"Polygon","coordinates":[[[6.662,45.861],[6.658,45.858],[6.595,45.877],[6.638,45.885],[6.662,45.861]]]}},{"type":"Feature","properties":{"code":"74100","nom":"Desingy","pop":764},"geometry":{"type":"Polygon","coordinates":[[[5.897,46.025],[5.922,46.002],[5.921,45.991],[5.884,45.979],[5.881,45.978],[5.851,45.992],[5.871,46.018],[5.89,46.027],[5.897,46.025]]]}},{"type":"Feature","properties":{"code":"74101","nom":"Dingy-en-Vuache","pop":819},"geometry":{"type":"Polygon","coordinates":[[[5.959,46.095],[5.979,46.097],[5.988,46.089],[5.972,46.086],[5.921,46.077],[5.911,46.084],[5.935,46.098],[5.959,46.095]]]}},{"type":"Feature","properties":{"code":"74102","nom":"Dingy-Saint-Clair","pop":1466},"geometry":{"type":"Polygon","coordinates":[[[6.244,45.956],[6.315,45.948],[6.295,45.928],[6.252,45.913],[6.242,45.896],[6.204,45.907],[6.193,45.921],[6.215,45.941],[6.244,45.956]]]}},{"type":"Feature","properties":{"code":"74103","nom":"Domancy","pop":2097},"geometry":{"type":"Polygon","coordinates":[[[6.634,45.913],[6.649,45.923],[6.693,45.91],[6.683,45.896],[6.653,45.899],[6.634,45.913]]]}},{"type":"Feature","properties":{"code":"74104","nom":"Doussard","pop":3751},"geometry":{"type":"Polygon","coordinates":[[[6.196,45.732],[6.184,45.733],[6.216,45.789],[6.2,45.812],[6.215,45.821],[6.223,45.801],[6.252,45.787],[6.236,45.766],[6.237,45.726],[6.229,45.704],[6.215,45.709],[6.196,45.732]]]}},{"type":"Feature","properties":{"code":"74105","nom":"Douvaine","pop":6796},"geometry":{"type":"Polygon","coordinates":[[[6.328,46.307],[6.317,46.296],[6.277,46.289],[6.293,46.326],[6.328,46.307]]]}},{"type":"Feature","properties":{"code":"74106","nom":"Draillant","pop":872},"geometry":{"type":"Polygon","coordinates":[[[6.449,46.298],[6.469,46.315],[6.474,46.317],[6.498,46.291],[6.483,46.275],[6.461,46.277],[6.449,46.298]]]}},{"type":"Feature","properties":{"code":"74107","nom":"Droisy","pop":155},"geometry":{"type":"Polygon","coordinates":[[[5.881,45.946],[5.873,45.945],[5.881,45.978],[5.884,45.979],[5.894,45.963],[5.881,45.946]]]}},{"type":"Feature","properties":{"code":"74108","nom":"Duingt","pop":1078},"geometry":{"type":"Polygon","coordinates":[[[6.2,45.812],[6.196,45.802],[6.182,45.804],[6.192,45.836],[6.215,45.821],[6.2,45.812]]]}},{"type":"Feature","properties":{"code":"74109","nom":"Éloise","pop":931},"geometry":{"type":"Polygon","coordinates":[[[5.856,46.087],[5.866,46.086],[5.868,46.066],[5.851,46.067],[5.822,46.09],[5.856,46.087]]]}},{"type":"Feature","properties":{"code":"74111","nom":"Entrevernes","pop":191},"geometry":{"type":"Polygon","coordinates":[[[6.178,45.747],[6.167,45.757],[6.174,45.78],[6.182,45.804],[6.196,45.802],[6.178,45.747]]]}},{"type":"Feature","properties":{"code":"74112","nom":"Epagny Metz-Tessy","pop":8925},"geometry":{"type":"Polygon","coordinates":[[[6.063,45.939],[6.066,45.952],[6.075,45.964],[6.096,45.959],[6.124,45.935],[6.086,45.921],[6.063,45.939]]]}},{"type":"Feature","properties":{"code":"74114","nom":"Essert-Romand","pop":526},"geometry":{"type":"Polygon","coordinates":[[[6.642,46.196],[6.677,46.204],[6.681,46.2],[6.68,46.192],[6.642,46.196]]]}},{"type":"Feature","properties":{"code":"74116","nom":"Etaux","pop":2180},"geometry":{"type":"Polygon","coordinates":[[[6.291,46.081],[6.295,46.056],[6.251,46.037],[6.247,46.063],[6.259,46.075],[6.264,46.075],[6.291,46.081]]]}},{"type":"Feature","properties":{"code":"74117","nom":"Étercy","pop":985},"geometry":{"type":"Polygon","coordinates":[[[6.02,45.881],[5.991,45.898],[5.998,45.901],[6.014,45.904],[6.021,45.896],[6.02,45.881]]]}},{"type":"Feature","properties":{"code":"74118","nom":"Étrembières","pop":2679},"geometry":{"type":"Polygon","coordinates":[[[6.238,46.176],[6.246,46.171],[6.245,46.169],[6.225,46.173],[6.19,46.154],[6.175,46.158],[6.187,46.178],[6.224,46.184],[6.238,46.176]]]}},{"type":"Feature","properties":{"code":"74119","nom":"Évian-les-Bains","pop":9267},"geometry":{"type":"Polygon","coordinates":[[[6.614,46.403],[6.595,46.385],[6.577,46.38],[6.568,46.398],[6.614,46.403]]]}},{"type":"Feature","properties":{"code":"74121","nom":"Excenevex","pop":1327},"geometry":{"type":"Polygon","coordinates":[[[6.335,46.336],[6.318,46.335],[6.327,46.353],[6.349,46.368],[6.363,46.348],[6.335,46.336]]]}},{"type":"Feature","properties":{"code":"74122","nom":"Faucigny","pop":684},"geometry":{"type":"Polygon","coordinates":[[[6.364,46.129],[6.383,46.121],[6.387,46.103],[6.353,46.115],[6.364,46.129]]]}},{"type":"Feature","properties":{"code":"74123","nom":"Faverges-Seythenex","pop":7545},"geometry":{"type":"Polygon","coordinates":[[[6.232,45.703],[6.267,45.732],[6.267,45.756],[6.236,45.766],[6.252,45.787],[6.285,45.775],[6.317,45.752],[6.351,45.73],[6.351,45.729],[6.329,45.693],[6.308,45.693],[6.258,45.684],[6.232,45.703]]]}},{"type":"Feature","properties":{"code":"74124","nom":"Feigères","pop":1879},"geometry":{"type":"Polygon","coordinates":[[[6.054,46.09],[6.064,46.124],[6.085,46.123],[6.094,46.102],[6.091,46.096],[6.054,46.09]]]}},{"type":"Feature","properties":{"code":"74126","nom":"Fessy","pop":1076},"geometry":{"type":"Polygon","coordinates":[[[6.387,46.298],[6.431,46.288],[6.447,46.257],[6.436,46.258],[6.425,46.251],[6.417,46.258],[6.386,46.293],[6.387,46.298]]]}},{"type":"Feature","properties":{"code":"74127","nom":"Féternes","pop":1550},"geometry":{"type":"Polygon","coordinates":[[[6.586,46.326],[6.547,46.344],[6.537,46.345],[6.518,46.362],[6.537,46.368],[6.562,46.364],[6.597,46.359],[6.595,46.325],[6.586,46.326]]]}},{"type":"Feature","properties":{"code":"74128","nom":"Fillinges","pop":3671},"geometry":{"type":"Polygon","coordinates":[[[6.35,46.19],[6.35,46.193],[6.377,46.179],[6.371,46.154],[6.339,46.147],[6.318,46.148],[6.317,46.161],[6.344,46.165],[6.35,46.19]]]}},{"type":"Feature","properties":{"code":"74129","nom":"La Forclaz","pop":219},"geometry":{"type":"Polygon","coordinates":[[[6.597,46.325],[6.603,46.331],[6.635,46.316],[6.617,46.301],[6.597,46.325]]]}},{"type":"Feature","properties":{"code":"74130","nom":"Franclens","pop":541},"geometry":{"type":"Polygon","coordinates":[[[5.807,46.044],[5.814,46.055],[5.829,46.055],[5.845,46.039],[5.809,46.033],[5.807,46.044]]]}},{"type":"Feature","properties":{"code":"74131","nom":"Frangy","pop":2262},"geometry":{"type":"Polygon","coordinates":[[[5.922,46.002],[5.897,46.025],[5.924,46.044],[5.949,46.019],[5.937,46.014],[5.922,46.002]]]}},{"type":"Feature","properties":{"code":"74133","nom":"Gaillard","pop":11423},"geometry":{"type":"Polygon","coordinates":[[[6.214,46.194],[6.217,46.188],[6.224,46.184],[6.187,46.178],[6.214,46.194]]]}},{"type":"Feature","properties":{"code":"74134","nom":"Les Gets","pop":1227},"geometry":{"type":"Polygon","coordinates":[[[6.68,46.191],[6.694,46.161],[6.699,46.134],[6.662,46.12],[6.617,46.142],[6.619,46.162],[6.68,46.191]]]}},{"type":"Feature","properties":{"code":"74135","nom":"Giez","pop":570},"geometry":{"type":"Polygon","coordinates":[[[6.232,45.703],[6.229,45.704],[6.237,45.726],[6.236,45.766],[6.267,45.756],[6.267,45.732],[6.232,45.703]]]}},{"type":"Feature","properties":{"code":"74136","nom":"Le Grand-Bornand","pop":2050},"geometry":{"type":"Polygon","coordinates":[[[6.409,45.942],[6.408,45.956],[6.46,45.999],[6.46,45.999],[6.501,45.979],[6.528,45.983],[6.556,45.956],[6.531,45.925],[6.504,45.935],[6.448,45.922],[6.409,45.942]]]}},{"type":"Feature","properties":{"code":"74137","nom":"Groisy","pop":4082},"geometry":{"type":"Polygon","coordinates":[[[6.172,45.99],[6.15,45.998],[6.135,46.01],[6.151,46.032],[6.171,46.04],[6.194,46.046],[6.203,46.005],[6.172,45.99]]]}},{"type":"Feature","properties":{"code":"74138","nom":"Gruffy","pop":1504},"geometry":{"type":"Polygon","coordinates":[[[6.096,45.776],[6.06,45.762],[6.029,45.783],[6.028,45.795],[6.051,45.799],[6.102,45.793],[6.096,45.776]]]}},{"type":"Feature","properties":{"code":"74139","nom":"Habère-Lullin","pop":1122},"geometry":{"type":"Polygon","coordinates":[[[6.489,46.232],[6.489,46.228],[6.475,46.212],[6.443,46.227],[6.436,46.258],[6.447,46.257],[6.447,46.257],[6.457,46.242],[6.489,46.232]]]}},{"type":"Feature","properties":{"code":"74140","nom":"Habère-Poche","pop":1488},"geometry":{"type":"Polygon","coordinates":[[[6.447,46.257],[6.461,46.277],[6.483,46.275],[6.489,46.253],[6.489,46.232],[6.457,46.242],[6.447,46.257]]]}},{"type":"Feature","properties":{"code":"74141","nom":"Hauteville-sur-Fier","pop":1155},"geometry":{"type":"Polygon","coordinates":[[[5.978,45.919],[5.998,45.901],[5.991,45.898],[5.974,45.896],[5.958,45.904],[5.964,45.912],[5.978,45.919]]]}},{"type":"Feature","properties":{"code":"74142","nom":"Héry-sur-Alby","pop":979},"geometry":{"type":"Polygon","coordinates":[[[6.029,45.783],[6.006,45.774],[5.985,45.797],[5.995,45.804],[6.024,45.805],[6.028,45.795],[6.029,45.783]]]}},{"type":"Feature","properties":{"code":"74143","nom":"Les Houches","pop":3515},"geometry":{"type":"Polygon","coordinates":[[[6.843,45.843],[6.797,45.875],[6.764,45.881],[6.749,45.903],[6.757,45.928],[6.818,45.941],[6.827,45.899],[6.855,45.871],[6.843,45.843]]]}},{"type":"Feature","properties":{"code":"74144","nom":"Jonzier-Épagny","pop":942},"geometry":{"type":"Polygon","coordinates":[[[5.988,46.089],[6.002,46.087],[6.015,46.085],[5.991,46.063],[5.973,46.065],[5.972,46.086],[5.988,46.089]]]}},{"type":"Feature","properties":{"code":"74145","nom":"Juvigny","pop":639},"geometry":{"type":"Polygon","coordinates":[[[6.304,46.222],[6.286,46.207],[6.276,46.215],[6.295,46.225],[6.304,46.222]]]}},{"type":"Feature","properties":{"code":"74146","nom":"Larringes","pop":1592},"geometry":{"type":"Polygon","coordinates":[[[6.608,46.384],[6.61,46.36],[6.597,46.359],[6.562,46.364],[6.572,46.38],[6.577,46.38],[6.595,46.385],[6.608,46.384]]]}},{"type":"Feature","properties":{"code":"74147","nom":"Lathuile","pop":1105},"geometry":{"type":"Polygon","coordinates":[[[6.196,45.802],[6.2,45.812],[6.216,45.789],[6.184,45.733],[6.178,45.747],[6.196,45.802]]]}},{"type":"Feature","properties":{"code":"74148","nom":"Leschaux","pop":328},"geometry":{"type":"Polygon","coordinates":[[[6.138,45.761],[6.103,45.764],[6.096,45.776],[6.102,45.793],[6.106,45.797],[6.14,45.786],[6.138,45.761]]]}},{"type":"Feature","properties":{"code":"74150","nom":"Loisin","pop":1768},"geometry":{"type":"Polygon","coordinates":[[[6.326,46.266],[6.298,46.267],[6.278,46.284],[6.277,46.289],[6.317,46.296],[6.327,46.269],[6.326,46.266]]]}},{"type":"Feature","properties":{"code":"74151","nom":"Lornay","pop":588},"geometry":{"type":"Polygon","coordinates":[[[5.867,45.899],[5.866,45.903],[5.866,45.919],[5.895,45.928],[5.922,45.89],[5.906,45.904],[5.867,45.899]]]}},{"type":"Feature","properties":{"code":"74152","nom":"Lovagny","pop":1358},"geometry":{"type":"Polygon","coordinates":[[[6.037,45.918],[6.057,45.899],[6.021,45.896],[6.014,45.904],[6.017,45.91],[6.037,45.918]]]}},{"type":"Feature","properties":{"code":"74153","nom":"Lucinges","pop":1819},"geometry":{"type":"Polygon","coordinates":[[[6.35,46.193],[6.35,46.19],[6.31,46.18],[6.323,46.203],[6.354,46.212],[6.35,46.193]]]}},{"type":"Feature","properties":{"code":"74154","nom":"Lugrin","pop":2614},"geometry":{"type":"Polygon","coordinates":[[[6.698,46.374],[6.671,46.375],[6.649,46.385],[6.638,46.405],[6.712,46.408],[6.706,46.4],[6.698,46.374]]]}},{"type":"Feature","properties":{"code":"74155","nom":"Lullin","pop":809},"geometry":{"type":"Polygon","coordinates":[[[6.498,46.291],[6.507,46.3],[6.538,46.293],[6.538,46.278],[6.489,46.253],[6.483,46.275],[6.498,46.291]]]}},{"type":"Feature","properties":{"code":"74156","nom":"Lully","pop":764},"geometry":{"type":"Polygon","coordinates":[[[6.387,46.298],[6.386,46.299],[6.404,46.307],[6.429,46.293],[6.431,46.288],[6.387,46.298]]]}},{"type":"Feature","properties":{"code":"74157","nom":"Lyaud","pop":1780},"geometry":{"type":"Polygon","coordinates":[[[6.496,46.341],[6.537,46.345],[6.547,46.344],[6.536,46.319],[6.532,46.317],[6.493,46.333],[6.496,46.341]]]}},{"type":"Feature","properties":{"code":"74158","nom":"Machilly","pop":1152},"geometry":{"type":"Polygon","coordinates":[[[6.298,46.267],[6.326,46.266],[6.347,46.234],[6.309,46.255],[6.295,46.265],[6.298,46.267]]]}},{"type":"Feature","properties":{"code":"74159","nom":"Magland","pop":3220},"geometry":{"type":"Polygon","coordinates":[[[6.576,45.982],[6.571,45.991],[6.586,46.002],[6.597,46.04],[6.608,46.044],[6.628,46.015],[6.666,46.002],[6.697,46.005],[6.723,45.984],[6.693,45.973],[6.664,45.987],[6.576,45.982]]]}},{"type":"Feature","properties":{"code":"74160","nom":"Manigod","pop":1000},"geometry":{"type":"Polygon","coordinates":[[[6.444,45.831],[6.42,45.802],[6.405,45.823],[6.372,45.828],[6.372,45.829],[6.353,45.842],[6.358,45.875],[6.408,45.884],[6.45,45.861],[6.445,45.845],[6.444,45.831]]]}},{"type":"Feature","properties":{"code":"74161","nom":"Marcellaz-Albanais","pop":2058},"geometry":{"type":"Polygon","coordinates":[[[6.033,45.853],[6.025,45.85],[6.005,45.849],[5.973,45.861],[5.974,45.896],[5.991,45.898],[6.02,45.881],[6.029,45.867],[6.033,45.853]]]}},{"type":"Feature","properties":{"code":"74162","nom":"Marcellaz","pop":1082},"geometry":{"type":"Polygon","coordinates":[[[6.361,46.132],[6.339,46.147],[6.371,46.154],[6.377,46.148],[6.361,46.132]]]}},{"type":"Feature","properties":{"code":"74163","nom":"Margencel","pop":2273},"geometry":{"type":"Polygon","coordinates":[[[6.443,46.345],[6.425,46.316],[6.411,46.31],[6.414,46.336],[6.399,46.35],[6.404,46.351],[6.443,46.345]]]}},{"type":"Feature","properties":{"code":"74164","nom":"Marignier","pop":6507},"geometry":{"type":"Polygon","coordinates":[[[6.514,46.073],[6.467,46.072],[6.458,46.105],[6.499,46.126],[6.529,46.107],[6.514,46.073]]]}},{"type":"Feature","properties":{"code":"74165","nom":"Marigny-Saint-Marcel","pop":708},"geometry":{"type":"Polygon","coordinates":[[[6.015,45.827],[5.994,45.819],[5.966,45.821],[5.965,45.825],[5.972,45.845],[5.993,45.837],[6.015,45.827]]]}},{"type":"Feature","properties":{"code":"74166","nom":"Marin","pop":1940},"geometry":{"type":"Polygon","coordinates":[[[6.546,46.378],[6.537,46.368],[6.518,46.362],[6.516,46.364],[6.508,46.383],[6.546,46.378]]]}},{"type":"Feature","properties":{"code":"74167","nom":"Val de Chaise","pop":1384},"geometry":{"type":"Polygon","coordinates":[[[6.331,45.788],[6.349,45.779],[6.393,45.784],[6.365,45.771],[6.371,45.753],[6.351,45.73],[6.317,45.752],[6.331,45.788]]]}},{"type":"Feature","properties":{"code":"74168","nom":"Marlioz","pop":1062},"geometry":{"type":"Polygon","coordinates":[[[6.027,46.034],[6.027,46.008],[6.003,46.008],[5.991,46.014],[5.984,46.04],[6.003,46.047],[6.026,46.04],[6.027,46.034]]]}},{"type":"Feature","properties":{"code":"74169","nom":"Marnaz","pop":5964},"geometry":{"type":"Polygon","coordinates":[[[6.515,46.073],[6.537,46.074],[6.543,46.061],[6.52,46.026],[6.51,46.022],[6.508,46.061],[6.515,46.073]]]}},{"type":"Feature","properties":{"code":"74170","nom":"Massingy","pop":852},"geometry":{"type":"Polygon","coordinates":[[[5.94,45.832],[5.934,45.815],[5.881,45.831],[5.911,45.842],[5.94,45.832]]]}},{"type":"Feature","properties":{"code":"74171","nom":"Massongy","pop":1770},"geometry":{"type":"Polygon","coordinates":[[[6.29,46.331],[6.318,46.335],[6.335,46.336],[6.354,46.312],[6.328,46.307],[6.293,46.326],[6.29,46.331]]]}},{"type":"Feature","properties":{"code":"74172","nom":"Maxilly-sur-Léman","pop":1528},"geometry":{"type":"Polygon","coordinates":[[[6.638,46.405],[6.649,46.385],[6.623,46.385],[6.619,46.404],[6.638,46.405]]]}},{"type":"Feature","properties":{"code":"74173","nom":"Megève","pop":2893},"geometry":{"type":"Polygon","coordinates":[[[6.568,45.862],[6.573,45.877],[6.589,45.88],[6.595,45.877],[6.658,45.858],[6.673,45.828],[6.659,45.801],[6.637,45.8],[6.588,45.83],[6.568,45.862]]]}},{"type":"Feature","properties":{"code":"74174","nom":"Mégevette","pop":619},"geometry":{"type":"Polygon","coordinates":[[[6.477,46.207],[6.475,46.212],[6.489,46.228],[6.519,46.236],[6.528,46.214],[6.559,46.2],[6.55,46.191],[6.496,46.192],[6.477,46.207]]]}},{"type":"Feature","properties":{"code":"74175","nom":"Meillerie","pop":293},"geometry":{"type":"Polygon","coordinates":[[[6.706,46.4],[6.712,46.408],[6.758,46.403],[6.75,46.392],[6.706,46.4]]]}},{"type":"Feature","properties":{"code":"74176","nom":"Menthon-Saint-Bernard","pop":1891},"geometry":{"type":"Polygon","coordinates":[[[6.211,45.857],[6.172,45.851],[6.165,45.864],[6.196,45.883],[6.218,45.878],[6.211,45.857]]]}},{"type":"Feature","properties":{"code":"74177","nom":"Menthonnex-en-Bornes","pop":1115},"geometry":{"type":"Polygon","coordinates":[[[6.2,46.067],[6.194,46.046],[6.171,46.04],[6.159,46.058],[6.162,46.066],[6.171,46.077],[6.2,46.067]]]}},{"type":"Feature","properties":{"code":"74178","nom":"Menthonnex-sous-Clermont","pop":811},"geometry":{"type":"Polygon","coordinates":[[[5.962,45.962],[5.933,45.939],[5.921,45.939],[5.913,45.955],[5.934,45.98],[5.962,45.962]]]}},{"type":"Feature","properties":{"code":"74179","nom":"Mésigny","pop":804},"geometry":{"type":"Polygon","coordinates":[[[5.992,45.974],[5.983,45.994],[6.005,46],[6.033,45.987],[5.994,45.973],[5.992,45.974]]]}},{"type":"Feature","properties":{"code":"74180","nom":"Messery","pop":2474},"geometry":{"type":"Polygon","coordinates":[[[6.318,46.335],[6.29,46.331],[6.269,46.337],[6.291,46.359],[6.318,46.364],[6.327,46.353],[6.318,46.335]]]}},{"type":"Feature","properties":{"code":"74183","nom":"Mieussy","pop":2530},"geometry":{"type":"Polygon","coordinates":[[[6.481,46.165],[6.523,46.168],[6.55,46.191],[6.559,46.2],[6.574,46.171],[6.595,46.173],[6.6,46.168],[6.576,46.163],[6.562,46.142],[6.575,46.128],[6.56,46.11],[6.556,46.106],[6.529,46.107],[6.499,46.126],[6.476,46.154],[6.481,46.165]]]}},{"type":"Feature","properties":{"code":"74184","nom":"Minzier","pop":1090},"geometry":{"type":"Polygon","coordinates":[[[6.017,46.075],[6.011,46.061],[6.003,46.047],[5.984,46.04],[5.973,46.036],[5.967,46.05],[5.973,46.065],[5.991,46.063],[6.015,46.085],[6.017,46.075]]]}},{"type":"Feature","properties":{"code":"74185","nom":"Monnetier-Mornex","pop":2362},"geometry":{"type":"Polygon","coordinates":[[[6.245,46.169],[6.242,46.164],[6.223,46.142],[6.184,46.14],[6.19,46.154],[6.225,46.173],[6.245,46.169]]]}},{"type":"Feature","properties":{"code":"74186","nom":"Montagny-les-Lanches","pop":830},"geometry":{"type":"Polygon","coordinates":[[[6.052,45.847],[6.033,45.853],[6.029,45.867],[6.06,45.869],[6.052,45.847]]]}},{"type":"Feature","properties":{"code":"74188","nom":"Montriond","pop":969},"geometry":{"type":"Polygon","coordinates":[[[6.73,46.231],[6.768,46.226],[6.772,46.22],[6.786,46.211],[6.797,46.198],[6.807,46.196],[6.807,46.178],[6.757,46.206],[6.7,46.187],[6.681,46.2],[6.677,46.204],[6.726,46.221],[6.73,46.231]]]}},{"type":"Feature","properties":{"code":"74189","nom":"Mont-Saxonnex","pop":1622},"geometry":{"type":"Polygon","coordinates":[[[6.46,45.999],[6.46,45.999],[6.449,46.022],[6.455,46.054],[6.46,46.06],[6.508,46.061],[6.51,46.022],[6.46,45.999]]]}},{"type":"Feature","properties":{"code":"74190","nom":"Morillon","pop":719},"geometry":{"type":"Polygon","coordinates":[[[6.684,46.087],[6.683,46.053],[6.695,46.031],[6.664,46.042],[6.646,46.071],[6.663,46.093],[6.684,46.087]]]}},{"type":"Feature","properties":{"code":"74191","nom":"Morzine","pop":2658},"geometry":{"type":"Polygon","coordinates":[[[6.694,46.161],[6.68,46.191],[6.68,46.192],[6.681,46.2],[6.7,46.187],[6.757,46.206],[6.807,46.178],[6.79,46.155],[6.745,46.149],[6.731,46.138],[6.694,46.161]]]}},{"type":"Feature","properties":{"code":"74192","nom":"Moye","pop":985},"geometry":{"type":"Polygon","coordinates":[[[5.922,45.89],[5.925,45.886],[5.927,45.868],[5.911,45.842],[5.881,45.831],[5.873,45.839],[5.876,45.864],[5.867,45.899],[5.906,45.904],[5.922,45.89]]]}},{"type":"Feature","properties":{"code":"74193","nom":"La Muraz","pop":1048},"geometry":{"type":"Polygon","coordinates":[[[6.223,46.142],[6.217,46.112],[6.194,46.1],[6.163,46.112],[6.172,46.12],[6.184,46.14],[6.223,46.142]]]}},{"type":"Feature","properties":{"code":"74194","nom":"Mûres","pop":870},"geometry":{"type":"Polygon","coordinates":[[[6.051,45.799],[6.028,45.795],[6.024,45.805],[6.045,45.823],[6.051,45.799]]]}},{"type":"Feature","properties":{"code":"74195","nom":"Musièges","pop":422},"geometry":{"type":"Polygon","coordinates":[[[5.965,46.008],[5.937,46.014],[5.949,46.019],[5.963,46.023],[5.965,46.008]]]}},{"type":"Feature","properties":{"code":"74196","nom":"Nancy-sur-Cluses","pop":463},"geometry":{"type":"Polygon","coordinates":[[[6.571,45.991],[6.556,46.006],[6.56,46.03],[6.57,46.052],[6.597,46.04],[6.586,46.002],[6.571,45.991]]]}},{"type":"Feature","properties":{"code":"74197","nom":"Nangy","pop":1771},"geometry":{"type":"Polygon","coordinates":[[[6.289,46.15],[6.29,46.159],[6.317,46.161],[6.318,46.148],[6.319,46.137],[6.312,46.134],[6.289,46.15]]]}},{"type":"Feature","properties":{"code":"74198","nom":"Nâves-Parmelan","pop":1000},"geometry":{"type":"Polygon","coordinates":[[[6.175,45.936],[6.215,45.941],[6.193,45.921],[6.175,45.936]]]}},{"type":"Feature","properties":{"code":"74199","nom":"Nernier","pop":423},"geometry":{"type":"Polygon","coordinates":[[[6.316,46.369],[6.318,46.364],[6.291,46.359],[6.316,46.369]]]}},{"type":"Feature","properties":{"code":"74200","nom":"Neuvecelle","pop":3256},"geometry":{"type":"Polygon","coordinates":[[[6.614,46.403],[6.619,46.404],[6.623,46.385],[6.608,46.384],[6.595,46.385],[6.614,46.403]]]}},{"type":"Feature","properties":{"code":"74201","nom":"Neydens","pop":2250},"geometry":{"type":"Polygon","coordinates":[[[6.094,46.102],[6.085,46.123],[6.112,46.135],[6.136,46.109],[6.094,46.102]]]}},{"type":"Feature","properties":{"code":"74202","nom":"Nonglard","pop":733},"geometry":{"type":"Polygon","coordinates":[[[6.017,45.91],[6.019,45.93],[6.043,45.931],[6.037,45.918],[6.017,45.91]]]}},{"type":"Feature","properties":{"code":"74203","nom":"Novel","pop":55},"geometry":{"type":"Polygon","coordinates":[[[6.754,46.344],[6.75,46.348],[6.742,46.37],[6.787,46.379],[6.801,46.375],[6.771,46.361],[6.775,46.347],[6.754,46.344]]]}},{"type":"Feature","properties":{"code":"74205","nom":"Onnion","pop":1299},"geometry":{"type":"Polygon","coordinates":[[[6.55,46.191],[6.523,46.168],[6.481,46.165],[6.454,46.184],[6.464,46.199],[6.477,46.207],[6.496,46.192],[6.55,46.191]]]}},{"type":"Feature","properties":{"code":"74206","nom":"Orcier","pop":1079},"geometry":{"type":"Polygon","coordinates":[[[6.507,46.3],[6.498,46.291],[6.474,46.317],[6.493,46.333],[6.532,46.317],[6.507,46.3]]]}},{"type":"Feature","properties":{"code":"74208","nom":"Passy","pop":10856},"geometry":{"type":"Polygon","coordinates":[[[6.749,45.903],[6.732,45.898],[6.693,45.91],[6.649,45.923],[6.664,45.93],[6.657,45.959],[6.693,45.973],[6.723,45.984],[6.731,45.965],[6.762,45.965],[6.785,45.979],[6.775,46.017],[6.821,46.002],[6.845,46.018],[6.855,46.007],[6.838,46],[6.825,45.955],[6.783,45.964],[6.75,45.948],[6.757,45.928],[6.749,45.903]]]}},{"type":"Feature","properties":{"code":"74209","nom":"Peillonnex","pop":1381},"geometry":{"type":"Polygon","coordinates":[[[6.391,46.138],[6.401,46.136],[6.404,46.127],[6.383,46.121],[6.364,46.129],[6.361,46.132],[6.377,46.148],[6.391,46.138]]]}},{"type":"Feature","properties":{"code":"74210","nom":"Perrignier","pop":1905},"geometry":{"type":"Polygon","coordinates":[[[6.411,46.31],[6.425,46.316],[6.469,46.315],[6.449,46.298],[6.429,46.293],[6.404,46.307],[6.411,46.31]]]}},{"type":"Feature","properties":{"code":"74211","nom":"Pers-Jussy","pop":3245},"geometry":{"type":"Polygon","coordinates":[[[6.303,46.105],[6.261,46.086],[6.264,46.075],[6.259,46.075],[6.229,46.084],[6.228,46.11],[6.268,46.124],[6.29,46.117],[6.303,46.105]]]}},{"type":"Feature","properties":{"code":"74212","nom":"Glières-Val-de-Borne","pop":1824},"geometry":{"type":"Polygon","coordinates":[[[6.337,45.941],[6.327,45.973],[6.35,45.99],[6.347,46.006],[6.343,46.02],[6.389,46.032],[6.405,46.042],[6.417,46.043],[6.421,46.015],[6.449,46.022],[6.46,45.999],[6.408,45.956],[6.409,45.942],[6.373,45.938],[6.35,45.927],[6.334,45.937],[6.337,45.941]]]}},{"type":"Feature","properties":{"code":"74213","nom":"Poisy","pop":9291},"geometry":{"type":"Polygon","coordinates":[[[6.083,45.902],[6.057,45.899],[6.037,45.918],[6.043,45.931],[6.063,45.939],[6.086,45.921],[6.083,45.902]]]}},{"type":"Feature","properties":{"code":"74215","nom":"Praz-sur-Arly","pop":1311},"geometry":{"type":"Polygon","coordinates":[[[6.535,45.862],[6.568,45.862],[6.588,45.83],[6.637,45.8],[6.599,45.792],[6.566,45.816],[6.535,45.862]]]}},{"type":"Feature","properties":{"code":"74216","nom":"Présilly","pop":1116},"geometry":{"type":"Polygon","coordinates":[[[6.126,46.079],[6.122,46.075],[6.105,46.067],[6.094,46.075],[6.052,46.084],[6.052,46.086],[6.054,46.09],[6.091,46.096],[6.126,46.08],[6.126,46.079]]]}},{"type":"Feature","properties":{"code":"74218","nom":"Publier","pop":7864},"geometry":{"type":"Polygon","coordinates":[[[6.568,46.398],[6.577,46.38],[6.572,46.38],[6.546,46.378],[6.508,46.383],[6.513,46.405],[6.568,46.398]]]}},{"type":"Feature","properties":{"code":"74219","nom":"Quintal","pop":1257},"geometry":{"type":"Polygon","coordinates":[[[6.108,45.809],[6.073,45.83],[6.103,45.838],[6.111,45.831],[6.108,45.809]]]}},{"type":"Feature","properties":{"code":"74220","nom":"Reignier-Ésery","pop":8464},"geometry":{"type":"Polygon","coordinates":[[[6.312,46.134],[6.29,46.117],[6.268,46.124],[6.228,46.11],[6.217,46.112],[6.223,46.142],[6.242,46.164],[6.289,46.15],[6.312,46.134]]]}},{"type":"Feature","properties":{"code":"74221","nom":"Le Reposoir","pop":565},"geometry":{"type":"Polygon","coordinates":[[[6.571,45.991],[6.576,45.982],[6.556,45.956],[6.528,45.983],[6.501,45.979],[6.46,45.999],[6.51,46.022],[6.52,46.026],[6.56,46.03],[6.556,46.006],[6.571,45.991]]]}},{"type":"Feature","properties":{"code":"74222","nom":"Reyvroz","pop":500},"geometry":{"type":"Polygon","coordinates":[[[6.547,46.344],[6.586,46.326],[6.578,46.302],[6.536,46.319],[6.547,46.344]]]}},{"type":"Feature","properties":{"code":"74223","nom":"La Rivière-Enverse","pop":504},"geometry":{"type":"Polygon","coordinates":[[[6.662,46.094],[6.663,46.093],[6.646,46.071],[6.644,46.072],[6.609,46.089],[6.59,46.097],[6.626,46.101],[6.662,46.094]]]}},{"type":"Feature","properties":{"code":"74224","nom":"La Roche-sur-Foron","pop":11348},"geometry":{"type":"Polygon","coordinates":[[[6.291,46.081],[6.302,46.083],[6.322,46.058],[6.315,46.03],[6.338,46.02],[6.343,46.02],[6.347,46.006],[6.298,46.03],[6.251,46.037],[6.295,46.056],[6.291,46.081]]]}},{"type":"Feature","properties":{"code":"74225","nom":"Rumilly","pop":16442},"geometry":{"type":"Polygon","coordinates":[[[5.94,45.832],[5.911,45.842],[5.927,45.868],[5.925,45.886],[5.941,45.885],[5.962,45.858],[5.972,45.845],[5.965,45.825],[5.94,45.832]]]}},{"type":"Feature","properties":{"code":"74226","nom":"Saint-André-de-Boëge","pop":597},"geometry":{"type":"Polygon","coordinates":[[[6.416,46.193],[6.403,46.176],[6.377,46.179],[6.35,46.193],[6.354,46.212],[6.355,46.214],[6.418,46.196],[6.416,46.193]]]}},{"type":"Feature","properties":{"code":"74228","nom":"Saint-Blaise","pop":383},"geometry":{"type":"Polygon","coordinates":[[[6.084,46.062],[6.094,46.075],[6.105,46.067],[6.095,46.057],[6.084,46.062]]]}},{"type":"Feature","properties":{"code":"74229","nom":"Saint-Cergues","pop":3869},"geometry":{"type":"Polygon","coordinates":[[[6.347,46.234],[6.355,46.23],[6.353,46.216],[6.321,46.212],[6.304,46.222],[6.295,46.225],[6.309,46.255],[6.347,46.234]]]}},{"type":"Feature","properties":{"code":"74231","nom":"Saint-Eusèbe","pop":633},"geometry":{"type":"Polygon","coordinates":[[[5.964,45.912],[5.941,45.921],[5.938,45.927],[5.949,45.941],[5.985,45.939],[5.978,45.919],[5.964,45.912]]]}},{"type":"Feature","properties":{"code":"74232","nom":"Saint-Eustache","pop":496},"geometry":{"type":"Polygon","coordinates":[[[6.106,45.797],[6.107,45.799],[6.158,45.81],[6.182,45.804],[6.174,45.78],[6.14,45.786],[6.106,45.797]]]}},{"type":"Feature","properties":{"code":"74233","nom":"Saint-Félix","pop":2439},"geometry":{"type":"Polygon","coordinates":[[[5.963,45.813],[5.966,45.821],[5.994,45.819],[5.995,45.804],[5.985,45.797],[5.98,45.796],[5.963,45.813]]]}},{"type":"Feature","properties":{"code":"74234","nom":"Saint-Ferréol","pop":874},"geometry":{"type":"Polygon","coordinates":[[[6.317,45.752],[6.285,45.775],[6.292,45.815],[6.331,45.788],[6.317,45.752]]]}},{"type":"Feature","properties":{"code":"74235","nom":"Saint-Germain-sur-Rhône","pop":646},"geometry":{"type":"Polygon","coordinates":[[[5.808,46.062],[5.811,46.079],[5.822,46.09],[5.851,46.067],[5.829,46.055],[5.814,46.055],[5.808,46.062]]]}},{"type":"Feature","properties":{"code":"74236","nom":"Saint-Gervais-les-Bains","pop":5755},"geometry":{"type":"Polygon","coordinates":[[[6.749,45.903],[6.764,45.881],[6.797,45.875],[6.843,45.843],[6.854,45.837],[6.818,45.832],[6.808,45.813],[6.791,45.813],[6.704,45.84],[6.697,45.825],[6.659,45.801],[6.673,45.828],[6.658,45.858],[6.662,45.861],[6.683,45.896],[6.693,45.91],[6.732,45.898],[6.749,45.903]]]}},{"type":"Feature","properties":{"code":"74237","nom":"Saint-Gingolph","pop":903},"geometry":{"type":"Polygon","coordinates":[[[6.787,46.379],[6.75,46.392],[6.758,46.403],[6.79,46.393],[6.801,46.375],[6.787,46.379]]]}},{"type":"Feature","properties":{"code":"74238","nom":"Saint-Jean-d'Aulps","pop":1492},"geometry":{"type":"Polygon","coordinates":[[[6.642,46.196],[6.603,46.189],[6.599,46.213],[6.634,46.249],[6.665,46.265],[6.691,46.268],[6.696,46.238],[6.73,46.231],[6.726,46.221],[6.677,46.204],[6.642,46.196]]]}},{"type":"Feature","properties":{"code":"74239","nom":"Saint-Jean-de-Sixt","pop":1561},"geometry":{"type":"Polygon","coordinates":[[[6.448,45.922],[6.403,45.905],[6.373,45.938],[6.409,45.942],[6.448,45.922]]]}},{"type":"Feature","properties":{"code":"74240","nom":"Saint-Jean-de-Tholome","pop":1180},"geometry":{"type":"Polygon","coordinates":[[[6.446,46.11],[6.455,46.107],[6.427,46.098],[6.387,46.103],[6.383,46.121],[6.404,46.127],[6.446,46.11]]]}},{"type":"Feature","properties":{"code":"74241","nom":"Saint-Jeoire","pop":3457},"geometry":{"type":"Polygon","coordinates":[[[6.455,46.107],[6.446,46.11],[6.44,46.161],[6.45,46.18],[6.454,46.184],[6.481,46.165],[6.476,46.154],[6.499,46.126],[6.458,46.105],[6.455,46.107]]]}},{"type":"Feature","properties":{"code":"74242","nom":"Saint-Jorioz","pop":6390},"geometry":{"type":"Polygon","coordinates":[[[6.107,45.799],[6.108,45.809],[6.111,45.831],[6.133,45.832],[6.172,45.851],[6.192,45.836],[6.182,45.804],[6.158,45.81],[6.107,45.799]]]}},{"type":"Feature","properties":{"code":"74243","nom":"Saint-Julien-en-Genevois","pop":16222},"geometry":{"type":"Polygon","coordinates":[[[6.064,46.124],[6.047,46.142],[6.092,46.152],[6.127,46.141],[6.112,46.135],[6.085,46.123],[6.064,46.124]]]}},{"type":"Feature","properties":{"code":"74244","nom":"Saint-Laurent","pop":841},"geometry":{"type":"Polygon","coordinates":[[[6.343,46.053],[6.373,46.05],[6.389,46.032],[6.343,46.02],[6.338,46.02],[6.337,46.054],[6.343,46.053]]]}},{"type":"Feature","properties":{"code":"74249","nom":"Saint-Paul-en-Chablais","pop":2613},"geometry":{"type":"Polygon","coordinates":[[[6.61,46.36],[6.608,46.384],[6.623,46.385],[6.649,46.385],[6.671,46.375],[6.662,46.359],[6.634,46.352],[6.61,46.36]]]}},{"type":"Feature","properties":{"code":"74250","nom":"Saint-Pierre-en-Faucigny","pop":7865},"geometry":{"type":"Polygon","coordinates":[[[6.372,46.087],[6.397,46.084],[6.384,46.057],[6.405,46.042],[6.389,46.032],[6.373,46.05],[6.343,46.053],[6.344,46.084],[6.372,46.087]]]}},{"type":"Feature","properties":{"code":"74252","nom":"Saint-Sigismond","pop":641},"geometry":{"type":"Polygon","coordinates":[[[6.596,46.059],[6.598,46.068],[6.609,46.089],[6.644,46.072],[6.596,46.059]]]}},{"type":"Feature","properties":{"code":"74253","nom":"Saint-Sixt","pop":1016},"geometry":{"type":"Polygon","coordinates":[[[6.322,46.058],[6.337,46.054],[6.338,46.02],[6.315,46.03],[6.322,46.058]]]}},{"type":"Feature","properties":{"code":"74254","nom":"Saint-Sylvestre","pop":595},"geometry":{"type":"Polygon","coordinates":[[[6.025,45.85],[6.021,45.828],[6.015,45.827],[5.993,45.837],[6.005,45.849],[6.025,45.85]]]}},{"type":"Feature","properties":{"code":"74255","nom":"Sales","pop":2325},"geometry":{"type":"Polygon","coordinates":[[[5.941,45.885],[5.958,45.904],[5.974,45.896],[5.973,45.861],[5.962,45.858],[5.941,45.885]]]}},{"type":"Feature","properties":{"code":"74256","nom":"Sallanches","pop":17319},"geometry":{"type":"Polygon","coordinates":[[[6.573,45.877],[6.571,45.881],[6.62,45.924],[6.576,45.928],[6.546,45.91],[6.515,45.916],[6.531,45.925],[6.556,45.956],[6.576,45.982],[6.664,45.987],[6.693,45.973],[6.657,45.959],[6.664,45.93],[6.649,45.923],[6.634,45.913],[6.596,45.896],[6.589,45.88],[6.573,45.877]]]}},{"type":"Feature","properties":{"code":"74257","nom":"Sallenôves","pop":849},"geometry":{"type":"Polygon","coordinates":[[[5.979,46.006],[5.991,46.014],[6.003,46.008],[6.005,46],[5.983,45.994],[5.979,46.006]]]}},{"type":"Feature","properties":{"code":"74258","nom":"Samoëns","pop":2203},"geometry":{"type":"Polygon","coordinates":[[[6.815,46.129],[6.827,46.104],[6.799,46.098],[6.782,46.074],[6.739,46.056],[6.754,46.026],[6.733,45.998],[6.695,46.031],[6.683,46.053],[6.684,46.087],[6.695,46.119],[6.731,46.138],[6.745,46.149],[6.79,46.155],[6.815,46.129]]]}},{"type":"Feature","properties":{"code":"74259","nom":"Le Sappey","pop":468},"geometry":{"type":"Polygon","coordinates":[[[6.163,46.112],[6.194,46.1],[6.171,46.077],[6.162,46.066],[6.126,46.079],[6.126,46.08],[6.149,46.1],[6.163,46.112]]]}},{"type":"Feature","properties":{"code":"74260","nom":"Savigny","pop":1041},"geometry":{"type":"Polygon","coordinates":[[[5.972,46.086],[5.973,46.065],[5.967,46.05],[5.944,46.054],[5.921,46.077],[5.972,46.086]]]}},{"type":"Feature","properties":{"code":"74261","nom":"Saxel","pop":518},"geometry":{"type":"Polygon","coordinates":[[[6.425,46.251],[6.41,46.234],[6.379,46.241],[6.39,46.25],[6.417,46.258],[6.425,46.251]]]}},{"type":"Feature","properties":{"code":"74262","nom":"Scientrier","pop":1273},"geometry":{"type":"Polygon","coordinates":[[[6.312,46.134],[6.319,46.137],[6.345,46.114],[6.303,46.105],[6.303,46.105],[6.29,46.117],[6.312,46.134]]]}},{"type":"Feature","properties":{"code":"74263","nom":"Sciez","pop":6447},"geometry":{"type":"Polygon","coordinates":[[[6.335,46.336],[6.363,46.348],[6.399,46.35],[6.414,46.336],[6.411,46.31],[6.404,46.307],[6.386,46.299],[6.385,46.299],[6.354,46.312],[6.335,46.336]]]}},{"type":"Feature","properties":{"code":"74264","nom":"Scionzier","pop":9162},"geometry":{"type":"Polygon","coordinates":[[[6.57,46.052],[6.56,46.03],[6.52,46.026],[6.543,46.061],[6.537,46.074],[6.547,46.073],[6.57,46.052]]]}},{"type":"Feature","properties":{"code":"74265","nom":"Serraval","pop":758},"geometry":{"type":"Polygon","coordinates":[[[6.349,45.779],[6.331,45.788],[6.292,45.815],[6.29,45.821],[6.332,45.834],[6.372,45.829],[6.372,45.828],[6.349,45.779]]]}},{"type":"Feature","properties":{"code":"74266","nom":"Servoz","pop":1169},"geometry":{"type":"Polygon","coordinates":[[[6.757,45.928],[6.75,45.948],[6.783,45.964],[6.825,45.955],[6.818,45.941],[6.757,45.928]]]}},{"type":"Feature","properties":{"code":"74267","nom":"Sevrier","pop":4333},"geometry":{"type":"Polygon","coordinates":[[[6.172,45.851],[6.133,45.832],[6.111,45.831],[6.103,45.838],[6.127,45.875],[6.156,45.883],[6.165,45.864],[6.172,45.851]]]}},{"type":"Feature","properties":{"code":"74269","nom":"Seyssel","pop":2321},"geometry":{"type":"Polygon","coordinates":[[[5.833,45.962],[5.833,45.972],[5.851,45.991],[5.851,45.992],[5.881,45.978],[5.873,45.945],[5.862,45.932],[5.829,45.938],[5.825,45.939],[5.833,45.962]]]}},{"type":"Feature","properties":{"code":"74271","nom":"Seytroux","pop":538},"geometry":{"type":"Polygon","coordinates":[[[6.599,46.213],[6.572,46.225],[6.578,46.252],[6.62,46.265],[6.634,46.249],[6.599,46.213]]]}},{"type":"Feature","properties":{"code":"74272","nom":"Sillingy","pop":5826},"geometry":{"type":"Polygon","coordinates":[[[5.995,45.95],[5.988,45.963],[5.992,45.974],[5.994,45.973],[6.011,45.962],[6.066,45.952],[6.063,45.939],[6.043,45.931],[6.019,45.93],[5.995,45.95]]]}},{"type":"Feature","properties":{"code":"74273","nom":"Sixt-Fer-à-Cheval","pop":736},"geometry":{"type":"Polygon","coordinates":[[[6.723,45.984],[6.733,45.998],[6.754,46.026],[6.739,46.056],[6.782,46.074],[6.799,46.098],[6.827,46.104],[6.815,46.129],[6.898,46.122],[6.883,46.095],[6.892,46.085],[6.872,46.051],[6.845,46.018],[6.821,46.002],[6.775,46.017],[6.785,45.979],[6.762,45.965],[6.731,45.965],[6.723,45.984]]]}},{"type":"Feature","properties":{"code":"74275","nom":"Talloires-Montmin","pop":1903},"geometry":{"type":"Polygon","coordinates":[[[6.252,45.787],[6.223,45.801],[6.215,45.821],[6.192,45.836],[6.172,45.851],[6.211,45.857],[6.241,45.861],[6.261,45.845],[6.285,45.83],[6.29,45.821],[6.292,45.815],[6.285,45.775],[6.252,45.787]]]}},{"type":"Feature","properties":{"code":"74276","nom":"Taninges","pop":3491},"geometry":{"type":"Polygon","coordinates":[[[6.56,46.11],[6.575,46.128],[6.562,46.142],[6.576,46.163],[6.6,46.168],[6.619,46.162],[6.617,46.142],[6.662,46.12],[6.662,46.094],[6.626,46.101],[6.59,46.097],[6.56,46.11]]]}},{"type":"Feature","properties":{"code":"74278","nom":"Thyez","pop":6309},"geometry":{"type":"Polygon","coordinates":[[[6.537,46.074],[6.515,46.073],[6.514,46.073],[6.529,46.107],[6.556,46.106],[6.557,46.085],[6.547,46.073],[6.537,46.074]]]}},{"type":"Feature","properties":{"code":"74279","nom":"Thollon-les-Mémises","pop":879},"geometry":{"type":"Polygon","coordinates":[[[6.698,46.374],[6.706,46.4],[6.75,46.392],[6.787,46.379],[6.742,46.37],[6.698,46.374]]]}},{"type":"Feature","properties":{"code":"74280","nom":"Thônes","pop":6654},"geometry":{"type":"Polygon","coordinates":[[[6.358,45.875],[6.303,45.858],[6.285,45.83],[6.261,45.845],[6.258,45.859],[6.279,45.879],[6.294,45.911],[6.334,45.937],[6.35,45.927],[6.342,45.919],[6.379,45.892],[6.407,45.894],[6.408,45.884],[6.358,45.875]]]}},{"type":"Feature","properties":{"code":"74281","nom":"Thonon-les-Bains","pop":37928},"geometry":{"type":"Polygon","coordinates":[[[6.508,46.383],[6.516,46.364],[6.492,46.354],[6.451,46.346],[6.443,46.364],[6.477,46.375],[6.483,46.392],[6.513,46.405],[6.508,46.383]]]}},{"type":"Feature","properties":{"code":"74282","nom":"Fillière","pop":10075},"geometry":{"type":"Polygon","coordinates":[[[6.347,46.006],[6.35,45.99],[6.327,45.973],[6.337,45.941],[6.315,45.948],[6.244,45.956],[6.222,45.971],[6.168,45.958],[6.138,45.953],[6.105,45.967],[6.122,45.984],[6.125,45.993],[6.143,45.99],[6.172,45.99],[6.203,46.005],[6.194,46.046],[6.2,46.067],[6.218,46.07],[6.247,46.063],[6.251,46.037],[6.298,46.03],[6.347,46.006]]]}},{"type":"Feature","properties":{"code":"74283","nom":"Thusy","pop":1181},"geometry":{"type":"Polygon","coordinates":[[[5.933,45.939],[5.962,45.962],[5.988,45.963],[5.995,45.95],[5.985,45.939],[5.949,45.941],[5.938,45.927],[5.933,45.939]]]}},{"type":"Feature","properties":{"code":"74284","nom":"La Tour","pop":1329},"geometry":{"type":"Polygon","coordinates":[[[6.401,46.136],[6.434,46.139],[6.439,46.159],[6.44,46.161],[6.446,46.11],[6.404,46.127],[6.401,46.136]]]}},{"type":"Feature","properties":{"code":"74285","nom":"Usinens","pop":433},"geometry":{"type":"Polygon","coordinates":[[[5.851,45.992],[5.851,45.991],[5.829,46.005],[5.848,46.035],[5.854,46.036],[5.871,46.018],[5.851,45.992]]]}},{"type":"Feature","properties":{"code":"74286","nom":"Vacheresse","pop":939},"geometry":{"type":"Polygon","coordinates":[[[6.647,46.304],[6.645,46.313],[6.677,46.346],[6.703,46.336],[6.75,46.348],[6.754,46.344],[6.76,46.309],[6.736,46.301],[6.688,46.306],[6.647,46.304]]]}},{"type":"Feature","properties":{"code":"74287","nom":"Vailly","pop":907},"geometry":{"type":"Polygon","coordinates":[[[6.58,46.273],[6.56,46.262],[6.538,46.278],[6.538,46.293],[6.507,46.3],[6.532,46.317],[6.536,46.319],[6.578,46.302],[6.584,46.288],[6.58,46.273]]]}},{"type":"Feature","properties":{"code":"74288","nom":"Valleiry","pop":5264},"geometry":{"type":"Polygon","coordinates":[[[5.979,46.097],[5.959,46.095],[5.957,46.129],[5.98,46.136],[5.986,46.124],[5.979,46.097]]]}},{"type":"Feature","properties":{"code":"74289","nom":"Vallières-sur-Fier","pop":2860},"geometry":{"type":"Polygon","coordinates":[[[5.862,45.932],[5.873,45.945],[5.881,45.946],[5.912,45.932],[5.941,45.921],[5.964,45.912],[5.958,45.904],[5.941,45.885],[5.925,45.886],[5.922,45.89],[5.895,45.928],[5.866,45.919],[5.862,45.932]]]}},{"type":"Feature","properties":{"code":"74290","nom":"Vallorcine","pop":453},"geometry":{"type":"Polygon","coordinates":[[[6.855,46.007],[6.845,46.018],[6.872,46.051],[6.891,46.043],[6.925,46.065],[6.95,46.052],[6.963,46.03],[6.93,46.005],[6.874,45.988],[6.855,46.007]]]}},{"type":"Feature","properties":{"code":"74291","nom":"Vanzy","pop":351},"geometry":{"type":"Polygon","coordinates":[[[5.854,46.036],[5.876,46.058],[5.894,46.048],[5.89,46.027],[5.871,46.018],[5.854,46.036]]]}},{"type":"Feature","properties":{"code":"74292","nom":"Vaulx","pop":1086},"geometry":{"type":"Polygon","coordinates":[[[6.019,45.93],[6.017,45.91],[6.014,45.904],[5.998,45.901],[5.978,45.919],[5.985,45.939],[5.995,45.95],[6.019,45.93]]]}},{"type":"Feature","properties":{"code":"74293","nom":"Veigy-Foncenex","pop":4141},"geometry":{"type":"Polygon","coordinates":[[[6.252,46.292],[6.278,46.284],[6.298,46.267],[6.295,46.265],[6.267,46.248],[6.238,46.282],[6.252,46.292]]]}},{"type":"Feature","properties":{"code":"74294","nom":"Verchaix","pop":830},"geometry":{"type":"Polygon","coordinates":[[[6.663,46.093],[6.662,46.094],[6.662,46.12],[6.699,46.134],[6.694,46.161],[6.731,46.138],[6.695,46.119],[6.684,46.087],[6.663,46.093]]]}},{"type":"Feature","properties":{"code":"74295","nom":"La Vernaz","pop":280},"geometry":{"type":"Polygon","coordinates":[[[6.595,46.325],[6.597,46.325],[6.617,46.301],[6.584,46.288],[6.578,46.302],[6.586,46.326],[6.595,46.325]]]}},{"type":"Feature","properties":{"code":"74296","nom":"Vers","pop":975},"geometry":{"type":"Polygon","coordinates":[[[6.005,46.1],[6.052,46.086],[6.052,46.084],[6.054,46.081],[6.017,46.075],[6.015,46.085],[6.002,46.087],[6.005,46.1]]]}},{"type":"Feature","properties":{"code":"74297","nom":"Versonnex","pop":714},"geometry":{"type":"Polygon","coordinates":[[[5.941,45.921],[5.912,45.932],[5.921,45.939],[5.933,45.939],[5.938,45.927],[5.941,45.921]]]}},{"type":"Feature","properties":{"code":"74298","nom":"Vétraz-Monthoux","pop":10949},"geometry":{"type":"Polygon","coordinates":[[[6.278,46.197],[6.275,46.17],[6.246,46.171],[6.238,46.176],[6.278,46.197]]]}},{"type":"Feature","properties":{"code":"74299","nom":"Veyrier-du-Lac","pop":2320},"geometry":{"type":"Polygon","coordinates":[[[6.197,45.901],[6.196,45.883],[6.165,45.864],[6.156,45.883],[6.149,45.897],[6.197,45.901]]]}},{"type":"Feature","properties":{"code":"74301","nom":"Villard","pop":947},"geometry":{"type":"Polygon","coordinates":[[[6.475,46.212],[6.477,46.207],[6.464,46.199],[6.422,46.205],[6.422,46.213],[6.443,46.227],[6.475,46.212]]]}},{"type":"Feature","properties":{"code":"74302","nom":"Les Villards-sur-Thônes","pop":1132},"geometry":{"type":"Polygon","coordinates":[[[6.35,45.927],[6.373,45.938],[6.403,45.905],[6.407,45.894],[6.379,45.892],[6.342,45.919],[6.35,45.927]]]}},{"type":"Feature","properties":{"code":"74303","nom":"Villaz","pop":3607},"geometry":{"type":"Polygon","coordinates":[[[6.175,45.936],[6.156,45.939],[6.168,45.958],[6.222,45.971],[6.244,45.956],[6.215,45.941],[6.175,45.936]]]}},{"type":"Feature","properties":{"code":"74304","nom":"Ville-en-Sallaz","pop":899},"geometry":{"type":"Polygon","coordinates":[[[6.439,46.159],[6.434,46.139],[6.401,46.136],[6.391,46.138],[6.439,46.159]]]}},{"type":"Feature","properties":{"code":"74305","nom":"Ville-la-Grand","pop":9514},"geometry":{"type":"Polygon","coordinates":[[[6.23,46.204],[6.276,46.215],[6.286,46.207],[6.276,46.199],[6.234,46.198],[6.23,46.204]]]}},{"type":"Feature","properties":{"code":"74306","nom":"Villy-le-Bouveret","pop":653},"geometry":{"type":"Polygon","coordinates":[[[6.171,46.04],[6.151,46.032],[6.148,46.045],[6.159,46.058],[6.171,46.04]]]}},{"type":"Feature","properties":{"code":"74307","nom":"Villy-le-Pelloux","pop":1062},"geometry":{"type":"Polygon","coordinates":[[[6.125,45.993],[6.129,46.01],[6.135,46.01],[6.15,45.998],[6.143,45.99],[6.125,45.993]]]}},{"type":"Feature","properties":{"code":"74308","nom":"Vinzier","pop":896},"geometry":{"type":"Polygon","coordinates":[[[6.597,46.325],[6.595,46.325],[6.597,46.359],[6.61,46.36],[6.634,46.352],[6.633,46.35],[6.603,46.331],[6.597,46.325]]]}},{"type":"Feature","properties":{"code":"74309","nom":"Viry","pop":5809},"geometry":{"type":"Polygon","coordinates":[[[6.064,46.124],[6.054,46.09],[6.052,46.086],[6.005,46.1],[5.986,46.124],[5.98,46.136],[5.994,46.144],[6.047,46.142],[6.064,46.124]]]}},{"type":"Feature","properties":{"code":"74310","nom":"Viuz-la-Chiésaz","pop":1351},"geometry":{"type":"Polygon","coordinates":[[[6.107,45.799],[6.106,45.797],[6.102,45.793],[6.051,45.799],[6.045,45.823],[6.042,45.827],[6.048,45.832],[6.073,45.83],[6.108,45.809],[6.107,45.799]]]}},{"type":"Feature","properties":{"code":"74311","nom":"Viuz-en-Sallaz","pop":4681},"geometry":{"type":"Polygon","coordinates":[[[6.377,46.179],[6.403,46.176],[6.416,46.193],[6.45,46.18],[6.44,46.161],[6.439,46.159],[6.391,46.138],[6.377,46.148],[6.371,46.154],[6.377,46.179]]]}},{"type":"Feature","properties":{"code":"74312","nom":"Vougy","pop":1659},"geometry":{"type":"Polygon","coordinates":[[[6.514,46.073],[6.515,46.073],[6.508,46.061],[6.46,46.06],[6.461,46.073],[6.467,46.072],[6.514,46.073]]]}},{"type":"Feature","properties":{"code":"74313","nom":"Vovray-en-Bornes","pop":550},"geometry":{"type":"Polygon","coordinates":[[[6.126,46.079],[6.162,46.066],[6.159,46.058],[6.148,46.045],[6.122,46.075],[6.126,46.079]]]}},{"type":"Feature","properties":{"code":"74314","nom":"Vulbens","pop":1783},"geometry":{"type":"Polygon","coordinates":[[[5.907,46.122],[5.937,46.129],[5.956,46.132],[5.957,46.129],[5.959,46.095],[5.935,46.098],[5.911,46.084],[5.907,46.095],[5.907,46.122]]]}},{"type":"Feature","properties":{"code":"74315","nom":"Yvoire","pop":1046},"geometry":{"type":"Polygon","coordinates":[[[6.327,46.353],[6.318,46.364],[6.316,46.369],[6.349,46.368],[6.327,46.353]]]}}]}