{"type":"FeatureCollection","features":[{"type":"Feature","properties":{"code":"75101","nom":"Paris 1er Arrondissement"},"geometry":{"type":"Polygon","coordinates":[[[2.326,48.87],[2.328,48.87],[2.351,48.863],[2.35,48.862],[2.345,48.854],[2.333,48.859],[2.321,48.863],[2.326,48.87]]]}},{"type":"Feature","properties":{"code":"75102","nom":"Paris 2e Arrondissement"},"geometry":{"type":"Polygon","coordinates":[[[2.348,48.871],[2.354,48.869],[2.351,48.863],[2.328,48.87],[2.348,48.871]]]}},{"type":"Feature","properties":{"code":"75103","nom":"Paris 3e Arrondissement"},"geometry":{"type":"Polygon","coordinates":[[[2.35,48.862],[2.351,48.863],[2.354,48.869],[2.364,48.868],[2.368,48.856],[2.35,48.862]]]}},{"type":"Feature","properties":{"code":"75104","nom":"Paris 4e Arrondissement"},"geometry":{"type":"Polygon","coordinates":[[[2.369,48.853],[2.364,48.846],[2.345,48.854],[2.35,48.862],[2.368,48.856],[2.369,48.853]]]}},{"type":"Feature","properties":{"code":"75105","nom":"Paris 5e Arrondissement"},"geometry":{"type":"Polygon","coordinates":[[[2.342,48.838],[2.337,48.84],[2.345,48.854],[2.364,48.846],[2.366,48.845],[2.342,48.838]]]}},{"type":"Feature","properties":{"code":"75106","nom":"Paris 6e Arrondissement"},"geometry":{"type":"Polygon","coordinates":[[[2.333,48.859],[2.345,48.854],[2.337,48.84],[2.325,48.844],[2.317,48.847],[2.333,48.859]]]}},{"type":"Feature","properties":{"code":"75107","nom":"Paris 7e Arrondissement"},"geometry":{"type":"Polygon","coordinates":[[[2.302,48.863],[2.321,48.863],[2.333,48.859],[2.317,48.847],[2.29,48.858],[2.302,48.863]]]}},{"type":"Feature","properties":{"code":"75108","nom":"Paris 8e Arrondissement"},"geometry":{"type":"Polygon","coordinates":[[[2.302,48.863],[2.295,48.874],[2.327,48.883],[2.326,48.87],[2.321,48.863],[2.302,48.863]]]}},{"type":"Feature","properties":{"code":"75109","nom":"Paris 9e Arrondissement"},"geometry":{"type":"Polygon","coordinates":[[[2.327,48.883],[2.327,48.884],[2.349,48.884],[2.348,48.871],[2.328,48.87],[2.326,48.87],[2.327,48.883]]]}},{"type":"Feature","properties":{"code":"75110","nom":"Paris 10e Arrondissement"},"geometry":{"type":"Polygon","coordinates":[[[2.364,48.868],[2.354,48.869],[2.348,48.871],[2.349,48.884],[2.365,48.884],[2.377,48.872],[2.364,48.868]]]}},{"type":"Feature","properties":{"code":"75111","nom":"Paris 11e Arrondissement"},"geometry":{"type":"Polygon","coordinates":[[[2.369,48.853],[2.368,48.856],[2.364,48.868],[2.377,48.872],[2.399,48.848],[2.369,48.853]]]}},{"type":"Feature","properties":{"code":"75112","nom":"Paris 12e Arrondissement"},"geometry":{"type":"Polygon","coordinates":[[[2.467,48.839],[2.466,48.826],[2.461,48.818],[2.42,48.824],[2.39,48.826],[2.366,48.845],[2.364,48.846],[2.369,48.853],[2.399,48.848],[2.416,48.847],[2.428,48.842],[2.448,48.845],[2.467,48.839]]]}},{"type":"Feature","properties":{"code":"75113","nom":"Paris 13e Arrondissement"},"geometry":{"type":"Polygon","coordinates":[[[2.366,48.845],[2.39,48.826],[2.364,48.816],[2.356,48.816],[2.344,48.816],[2.342,48.838],[2.366,48.845]]]}},{"type":"Feature","properties":{"code":"75114","nom":"Paris 14e Arrondissement"},"geometry":{"type":"Polygon","coordinates":[[[2.337,48.84],[2.342,48.838],[2.344,48.816],[2.332,48.817],[2.314,48.822],[2.301,48.825],[2.325,48.844],[2.337,48.84]]]}},{"type":"Feature","properties":{"code":"75115","nom":"Paris 15e Arrondissement"},"geometry":{"type":"Polygon","coordinates":[[[2.289,48.828],[2.263,48.834],[2.29,48.858],[2.317,48.847],[2.325,48.844],[2.301,48.825],[2.289,48.828]]]}},{"type":"Feature","properties":{"code":"75116","nom":"Paris 16e Arrondissement"},"geometry":{"type":"Polygon","coordinates":[[[2.224,48.854],[2.226,48.859],[2.232,48.869],[2.246,48.876],[2.28,48.879],[2.295,48.874],[2.302,48.863],[2.29,48.858],[2.263,48.834],[2.224,48.854]]]}},{"type":"Feature","properties":{"code":"75117","nom":"Paris 17e Arrondissement"},"geometry":{"type":"Polygon","coordinates":[[[2.304,48.894],[2.32,48.9],[2.33,48.901],[2.327,48.884],[2.327,48.883],[2.295,48.874],[2.28,48.879],[2.284,48.886],[2.304,48.894]]]}},{"type":"Feature","properties":{"code":"75118","nom":"Paris 18e Arrondissement"},"geometry":{"type":"Polygon","coordinates":[[[2.352,48.901],[2.366,48.902],[2.37,48.902],[2.365,48.884],[2.349,48.884],[2.327,48.884],[2.33,48.901],[2.352,48.901]]]}},{"type":"Feature","properties":{"code":"75119","nom":"Paris 19e Arrondissement"},"geometry":{"type":"Polygon","coordinates":[[[2.411,48.878],[2.377,48.872],[2.365,48.884],[2.37,48.902],[2.389,48.901],[2.399,48.89],[2.411,48.878]]]}},{"type":"Feature","properties":{"code":"75120","nom":"Paris 20e Arrondissement"},"geometry":{"type":"Polygon","coordinates":[[[2.415,48.855],[2.416,48.849],[2.416,48.847],[2.399,48.848],[2.377,48.872],[2.411,48.878],[2.413,48.873],[2.415,48.855]]]}},{"type":"Feature","properties":{"code":"75101","nom":"Paris 1er Arrondissement"},"geometry":{"type":"Polygon","coordinates":[[[2.325888,48.869577],[2.327999,48.869921],[2.328251,48.869752],[2.329411,48.868902],[2.330107,48.868409],[2.330426,48.86826],[2.331053,48.868101],[2.331727,48.867953],[2.333661,48.867507],[2.335874,48.866979],[2.33738,48.866645],[2.339763,48.866075],[2.340887,48.865823],[2.34256,48.865403],[2.343083,48.865285],[2.344975,48.864825],[2.346683,48.864422],[2.349018,48.863859],[2.349999,48.863632],[2.350955,48.863402],[2.350697,48.862925],[2.350164,48.861985],[2.34909,48.860076],[2.347851,48.857849],[2.347574,48.857359],[2.347329,48.857181],[2.347115,48.857241],[2.346476,48.85619],[2.346051,48.855535],[2.345837,48.855257],[2.344843,48.854281],[2.344634,48.854089],[2.34411,48.854283],[2.34293,48.854833],[2.342506,48.855104],[2.341758,48.855733],[2.341368,48.856128],[2.340567,48.856675],[2.338802,48.857661],[2.337672,48.858311],[2.336388,48.858625],[2.334832,48.858947],[2.332916,48.859335],[2.331212,48.859679],[2.32798,48.860821],[2.320933,48.863019],[2.321594,48.863924],[2.322366,48.864923],[2.322582,48.865188],[2.323549,48.866473],[2.324584,48.867949],[2.325319,48.869012],[2.325166,48.869417],[2.325374,48.869485],[2.325888,48.869577]]]}},{"type":"Feature","properties":{"code":"75102","nom":"Paris 2e Arrondissement"},"geometry":{"type":"Polygon","coordinates":[[[2.347918,48.870688],[2.349099,48.870448],[2.352048,48.869822],[2.354253,48.869324],[2.353723,48.86838],[2.353306,48.867619],[2.352971,48.867032],[2.352534,48.866235],[2.351965,48.865246],[2.351363,48.864164],[2.350955,48.863402],[2.349999,48.863632],[2.349018,48.863859],[2.346683,48.864422],[2.344975,48.864825],[2.343083,48.865285],[2.34256,48.865403],[2.340887,48.865823],[2.339763,48.866075],[2.33738,48.866645],[2.335874,48.866979],[2.333661,48.867507],[2.331727,48.867953],[2.331053,48.868101],[2.330426,48.86826],[2.330107,48.868409],[2.329411,48.868902],[2.328251,48.869752],[2.327999,48.869921],[2.329007,48.87009],[2.329973,48.870265],[2.332079,48.870626],[2.332522,48.870692],[2.334763,48.871071],[2.335927,48.871286],[2.338312,48.871692],[2.340041,48.871972],[2.341876,48.871679],[2.347029,48.870826],[2.347918,48.870688]]]}},{"type":"Feature","properties":{"code":"75103","nom":"Paris 3e Arrondissement"},"geometry":{"type":"Polygon","coordinates":[[[2.350164,48.861985],[2.350697,48.862925],[2.350955,48.863402],[2.351363,48.864164],[2.351965,48.865246],[2.352534,48.866235],[2.352971,48.867032],[2.353306,48.867619],[2.353723,48.86838],[2.354253,48.869324],[2.354957,48.869167],[2.355755,48.868976],[2.356496,48.868829],[2.359266,48.868407],[2.362216,48.867972],[2.36329,48.867816],[2.363872,48.867516],[2.364307,48.867309],[2.364789,48.86641],[2.36489,48.86617],[2.365198,48.865653],[2.366686,48.863203],[2.366748,48.863076],[2.366889,48.862473],[2.367252,48.860991],[2.368062,48.857603],[2.368229,48.856943],[2.368491,48.855805],[2.368279,48.855785],[2.366868,48.856025],[2.364941,48.856306],[2.364314,48.856458],[2.362861,48.8569],[2.361768,48.857244],[2.36077,48.857675],[2.359367,48.858327],[2.358772,48.858676],[2.357287,48.859809],[2.357017,48.860005],[2.356742,48.860147],[2.3535,48.861213],[2.350164,48.861985]]]}},{"type":"Feature","properties":{"code":"75104","nom":"Paris 4e Arrondissement"},"geometry":{"type":"Polygon","coordinates":[[[2.369124,48.853166],[2.367969,48.85073],[2.366454,48.847375],[2.366444,48.84731],[2.364455,48.846186],[2.362261,48.847812],[2.361058,48.848556],[2.35995,48.849114],[2.359308,48.849428],[2.358614,48.849697],[2.355502,48.850692],[2.354597,48.850986],[2.353935,48.851156],[2.353295,48.851265],[2.351245,48.851688],[2.350009,48.852052],[2.349024,48.852363],[2.347264,48.853154],[2.346674,48.853399],[2.345387,48.853809],[2.344634,48.854089],[2.344843,48.854281],[2.345837,48.855257],[2.346051,48.855535],[2.346476,48.85619],[2.347115,48.857241],[2.347329,48.857181],[2.347574,48.857359],[2.347851,48.857849],[2.34909,48.860076],[2.350164,48.861985],[2.3535,48.861213],[2.356742,48.860147],[2.357017,48.860005],[2.357287,48.859809],[2.358772,48.858676],[2.359367,48.858327],[2.36077,48.857675],[2.361768,48.857244],[2.362861,48.8569],[2.364314,48.856458],[2.364941,48.856306],[2.366868,48.856025],[2.368279,48.855785],[2.368491,48.855805],[2.368922,48.854041],[2.369124,48.853166]]]}},{"type":"Feature","properties":{"code":"75105","nom":"Paris 5e Arrondissement"},"geometry":{"type":"Polygon","coordinates":[[[2.342086,48.838343],[2.340065,48.838779],[2.339695,48.838864],[2.338336,48.839221],[2.336657,48.839671],[2.33672,48.840107],[2.336771,48.840746],[2.337079,48.840783],[2.337256,48.840875],[2.337756,48.841755],[2.3382,48.842505],[2.338668,48.843363],[2.338983,48.843924],[2.340252,48.846289],[2.340482,48.84671],[2.341463,48.848379],[2.342632,48.850348],[2.342777,48.850637],[2.343188,48.851389],[2.344281,48.853757],[2.344634,48.854089],[2.345387,48.853809],[2.346674,48.853399],[2.347264,48.853154],[2.349024,48.852363],[2.350009,48.852052],[2.351245,48.851688],[2.353295,48.851265],[2.353935,48.851156],[2.354597,48.850986],[2.355502,48.850692],[2.358614,48.849697],[2.359308,48.849428],[2.35995,48.849114],[2.361058,48.848556],[2.362261,48.847812],[2.364455,48.846186],[2.366088,48.844968],[2.365127,48.844413],[2.364902,48.844113],[2.364158,48.843185],[2.363853,48.842748],[2.363181,48.841847],[2.362867,48.841398],[2.361851,48.840096],[2.361745,48.839941],[2.359798,48.839332],[2.355956,48.838091],[2.352678,48.837053],[2.351871,48.836805],[2.350688,48.836892],[2.348856,48.837097],[2.347007,48.837316],[2.34635,48.837459],[2.344492,48.837849],[2.342691,48.838212],[2.342086,48.838343]]]}},{"type":"Feature","properties":{"code":"75106","nom":"Paris 6e Arrondissement"},"geometry":{"type":"Polygon","coordinates":[[[2.332916,48.859335],[2.334832,48.858947],[2.336388,48.858625],[2.337672,48.858311],[2.338802,48.857661],[2.340567,48.856675],[2.341368,48.856128],[2.341758,48.855733],[2.342506,48.855104],[2.34293,48.854833],[2.34411,48.854283],[2.344634,48.854089],[2.344281,48.853757],[2.343188,48.851389],[2.342777,48.850637],[2.342632,48.850348],[2.341463,48.848379],[2.340482,48.84671],[2.340252,48.846289],[2.338983,48.843924],[2.338668,48.843363],[2.3382,48.842505],[2.337756,48.841755],[2.337256,48.840875],[2.337079,48.840783],[2.336771,48.840746],[2.33672,48.840107],[2.336657,48.839671],[2.335565,48.840014],[2.334312,48.840432],[2.331328,48.841408],[2.329575,48.841994],[2.328673,48.842308],[2.327459,48.842704],[2.326385,48.843065],[2.324642,48.843621],[2.322905,48.844184],[2.320553,48.844967],[2.319893,48.845166],[2.319142,48.845519],[2.316983,48.846636],[2.316713,48.846863],[2.317186,48.847018],[2.318203,48.847395],[2.319421,48.847858],[2.320191,48.848235],[2.321899,48.849126],[2.322945,48.849659],[2.324162,48.850235],[2.32462,48.850417],[2.326877,48.851362],[2.326814,48.851581],[2.327274,48.851664],[2.328657,48.851868],[2.328659,48.852056],[2.329336,48.852639],[2.329876,48.853538],[2.330464,48.854473],[2.330733,48.855056],[2.331348,48.8559],[2.331667,48.856315],[2.332276,48.857044],[2.33327,48.858291],[2.332452,48.858531],[2.332916,48.859335]]]}},{"type":"Feature","properties":{"code":"75107","nom":"Paris 7e Arrondissement"},"geometry":{"type":"Polygon","coordinates":[[[2.301737,48.863496],[2.302333,48.863526],[2.312376,48.863629],[2.315447,48.863718],[2.318678,48.863723],[2.320933,48.863019],[2.32798,48.860821],[2.331212,48.859679],[2.332916,48.859335],[2.332452,48.858531],[2.33327,48.858291],[2.332276,48.857044],[2.331667,48.856315],[2.331348,48.8559],[2.330733,48.855056],[2.330464,48.854473],[2.329876,48.853538],[2.329336,48.852639],[2.328659,48.852056],[2.328657,48.851868],[2.327274,48.851664],[2.326814,48.851581],[2.326877,48.851362],[2.32462,48.850417],[2.324162,48.850235],[2.322945,48.849659],[2.321899,48.849126],[2.320191,48.848235],[2.319421,48.847858],[2.318203,48.847395],[2.317186,48.847018],[2.316713,48.846863],[2.315361,48.846464],[2.313716,48.845943],[2.310495,48.847976],[2.308798,48.847579],[2.308218,48.847433],[2.307354,48.847133],[2.305863,48.848094],[2.302064,48.850524],[2.301228,48.851062],[2.300912,48.851176],[2.300546,48.851385],[2.299301,48.852194],[2.297376,48.853424],[2.296958,48.853702],[2.295785,48.854455],[2.295381,48.854707],[2.292936,48.856265],[2.291928,48.856924],[2.290943,48.857541],[2.29042,48.857827],[2.289696,48.858183],[2.290475,48.858831],[2.290749,48.859098],[2.292196,48.860254],[2.29369,48.861246],[2.294422,48.861622],[2.294865,48.861876],[2.29546,48.862117],[2.296871,48.862619],[2.297552,48.862839],[2.298589,48.863144],[2.299222,48.863284],[2.300144,48.863386],[2.301372,48.863487],[2.301737,48.863496]]]}},{"type":"Feature","properties":{"code":"75108","nom":"Paris 8e Arrondissement"},"geometry":{"type":"Polygon","coordinates":[[[2.301737,48.863496],[2.301635,48.864491],[2.300298,48.865008],[2.299842,48.864987],[2.299856,48.865261],[2.299838,48.865537],[2.299254,48.867454],[2.298867,48.868644],[2.297501,48.870939],[2.297217,48.871292],[2.29635,48.872324],[2.295543,48.873303],[2.295032,48.873773],[2.295557,48.874513],[2.296024,48.875133],[2.298155,48.878077],[2.300977,48.878688],[2.304992,48.879546],[2.307121,48.880007],[2.308613,48.880341],[2.308875,48.880434],[2.309287,48.880491],[2.309834,48.88052],[2.310181,48.880567],[2.3122,48.880805],[2.312551,48.880851],[2.314143,48.881034],[2.315575,48.881205],[2.31648,48.881341],[2.318769,48.881757],[2.321028,48.882215],[2.327165,48.883455],[2.327061,48.880801],[2.327055,48.880438],[2.327009,48.879651],[2.326981,48.878716],[2.326964,48.877848],[2.326914,48.877112],[2.326876,48.876184],[2.326852,48.875873],[2.326666,48.875544],[2.326637,48.875355],[2.326746,48.874827],[2.326937,48.874179],[2.327025,48.873781],[2.326911,48.873427],[2.32647,48.872762],[2.326608,48.872697],[2.326614,48.872598],[2.326089,48.870563],[2.325971,48.870089],[2.325888,48.869577],[2.325374,48.869485],[2.325166,48.869417],[2.325319,48.869012],[2.324584,48.867949],[2.323549,48.866473],[2.322582,48.865188],[2.322366,48.864923],[2.321594,48.863924],[2.320933,48.863019],[2.318678,48.863723],[2.315447,48.863718],[2.312376,48.863629],[2.302333,48.863526],[2.301737,48.863496]]]}},{"type":"Feature","properties":{"code":"75109","nom":"Paris 9e Arrondissement"},"geometry":{"type":"Polygon","coordinates":[[[2.327165,48.883455],[2.327423,48.883508],[2.327875,48.883598],[2.328121,48.883707],[2.329541,48.88459],[2.330915,48.884204],[2.33259,48.883793],[2.3374,48.882386],[2.339802,48.882024],[2.34285,48.882619],[2.346909,48.883414],[2.347242,48.883451],[2.349465,48.883725],[2.349476,48.883615],[2.3496,48.88348],[2.349683,48.882422],[2.349836,48.881097],[2.349853,48.880643],[2.34953,48.87969],[2.3493,48.879103],[2.349201,48.878589],[2.349145,48.877886],[2.349135,48.877529],[2.348999,48.877278],[2.348996,48.877208],[2.348352,48.876083],[2.348227,48.875785],[2.34816,48.875484],[2.347901,48.874019],[2.347884,48.872474],[2.347897,48.871322],[2.347918,48.870688],[2.347029,48.870826],[2.341876,48.871679],[2.340041,48.871972],[2.338312,48.871692],[2.335927,48.871286],[2.334763,48.871071],[2.332522,48.870692],[2.332079,48.870626],[2.329973,48.870265],[2.329007,48.87009],[2.327999,48.869921],[2.325888,48.869577],[2.325971,48.870089],[2.326089,48.870563],[2.326614,48.872598],[2.326608,48.872697],[2.32647,48.872762],[2.326911,48.873427],[2.327025,48.873781],[2.326937,48.874179],[2.326746,48.874827],[2.326637,48.875355],[2.326666,48.875544],[2.326852,48.875873],[2.326876,48.876184],[2.326914,48.877112],[2.326964,48.877848],[2.326981,48.878716],[2.327009,48.879651],[2.327055,48.880438],[2.327061,48.880801],[2.327165,48.883455]]]}},{"type":"Feature","properties":{"code":"75110","nom":"Paris 10e Arrondissement"},"geometry":{"type":"Polygon","coordinates":[[[2.363872,48.867516],[2.36329,48.867816],[2.362216,48.867972],[2.359266,48.868407],[2.356496,48.868829],[2.355755,48.868976],[2.354957,48.869167],[2.354253,48.869324],[2.352048,48.869822],[2.349099,48.870448],[2.347918,48.870688],[2.347897,48.871322],[2.347884,48.872474],[2.347901,48.874019],[2.34816,48.875484],[2.348227,48.875785],[2.348352,48.876083],[2.348996,48.877208],[2.348999,48.877278],[2.349135,48.877529],[2.349145,48.877886],[2.349201,48.878589],[2.3493,48.879103],[2.34953,48.87969],[2.349853,48.880643],[2.349836,48.881097],[2.349683,48.882422],[2.3496,48.88348],[2.349476,48.883615],[2.349465,48.883725],[2.349797,48.883758],[2.351101,48.883848],[2.353382,48.884013],[2.356255,48.884213],[2.358355,48.884367],[2.359013,48.884408],[2.359903,48.884411],[2.362494,48.884404],[2.364278,48.88439],[2.364714,48.884366],[2.366335,48.884265],[2.367978,48.884156],[2.368228,48.884131],[2.368499,48.884065],[2.368828,48.883873],[2.369205,48.883406],[2.369557,48.883144],[2.369898,48.882952],[2.370168,48.882684],[2.370228,48.882467],[2.37022,48.881963],[2.370244,48.88128],[2.37025,48.880493],[2.370286,48.87859],[2.37029,48.877991],[2.373301,48.875285],[2.376905,48.872048],[2.376223,48.871792],[2.374274,48.871108],[2.373502,48.870776],[2.372897,48.87057],[2.371544,48.870163],[2.371045,48.870002],[2.370077,48.869713],[2.369358,48.869485],[2.367611,48.868819],[2.366499,48.868518],[2.365618,48.868237],[2.364356,48.867745],[2.363872,48.867516]]]}},{"type":"Feature","properties":{"code":"75111","nom":"Paris 11e Arrondissement"},"geometry":{"type":"Polygon","coordinates":[[[2.369124,48.853166],[2.368922,48.854041],[2.368491,48.855805],[2.368229,48.856943],[2.368062,48.857603],[2.367252,48.860991],[2.366889,48.862473],[2.366748,48.863076],[2.366686,48.863203],[2.365198,48.865653],[2.36489,48.86617],[2.364789,48.86641],[2.364307,48.867309],[2.363872,48.867516],[2.364356,48.867745],[2.365618,48.868237],[2.366499,48.868518],[2.367611,48.868819],[2.369358,48.869485],[2.370077,48.869713],[2.371045,48.870002],[2.371544,48.870163],[2.372897,48.87057],[2.373502,48.870776],[2.374274,48.871108],[2.376223,48.871792],[2.376905,48.872048],[2.377852,48.871147],[2.37829,48.870775],[2.380537,48.86901],[2.382971,48.867178],[2.383289,48.866667],[2.383584,48.866267],[2.384308,48.865643],[2.385193,48.864853],[2.386065,48.864104],[2.387201,48.863086],[2.387442,48.862805],[2.388853,48.859871],[2.389437,48.858671],[2.389537,48.858488],[2.389704,48.85839],[2.390075,48.858288],[2.392167,48.857667],[2.392259,48.85763],[2.394345,48.85652],[2.396013,48.854331],[2.397074,48.852998],[2.398385,48.851319],[2.398506,48.851058],[2.398756,48.850338],[2.398931,48.849787],[2.399214,48.848948],[2.399246,48.848765],[2.399121,48.848098],[2.398188,48.848184],[2.397516,48.848235],[2.395958,48.848378],[2.394859,48.848542],[2.392997,48.848811],[2.387329,48.849679],[2.384708,48.850084],[2.384458,48.850127],[2.383631,48.850224],[2.381789,48.850359],[2.381391,48.850411],[2.380115,48.850455],[2.3788,48.850643],[2.376143,48.851304],[2.375494,48.851447],[2.373813,48.851874],[2.372318,48.852287],[2.371719,48.852487],[2.371217,48.852727],[2.370477,48.853189],[2.370228,48.853282],[2.369124,48.853166]]]}},{"type":"Feature","properties":{"code":"75112","nom":"Paris 12e Arrondissement"},"geometry":{"type":"Polygon","coordinates":[[[2.467319,48.839099],[2.467787,48.838577],[2.468076,48.838303],[2.468547,48.837902],[2.469236,48.837289],[2.469473,48.837048],[2.469662,48.836788],[2.469803,48.836547],[2.469851,48.836399],[2.469834,48.835798],[2.469724,48.835195],[2.469483,48.834547],[2.469197,48.83412],[2.468891,48.833797],[2.468485,48.833507],[2.467882,48.833204],[2.467329,48.832952],[2.466939,48.832749],[2.466569,48.832521],[2.466273,48.832296],[2.465823,48.83187],[2.465575,48.831555],[2.465584,48.831471],[2.465426,48.83132],[2.465273,48.831018],[2.465077,48.830568],[2.464806,48.829684],[2.464702,48.829277],[2.46465,48.828956],[2.464608,48.828535],[2.464662,48.827623],[2.465095,48.827541],[2.465232,48.827667],[2.465434,48.827567],[2.466178,48.827328],[2.465731,48.826226],[2.465503,48.825586],[2.46532,48.824979],[2.465189,48.824957],[2.465299,48.824705],[2.465044,48.824084],[2.464026,48.822303],[2.463725,48.821678],[2.463403,48.821149],[2.462867,48.820178],[2.462697,48.819369],[2.462529,48.819246],[2.462696,48.81906],[2.461205,48.818355],[2.46053,48.818027],[2.459541,48.817571],[2.459115,48.817365],[2.459414,48.816848],[2.459119,48.816997],[2.458717,48.817034],[2.458054,48.81702],[2.455919,48.817082],[2.455102,48.817076],[2.453452,48.817149],[2.452526,48.817317],[2.451315,48.817619],[2.450558,48.817773],[2.449671,48.817893],[2.448935,48.81793],[2.447786,48.817966],[2.446618,48.81793],[2.445958,48.817928],[2.444713,48.817897],[2.444181,48.817875],[2.443731,48.817892],[2.442326,48.817904],[2.441855,48.817944],[2.441012,48.818093],[2.440137,48.818259],[2.439854,48.818291],[2.4394,48.81828],[2.437329,48.818177],[2.437442,48.819111],[2.437345,48.819187],[2.436925,48.819365],[2.436332,48.819543],[2.436028,48.819593],[2.434902,48.819669],[2.434655,48.819557],[2.434144,48.819216],[2.434262,48.819911],[2.434288,48.820158],[2.434108,48.820297],[2.433094,48.820991],[2.43248,48.821426],[2.43289,48.821693],[2.432634,48.821901],[2.432195,48.82162],[2.430371,48.822877],[2.430628,48.823157],[2.429861,48.823432],[2.429227,48.823622],[2.428768,48.823733],[2.427958,48.8239],[2.427421,48.823987],[2.426575,48.824097],[2.425481,48.824176],[2.424654,48.824191],[2.42345,48.824158],[2.422878,48.82413],[2.421826,48.824059],[2.420678,48.824048],[2.419963,48.82408],[2.419387,48.824156],[2.418603,48.824312],[2.417763,48.824531],[2.417131,48.824649],[2.416513,48.824736],[2.415976,48.824777],[2.415083,48.824782],[2.413785,48.824723],[2.413111,48.824718],[2.412623,48.824737],[2.411757,48.824803],[2.410907,48.82494],[2.41027,48.825087],[2.409955,48.825183],[2.409175,48.825502],[2.408675,48.825767],[2.408085,48.826112],[2.407589,48.82643],[2.40655,48.827191],[2.405816,48.827797],[2.405376,48.828134],[2.404994,48.828403],[2.403814,48.82906],[2.403551,48.829175],[2.402871,48.829415],[2.402237,48.82959],[2.400679,48.829095],[2.399775,48.828791],[2.399205,48.828626],[2.397894,48.828329],[2.396843,48.828054],[2.395707,48.827727],[2.395179,48.827645],[2.39434,48.827539],[2.393993,48.827401],[2.392762,48.826855],[2.391022,48.826117],[2.390072,48.825692],[2.388512,48.826744],[2.387151,48.82787],[2.384305,48.830311],[2.380999,48.832905],[2.378358,48.835023],[2.375322,48.837608],[2.37355,48.839329],[2.371739,48.840732],[2.366088,48.844968],[2.364455,48.846186],[2.366444,48.84731],[2.366454,48.847375],[2.367969,48.85073],[2.369124,48.853166],[2.370228,48.853282],[2.370477,48.853189],[2.371217,48.852727],[2.371719,48.852487],[2.372318,48.852287],[2.373813,48.851874],[2.375494,48.851447],[2.376143,48.851304],[2.3788,48.850643],[2.380115,48.850455],[2.381391,48.850411],[2.381789,48.850359],[2.383631,48.850224],[2.384458,48.850127],[2.384708,48.850084],[2.387329,48.849679],[2.392997,48.848811],[2.394859,48.848542],[2.395958,48.848378],[2.397516,48.848235],[2.398188,48.848184],[2.399121,48.848098],[2.406149,48.847466],[2.409736,48.847168],[2.411057,48.847047],[2.411445,48.847036],[2.413111,48.846871],[2.415971,48.846623],[2.415768,48.845445],[2.415664,48.844996],[2.415299,48.84385],[2.41485,48.842379],[2.414248,48.840488],[2.414047,48.83976],[2.413577,48.838278],[2.412852,48.836217],[2.412246,48.834539],[2.411472,48.833929],[2.412587,48.833779],[2.413505,48.833723],[2.413921,48.833712],[2.414633,48.833728],[2.41547,48.833794],[2.415968,48.833864],[2.416608,48.833997],[2.417338,48.834189],[2.41935,48.834832],[2.421016,48.835398],[2.422139,48.835798],[2.421801,48.836348],[2.421586,48.836756],[2.421447,48.837219],[2.421254,48.838161],[2.421062,48.838891],[2.42093,48.839329],[2.420719,48.839806],[2.420475,48.840314],[2.420304,48.840564],[2.420133,48.840753],[2.419776,48.841082],[2.419539,48.841449],[2.419394,48.841997],[2.419357,48.842498],[2.419469,48.842692],[2.419735,48.84294],[2.419849,48.843102],[2.41986,48.843456],[2.420115,48.843601],[2.421848,48.844437],[2.422225,48.84423],[2.422435,48.844058],[2.422653,48.843837],[2.422966,48.843417],[2.423283,48.842912],[2.423492,48.842656],[2.423948,48.842196],[2.424347,48.84195],[2.424535,48.841886],[2.42492,48.841808],[2.425819,48.841715],[2.427575,48.841571],[2.42813,48.841528],[2.43064,48.841299],[2.431533,48.841228],[2.432249,48.841161],[2.432916,48.841114],[2.433545,48.841046],[2.43367,48.841198],[2.435777,48.84102],[2.437184,48.840893],[2.437282,48.841326],[2.437958,48.844664],[2.439489,48.844521],[2.44052,48.84444],[2.440616,48.844892],[2.440801,48.844879],[2.440864,48.845252],[2.440681,48.845247],[2.440758,48.845964],[2.441832,48.845916],[2.444136,48.845878],[2.444921,48.845869],[2.446646,48.845802],[2.446497,48.844968],[2.446969,48.84494],[2.447853,48.844863],[2.448654,48.844781],[2.449527,48.844677],[2.450814,48.844502],[2.451866,48.844329],[2.452621,48.844217],[2.453503,48.844101],[2.455169,48.843919],[2.456779,48.843708],[2.458615,48.843428],[2.459873,48.843181],[2.461008,48.842938],[2.461794,48.842731],[2.462446,48.842532],[2.462848,48.84239],[2.463741,48.842023],[2.464181,48.841809],[2.464903,48.841406],[2.465411,48.841066],[2.465699,48.840836],[2.466164,48.840423],[2.466639,48.839925],[2.466929,48.839596],[2.467319,48.839099]]]}},{"type":"Feature","properties":{"code":"75113","nom":"Paris 13e Arrondissement"},"geometry":{"type":"Polygon","coordinates":[[[2.366088,48.844968],[2.371739,48.840732],[2.37355,48.839329],[2.375322,48.837608],[2.378358,48.835023],[2.380999,48.832905],[2.384305,48.830311],[2.387151,48.82787],[2.388512,48.826744],[2.390072,48.825692],[2.389445,48.825345],[2.3888,48.825106],[2.387894,48.824805],[2.386941,48.824463],[2.385226,48.823729],[2.383142,48.82299],[2.381524,48.822411],[2.380767,48.821701],[2.379478,48.821273],[2.379083,48.821158],[2.377884,48.82078],[2.376526,48.820319],[2.376077,48.820156],[2.375597,48.82001],[2.374589,48.819681],[2.373978,48.819506],[2.373705,48.819413],[2.372608,48.819074],[2.371497,48.818702],[2.370643,48.818433],[2.369484,48.81808],[2.367102,48.817301],[2.365641,48.816849],[2.365029,48.816671],[2.364204,48.816398],[2.363329,48.816148],[2.360158,48.816057],[2.356895,48.815972],[2.356232,48.815943],[2.355852,48.815923],[2.354735,48.816813],[2.353049,48.818034],[2.352392,48.818551],[2.351254,48.817962],[2.350489,48.817614],[2.34903,48.816964],[2.348763,48.816855],[2.347178,48.816102],[2.34692,48.816018],[2.346633,48.815986],[2.346371,48.815994],[2.345544,48.816078],[2.345191,48.816092],[2.344755,48.816073],[2.344356,48.816016],[2.344464,48.815611],[2.344448,48.815562],[2.343903,48.815767],[2.343965,48.816187],[2.344039,48.817006],[2.344129,48.817772],[2.344302,48.818465],[2.344553,48.819245],[2.344592,48.819564],[2.344342,48.819818],[2.34381,48.820425],[2.343645,48.820573],[2.342953,48.82107],[2.342653,48.821308],[2.342485,48.821469],[2.342047,48.822109],[2.341797,48.82253],[2.34173,48.822688],[2.341652,48.823032],[2.341489,48.823583],[2.341458,48.823845],[2.341601,48.82514],[2.341584,48.825299],[2.341709,48.82619],[2.341796,48.826448],[2.341592,48.82649],[2.341641,48.827683],[2.3416,48.828353],[2.341504,48.828817],[2.341356,48.829424],[2.341258,48.83059],[2.341241,48.831244],[2.34125,48.831589],[2.341072,48.831972],[2.341105,48.832024],[2.341175,48.832658],[2.341264,48.833093],[2.341586,48.834818],[2.341666,48.835345],[2.342086,48.838343],[2.342691,48.838212],[2.344492,48.837849],[2.34635,48.837459],[2.347007,48.837316],[2.348856,48.837097],[2.350688,48.836892],[2.351871,48.836805],[2.352678,48.837053],[2.355956,48.838091],[2.359798,48.839332],[2.361745,48.839941],[2.361851,48.840096],[2.362867,48.841398],[2.363181,48.841847],[2.363853,48.842748],[2.364158,48.843185],[2.364902,48.844113],[2.365127,48.844413],[2.366088,48.844968]]]}},{"type":"Feature","properties":{"code":"75114","nom":"Paris 14e Arrondissement"},"geometry":{"type":"Polygon","coordinates":[[[2.336657,48.839671],[2.338336,48.839221],[2.339695,48.838864],[2.340065,48.838779],[2.342086,48.838343],[2.341666,48.835345],[2.341586,48.834818],[2.341264,48.833093],[2.341175,48.832658],[2.341105,48.832024],[2.341072,48.831972],[2.34125,48.831589],[2.341241,48.831244],[2.341258,48.83059],[2.341356,48.829424],[2.341504,48.828817],[2.3416,48.828353],[2.341641,48.827683],[2.341592,48.82649],[2.341796,48.826448],[2.341709,48.82619],[2.341584,48.825299],[2.341601,48.82514],[2.341458,48.823845],[2.341489,48.823583],[2.341652,48.823032],[2.34173,48.822688],[2.341797,48.82253],[2.342047,48.822109],[2.342485,48.821469],[2.342653,48.821308],[2.342953,48.82107],[2.343645,48.820573],[2.34381,48.820425],[2.344342,48.819818],[2.344592,48.819564],[2.344553,48.819245],[2.344302,48.818465],[2.344129,48.817772],[2.344039,48.817006],[2.343965,48.816187],[2.343903,48.815767],[2.343157,48.816045],[2.342877,48.816116],[2.342186,48.81625],[2.341684,48.81633],[2.340512,48.816372],[2.339543,48.816436],[2.338007,48.816515],[2.335581,48.816655],[2.333711,48.816771],[2.331898,48.817011],[2.332461,48.818247],[2.330414,48.818704],[2.325562,48.819774],[2.321661,48.820629],[2.320597,48.820867],[2.314146,48.822291],[2.306959,48.823868],[2.303185,48.824727],[2.301866,48.825002],[2.301315,48.825126],[2.303983,48.827362],[2.305096,48.828277],[2.305996,48.82906],[2.306932,48.829823],[2.307135,48.830178],[2.309585,48.832185],[2.310569,48.832977],[2.311855,48.834024],[2.313023,48.834952],[2.314831,48.836303],[2.316694,48.837874],[2.317998,48.838934],[2.318641,48.839478],[2.319877,48.840539],[2.321394,48.839777],[2.321837,48.840099],[2.321472,48.840965],[2.321531,48.841084],[2.321871,48.841364],[2.322509,48.841856],[2.322746,48.842065],[2.3241,48.843157],[2.324244,48.843262],[2.324642,48.843621],[2.326385,48.843065],[2.327459,48.842704],[2.328673,48.842308],[2.329575,48.841994],[2.331328,48.841408],[2.334312,48.840432],[2.335565,48.840014],[2.336657,48.839671]]]}},{"type":"Feature","properties":{"code":"75115","nom":"Paris 15e Arrondissement"},"geometry":{"type":"Polygon","coordinates":[[[2.289408,48.828334],[2.286694,48.829452],[2.284719,48.830291],[2.283586,48.830796],[2.282671,48.831153],[2.279945,48.832141],[2.279052,48.83249],[2.278827,48.832293],[2.276297,48.830232],[2.275304,48.829435],[2.275276,48.829446],[2.272928,48.828039],[2.272793,48.82792],[2.267826,48.827836],[2.267626,48.827969],[2.267339,48.831532],[2.269645,48.832857],[2.269931,48.833011],[2.268102,48.834428],[2.267789,48.834585],[2.267475,48.834593],[2.262792,48.833923],[2.263558,48.83464],[2.265076,48.835968],[2.266032,48.836838],[2.26674,48.837565],[2.268291,48.839213],[2.271225,48.842299],[2.27191,48.842993],[2.273994,48.845176],[2.274473,48.845655],[2.275464,48.846704],[2.276057,48.847248],[2.277029,48.848109],[2.278021,48.848888],[2.279575,48.849938],[2.280569,48.850626],[2.281217,48.851101],[2.282845,48.852244],[2.287311,48.855389],[2.287837,48.855764],[2.288074,48.855957],[2.288207,48.856134],[2.288379,48.856755],[2.288513,48.857021],[2.288954,48.85749],[2.289696,48.858183],[2.29042,48.857827],[2.290943,48.857541],[2.291928,48.856924],[2.292936,48.856265],[2.295381,48.854707],[2.295785,48.854455],[2.296958,48.853702],[2.297376,48.853424],[2.299301,48.852194],[2.300546,48.851385],[2.300912,48.851176],[2.301228,48.851062],[2.302064,48.850524],[2.305863,48.848094],[2.307354,48.847133],[2.308218,48.847433],[2.308798,48.847579],[2.310495,48.847976],[2.313716,48.845943],[2.315361,48.846464],[2.316713,48.846863],[2.316983,48.846636],[2.319142,48.845519],[2.319893,48.845166],[2.320553,48.844967],[2.322905,48.844184],[2.324642,48.843621],[2.324244,48.843262],[2.3241,48.843157],[2.322746,48.842065],[2.322509,48.841856],[2.321871,48.841364],[2.321531,48.841084],[2.321472,48.840965],[2.321837,48.840099],[2.321394,48.839777],[2.319877,48.840539],[2.318641,48.839478],[2.317998,48.838934],[2.316694,48.837874],[2.314831,48.836303],[2.313023,48.834952],[2.311855,48.834024],[2.310569,48.832977],[2.309585,48.832185],[2.307135,48.830178],[2.306932,48.829823],[2.305996,48.82906],[2.305096,48.828277],[2.303983,48.827362],[2.301315,48.825126],[2.300177,48.825375],[2.292192,48.827142],[2.290235,48.827989],[2.289408,48.828334]]]}},{"type":"Feature","properties":{"code":"75116","nom":"Paris 16e Arrondissement"},"geometry":{"type":"Polygon","coordinates":[[[2.245704,48.876459],[2.24625,48.876228],[2.246533,48.876142],[2.254817,48.874081],[2.25541,48.874264],[2.258467,48.880387],[2.258861,48.880333],[2.264611,48.879622],[2.277487,48.877968],[2.27947,48.878532],[2.279949,48.878573],[2.282006,48.877916],[2.28451,48.877122],[2.290454,48.875231],[2.292999,48.874427],[2.294249,48.874036],[2.295032,48.873773],[2.295543,48.873303],[2.29635,48.872324],[2.297217,48.871292],[2.297501,48.870939],[2.298867,48.868644],[2.299254,48.867454],[2.299838,48.865537],[2.299856,48.865261],[2.299842,48.864987],[2.300298,48.865008],[2.301635,48.864491],[2.301737,48.863496],[2.301372,48.863487],[2.300144,48.863386],[2.299222,48.863284],[2.298589,48.863144],[2.297552,48.862839],[2.296871,48.862619],[2.29546,48.862117],[2.294865,48.861876],[2.294422,48.861622],[2.29369,48.861246],[2.292196,48.860254],[2.290749,48.859098],[2.290475,48.858831],[2.289696,48.858183],[2.288954,48.85749],[2.288513,48.857021],[2.288379,48.856755],[2.288207,48.856134],[2.288074,48.855957],[2.287837,48.855764],[2.287311,48.855389],[2.282845,48.852244],[2.281217,48.851101],[2.280569,48.850626],[2.279575,48.849938],[2.278021,48.848888],[2.277029,48.848109],[2.276057,48.847248],[2.275464,48.846704],[2.274473,48.845655],[2.273994,48.845176],[2.27191,48.842993],[2.271225,48.842299],[2.268291,48.839213],[2.26674,48.837565],[2.266032,48.836838],[2.265076,48.835968],[2.263558,48.83464],[2.262792,48.833923],[2.261492,48.83407],[2.258503,48.834419],[2.256995,48.834601],[2.256538,48.834643],[2.255144,48.83481],[2.254831,48.835184],[2.253547,48.836676],[2.25239,48.838036],[2.252011,48.838493],[2.251915,48.838641],[2.251709,48.838822],[2.251309,48.84206],[2.251216,48.84289],[2.251735,48.843974],[2.251909,48.844291],[2.252347,48.845191],[2.252478,48.845486],[2.250767,48.845531],[2.250516,48.845555],[2.249867,48.84573],[2.245935,48.846745],[2.245515,48.846856],[2.243235,48.847431],[2.242362,48.847658],[2.241761,48.848135],[2.241516,48.848408],[2.2405,48.849316],[2.240184,48.849571],[2.23977,48.849832],[2.23918,48.850042],[2.238966,48.850094],[2.237379,48.850435],[2.235663,48.850818],[2.233576,48.851304],[2.233194,48.85138],[2.232297,48.851587],[2.231537,48.85174],[2.230011,48.852065],[2.229228,48.852224],[2.226594,48.852812],[2.226233,48.852962],[2.225912,48.853035],[2.224219,48.853517],[2.224269,48.855088],[2.224315,48.855696],[2.224407,48.856154],[2.224518,48.856538],[2.22532,48.858516],[2.22567,48.859405],[2.225968,48.860015],[2.226992,48.862],[2.227181,48.862385],[2.227361,48.862829],[2.227749,48.863844],[2.228139,48.864922],[2.228377,48.86538],[2.229797,48.867072],[2.230181,48.867504],[2.230659,48.86808],[2.231376,48.868728],[2.231736,48.869069],[2.232175,48.869285],[2.232868,48.869585],[2.233702,48.869898],[2.235576,48.870523],[2.236657,48.870821],[2.237436,48.871022],[2.238434,48.871311],[2.239593,48.871705],[2.24035,48.872033],[2.240945,48.872342],[2.241237,48.87251],[2.241856,48.872901],[2.242723,48.873543],[2.243269,48.874017],[2.243948,48.874712],[2.245157,48.875904],[2.245704,48.876459]]]}},{"type":"Feature","properties":{"code":"75117","nom":"Paris 17e Arrondissement"},"geometry":{"type":"Polygon","coordinates":[[[2.303774,48.894154],[2.305715,48.89509],[2.307687,48.89601],[2.310673,48.897131],[2.312319,48.897725],[2.312451,48.897782],[2.31852,48.899638],[2.319887,48.90046],[2.320434,48.900776],[2.322073,48.900828],[2.322174,48.900794],[2.32327,48.900813],[2.325836,48.900954],[2.326534,48.900977],[2.330147,48.901044],[2.329852,48.900199],[2.329467,48.899023],[2.329146,48.898098],[2.328518,48.896189],[2.328255,48.895448],[2.326963,48.891608],[2.326583,48.890441],[2.326284,48.889575],[2.325898,48.888377],[2.325596,48.887508],[2.325607,48.887453],[2.325933,48.886744],[2.32601,48.886606],[2.326573,48.885368],[2.327278,48.883856],[2.327423,48.883508],[2.327165,48.883455],[2.321028,48.882215],[2.318769,48.881757],[2.31648,48.881341],[2.315575,48.881205],[2.314143,48.881034],[2.312551,48.880851],[2.3122,48.880805],[2.310181,48.880567],[2.309834,48.88052],[2.309287,48.880491],[2.308875,48.880434],[2.308613,48.880341],[2.307121,48.880007],[2.304992,48.879546],[2.300977,48.878688],[2.298155,48.878077],[2.296024,48.875133],[2.295557,48.874513],[2.295032,48.873773],[2.294249,48.874036],[2.292999,48.874427],[2.290454,48.875231],[2.28451,48.877122],[2.282006,48.877916],[2.279949,48.878573],[2.280536,48.881107],[2.280632,48.8816],[2.280897,48.882792],[2.281014,48.882971],[2.284538,48.885574],[2.28446,48.885639],[2.285642,48.886555],[2.290529,48.888956],[2.291148,48.889302],[2.291634,48.889456],[2.292941,48.889619],[2.294041,48.889744],[2.295013,48.889875],[2.295475,48.890096],[2.297327,48.891054],[2.29811,48.891444],[2.298628,48.891717],[2.300588,48.892629],[2.301836,48.89324],[2.303319,48.893934],[2.303774,48.894154]]]}},{"type":"Feature","properties":{"code":"75118","nom":"Paris 18e Arrondissement"},"geometry":{"type":"Polygon","coordinates":[[[2.351984,48.901485],[2.355239,48.901548],[2.36562,48.901758],[2.367964,48.90181],[2.369103,48.901823],[2.370302,48.901848],[2.37017,48.901556],[2.370237,48.901109],[2.370335,48.900943],[2.370333,48.900612],[2.370253,48.900259],[2.370262,48.899703],[2.370325,48.898917],[2.370312,48.898501],[2.370352,48.897368],[2.370385,48.896868],[2.370461,48.896575],[2.371176,48.895994],[2.371267,48.895798],[2.371792,48.895393],[2.370639,48.894704],[2.3705,48.894583],[2.370163,48.894181],[2.370013,48.893962],[2.369873,48.893626],[2.369541,48.892906],[2.368739,48.891029],[2.368124,48.889694],[2.368045,48.889608],[2.367561,48.888624],[2.367259,48.887862],[2.367133,48.887496],[2.366763,48.886644],[2.366553,48.886387],[2.365808,48.885544],[2.364801,48.884479],[2.364714,48.884366],[2.364278,48.88439],[2.362494,48.884404],[2.359903,48.884411],[2.359013,48.884408],[2.358355,48.884367],[2.356255,48.884213],[2.353382,48.884013],[2.351101,48.883848],[2.349797,48.883758],[2.349465,48.883725],[2.347242,48.883451],[2.346909,48.883414],[2.34285,48.882619],[2.339802,48.882024],[2.3374,48.882386],[2.33259,48.883793],[2.330915,48.884204],[2.329541,48.88459],[2.328121,48.883707],[2.327875,48.883598],[2.327423,48.883508],[2.327278,48.883856],[2.326573,48.885368],[2.32601,48.886606],[2.325933,48.886744],[2.325607,48.887453],[2.325596,48.887508],[2.325898,48.888377],[2.326284,48.889575],[2.326583,48.890441],[2.326963,48.891608],[2.328255,48.895448],[2.328518,48.896189],[2.329146,48.898098],[2.329467,48.899023],[2.329852,48.900199],[2.330147,48.901044],[2.331996,48.901078],[2.337938,48.901208],[2.339771,48.901245],[2.344985,48.901345],[2.351984,48.901485]]]}},{"type":"Feature","properties":{"code":"75119","nom":"Paris 19e Arrondissement"},"geometry":{"type":"Polygon","coordinates":[[[2.41082,48.878436],[2.410702,48.878417],[2.409924,48.878207],[2.409552,48.878078],[2.408094,48.877627],[2.40748,48.877419],[2.406853,48.877183],[2.406583,48.877114],[2.406163,48.877055],[2.405247,48.876801],[2.404393,48.876531],[2.403643,48.876308],[2.402553,48.875996],[2.399208,48.875539],[2.398841,48.875479],[2.397922,48.875463],[2.39756,48.875437],[2.395368,48.875255],[2.394752,48.875269],[2.393548,48.875337],[2.392665,48.875415],[2.392262,48.875463],[2.391334,48.875459],[2.390457,48.875439],[2.389645,48.875303],[2.388924,48.87494],[2.388497,48.874765],[2.388252,48.874716],[2.387027,48.874642],[2.386728,48.874571],[2.386288,48.874399],[2.385388,48.873936],[2.385057,48.87379],[2.384836,48.873725],[2.384245,48.873626],[2.383163,48.873487],[2.382671,48.87341],[2.38191,48.873268],[2.380554,48.872989],[2.379834,48.872856],[2.379228,48.872715],[2.377637,48.872301],[2.377187,48.87217],[2.376905,48.872048],[2.373301,48.875285],[2.37029,48.877991],[2.370286,48.87859],[2.37025,48.880493],[2.370244,48.88128],[2.37022,48.881963],[2.370228,48.882467],[2.370168,48.882684],[2.369898,48.882952],[2.369557,48.883144],[2.369205,48.883406],[2.368828,48.883873],[2.368499,48.884065],[2.368228,48.884131],[2.367978,48.884156],[2.366335,48.884265],[2.364714,48.884366],[2.364801,48.884479],[2.365808,48.885544],[2.366553,48.886387],[2.366763,48.886644],[2.367133,48.887496],[2.367259,48.887862],[2.367561,48.888624],[2.368045,48.889608],[2.368124,48.889694],[2.368739,48.891029],[2.369541,48.892906],[2.369873,48.893626],[2.370013,48.893962],[2.370163,48.894181],[2.3705,48.894583],[2.370639,48.894704],[2.371792,48.895393],[2.371267,48.895798],[2.371176,48.895994],[2.370461,48.896575],[2.370385,48.896868],[2.370352,48.897368],[2.370312,48.898501],[2.370325,48.898917],[2.370262,48.899703],[2.370253,48.900259],[2.370333,48.900612],[2.370335,48.900943],[2.370237,48.901109],[2.37017,48.901556],[2.370302,48.901848],[2.372017,48.901885],[2.383566,48.902126],[2.38453,48.902148],[2.385582,48.901931],[2.388185,48.901382],[2.389332,48.901161],[2.390649,48.900927],[2.390837,48.900907],[2.391772,48.900383],[2.392379,48.900033],[2.39279,48.899812],[2.393434,48.899438],[2.395518,48.898265],[2.395613,48.898166],[2.396919,48.895861],[2.397609,48.894722],[2.397668,48.894606],[2.397882,48.893873],[2.397999,48.893529],[2.398236,48.89264],[2.398903,48.889681],[2.398942,48.889532],[2.399136,48.888532],[2.399252,48.885362],[2.400107,48.883821],[2.400582,48.883411],[2.401507,48.882631],[2.404576,48.881269],[2.405612,48.881007],[2.408068,48.88051],[2.40936,48.880256],[2.410682,48.878593],[2.41082,48.878436]]]}},{"type":"Feature","properties":{"code":"75120","nom":"Paris 20e Arrondissement"},"geometry":{"type":"Polygon","coordinates":[[[2.415286,48.855178],[2.415476,48.854165],[2.415986,48.85136],[2.416326,48.849371],[2.416341,48.849234],[2.41635,48.8487],[2.416083,48.847258],[2.415971,48.846623],[2.413111,48.846871],[2.411445,48.847036],[2.411057,48.847047],[2.409736,48.847168],[2.406149,48.847466],[2.399121,48.848098],[2.399246,48.848765],[2.399214,48.848948],[2.398931,48.849787],[2.398756,48.850338],[2.398506,48.851058],[2.398385,48.851319],[2.397074,48.852998],[2.396013,48.854331],[2.394345,48.85652],[2.392259,48.85763],[2.392167,48.857667],[2.390075,48.858288],[2.389704,48.85839],[2.389537,48.858488],[2.389437,48.858671],[2.388853,48.859871],[2.387442,48.862805],[2.387201,48.863086],[2.386065,48.864104],[2.385193,48.864853],[2.384308,48.865643],[2.383584,48.866267],[2.383289,48.866667],[2.382971,48.867178],[2.380537,48.86901],[2.37829,48.870775],[2.377852,48.871147],[2.376905,48.872048],[2.377187,48.87217],[2.377637,48.872301],[2.379228,48.872715],[2.379834,48.872856],[2.380554,48.872989],[2.38191,48.873268],[2.382671,48.87341],[2.383163,48.873487],[2.384245,48.873626],[2.384836,48.873725],[2.385057,48.87379],[2.385388,48.873936],[2.386288,48.874399],[2.386728,48.874571],[2.387027,48.874642],[2.388252,48.874716],[2.388497,48.874765],[2.388924,48.87494],[2.389645,48.875303],[2.390457,48.875439],[2.391334,48.875459],[2.392262,48.875463],[2.392665,48.875415],[2.393548,48.875337],[2.394752,48.875269],[2.395368,48.875255],[2.39756,48.875437],[2.397922,48.875463],[2.398841,48.875479],[2.399208,48.875539],[2.402553,48.875996],[2.403643,48.876308],[2.404393,48.876531],[2.405247,48.876801],[2.406163,48.877055],[2.406583,48.877114],[2.406853,48.877183],[2.40748,48.877419],[2.408094,48.877627],[2.409552,48.878078],[2.409924,48.878207],[2.410702,48.878417],[2.41082,48.878436],[2.412453,48.876443],[2.413431,48.87314],[2.413646,48.872438],[2.41372,48.871558],[2.413812,48.870744],[2.413956,48.869216],[2.413961,48.867513],[2.414012,48.866486],[2.413979,48.865384],[2.413976,48.864978],[2.413951,48.864712],[2.414137,48.863373],[2.414266,48.862099],[2.41437,48.860649],[2.41442,48.860242],[2.414702,48.858704],[2.414947,48.857272],[2.415121,48.856157],[2.415286,48.855178]]]}}]}