{"type":"FeatureCollection","features":[{"type":"Feature","properties":{"code":"79001","nom":"L'Absie","pop":1047},"geometry":{"type":"Polygon","coordinates":[[[-0.556,46.617],[-0.581,46.625],[-0.585,46.649],[-0.555,46.658],[-0.548,46.679],[-0.527,46.653],[-0.566,46.627],[-0.556,46.617]]]}},{"type":"Feature","properties":{"code":"79002","nom":"Adilly","pop":310},"geometry":{"type":"Polygon","coordinates":[[[-0.295,46.692],[-0.319,46.682],[-0.356,46.699],[-0.308,46.72],[-0.281,46.708],[-0.295,46.692]]]}},{"type":"Feature","properties":{"code":"79003","nom":"Aiffres","pop":5419},"geometry":{"type":"Polygon","coordinates":[[[-0.445,46.263],[-0.458,46.294],[-0.428,46.311],[-0.389,46.305],[-0.371,46.295],[-0.391,46.264],[-0.393,46.259],[-0.445,46.263]]]}},{"type":"Feature","properties":{"code":"79005","nom":"Airvault","pop":3306},"geometry":{"type":"Polygon","coordinates":[[[-0.114,46.845],[-0.098,46.847],[-0.056,46.847],[-0.046,46.832],[-0.049,46.823],[-0.079,46.814],[-0.109,46.82],[-0.146,46.799],[-0.149,46.801],[-0.182,46.81],[-0.236,46.797],[-0.259,46.802],[-0.229,46.82],[-0.225,46.839],[-0.191,46.868],[-0.186,46.866],[-0.158,46.866],[-0.168,46.849],[-0.114,46.845]]]}},{"type":"Feature","properties":{"code":"79007","nom":"Allonne","pop":608},"geometry":{"type":"Polygon","coordinates":[[[-0.34,46.598],[-0.34,46.582],[-0.362,46.552],[-0.388,46.573],[-0.405,46.549],[-0.409,46.545],[-0.412,46.544],[-0.417,46.589],[-0.381,46.606],[-0.34,46.598]]]}},{"type":"Feature","properties":{"code":"79008","nom":"Amailloux","pop":822},"geometry":{"type":"Polygon","coordinates":[[[-0.38,46.755],[-0.34,46.763],[-0.314,46.785],[-0.258,46.744],[-0.286,46.728],[-0.269,46.714],[-0.271,46.711],[-0.281,46.708],[-0.308,46.72],[-0.324,46.737],[-0.374,46.727],[-0.38,46.755]]]}},{"type":"Feature","properties":{"code":"79009","nom":"Amuré","pop":429},"geometry":{"type":"Polygon","coordinates":[[[-0.64,46.249],[-0.624,46.278],[-0.577,46.266],[-0.584,46.235],[-0.6,46.234],[-0.606,46.248],[-0.64,46.249]]]}},{"type":"Feature","properties":{"code":"79010","nom":"Arçais","pop":615},"geometry":{"type":"Polygon","coordinates":[[[-0.727,46.304],[-0.716,46.317],[-0.697,46.325],[-0.672,46.316],[-0.674,46.289],[-0.688,46.277],[-0.727,46.304]]]}},{"type":"Feature","properties":{"code":"79012","nom":"Ardin","pop":1257},"geometry":{"type":"Polygon","coordinates":[[[-0.525,46.507],[-0.546,46.47],[-0.528,46.456],[-0.545,46.445],[-0.569,46.447],[-0.596,46.451],[-0.573,46.506],[-0.554,46.533],[-0.533,46.521],[-0.525,46.507]]]}},{"type":"Feature","properties":{"code":"79013","nom":"Argentonnay","pop":3234},"geometry":{"type":"Polygon","coordinates":[[[-0.346,46.98],[-0.327,46.952],[-0.347,46.922],[-0.372,46.91],[-0.424,46.914],[-0.414,46.942],[-0.439,46.944],[-0.5,46.933],[-0.501,46.975],[-0.514,46.993],[-0.483,47.022],[-0.465,47.026],[-0.424,47.015],[-0.408,47.032],[-0.409,47.007],[-0.346,46.98]]]}},{"type":"Feature","properties":{"code":"79014","nom":"Loretz-d'Argenton","pop":2575},"geometry":{"type":"Polygon","coordinates":[[[-0.313,47.092],[-0.263,47.106],[-0.206,47.093],[-0.236,47.034],[-0.257,47.012],[-0.286,47.027],[-0.278,47.043],[-0.332,47.072],[-0.34,47.088],[-0.313,47.092]]]}},{"type":"Feature","properties":{"code":"79015","nom":"Asnières-en-Poitou","pop":188},"geometry":{"type":"Polygon","coordinates":[[[-0.233,46.048],[-0.233,46.048],[-0.241,46.074],[-0.231,46.096],[-0.212,46.12],[-0.2,46.131],[-0.18,46.101],[-0.229,46.048],[-0.233,46.048]]]}},{"type":"Feature","properties":{"code":"79016","nom":"Assais-les-Jumeaux","pop":763},"geometry":{"type":"Polygon","coordinates":[[[-0.049,46.823],[-0.004,46.82],[-0.007,46.802],[-0.022,46.776],[-0.031,46.753],[-0.059,46.746],[-0.077,46.77],[-0.096,46.769],[-0.134,46.783],[-0.146,46.799],[-0.109,46.82],[-0.079,46.814],[-0.049,46.823]]]}},{"type":"Feature","properties":{"code":"79018","nom":"Aubigné","pop":163},"geometry":{"type":"Polygon","coordinates":[[[-0.189,46.026],[-0.191,46.044],[-0.15,46.073],[-0.108,46.07],[-0.105,46.054],[-0.11,46.041],[-0.145,46.005],[-0.159,46.005],[-0.163,46.019],[-0.189,46.026]]]}},{"type":"Feature","properties":{"code":"79019","nom":"Aubigny","pop":178},"geometry":{"type":"Polygon","coordinates":[[[-0.122,46.728],[-0.137,46.742],[-0.107,46.753],[-0.074,46.738],[-0.087,46.705],[-0.104,46.704],[-0.122,46.728]]]}},{"type":"Feature","properties":{"code":"79020","nom":"Augé","pop":892},"geometry":{"type":"Polygon","coordinates":[[[-0.28,46.486],[-0.256,46.452],[-0.282,46.428],[-0.312,46.414],[-0.328,46.44],[-0.297,46.472],[-0.305,46.487],[-0.28,46.486]]]}},{"type":"Feature","properties":{"code":"79022","nom":"Availles-Thouarsais","pop":180},"geometry":{"type":"Polygon","coordinates":[[[-0.116,46.866],[-0.114,46.845],[-0.168,46.849],[-0.158,46.866],[-0.116,46.866]]]}},{"type":"Feature","properties":{"code":"79023","nom":"Avon","pop":63},"geometry":{"type":"Polygon","coordinates":[[[0.034,46.374],[0.014,46.357],[-0.01,46.352],[-0.021,46.367],[-0.031,46.376],[-0.008,46.389],[0.016,46.391],[0.034,46.374]]]}},{"type":"Feature","properties":{"code":"79024","nom":"Azay-le-Brûlé","pop":1927},"geometry":{"type":"Polygon","coordinates":[[[-0.254,46.382],[-0.296,46.389],[-0.316,46.407],[-0.312,46.414],[-0.282,46.428],[-0.234,46.416],[-0.215,46.402],[-0.243,46.387],[-0.254,46.382]]]}},{"type":"Feature","properties":{"code":"79025","nom":"Azay-sur-Thouet","pop":1114},"geometry":{"type":"Polygon","coordinates":[[[-0.339,46.636],[-0.323,46.612],[-0.34,46.598],[-0.381,46.606],[-0.397,46.629],[-0.339,46.636]]]}},{"type":"Feature","properties":{"code":"79029","nom":"Beaulieu-sous-Parthenay","pop":680},"geometry":{"type":"Polygon","coordinates":[[[-0.223,46.55],[-0.239,46.574],[-0.261,46.584],[-0.249,46.6],[-0.213,46.596],[-0.172,46.598],[-0.168,46.573],[-0.176,46.553],[-0.199,46.555],[-0.223,46.55]]]}},{"type":"Feature","properties":{"code":"79030","nom":"Beaussais-Vitré","pop":923},"geometry":{"type":"Polygon","coordinates":[[[-0.168,46.261],[-0.226,46.28],[-0.22,46.296],[-0.181,46.302],[-0.136,46.299],[-0.12,46.289],[-0.13,46.273],[-0.168,46.261]]]}},{"type":"Feature","properties":{"code":"79031","nom":"Beauvoir-sur-Niort","pop":1765},"geometry":{"type":"Polygon","coordinates":[[[-0.529,46.166],[-0.505,46.176],[-0.499,46.209],[-0.469,46.205],[-0.425,46.16],[-0.433,46.157],[-0.529,46.166]]]}},{"type":"Feature","properties":{"code":"79032","nom":"Béceleuf","pop":750},"geometry":{"type":"Polygon","coordinates":[[[-0.496,46.505],[-0.511,46.491],[-0.468,46.473],[-0.472,46.464],[-0.528,46.456],[-0.546,46.47],[-0.525,46.507],[-0.496,46.505]]]}},{"type":"Feature","properties":{"code":"79034","nom":"Bessines","pop":1903},"geometry":{"type":"Polygon","coordinates":[[[-0.522,46.281],[-0.547,46.293],[-0.526,46.306],[-0.495,46.304],[-0.489,46.287],[-0.522,46.281]]]}},{"type":"Feature","properties":{"code":"79038","nom":"Boismé","pop":1176},"geometry":{"type":"Polygon","coordinates":[[[-0.42,46.814],[-0.379,46.797],[-0.403,46.761],[-0.425,46.746],[-0.46,46.757],[-0.48,46.763],[-0.489,46.787],[-0.479,46.8],[-0.42,46.814]]]}},{"type":"Feature","properties":{"code":"79040","nom":"La Boissière-en-Gâtine","pop":223},"geometry":{"type":"Polygon","coordinates":[[[-0.405,46.549],[-0.388,46.573],[-0.362,46.552],[-0.359,46.541],[-0.392,46.529],[-0.395,46.528],[-0.405,46.549]]]}},{"type":"Feature","properties":{"code":"79042","nom":"Bougon","pop":169},"geometry":{"type":"Polygon","coordinates":[[[-0.094,46.367],[-0.077,46.385],[-0.031,46.376],[-0.021,46.367],[-0.048,46.35],[-0.088,46.364],[-0.094,46.367]]]}},{"type":"Feature","properties":{"code":"79046","nom":"Le Bourdet","pop":564},"geometry":{"type":"Polygon","coordinates":[[[-0.684,46.227],[-0.664,46.239],[-0.64,46.249],[-0.606,46.248],[-0.6,46.234],[-0.617,46.229],[-0.684,46.227]]]}},{"type":"Feature","properties":{"code":"79047","nom":"Boussais","pop":446},"geometry":{"type":"Polygon","coordinates":[[[-0.284,46.825],[-0.268,46.845],[-0.225,46.839],[-0.229,46.82],[-0.259,46.802],[-0.313,46.786],[-0.284,46.825]]]}},{"type":"Feature","properties":{"code":"79048","nom":"La Crèche","pop":5662},"geometry":{"type":"Polygon","coordinates":[[[-0.316,46.326],[-0.347,46.332],[-0.354,46.348],[-0.349,46.352],[-0.324,46.389],[-0.335,46.4],[-0.316,46.407],[-0.296,46.389],[-0.254,46.382],[-0.276,46.375],[-0.285,46.341],[-0.316,46.326]]]}},{"type":"Feature","properties":{"code":"79049","nom":"Bressuire","pop":19970},"geometry":{"type":"Polygon","coordinates":[[[-0.522,46.779],[-0.556,46.789],[-0.593,46.816],[-0.596,46.826],[-0.604,46.839],[-0.583,46.858],[-0.557,46.89],[-0.556,46.895],[-0.535,46.889],[-0.49,46.901],[-0.456,46.908],[-0.439,46.944],[-0.414,46.942],[-0.424,46.914],[-0.372,46.91],[-0.353,46.894],[-0.34,46.892],[-0.361,46.883],[-0.405,46.844],[-0.385,46.821],[-0.42,46.814],[-0.479,46.8],[-0.489,46.787],[-0.522,46.779]]]}},{"type":"Feature","properties":{"code":"79050","nom":"Bretignolles","pop":592},"geometry":{"type":"Polygon","coordinates":[[[-0.628,46.881],[-0.557,46.89],[-0.583,46.858],[-0.613,46.867],[-0.628,46.881]]]}},{"type":"Feature","properties":{"code":"79055","nom":"Brieuil-sur-Chizé","pop":86},"geometry":{"type":"Polygon","coordinates":[[[-0.302,46.114],[-0.328,46.111],[-0.357,46.146],[-0.307,46.137],[-0.31,46.133],[-0.302,46.114]]]}},{"type":"Feature","properties":{"code":"79056","nom":"Brion-près-Thouet","pop":759},"geometry":{"type":"Polygon","coordinates":[[[-0.175,47.068],[-0.166,47.065],[-0.174,47.046],[-0.214,47.036],[-0.175,47.068]]]}},{"type":"Feature","properties":{"code":"79057","nom":"Brioux-sur-Boutonne","pop":1440},"geometry":{"type":"Polygon","coordinates":[[[-0.212,46.167],[-0.185,46.142],[-0.198,46.136],[-0.2,46.131],[-0.212,46.12],[-0.239,46.116],[-0.255,46.129],[-0.243,46.146],[-0.226,46.162],[-0.212,46.167]]]}},{"type":"Feature","properties":{"code":"79058","nom":"Brûlain","pop":735},"geometry":{"type":"Polygon","coordinates":[[[-0.343,46.214],[-0.31,46.236],[-0.268,46.225],[-0.286,46.201],[-0.291,46.193],[-0.343,46.179],[-0.356,46.189],[-0.343,46.214]]]}},{"type":"Feature","properties":{"code":"79059","nom":"Le Busseau","pop":734},"geometry":{"type":"Polygon","coordinates":[[[-0.618,46.562],[-0.625,46.577],[-0.627,46.606],[-0.614,46.62],[-0.584,46.617],[-0.554,46.575],[-0.573,46.577],[-0.58,46.542],[-0.603,46.543],[-0.618,46.562]]]}},{"type":"Feature","properties":{"code":"79060","nom":"Caunay","pop":0},"geometry":{"type":"Polygon","coordinates":[[[0.083,46.224],[0.114,46.212],[0.108,46.186],[0.084,46.18],[0.071,46.183],[0.067,46.209],[0.083,46.224]]]}},{"type":"Feature","properties":{"code":"79061","nom":"Celles-sur-Belle","pop":3829},"geometry":{"type":"Polygon","coordinates":[[[-0.226,46.28],[-0.168,46.261],[-0.165,46.249],[-0.196,46.227],[-0.225,46.204],[-0.258,46.209],[-0.286,46.201],[-0.268,46.225],[-0.261,46.249],[-0.228,46.268],[-0.226,46.28]]]}},{"type":"Feature","properties":{"code":"79062","nom":"Cerizay","pop":4793},"geometry":{"type":"Polygon","coordinates":[[[-0.688,46.797],[-0.699,46.809],[-0.71,46.822],[-0.699,46.835],[-0.675,46.843],[-0.657,46.838],[-0.635,46.814],[-0.688,46.797]]]}},{"type":"Feature","properties":{"code":"79063","nom":"Val en Vignes","pop":2020},"geometry":{"type":"Polygon","coordinates":[[[-0.34,47.088],[-0.332,47.072],[-0.278,47.043],[-0.286,47.027],[-0.346,46.98],[-0.409,47.007],[-0.408,47.032],[-0.401,47.071],[-0.387,47.092],[-0.359,47.094],[-0.34,47.088]]]}},{"type":"Feature","properties":{"code":"79064","nom":"Fontivillié","pop":754},"geometry":{"type":"Polygon","coordinates":[[[-0.103,46.212],[-0.079,46.224],[-0.052,46.196],[-0.066,46.172],[-0.088,46.143],[-0.122,46.157],[-0.118,46.174],[-0.096,46.18],[-0.103,46.212]]]}},{"type":"Feature","properties":{"code":"79066","nom":"Champdeniers","pop":1784},"geometry":{"type":"Polygon","coordinates":[[[-0.419,46.487],[-0.374,46.512],[-0.358,46.504],[-0.342,46.487],[-0.348,46.483],[-0.386,46.449],[-0.39,46.443],[-0.419,46.487]]]}},{"type":"Feature","properties":{"code":"79069","nom":"Chanteloup","pop":985},"geometry":{"type":"Polygon","coordinates":[[[-0.46,46.757],[-0.486,46.754],[-0.507,46.736],[-0.544,46.761],[-0.522,46.779],[-0.489,46.787],[-0.48,46.763],[-0.46,46.757]]]}},{"type":"Feature","properties":{"code":"79070","nom":"La Chapelle-Bâton","pop":415},"geometry":{"type":"Polygon","coordinates":[[[-0.348,46.483],[-0.342,46.487],[-0.308,46.498],[-0.305,46.487],[-0.297,46.472],[-0.328,46.44],[-0.346,46.437],[-0.348,46.483]]]}},{"type":"Feature","properties":{"code":"79071","nom":"La Chapelle-Bertrand","pop":465},"geometry":{"type":"Polygon","coordinates":[[[-0.213,46.596],[-0.217,46.628],[-0.2,46.65],[-0.162,46.624],[-0.153,46.609],[-0.172,46.598],[-0.213,46.596]]]}},{"type":"Feature","properties":{"code":"79074","nom":"La Chapelle-Pouilloux","pop":171},"geometry":{"type":"Polygon","coordinates":[[[0.055,46.12],[0.027,46.152],[0.043,46.157],[0.074,46.131],[0.071,46.124],[0.055,46.12]]]}},{"type":"Feature","properties":{"code":"79076","nom":"La Chapelle-Saint-Laurent","pop":2054},"geometry":{"type":"Polygon","coordinates":[[[-0.437,46.713],[-0.474,46.705],[-0.508,46.712],[-0.507,46.736],[-0.486,46.754],[-0.46,46.757],[-0.425,46.746],[-0.437,46.713]]]}},{"type":"Feature","properties":{"code":"79077","nom":"Beugnon-Thireuil","pop":735},"geometry":{"type":"Polygon","coordinates":[[[-0.531,46.525],[-0.554,46.533],[-0.58,46.542],[-0.573,46.577],[-0.554,46.575],[-0.532,46.578],[-0.485,46.616],[-0.468,46.597],[-0.473,46.578],[-0.501,46.557],[-0.537,46.556],[-0.531,46.525]]]}},{"type":"Feature","properties":{"code":"79078","nom":"Plaine-d'Argenson","pop":1006},"geometry":{"type":"Polygon","coordinates":[[[-0.516,46.112],[-0.533,46.14],[-0.539,46.16],[-0.529,46.166],[-0.433,46.157],[-0.449,46.133],[-0.418,46.122],[-0.421,46.113],[-0.44,46.095],[-0.516,46.112]]]}},{"type":"Feature","properties":{"code":"79079","nom":"Mauléon","pop":8573},"geometry":{"type":"Polygon","coordinates":[[[-0.761,46.901],[-0.814,46.914],[-0.848,46.944],[-0.881,46.946],[-0.902,46.97],[-0.902,46.971],[-0.904,46.972],[-0.892,46.976],[-0.848,46.986],[-0.805,46.99],[-0.784,46.959],[-0.743,46.952],[-0.73,46.966],[-0.68,46.988],[-0.68,46.993],[-0.67,47.001],[-0.62,46.993],[-0.651,46.972],[-0.613,46.941],[-0.644,46.937],[-0.675,46.91],[-0.68,46.903],[-0.718,46.888],[-0.735,46.907],[-0.761,46.901]]]}},{"type":"Feature","properties":{"code":"79080","nom":"Châtillon-sur-Thouet","pop":2656},"geometry":{"type":"Polygon","coordinates":[[[-0.272,46.649],[-0.295,46.692],[-0.281,46.708],[-0.271,46.711],[-0.266,46.682],[-0.222,46.676],[-0.218,46.659],[-0.264,46.649],[-0.272,46.649]]]}},{"type":"Feature","properties":{"code":"79081","nom":"Chauray","pop":7221},"geometry":{"type":"Polygon","coordinates":[[[-0.413,46.349],[-0.354,46.377],[-0.349,46.352],[-0.354,46.348],[-0.385,46.33],[-0.413,46.349]]]}},{"type":"Feature","properties":{"code":"79083","nom":"Chef-Boutonne","pop":2371},"geometry":{"type":"Polygon","coordinates":[[[-0.039,46.114],[-0.071,46.091],[-0.089,46.094],[-0.108,46.07],[-0.15,46.073],[-0.155,46.089],[-0.126,46.09],[-0.102,46.124],[-0.131,46.139],[-0.144,46.149],[-0.146,46.162],[-0.143,46.168],[-0.118,46.174],[-0.122,46.157],[-0.088,46.143],[-0.039,46.114]]]}},{"type":"Feature","properties":{"code":"79084","nom":"Chenay","pop":461},"geometry":{"type":"Polygon","coordinates":[[[-0.065,46.32],[-0.01,46.352],[0.014,46.357],[0.015,46.326],[0.005,46.306],[-0.014,46.305],[-0.02,46.316],[-0.065,46.32]]]}},{"type":"Feature","properties":{"code":"79085","nom":"Chérigné","pop":134},"geometry":{"type":"Polygon","coordinates":[[[-0.198,46.136],[-0.172,46.129],[-0.155,46.122],[-0.159,46.1],[-0.18,46.101],[-0.2,46.131],[-0.198,46.136]]]}},{"type":"Feature","properties":{"code":"79086","nom":"Cherveux","pop":1885},"geometry":{"type":"Polygon","coordinates":[[[-0.316,46.407],[-0.335,46.4],[-0.358,46.399],[-0.38,46.409],[-0.397,46.422],[-0.39,46.443],[-0.386,46.449],[-0.346,46.437],[-0.328,46.44],[-0.312,46.414],[-0.316,46.407]]]}},{"type":"Feature","properties":{"code":"79087","nom":"Chey","pop":541},"geometry":{"type":"Polygon","coordinates":[[[-0.073,46.266],[-0.079,46.27],[-0.065,46.32],[-0.02,46.316],[-0.014,46.305],[-0.014,46.291],[-0.073,46.266]]]}},{"type":"Feature","properties":{"code":"79088","nom":"Chiché","pop":1679},"geometry":{"type":"Polygon","coordinates":[[[-0.313,46.786],[-0.314,46.785],[-0.34,46.763],[-0.38,46.755],[-0.403,46.761],[-0.379,46.797],[-0.42,46.814],[-0.385,46.821],[-0.358,46.817],[-0.328,46.829],[-0.284,46.825],[-0.313,46.786]]]}},{"type":"Feature","properties":{"code":"79089","nom":"Le Chillou","pop":163},"geometry":{"type":"Polygon","coordinates":[[[-0.096,46.769],[-0.104,46.762],[-0.134,46.783],[-0.096,46.769]]]}},{"type":"Feature","properties":{"code":"79090","nom":"Chizé","pop":862},"geometry":{"type":"Polygon","coordinates":[[[-0.39,46.119],[-0.366,46.146],[-0.365,46.146],[-0.357,46.146],[-0.328,46.111],[-0.327,46.081],[-0.363,46.076],[-0.374,46.094],[-0.39,46.119]]]}},{"type":"Feature","properties":{"code":"79091","nom":"Cirières","pop":950},"geometry":{"type":"Polygon","coordinates":[[[-0.596,46.826],[-0.635,46.814],[-0.657,46.838],[-0.649,46.856],[-0.613,46.867],[-0.583,46.858],[-0.604,46.839],[-0.596,46.826]]]}},{"type":"Feature","properties":{"code":"79092","nom":"Clavé","pop":348},"geometry":{"type":"Polygon","coordinates":[[[-0.199,46.469],[-0.234,46.506],[-0.207,46.529],[-0.167,46.52],[-0.181,46.489],[-0.199,46.469]]]}},{"type":"Feature","properties":{"code":"79094","nom":"Clessé","pop":923},"geometry":{"type":"Polygon","coordinates":[[[-0.412,46.686],[-0.437,46.713],[-0.425,46.746],[-0.403,46.761],[-0.38,46.755],[-0.374,46.727],[-0.377,46.699],[-0.405,46.687],[-0.412,46.686]]]}},{"type":"Feature","properties":{"code":"79095","nom":"Clussais-la-Pommeraie","pop":562},"geometry":{"type":"Polygon","coordinates":[[[0.031,46.216],[0.051,46.221],[0.067,46.209],[0.071,46.183],[0.043,46.157],[0.027,46.152],[0.018,46.155],[-0.014,46.182],[0.005,46.2],[0.031,46.216]]]}},{"type":"Feature","properties":{"code":"79096","nom":"Combrand","pop":1222},"geometry":{"type":"Polygon","coordinates":[[[-0.738,46.854],[-0.713,46.865],[-0.718,46.888],[-0.68,46.903],[-0.662,46.875],[-0.675,46.843],[-0.699,46.835],[-0.738,46.854]]]}},{"type":"Feature","properties":{"code":"79100","nom":"Coulon","pop":2299},"geometry":{"type":"Polygon","coordinates":[[[-0.643,46.319],[-0.637,46.337],[-0.558,46.364],[-0.526,46.35],[-0.539,46.326],[-0.588,46.318],[-0.617,46.311],[-0.643,46.319]]]}},{"type":"Feature","properties":{"code":"79101","nom":"Coulonges-sur-l'Autize","pop":2345},"geometry":{"type":"Polygon","coordinates":[[[-0.608,46.454],[-0.634,46.505],[-0.611,46.501],[-0.573,46.51],[-0.573,46.506],[-0.596,46.451],[-0.608,46.454]]]}},{"type":"Feature","properties":{"code":"79102","nom":"Coulonges-Thouarsais","pop":443},"geometry":{"type":"Polygon","coordinates":[[[-0.353,46.894],[-0.372,46.91],[-0.347,46.922],[-0.327,46.952],[-0.288,46.934],[-0.353,46.894]]]}},{"type":"Feature","properties":{"code":"79103","nom":"Courlay","pop":2387},"geometry":{"type":"Polygon","coordinates":[[[-0.522,46.779],[-0.544,46.761],[-0.632,46.768],[-0.623,46.79],[-0.593,46.816],[-0.556,46.789],[-0.522,46.779]]]}},{"type":"Feature","properties":{"code":"79104","nom":"Cours","pop":521},"geometry":{"type":"Polygon","coordinates":[[[-0.439,46.47],[-0.444,46.505],[-0.422,46.516],[-0.395,46.528],[-0.392,46.529],[-0.374,46.512],[-0.419,46.487],[-0.437,46.47],[-0.439,46.47]]]}},{"type":"Feature","properties":{"code":"79105","nom":"Les Châteliers","pop":445},"geometry":{"type":"Polygon","coordinates":[[[-0.088,46.481],[-0.132,46.489],[-0.154,46.473],[-0.181,46.489],[-0.167,46.52],[-0.165,46.522],[-0.123,46.533],[-0.119,46.525],[-0.097,46.512],[-0.088,46.481]]]}},{"type":"Feature","properties":{"code":"79106","nom":"Couture-d'Argenson","pop":398},"geometry":{"type":"Polygon","coordinates":[[[-0.051,45.989],[-0.062,45.98],[-0.103,45.97],[-0.136,45.979],[-0.132,45.988],[-0.115,46.005],[-0.072,46.025],[-0.046,46.021],[-0.046,46.014],[-0.051,45.989]]]}},{"type":"Feature","properties":{"code":"79108","nom":"Doux","pop":204},"geometry":{"type":"Polygon","coordinates":[[[0.036,46.728],[0.032,46.727],[0.004,46.718],[-0.012,46.754],[0.033,46.739],[0.036,46.728]]]}},{"type":"Feature","properties":{"code":"79109","nom":"Échiré","pop":3549},"geometry":{"type":"Polygon","coordinates":[[[-0.438,46.428],[-0.397,46.422],[-0.38,46.409],[-0.428,46.355],[-0.451,46.373],[-0.484,46.377],[-0.45,46.394],[-0.45,46.413],[-0.438,46.428]]]}},{"type":"Feature","properties":{"code":"79111","nom":"Ensigné","pop":288},"geometry":{"type":"Polygon","coordinates":[[[-0.273,46.057],[-0.293,46.087],[-0.265,46.11],[-0.235,46.103],[-0.231,46.096],[-0.241,46.074],[-0.233,46.048],[-0.273,46.057]]]}},{"type":"Feature","properties":{"code":"79112","nom":"Épannes","pop":851},"geometry":{"type":"Polygon","coordinates":[[[-0.597,46.211],[-0.617,46.229],[-0.6,46.234],[-0.584,46.235],[-0.563,46.234],[-0.572,46.212],[-0.597,46.211]]]}},{"type":"Feature","properties":{"code":"79114","nom":"Exireuil","pop":1578},"geometry":{"type":"Polygon","coordinates":[[[-0.181,46.489],[-0.154,46.473],[-0.152,46.449],[-0.155,46.434],[-0.193,46.418],[-0.203,46.429],[-0.203,46.458],[-0.199,46.469],[-0.181,46.489]]]}},{"type":"Feature","properties":{"code":"79115","nom":"Exoudun","pop":531},"geometry":{"type":"Polygon","coordinates":[[[-0.01,46.352],[-0.065,46.32],[-0.109,46.307],[-0.115,46.326],[-0.088,46.364],[-0.048,46.35],[-0.021,46.367],[-0.01,46.352]]]}},{"type":"Feature","properties":{"code":"79116","nom":"Faye-l'Abbesse","pop":1131},"geometry":{"type":"Polygon","coordinates":[[[-0.268,46.845],[-0.284,46.825],[-0.328,46.829],[-0.358,46.817],[-0.385,46.821],[-0.405,46.844],[-0.334,46.847],[-0.3,46.843],[-0.268,46.845]]]}},{"type":"Feature","properties":{"code":"79117","nom":"Faye-sur-Ardin","pop":667},"geometry":{"type":"Polygon","coordinates":[[[-0.475,46.424],[-0.484,46.42],[-0.495,46.417],[-0.496,46.427],[-0.545,46.445],[-0.528,46.456],[-0.472,46.464],[-0.475,46.424]]]}},{"type":"Feature","properties":{"code":"79118","nom":"Fénery","pop":293},"geometry":{"type":"Polygon","coordinates":[[[-0.319,46.682],[-0.359,46.669],[-0.39,46.673],[-0.405,46.687],[-0.377,46.699],[-0.356,46.699],[-0.319,46.682]]]}},{"type":"Feature","properties":{"code":"79119","nom":"Fenioux","pop":638},"geometry":{"type":"Polygon","coordinates":[[[-0.459,46.521],[-0.496,46.505],[-0.525,46.507],[-0.533,46.521],[-0.531,46.525],[-0.537,46.556],[-0.501,46.557],[-0.473,46.578],[-0.459,46.572],[-0.454,46.542],[-0.459,46.521]]]}},{"type":"Feature","properties":{"code":"79120","nom":"La Ferrière-en-Parthenay","pop":774},"geometry":{"type":"Polygon","coordinates":[[[-0.032,46.669],[-0.066,46.623],[-0.082,46.614],[-0.111,46.619],[-0.116,46.641],[-0.099,46.677],[-0.077,46.679],[-0.032,46.669]]]}},{"type":"Feature","properties":{"code":"79121","nom":"Fomperron","pop":388},"geometry":{"type":"Polygon","coordinates":[[[-0.077,46.463],[-0.122,46.45],[-0.152,46.449],[-0.154,46.473],[-0.132,46.489],[-0.088,46.481],[-0.079,46.465],[-0.077,46.463]]]}},{"type":"Feature","properties":{"code":"79122","nom":"Fontenille-Saint-Martin-d'Entraigues","pop":531},"geometry":{"type":"Polygon","coordinates":[[[-0.155,46.122],[-0.131,46.139],[-0.102,46.124],[-0.126,46.09],[-0.155,46.089],[-0.159,46.1],[-0.155,46.122]]]}},{"type":"Feature","properties":{"code":"79123","nom":"La Forêt-sur-Sèvre","pop":2250},"geometry":{"type":"Polygon","coordinates":[[[-0.689,46.726],[-0.698,46.752],[-0.666,46.784],[-0.688,46.797],[-0.635,46.814],[-0.596,46.826],[-0.593,46.816],[-0.623,46.79],[-0.632,46.768],[-0.618,46.726],[-0.627,46.705],[-0.656,46.7],[-0.689,46.726]]]}},{"type":"Feature","properties":{"code":"79124","nom":"Les Forges","pop":125},"geometry":{"type":"Polygon","coordinates":[[[-0.006,46.524],[-0.031,46.525],[-0.04,46.562],[-0.01,46.555],[0.008,46.548],[-0.006,46.524]]]}},{"type":"Feature","properties":{"code":"79125","nom":"Fors","pop":1780},"geometry":{"type":"Polygon","coordinates":[[[-0.393,46.259],[-0.378,46.248],[-0.386,46.224],[-0.394,46.22],[-0.439,46.224],[-0.448,46.254],[-0.445,46.263],[-0.393,46.259]]]}},{"type":"Feature","properties":{"code":"79126","nom":"Les Fosses","pop":425},"geometry":{"type":"Polygon","coordinates":[[[-0.356,46.189],[-0.343,46.179],[-0.341,46.161],[-0.365,46.146],[-0.366,46.146],[-0.395,46.165],[-0.359,46.192],[-0.356,46.189]]]}},{"type":"Feature","properties":{"code":"79127","nom":"La Foye-Monjault","pop":839},"geometry":{"type":"Polygon","coordinates":[[[-0.529,46.166],[-0.539,46.16],[-0.581,46.184],[-0.54,46.206],[-0.521,46.206],[-0.499,46.209],[-0.505,46.176],[-0.529,46.166]]]}},{"type":"Feature","properties":{"code":"79128","nom":"François","pop":999},"geometry":{"type":"Polygon","coordinates":[[[-0.335,46.4],[-0.324,46.389],[-0.349,46.352],[-0.354,46.377],[-0.358,46.399],[-0.335,46.4]]]}},{"type":"Feature","properties":{"code":"79129","nom":"Fressines","pop":1757},"geometry":{"type":"Polygon","coordinates":[[[-0.316,46.326],[-0.285,46.341],[-0.274,46.334],[-0.288,46.311],[-0.33,46.31],[-0.316,46.326]]]}},{"type":"Feature","properties":{"code":"79130","nom":"Frontenay-Rohan-Rohan","pop":2967},"geometry":{"type":"Polygon","coordinates":[[[-0.566,46.29],[-0.547,46.293],[-0.522,46.281],[-0.503,46.247],[-0.479,46.243],[-0.49,46.232],[-0.525,46.231],[-0.563,46.234],[-0.584,46.235],[-0.577,46.266],[-0.566,46.29]]]}},{"type":"Feature","properties":{"code":"79131","nom":"Geay","pop":338},"geometry":{"type":"Polygon","coordinates":[[[-0.334,46.847],[-0.405,46.844],[-0.361,46.883],[-0.34,46.892],[-0.302,46.9],[-0.31,46.883],[-0.33,46.869],[-0.334,46.847]]]}},{"type":"Feature","properties":{"code":"79132","nom":"Genneton","pop":302},"geometry":{"type":"Polygon","coordinates":[[[-0.48,47.053],[-0.465,47.067],[-0.401,47.071],[-0.408,47.032],[-0.424,47.015],[-0.465,47.026],[-0.48,47.053]]]}},{"type":"Feature","properties":{"code":"79133","nom":"Germond-Rouvre","pop":1167},"geometry":{"type":"Polygon","coordinates":[[[-0.397,46.422],[-0.438,46.428],[-0.437,46.47],[-0.419,46.487],[-0.39,46.443],[-0.397,46.422]]]}},{"type":"Feature","properties":{"code":"79134","nom":"Glénay","pop":523},"geometry":{"type":"Polygon","coordinates":[[[-0.191,46.868],[-0.225,46.839],[-0.268,46.845],[-0.3,46.843],[-0.274,46.866],[-0.221,46.875],[-0.191,46.868]]]}},{"type":"Feature","properties":{"code":"79135","nom":"Gourgé","pop":884},"geometry":{"type":"Polygon","coordinates":[[[-0.122,46.728],[-0.15,46.722],[-0.144,46.701],[-0.214,46.685],[-0.23,46.716],[-0.219,46.736],[-0.236,46.749],[-0.196,46.771],[-0.181,46.75],[-0.152,46.76],[-0.137,46.742],[-0.122,46.728]]]}},{"type":"Feature","properties":{"code":"79136","nom":"Alloinay","pop":914},"geometry":{"type":"Polygon","coordinates":[[[-0.088,46.143],[-0.066,46.172],[-0.029,46.183],[-0.014,46.182],[0.018,46.155],[-0.016,46.145],[-0.039,46.114],[-0.088,46.143]]]}},{"type":"Feature","properties":{"code":"79137","nom":"Granzay-Gript","pop":933},"geometry":{"type":"Polygon","coordinates":[[[-0.499,46.209],[-0.521,46.206],[-0.525,46.231],[-0.49,46.232],[-0.479,46.243],[-0.448,46.254],[-0.439,46.224],[-0.469,46.205],[-0.499,46.209]]]}},{"type":"Feature","properties":{"code":"79139","nom":"Les Groseillers","pop":54},"geometry":{"type":"Polygon","coordinates":[[[-0.409,46.545],[-0.405,46.549],[-0.395,46.528],[-0.422,46.516],[-0.409,46.545]]]}},{"type":"Feature","properties":{"code":"79140","nom":"Valdelaume","pop":818},"geometry":{"type":"Polygon","coordinates":[[[0.019,46.053],[-0.04,46.053],[-0.051,46.068],[-0.071,46.091],[-0.039,46.114],[-0.008,46.106],[0.046,46.119],[0.054,46.095],[0.073,46.094],[0.053,46.07],[0.019,46.053]]]}},{"type":"Feature","properties":{"code":"79141","nom":"Irais","pop":209},"geometry":{"type":"Polygon","coordinates":[[[-0.114,46.845],[-0.116,46.866],[-0.117,46.905],[-0.066,46.885],[-0.098,46.847],[-0.114,46.845]]]}},{"type":"Feature","properties":{"code":"79142","nom":"Juillé","pop":98},"geometry":{"type":"Polygon","coordinates":[[[-0.239,46.116],[-0.212,46.12],[-0.231,46.096],[-0.235,46.103],[-0.239,46.116]]]}},{"type":"Feature","properties":{"code":"79144","nom":"Juscorps","pop":382},"geometry":{"type":"Polygon","coordinates":[[[-0.364,46.196],[-0.394,46.22],[-0.386,46.224],[-0.357,46.213],[-0.364,46.196]]]}},{"type":"Feature","properties":{"code":"79145","nom":"Lageon","pop":378},"geometry":{"type":"Polygon","coordinates":[[[-0.269,46.714],[-0.286,46.728],[-0.258,46.744],[-0.247,46.747],[-0.236,46.749],[-0.219,46.736],[-0.23,46.716],[-0.269,46.714]]]}},{"type":"Feature","properties":{"code":"79147","nom":"Largeasse","pop":759},"geometry":{"type":"Polygon","coordinates":[[[-0.474,46.705],[-0.483,46.694],[-0.494,46.676],[-0.483,46.646],[-0.527,46.653],[-0.548,46.679],[-0.555,46.703],[-0.508,46.712],[-0.474,46.705]]]}},{"type":"Feature","properties":{"code":"79148","nom":"Lezay","pop":2024},"geometry":{"type":"Polygon","coordinates":[[[-0.022,46.234],[-0.079,46.239],[-0.073,46.266],[-0.014,46.291],[-0.014,46.305],[0.005,46.306],[0.031,46.303],[0.034,46.277],[0.014,46.259],[0.015,46.24],[-0.022,46.234]]]}},{"type":"Feature","properties":{"code":"79149","nom":"Lhoumois","pop":157},"geometry":{"type":"Polygon","coordinates":[[[-0.144,46.701],[-0.15,46.722],[-0.122,46.728],[-0.104,46.704],[-0.12,46.689],[-0.144,46.701]]]}},{"type":"Feature","properties":{"code":"79150","nom":"Limalonges","pop":843},"geometry":{"type":"Polygon","coordinates":[[[0.155,46.157],[0.172,46.156],[0.213,46.159],[0.216,46.139],[0.2,46.117],[0.146,46.115],[0.135,46.142],[0.155,46.157]]]}},{"type":"Feature","properties":{"code":"79152","nom":"Lorigné","pop":303},"geometry":{"type":"Polygon","coordinates":[[[0.046,46.119],[0.055,46.12],[0.071,46.124],[0.093,46.103],[0.097,46.089],[0.073,46.094],[0.054,46.095],[0.046,46.119]]]}},{"type":"Feature","properties":{"code":"79153","nom":"Loubigné","pop":157},"geometry":{"type":"Polygon","coordinates":[[[-0.105,46.054],[-0.108,46.07],[-0.089,46.094],[-0.071,46.091],[-0.051,46.068],[-0.105,46.054]]]}},{"type":"Feature","properties":{"code":"79154","nom":"Loubillé","pop":357},"geometry":{"type":"Polygon","coordinates":[[[-0.04,46.053],[-0.023,46.032],[-0.046,46.021],[-0.072,46.025],[-0.11,46.041],[-0.105,46.054],[-0.051,46.068],[-0.04,46.053]]]}},{"type":"Feature","properties":{"code":"79156","nom":"Louin","pop":674},"geometry":{"type":"Polygon","coordinates":[[[-0.236,46.749],[-0.247,46.747],[-0.236,46.797],[-0.182,46.81],[-0.149,46.801],[-0.179,46.792],[-0.196,46.771],[-0.236,46.749]]]}},{"type":"Feature","properties":{"code":"79157","nom":"Louzy","pop":1288},"geometry":{"type":"Polygon","coordinates":[[[-0.217,47.029],[-0.214,47.036],[-0.174,47.046],[-0.149,47.029],[-0.159,46.996],[-0.174,46.985],[-0.205,47.002],[-0.217,47.029]]]}},{"type":"Feature","properties":{"code":"79158","nom":"Luché-sur-Brioux","pop":119},"geometry":{"type":"Polygon","coordinates":[[[-0.131,46.139],[-0.155,46.122],[-0.172,46.129],[-0.144,46.149],[-0.131,46.139]]]}},{"type":"Feature","properties":{"code":"79159","nom":"Luché-Thouarsais","pop":536},"geometry":{"type":"Polygon","coordinates":[[[-0.257,46.925],[-0.267,46.918],[-0.269,46.916],[-0.302,46.9],[-0.34,46.892],[-0.353,46.894],[-0.288,46.934],[-0.257,46.925]]]}},{"type":"Feature","properties":{"code":"79160","nom":"Lusseray","pop":172},"geometry":{"type":"Polygon","coordinates":[[[-0.172,46.129],[-0.198,46.136],[-0.185,46.142],[-0.176,46.159],[-0.146,46.162],[-0.144,46.149],[-0.172,46.129]]]}},{"type":"Feature","properties":{"code":"79161","nom":"Luzay","pop":617},"geometry":{"type":"Polygon","coordinates":[[[-0.257,46.925],[-0.243,46.939],[-0.208,46.956],[-0.188,46.942],[-0.16,46.907],[-0.233,46.917],[-0.267,46.918],[-0.257,46.925]]]}},{"type":"Feature","properties":{"code":"79162","nom":"Magné","pop":2728},"geometry":{"type":"Polygon","coordinates":[[[-0.547,46.293],[-0.566,46.29],[-0.588,46.318],[-0.539,46.326],[-0.526,46.306],[-0.547,46.293]]]}},{"type":"Feature","properties":{"code":"79163","nom":"Mairé-Levescault","pop":582},"geometry":{"type":"Polygon","coordinates":[[[0.074,46.131],[0.043,46.157],[0.071,46.183],[0.084,46.18],[0.108,46.17],[0.101,46.148],[0.074,46.131]]]}},{"type":"Feature","properties":{"code":"79164","nom":"Maisonnay","pop":252},"geometry":{"type":"Polygon","coordinates":[[[-0.052,46.196],[-0.029,46.183],[-0.066,46.172],[-0.052,46.196]]]}},{"type":"Feature","properties":{"code":"79165","nom":"Maisontiers","pop":134},"geometry":{"type":"Polygon","coordinates":[[[-0.314,46.785],[-0.313,46.786],[-0.259,46.802],[-0.236,46.797],[-0.247,46.747],[-0.258,46.744],[-0.314,46.785]]]}},{"type":"Feature","properties":{"code":"79166","nom":"Marigny","pop":902},"geometry":{"type":"Polygon","coordinates":[[[-0.364,46.196],[-0.359,46.192],[-0.395,46.165],[-0.425,46.16],[-0.469,46.205],[-0.439,46.224],[-0.394,46.22],[-0.364,46.196]]]}},{"type":"Feature","properties":{"code":"79167","nom":"Marnes","pop":217},"geometry":{"type":"Polygon","coordinates":[[[0.017,46.835],[0.015,46.834],[-0.008,46.848],[-0.046,46.832],[-0.056,46.847],[-0.036,46.875],[0.034,46.854],[0.017,46.835]]]}},{"type":"Feature","properties":{"code":"79170","nom":"Mauzé-sur-le-Mignon","pop":2941},"geometry":{"type":"Polygon","coordinates":[[[-0.655,46.17],[-0.695,46.196],[-0.687,46.214],[-0.656,46.2],[-0.627,46.212],[-0.606,46.207],[-0.601,46.186],[-0.631,46.182],[-0.635,46.166],[-0.655,46.17]]]}},{"type":"Feature","properties":{"code":"79172","nom":"Mazières-en-Gâtine","pop":1047},"geometry":{"type":"Polygon","coordinates":[[[-0.285,46.55],[-0.308,46.537],[-0.308,46.498],[-0.342,46.487],[-0.358,46.504],[-0.325,46.534],[-0.316,46.558],[-0.289,46.563],[-0.285,46.55]]]}},{"type":"Feature","properties":{"code":"79174","nom":"Melle","pop":5752},"geometry":{"type":"Polygon","coordinates":[[[-0.079,46.27],[-0.073,46.266],[-0.079,46.239],[-0.079,46.224],[-0.103,46.212],[-0.132,46.213],[-0.169,46.195],[-0.143,46.168],[-0.146,46.162],[-0.176,46.159],[-0.185,46.142],[-0.212,46.167],[-0.205,46.184],[-0.171,46.217],[-0.196,46.227],[-0.165,46.249],[-0.168,46.261],[-0.13,46.273],[-0.079,46.27]]]}},{"type":"Feature","properties":{"code":"79175","nom":"Melleran","pop":480},"geometry":{"type":"Polygon","coordinates":[[[-0.039,46.114],[-0.016,46.145],[0.018,46.155],[0.027,46.152],[0.055,46.12],[0.046,46.119],[-0.008,46.106],[-0.039,46.114]]]}},{"type":"Feature","properties":{"code":"79176","nom":"Ménigoute","pop":846},"geometry":{"type":"Polygon","coordinates":[[[-0.039,46.499],[-0.044,46.472],[-0.079,46.465],[-0.088,46.481],[-0.097,46.512],[-0.063,46.517],[-0.039,46.499]]]}},{"type":"Feature","properties":{"code":"79177","nom":"Messé","pop":220},"geometry":{"type":"Polygon","coordinates":[[[0.088,46.257],[0.097,46.274],[0.129,46.267],[0.138,46.245],[0.082,46.243],[0.088,46.257]]]}},{"type":"Feature","properties":{"code":"79179","nom":"Moncoutant-sur-Sèvre","pop":5121},"geometry":{"type":"Polygon","coordinates":[[[-0.585,46.649],[-0.637,46.663],[-0.658,46.677],[-0.656,46.7],[-0.627,46.705],[-0.618,46.726],[-0.632,46.768],[-0.544,46.761],[-0.507,46.736],[-0.508,46.712],[-0.555,46.703],[-0.548,46.679],[-0.555,46.658],[-0.585,46.649]]]}},{"type":"Feature","properties":{"code":"79180","nom":"Montalembert","pop":0},"geometry":{"type":"Polygon","coordinates":[[[0.2,46.117],[0.191,46.105],[0.197,46.095],[0.178,46.083],[0.168,46.085],[0.136,46.104],[0.146,46.115],[0.2,46.117]]]}},{"type":"Feature","properties":{"code":"79183","nom":"Montravers","pop":365},"geometry":{"type":"Polygon","coordinates":[[[-0.71,46.822],[-0.758,46.832],[-0.773,46.84],[-0.743,46.858],[-0.738,46.854],[-0.699,46.835],[-0.71,46.822]]]}},{"type":"Feature","properties":{"code":"79184","nom":"La Mothe-Saint-Héray","pop":1652},"geometry":{"type":"Polygon","coordinates":[[[-0.134,46.329],[-0.147,46.341],[-0.133,46.369],[-0.112,46.38],[-0.094,46.367],[-0.088,46.364],[-0.115,46.326],[-0.134,46.329]]]}},{"type":"Feature","properties":{"code":"79185","nom":"Aigondigné","pop":4710},"geometry":{"type":"Polygon","coordinates":[[[-0.268,46.225],[-0.31,46.236],[-0.302,46.256],[-0.33,46.269],[-0.325,46.293],[-0.33,46.31],[-0.288,46.311],[-0.274,46.334],[-0.253,46.349],[-0.214,46.337],[-0.231,46.332],[-0.22,46.296],[-0.226,46.28],[-0.228,46.268],[-0.261,46.249],[-0.268,46.225]]]}},{"type":"Feature","properties":{"code":"79189","nom":"Nanteuil","pop":1684},"geometry":{"type":"Polygon","coordinates":[[[-0.122,46.45],[-0.127,46.416],[-0.168,46.393],[-0.191,46.407],[-0.193,46.418],[-0.155,46.434],[-0.152,46.449],[-0.122,46.45]]]}},{"type":"Feature","properties":{"code":"79190","nom":"Neuvy-Bouin","pop":487},"geometry":{"type":"Polygon","coordinates":[[[-0.474,46.705],[-0.437,46.713],[-0.412,46.686],[-0.422,46.662],[-0.444,46.647],[-0.462,46.653],[-0.473,46.653],[-0.483,46.694],[-0.474,46.705]]]}},{"type":"Feature","properties":{"code":"79191","nom":"Niort","pop":59854},"geometry":{"type":"Polygon","coordinates":[[[-0.385,46.33],[-0.389,46.305],[-0.428,46.311],[-0.458,46.294],[-0.489,46.287],[-0.495,46.304],[-0.526,46.306],[-0.539,46.326],[-0.526,46.35],[-0.499,46.366],[-0.451,46.373],[-0.428,46.355],[-0.413,46.349],[-0.385,46.33]]]}},{"type":"Feature","properties":{"code":"79195","nom":"Nueil-les-Aubiers","pop":5483},"geometry":{"type":"Polygon","coordinates":[[[-0.62,46.993],[-0.595,46.998],[-0.531,46.986],[-0.523,46.935],[-0.557,46.91],[-0.556,46.895],[-0.557,46.89],[-0.628,46.881],[-0.647,46.902],[-0.675,46.91],[-0.644,46.937],[-0.613,46.941],[-0.651,46.972],[-0.62,46.993]]]}},{"type":"Feature","properties":{"code":"79196","nom":"Plaine-et-Vallées","pop":2317},"geometry":{"type":"Polygon","coordinates":[[[-0.158,46.906],[-0.16,46.907],[-0.188,46.942],[-0.161,46.94],[-0.144,46.955],[-0.116,46.971],[-0.094,46.966],[-0.046,46.967],[-0.031,46.942],[-0.014,46.922],[-0.009,46.908],[-0.036,46.875],[-0.056,46.847],[-0.098,46.847],[-0.066,46.885],[-0.117,46.905],[-0.158,46.906]]]}},{"type":"Feature","properties":{"code":"79197","nom":"Oroux","pop":102},"geometry":{"type":"Polygon","coordinates":[[[-0.12,46.689],[-0.104,46.704],[-0.087,46.705],[-0.077,46.679],[-0.099,46.677],[-0.12,46.689]]]}},{"type":"Feature","properties":{"code":"79198","nom":"Paizay-le-Chapt","pop":258},"geometry":{"type":"Polygon","coordinates":[[[-0.191,46.044],[-0.229,46.048],[-0.18,46.101],[-0.159,46.1],[-0.155,46.089],[-0.15,46.073],[-0.191,46.044]]]}},{"type":"Feature","properties":{"code":"79200","nom":"Pamplie","pop":249},"geometry":{"type":"Polygon","coordinates":[[[-0.422,46.516],[-0.444,46.505],[-0.461,46.503],[-0.459,46.521],[-0.454,46.542],[-0.412,46.544],[-0.409,46.545],[-0.422,46.516]]]}},{"type":"Feature","properties":{"code":"79201","nom":"Pamproux","pop":1686},"geometry":{"type":"Polygon","coordinates":[[[-0.077,46.385],[-0.085,46.399],[-0.082,46.421],[-0.06,46.44],[-0.019,46.453],[-0.02,46.42],[-0.008,46.389],[-0.031,46.376],[-0.077,46.385]]]}},{"type":"Feature","properties":{"code":"79202","nom":"Parthenay","pop":10140},"geometry":{"type":"Polygon","coordinates":[[[-0.218,46.659],[-0.2,46.65],[-0.217,46.628],[-0.242,46.639],[-0.267,46.632],[-0.264,46.649],[-0.218,46.659]]]}},{"type":"Feature","properties":{"code":"79203","nom":"Pas-de-Jeu","pop":341},"geometry":{"type":"Polygon","coordinates":[[[-0.056,46.995],[-0.034,46.98],[-0.046,46.967],[-0.094,46.966],[-0.086,46.985],[-0.056,46.995]]]}},{"type":"Feature","properties":{"code":"79204","nom":"Périgné","pop":932},"geometry":{"type":"Polygon","coordinates":[[[-0.225,46.204],[-0.205,46.184],[-0.212,46.167],[-0.226,46.162],[-0.264,46.173],[-0.291,46.193],[-0.286,46.201],[-0.258,46.209],[-0.225,46.204]]]}},{"type":"Feature","properties":{"code":"79205","nom":"Pers","pop":0},"geometry":{"type":"Polygon","coordinates":[[[0.08,46.239],[0.083,46.224],[0.067,46.209],[0.051,46.221],[0.08,46.239]]]}},{"type":"Feature","properties":{"code":"79207","nom":"La Petite-Boissière","pop":616},"geometry":{"type":"Polygon","coordinates":[[[-0.718,46.888],[-0.713,46.865],[-0.738,46.854],[-0.743,46.858],[-0.741,46.878],[-0.761,46.901],[-0.735,46.907],[-0.718,46.888]]]}},{"type":"Feature","properties":{"code":"79208","nom":"La Peyratte","pop":1105},"geometry":{"type":"Polygon","coordinates":[[[-0.2,46.65],[-0.218,46.659],[-0.222,46.676],[-0.214,46.685],[-0.144,46.701],[-0.12,46.689],[-0.099,46.677],[-0.116,46.641],[-0.153,46.636],[-0.162,46.624],[-0.2,46.65]]]}},{"type":"Feature","properties":{"code":"79209","nom":"Pierrefitte","pop":318},"geometry":{"type":"Polygon","coordinates":[[[-0.3,46.843],[-0.334,46.847],[-0.33,46.869],[-0.31,46.883],[-0.27,46.889],[-0.274,46.866],[-0.3,46.843]]]}},{"type":"Feature","properties":{"code":"79210","nom":"Le Pin","pop":1091},"geometry":{"type":"Polygon","coordinates":[[[-0.675,46.843],[-0.662,46.875],[-0.68,46.903],[-0.675,46.91],[-0.647,46.902],[-0.628,46.881],[-0.613,46.867],[-0.649,46.856],[-0.657,46.838],[-0.675,46.843]]]}},{"type":"Feature","properties":{"code":"79212","nom":"Pliboux","pop":0},"geometry":{"type":"Polygon","coordinates":[[[0.108,46.186],[0.135,46.182],[0.155,46.157],[0.135,46.142],[0.101,46.148],[0.108,46.17],[0.084,46.18],[0.108,46.186]]]}},{"type":"Feature","properties":{"code":"79213","nom":"Pompaire","pop":2049},"geometry":{"type":"Polygon","coordinates":[[[-0.217,46.628],[-0.213,46.596],[-0.249,46.6],[-0.258,46.612],[-0.267,46.632],[-0.242,46.639],[-0.217,46.628]]]}},{"type":"Feature","properties":{"code":"79215","nom":"Pougne-Hérisson","pop":353},"geometry":{"type":"Polygon","coordinates":[[[-0.405,46.687],[-0.39,46.673],[-0.392,46.657],[-0.429,46.635],[-0.444,46.647],[-0.422,46.662],[-0.412,46.686],[-0.405,46.687]]]}},{"type":"Feature","properties":{"code":"79216","nom":"Prahecq","pop":2252},"geometry":{"type":"Polygon","coordinates":[[[-0.31,46.236],[-0.391,46.264],[-0.371,46.295],[-0.325,46.293],[-0.33,46.269],[-0.302,46.256],[-0.31,46.236]]]}},{"type":"Feature","properties":{"code":"79217","nom":"Prailles-La Couarde","pop":929},"geometry":{"type":"Polygon","coordinates":[[[-0.22,46.296],[-0.231,46.332],[-0.214,46.337],[-0.199,46.343],[-0.156,46.327],[-0.134,46.329],[-0.115,46.326],[-0.109,46.307],[-0.12,46.289],[-0.136,46.299],[-0.181,46.302],[-0.22,46.296]]]}},{"type":"Feature","properties":{"code":"79218","nom":"Pressigny","pop":191},"geometry":{"type":"Polygon","coordinates":[[[-0.096,46.769],[-0.077,46.77],[-0.059,46.746],[-0.074,46.738],[-0.107,46.753],[-0.104,46.762],[-0.096,46.769]]]}},{"type":"Feature","properties":{"code":"79220","nom":"Prin-Deyrançon","pop":593},"geometry":{"type":"Polygon","coordinates":[[[-0.687,46.214],[-0.703,46.225],[-0.684,46.227],[-0.617,46.229],[-0.597,46.211],[-0.606,46.207],[-0.627,46.212],[-0.656,46.2],[-0.687,46.214]]]}},{"type":"Feature","properties":{"code":"79223","nom":"Puihardy","pop":58},"geometry":{"type":"Polygon","coordinates":[[[-0.531,46.525],[-0.533,46.521],[-0.554,46.533],[-0.531,46.525]]]}},{"type":"Feature","properties":{"code":"79225","nom":"Reffannes","pop":386},"geometry":{"type":"Polygon","coordinates":[[[-0.176,46.553],[-0.165,46.548],[-0.165,46.522],[-0.167,46.52],[-0.207,46.529],[-0.199,46.555],[-0.176,46.553]]]}},{"type":"Feature","properties":{"code":"79226","nom":"Le Retail","pop":276},"geometry":{"type":"Polygon","coordinates":[[[-0.417,46.589],[-0.412,46.544],[-0.454,46.542],[-0.459,46.572],[-0.417,46.589]]]}},{"type":"Feature","properties":{"code":"79229","nom":"La Rochénard","pop":518},"geometry":{"type":"Polygon","coordinates":[[[-0.54,46.206],[-0.581,46.184],[-0.601,46.186],[-0.606,46.207],[-0.597,46.211],[-0.572,46.212],[-0.54,46.206]]]}},{"type":"Feature","properties":{"code":"79230","nom":"Rom","pop":802},"geometry":{"type":"Polygon","coordinates":[[[0.078,46.305],[0.104,46.335],[0.138,46.349],[0.177,46.328],[0.155,46.297],[0.172,46.279],[0.129,46.267],[0.097,46.274],[0.088,46.257],[0.058,46.279],[0.078,46.305]]]}},{"type":"Feature","properties":{"code":"79231","nom":"Romans","pop":690},"geometry":{"type":"Polygon","coordinates":[[[-0.214,46.337],[-0.253,46.349],[-0.233,46.377],[-0.216,46.37],[-0.199,46.343],[-0.214,46.337]]]}},{"type":"Feature","properties":{"code":"79235","nom":"Saint-Amand-sur-Sèvre","pop":1422},"geometry":{"type":"Polygon","coordinates":[[[-0.832,46.885],[-0.814,46.914],[-0.761,46.901],[-0.741,46.878],[-0.743,46.858],[-0.773,46.84],[-0.816,46.88],[-0.832,46.885]]]}},{"type":"Feature","properties":{"code":"79236","nom":"Saint-André-sur-Sèvre","pop":637},"geometry":{"type":"Polygon","coordinates":[[[-0.72,46.79],[-0.699,46.809],[-0.688,46.797],[-0.666,46.784],[-0.698,46.752],[-0.72,46.756],[-0.72,46.79]]]}},{"type":"Feature","properties":{"code":"79238","nom":"Saint-Aubin-du-Plain","pop":565},"geometry":{"type":"Polygon","coordinates":[[[-0.49,46.901],[-0.5,46.933],[-0.439,46.944],[-0.456,46.908],[-0.49,46.901]]]}},{"type":"Feature","properties":{"code":"79239","nom":"Saint-Aubin-le-Cloud","pop":1648},"geometry":{"type":"Polygon","coordinates":[[[-0.39,46.673],[-0.359,46.669],[-0.319,46.682],[-0.295,46.692],[-0.272,46.649],[-0.339,46.636],[-0.397,46.629],[-0.429,46.635],[-0.392,46.657],[-0.39,46.673]]]}},{"type":"Feature","properties":{"code":"79241","nom":"Saint-Christophe-sur-Roc","pop":558},"geometry":{"type":"Polygon","coordinates":[[[-0.386,46.449],[-0.348,46.483],[-0.346,46.437],[-0.386,46.449]]]}},{"type":"Feature","properties":{"code":"79242","nom":"Voulmentin","pop":1129},"geometry":{"type":"Polygon","coordinates":[[[-0.5,46.933],[-0.49,46.901],[-0.535,46.889],[-0.556,46.895],[-0.557,46.91],[-0.523,46.935],[-0.531,46.986],[-0.514,46.993],[-0.501,46.975],[-0.5,46.933]]]}},{"type":"Feature","properties":{"code":"79243","nom":"Saint-Coutant","pop":273},"geometry":{"type":"Polygon","coordinates":[[[0.005,46.2],[-0.022,46.234],[0.015,46.24],[0.031,46.216],[0.005,46.2]]]}},{"type":"Feature","properties":{"code":"79244","nom":"Saint-Cyr-la-Lande","pop":368},"geometry":{"type":"Polygon","coordinates":[[[-0.166,47.065],[-0.129,47.054],[-0.138,47.041],[-0.146,47.026],[-0.149,47.029],[-0.174,47.046],[-0.166,47.065]]]}},{"type":"Feature","properties":{"code":"79246","nom":"Sainte-Eanne","pop":580},"geometry":{"type":"Polygon","coordinates":[[[-0.112,46.406],[-0.112,46.38],[-0.133,46.369],[-0.16,46.386],[-0.168,46.393],[-0.127,46.416],[-0.112,46.406]]]}},{"type":"Feature","properties":{"code":"79249","nom":"Saint-Gelais","pop":2220},"geometry":{"type":"Polygon","coordinates":[[[-0.354,46.377],[-0.413,46.349],[-0.428,46.355],[-0.38,46.409],[-0.358,46.399],[-0.354,46.377]]]}},{"type":"Feature","properties":{"code":"79250","nom":"Sainte-Gemme","pop":407},"geometry":{"type":"Polygon","coordinates":[[[-0.27,46.889],[-0.31,46.883],[-0.302,46.9],[-0.269,46.916],[-0.27,46.889]]]}},{"type":"Feature","properties":{"code":"79251","nom":"Marcillé","pop":725},"geometry":{"type":"Polygon","coordinates":[[[-0.118,46.174],[-0.143,46.168],[-0.169,46.195],[-0.132,46.213],[-0.103,46.212],[-0.096,46.18],[-0.118,46.174]]]}},{"type":"Feature","properties":{"code":"79252","nom":"Saint-Généroux","pop":340},"geometry":{"type":"Polygon","coordinates":[[[-0.117,46.905],[-0.116,46.866],[-0.158,46.866],[-0.186,46.866],[-0.182,46.885],[-0.158,46.906],[-0.117,46.905]]]}},{"type":"Feature","properties":{"code":"79253","nom":"Saint-Georges-de-Noisné","pop":684},"geometry":{"type":"Polygon","coordinates":[[[-0.28,46.486],[-0.242,46.51],[-0.234,46.506],[-0.199,46.469],[-0.203,46.458],[-0.226,46.465],[-0.256,46.452],[-0.28,46.486]]]}},{"type":"Feature","properties":{"code":"79254","nom":"Saint-Georges-de-Rex","pop":431},"geometry":{"type":"Polygon","coordinates":[[[-0.624,46.278],[-0.64,46.249],[-0.664,46.239],[-0.688,46.255],[-0.688,46.277],[-0.674,46.289],[-0.621,46.28],[-0.624,46.278]]]}},{"type":"Feature","properties":{"code":"79255","nom":"Saint-Germain-de-Longue-Chaume","pop":380},"geometry":{"type":"Polygon","coordinates":[[[-0.374,46.727],[-0.324,46.737],[-0.308,46.72],[-0.356,46.699],[-0.377,46.699],[-0.374,46.727]]]}},{"type":"Feature","properties":{"code":"79256","nom":"Saint-Germier","pop":261},"geometry":{"type":"Polygon","coordinates":[[[-0.044,46.472],[-0.013,46.471],[-0.019,46.453],[-0.06,46.44],[-0.077,46.463],[-0.079,46.465],[-0.044,46.472]]]}},{"type":"Feature","properties":{"code":"79257","nom":"Saint-Hilaire-la-Palud","pop":1498},"geometry":{"type":"Polygon","coordinates":[[[-0.664,46.239],[-0.684,46.227],[-0.703,46.225],[-0.752,46.245],[-0.736,46.267],[-0.745,46.28],[-0.75,46.304],[-0.727,46.304],[-0.688,46.277],[-0.688,46.255],[-0.664,46.239]]]}},{"type":"Feature","properties":{"code":"79258","nom":"Saint-Jacques-de-Thouars","pop":421},"geometry":{"type":"Polygon","coordinates":[[[-0.218,46.968],[-0.227,46.956],[-0.254,46.955],[-0.242,46.983],[-0.218,46.968]]]}},{"type":"Feature","properties":{"code":"79259","nom":"Saint-Jean-de-Thouars","pop":1328},"geometry":{"type":"Polygon","coordinates":[[[-0.208,46.956],[-0.243,46.939],[-0.227,46.956],[-0.218,46.968],[-0.208,46.956]]]}},{"type":"Feature","properties":{"code":"79263","nom":"Saint-Laurs","pop":615},"geometry":{"type":"Polygon","coordinates":[[[-0.573,46.506],[-0.573,46.51],[-0.602,46.533],[-0.603,46.543],[-0.58,46.542],[-0.554,46.533],[-0.573,46.506]]]}},{"type":"Feature","properties":{"code":"79265","nom":"Saint-Léger-de-Montbrun","pop":1247},"geometry":{"type":"Polygon","coordinates":[[[-0.092,47.005],[-0.086,46.985],[-0.094,46.966],[-0.116,46.971],[-0.144,46.955],[-0.174,46.985],[-0.159,46.996],[-0.149,47.029],[-0.146,47.026],[-0.118,47.007],[-0.092,47.005]]]}},{"type":"Feature","properties":{"code":"79267","nom":"Saint-Lin","pop":310},"geometry":{"type":"Polygon","coordinates":[[[-0.242,46.51],[-0.255,46.536],[-0.223,46.55],[-0.199,46.555],[-0.207,46.529],[-0.234,46.506],[-0.242,46.51]]]}},{"type":"Feature","properties":{"code":"79268","nom":"Saint-Loup-Lamairé","pop":1064},"geometry":{"type":"Polygon","coordinates":[[[-0.104,46.762],[-0.107,46.753],[-0.137,46.742],[-0.152,46.76],[-0.181,46.75],[-0.196,46.771],[-0.179,46.792],[-0.149,46.801],[-0.146,46.799],[-0.134,46.783],[-0.104,46.762]]]}},{"type":"Feature","properties":{"code":"79269","nom":"Saint-Maixent-de-Beugné","pop":416},"geometry":{"type":"Polygon","coordinates":[[[-0.642,46.525],[-0.602,46.533],[-0.573,46.51],[-0.611,46.501],[-0.634,46.505],[-0.642,46.525]]]}},{"type":"Feature","properties":{"code":"79270","nom":"Saint-Maixent-l'École","pop":7595},"geometry":{"type":"Polygon","coordinates":[[[-0.203,46.429],[-0.193,46.418],[-0.191,46.407],[-0.215,46.402],[-0.234,46.416],[-0.203,46.429]]]}},{"type":"Feature","properties":{"code":"79271","nom":"Saint-Marc-la-Lande","pop":356},"geometry":{"type":"Polygon","coordinates":[[[-0.359,46.541],[-0.325,46.534],[-0.358,46.504],[-0.374,46.512],[-0.392,46.529],[-0.359,46.541]]]}},{"type":"Feature","properties":{"code":"79273","nom":"Saint-Martin-de-Bernegoue","pop":806},"geometry":{"type":"Polygon","coordinates":[[[-0.31,46.236],[-0.343,46.214],[-0.357,46.213],[-0.386,46.224],[-0.378,46.248],[-0.393,46.259],[-0.391,46.264],[-0.31,46.236]]]}},{"type":"Feature","properties":{"code":"79274","nom":"Saint-Martin-de-Mâcon","pop":325},"geometry":{"type":"Polygon","coordinates":[[[-0.09,47.033],[-0.088,47.025],[-0.092,47.005],[-0.118,47.007],[-0.146,47.026],[-0.138,47.041],[-0.09,47.033]]]}},{"type":"Feature","properties":{"code":"79276","nom":"Saint-Martin-de-Saint-Maixent","pop":1062},"geometry":{"type":"Polygon","coordinates":[[[-0.243,46.387],[-0.215,46.402],[-0.191,46.407],[-0.168,46.393],[-0.16,46.386],[-0.186,46.387],[-0.216,46.37],[-0.233,46.377],[-0.243,46.387]]]}},{"type":"Feature","properties":{"code":"79277","nom":"Saint-Martin-de-Sanzay","pop":1030},"geometry":{"type":"Polygon","coordinates":[[[-0.185,47.108],[-0.141,47.104],[-0.175,47.068],[-0.214,47.036],[-0.217,47.029],[-0.236,47.034],[-0.206,47.093],[-0.185,47.108]]]}},{"type":"Feature","properties":{"code":"79278","nom":"Saint-Martin-du-Fouilloux","pop":253},"geometry":{"type":"Polygon","coordinates":[[[-0.172,46.598],[-0.153,46.609],[-0.111,46.619],[-0.082,46.614],[-0.087,46.593],[-0.114,46.568],[-0.168,46.573],[-0.172,46.598]]]}},{"type":"Feature","properties":{"code":"79280","nom":"Saint Maurice Étusson","pop":895},"geometry":{"type":"Polygon","coordinates":[[[-0.515,47.078],[-0.464,47.082],[-0.48,47.053],[-0.465,47.026],[-0.483,47.022],[-0.514,46.993],[-0.531,46.986],[-0.595,46.998],[-0.587,47.006],[-0.556,47.043],[-0.559,47.062],[-0.515,47.078]]]}},{"type":"Feature","properties":{"code":"79281","nom":"Saint-Maxire","pop":1319},"geometry":{"type":"Polygon","coordinates":[[[-0.484,46.377],[-0.493,46.375],[-0.516,46.392],[-0.495,46.417],[-0.484,46.42],[-0.45,46.413],[-0.45,46.394],[-0.484,46.377]]]}},{"type":"Feature","properties":{"code":"79283","nom":"Sainte-Néomaye","pop":1359},"geometry":{"type":"Polygon","coordinates":[[[-0.285,46.341],[-0.276,46.375],[-0.254,46.382],[-0.243,46.387],[-0.233,46.377],[-0.253,46.349],[-0.274,46.334],[-0.285,46.341]]]}},{"type":"Feature","properties":{"code":"79284","nom":"Sainte-Ouenne","pop":789},"geometry":{"type":"Polygon","coordinates":[[[-0.484,46.42],[-0.475,46.424],[-0.456,46.463],[-0.439,46.47],[-0.437,46.47],[-0.438,46.428],[-0.45,46.413],[-0.484,46.42]]]}},{"type":"Feature","properties":{"code":"79285","nom":"Saint-Pardoux-Soutiers","pop":1869},"geometry":{"type":"Polygon","coordinates":[[[-0.289,46.563],[-0.316,46.558],[-0.325,46.534],[-0.359,46.541],[-0.362,46.552],[-0.34,46.582],[-0.34,46.598],[-0.323,46.612],[-0.282,46.604],[-0.258,46.612],[-0.249,46.6],[-0.261,46.584],[-0.289,46.563]]]}},{"type":"Feature","properties":{"code":"79286","nom":"Saint-Paul-en-Gâtine","pop":501},"geometry":{"type":"Polygon","coordinates":[[[-0.614,46.62],[-0.649,46.645],[-0.637,46.663],[-0.585,46.649],[-0.581,46.625],[-0.584,46.617],[-0.614,46.62]]]}},{"type":"Feature","properties":{"code":"79289","nom":"Saint-Pierre-des-Échaubrognes","pop":1384},"geometry":{"type":"Polygon","coordinates":[[[-0.788,47.005],[-0.764,46.993],[-0.699,46.995],[-0.68,46.988],[-0.73,46.966],[-0.743,46.952],[-0.784,46.959],[-0.805,46.99],[-0.808,46.992],[-0.81,46.993],[-0.788,47.005]]]}},{"type":"Feature","properties":{"code":"79290","nom":"Saint-Pompain","pop":949},"geometry":{"type":"Polygon","coordinates":[[[-0.636,46.432],[-0.608,46.454],[-0.596,46.451],[-0.569,46.447],[-0.572,46.401],[-0.61,46.414],[-0.621,46.391],[-0.64,46.411],[-0.636,46.432]]]}},{"type":"Feature","properties":{"code":"79293","nom":"Saint-Rémy","pop":1105},"geometry":{"type":"Polygon","coordinates":[[[-0.526,46.35],[-0.558,46.364],[-0.538,46.386],[-0.516,46.392],[-0.493,46.375],[-0.499,46.366],[-0.526,46.35]]]}},{"type":"Feature","properties":{"code":"79294","nom":"Saint-Romans-des-Champs","pop":169},"geometry":{"type":"Polygon","coordinates":[[[-0.359,46.192],[-0.364,46.196],[-0.357,46.213],[-0.343,46.214],[-0.356,46.189],[-0.359,46.192]]]}},{"type":"Feature","properties":{"code":"79295","nom":"Saint-Romans-lès-Melle","pop":729},"geometry":{"type":"Polygon","coordinates":[[[-0.205,46.184],[-0.225,46.204],[-0.196,46.227],[-0.171,46.217],[-0.205,46.184]]]}},{"type":"Feature","properties":{"code":"79297","nom":"Sainte-Soline","pop":343},"geometry":{"type":"Polygon","coordinates":[[[0.051,46.221],[0.031,46.216],[0.015,46.24],[0.014,46.259],[0.034,46.277],[0.058,46.279],[0.088,46.257],[0.082,46.243],[0.08,46.239],[0.051,46.221]]]}},{"type":"Feature","properties":{"code":"79298","nom":"Saint-Symphorien","pop":1983},"geometry":{"type":"Polygon","coordinates":[[[-0.458,46.294],[-0.445,46.263],[-0.448,46.254],[-0.479,46.243],[-0.503,46.247],[-0.522,46.281],[-0.489,46.287],[-0.458,46.294]]]}},{"type":"Feature","properties":{"code":"79299","nom":"Saint-Varent","pop":2395},"geometry":{"type":"Polygon","coordinates":[[[-0.186,46.866],[-0.191,46.868],[-0.221,46.875],[-0.274,46.866],[-0.27,46.889],[-0.269,46.916],[-0.267,46.918],[-0.233,46.917],[-0.16,46.907],[-0.158,46.906],[-0.182,46.885],[-0.186,46.866]]]}},{"type":"Feature","properties":{"code":"79300","nom":"Sainte-Verge","pop":1404},"geometry":{"type":"Polygon","coordinates":[[[-0.236,47.034],[-0.217,47.029],[-0.205,47.002],[-0.257,47.012],[-0.236,47.034]]]}},{"type":"Feature","properties":{"code":"79301","nom":"Saint-Vincent-la-Châtre","pop":589},"geometry":{"type":"Polygon","coordinates":[[[-0.079,46.239],[-0.022,46.234],[0.005,46.2],[-0.014,46.182],[-0.029,46.183],[-0.052,46.196],[-0.079,46.224],[-0.079,46.239]]]}},{"type":"Feature","properties":{"code":"79302","nom":"Saivres","pop":1306},"geometry":{"type":"Polygon","coordinates":[[[-0.256,46.452],[-0.226,46.465],[-0.203,46.458],[-0.203,46.429],[-0.234,46.416],[-0.282,46.428],[-0.256,46.452]]]}},{"type":"Feature","properties":{"code":"79303","nom":"Salles","pop":323},"geometry":{"type":"Polygon","coordinates":[[[-0.077,46.385],[-0.094,46.367],[-0.112,46.38],[-0.112,46.406],[-0.085,46.399],[-0.077,46.385]]]}},{"type":"Feature","properties":{"code":"79304","nom":"Sansais","pop":760},"geometry":{"type":"Polygon","coordinates":[[[-0.624,46.278],[-0.621,46.28],[-0.617,46.311],[-0.588,46.318],[-0.566,46.29],[-0.577,46.266],[-0.624,46.278]]]}},{"type":"Feature","properties":{"code":"79306","nom":"Saurais","pop":178},"geometry":{"type":"Polygon","coordinates":[[[-0.153,46.609],[-0.162,46.624],[-0.153,46.636],[-0.116,46.641],[-0.111,46.619],[-0.153,46.609]]]}},{"type":"Feature","properties":{"code":"79307","nom":"Sauzé-Vaussais","pop":2271},"geometry":{"type":"Polygon","coordinates":[[[0.136,46.104],[0.119,46.098],[0.093,46.103],[0.071,46.124],[0.074,46.131],[0.101,46.148],[0.135,46.142],[0.146,46.115],[0.136,46.104]]]}},{"type":"Feature","properties":{"code":"79308","nom":"Sciecq","pop":659},"geometry":{"type":"Polygon","coordinates":[[[-0.499,46.366],[-0.493,46.375],[-0.484,46.377],[-0.451,46.373],[-0.499,46.366]]]}},{"type":"Feature","properties":{"code":"79309","nom":"Scillé","pop":365},"geometry":{"type":"Polygon","coordinates":[[[-0.581,46.625],[-0.556,46.617],[-0.526,46.59],[-0.532,46.578],[-0.554,46.575],[-0.584,46.617],[-0.581,46.625]]]}},{"type":"Feature","properties":{"code":"79310","nom":"Secondigné-sur-Belle","pop":480},"geometry":{"type":"Polygon","coordinates":[[[-0.264,46.173],[-0.3,46.147],[-0.307,46.137],[-0.357,46.146],[-0.365,46.146],[-0.341,46.161],[-0.343,46.179],[-0.291,46.193],[-0.264,46.173]]]}},{"type":"Feature","properties":{"code":"79311","nom":"Secondigny","pop":1765},"geometry":{"type":"Polygon","coordinates":[[[-0.381,46.606],[-0.417,46.589],[-0.459,46.572],[-0.473,46.578],[-0.468,46.597],[-0.485,46.616],[-0.462,46.653],[-0.444,46.647],[-0.429,46.635],[-0.397,46.629],[-0.381,46.606]]]}},{"type":"Feature","properties":{"code":"79312","nom":"Séligné","pop":110},"geometry":{"type":"Polygon","coordinates":[[[-0.243,46.146],[-0.255,46.129],[-0.31,46.133],[-0.307,46.137],[-0.3,46.147],[-0.243,46.146]]]}},{"type":"Feature","properties":{"code":"79313","nom":"Sepvret","pop":620},"geometry":{"type":"Polygon","coordinates":[[[-0.079,46.27],[-0.13,46.273],[-0.12,46.289],[-0.109,46.307],[-0.065,46.32],[-0.079,46.27]]]}},{"type":"Feature","properties":{"code":"79316","nom":"Soudan","pop":424},"geometry":{"type":"Polygon","coordinates":[[[-0.122,46.45],[-0.077,46.463],[-0.06,46.44],[-0.082,46.421],[-0.085,46.399],[-0.112,46.406],[-0.127,46.416],[-0.122,46.45]]]}},{"type":"Feature","properties":{"code":"79319","nom":"Souvigné","pop":863},"geometry":{"type":"Polygon","coordinates":[[[-0.133,46.369],[-0.147,46.341],[-0.134,46.329],[-0.156,46.327],[-0.199,46.343],[-0.216,46.37],[-0.186,46.387],[-0.16,46.386],[-0.133,46.369]]]}},{"type":"Feature","properties":{"code":"79320","nom":"Surin","pop":635},"geometry":{"type":"Polygon","coordinates":[[[-0.444,46.505],[-0.439,46.47],[-0.456,46.463],[-0.475,46.424],[-0.472,46.464],[-0.468,46.473],[-0.461,46.503],[-0.444,46.505]]]}},{"type":"Feature","properties":{"code":"79322","nom":"Le Tallud","pop":1961},"geometry":{"type":"Polygon","coordinates":[[[-0.339,46.636],[-0.272,46.649],[-0.264,46.649],[-0.267,46.632],[-0.258,46.612],[-0.282,46.604],[-0.323,46.612],[-0.339,46.636]]]}},{"type":"Feature","properties":{"code":"79326","nom":"Thénezay","pop":1400},"geometry":{"type":"Polygon","coordinates":[[[0.004,46.718],[-0.007,46.683],[-0.032,46.669],[-0.077,46.679],[-0.087,46.705],[-0.074,46.738],[-0.059,46.746],[-0.031,46.753],[-0.022,46.776],[-0.012,46.754],[0.004,46.718]]]}},{"type":"Feature","properties":{"code":"79329","nom":"Thouars","pop":13891},"geometry":{"type":"Polygon","coordinates":[[[-0.174,46.985],[-0.144,46.955],[-0.161,46.94],[-0.188,46.942],[-0.208,46.956],[-0.218,46.968],[-0.242,46.983],[-0.254,46.955],[-0.227,46.956],[-0.243,46.939],[-0.257,46.925],[-0.288,46.934],[-0.327,46.952],[-0.346,46.98],[-0.286,47.027],[-0.257,47.012],[-0.205,47.002],[-0.174,46.985]]]}},{"type":"Feature","properties":{"code":"79331","nom":"Tourtenay","pop":125},"geometry":{"type":"Polygon","coordinates":[[[-0.092,47.038],[-0.09,47.033],[-0.138,47.041],[-0.129,47.054],[-0.102,47.065],[-0.092,47.038]]]}},{"type":"Feature","properties":{"code":"79332","nom":"Trayes","pop":111},"geometry":{"type":"Polygon","coordinates":[[[-0.483,46.646],[-0.494,46.676],[-0.483,46.694],[-0.473,46.653],[-0.483,46.646]]]}},{"type":"Feature","properties":{"code":"79334","nom":"Val-du-Mignon","pop":1092},"geometry":{"type":"Polygon","coordinates":[[[-0.539,46.16],[-0.533,46.14],[-0.583,46.14],[-0.628,46.144],[-0.635,46.166],[-0.631,46.182],[-0.601,46.186],[-0.581,46.184],[-0.539,46.16]]]}},{"type":"Feature","properties":{"code":"79335","nom":"Vallans","pop":840},"geometry":{"type":"Polygon","coordinates":[[[-0.521,46.206],[-0.54,46.206],[-0.572,46.212],[-0.563,46.234],[-0.525,46.231],[-0.521,46.206]]]}},{"type":"Feature","properties":{"code":"79336","nom":"Vançais","pop":222},"geometry":{"type":"Polygon","coordinates":[[[0.015,46.326],[0.03,46.329],[0.078,46.305],[0.058,46.279],[0.034,46.277],[0.031,46.303],[0.005,46.306],[0.015,46.326]]]}},{"type":"Feature","properties":{"code":"79337","nom":"Le Vanneau-Irleau","pop":860},"geometry":{"type":"Polygon","coordinates":[[[-0.672,46.316],[-0.652,46.318],[-0.643,46.319],[-0.617,46.311],[-0.621,46.28],[-0.674,46.289],[-0.672,46.316]]]}},{"type":"Feature","properties":{"code":"79338","nom":"Vanzay","pop":234},"geometry":{"type":"Polygon","coordinates":[[[0.114,46.212],[0.083,46.224],[0.08,46.239],[0.082,46.243],[0.138,46.245],[0.139,46.24],[0.114,46.212]]]}},{"type":"Feature","properties":{"code":"79339","nom":"Vasles","pop":1665},"geometry":{"type":"Polygon","coordinates":[[[-0.119,46.525],[-0.102,46.547],[-0.114,46.568],[-0.087,46.593],[-0.082,46.614],[-0.066,46.623],[-0.03,46.627],[-0.005,46.645],[-0.014,46.615],[0.023,46.614],[0.043,46.591],[-0.008,46.568],[-0.01,46.555],[-0.04,46.562],[-0.031,46.525],[-0.039,46.499],[-0.063,46.517],[-0.097,46.512],[-0.119,46.525]]]}},{"type":"Feature","properties":{"code":"79340","nom":"Vausseroux","pop":334},"geometry":{"type":"Polygon","coordinates":[[[-0.165,46.548],[-0.176,46.553],[-0.168,46.573],[-0.114,46.568],[-0.102,46.547],[-0.119,46.525],[-0.123,46.533],[-0.165,46.548]]]}},{"type":"Feature","properties":{"code":"79341","nom":"Vautebis","pop":127},"geometry":{"type":"Polygon","coordinates":[[[-0.123,46.533],[-0.165,46.522],[-0.165,46.548],[-0.123,46.533]]]}},{"type":"Feature","properties":{"code":"79342","nom":"Vernoux-en-Gâtine","pop":592},"geometry":{"type":"Polygon","coordinates":[[[-0.462,46.653],[-0.485,46.616],[-0.532,46.578],[-0.526,46.59],[-0.556,46.617],[-0.566,46.627],[-0.527,46.653],[-0.483,46.646],[-0.473,46.653],[-0.462,46.653]]]}},{"type":"Feature","properties":{"code":"79343","nom":"Vernoux-sur-Boutonne","pop":249},"geometry":{"type":"Polygon","coordinates":[[[-0.3,46.147],[-0.264,46.173],[-0.226,46.162],[-0.243,46.146],[-0.3,46.147]]]}},{"type":"Feature","properties":{"code":"79345","nom":"Verruyes","pop":900},"geometry":{"type":"Polygon","coordinates":[[[-0.242,46.51],[-0.28,46.486],[-0.305,46.487],[-0.308,46.498],[-0.308,46.537],[-0.285,46.55],[-0.255,46.536],[-0.242,46.51]]]}},{"type":"Feature","properties":{"code":"79346","nom":"Le Vert","pop":117},"geometry":{"type":"Polygon","coordinates":[[[-0.374,46.094],[-0.401,46.084],[-0.422,46.094],[-0.421,46.113],[-0.418,46.122],[-0.39,46.119],[-0.374,46.094]]]}},{"type":"Feature","properties":{"code":"79347","nom":"Viennay","pop":1062},"geometry":{"type":"Polygon","coordinates":[[[-0.23,46.716],[-0.214,46.685],[-0.222,46.676],[-0.266,46.682],[-0.271,46.711],[-0.269,46.714],[-0.23,46.716]]]}},{"type":"Feature","properties":{"code":"79348","nom":"Villefollet","pop":203},"geometry":{"type":"Polygon","coordinates":[[[-0.235,46.103],[-0.265,46.11],[-0.302,46.114],[-0.31,46.133],[-0.255,46.129],[-0.239,46.116],[-0.235,46.103]]]}},{"type":"Feature","properties":{"code":"79349","nom":"Villemain","pop":153},"geometry":{"type":"Polygon","coordinates":[[[-0.132,45.988],[-0.145,46.005],[-0.11,46.041],[-0.072,46.025],[-0.115,46.005],[-0.132,45.988]]]}},{"type":"Feature","properties":{"code":"79350","nom":"Villiers-en-Bois","pop":127},"geometry":{"type":"Polygon","coordinates":[[[-0.366,46.146],[-0.39,46.119],[-0.418,46.122],[-0.449,46.133],[-0.433,46.157],[-0.425,46.16],[-0.395,46.165],[-0.366,46.146]]]}},{"type":"Feature","properties":{"code":"79351","nom":"Villiers-en-Plaine","pop":1806},"geometry":{"type":"Polygon","coordinates":[[[-0.538,46.386],[-0.572,46.401],[-0.569,46.447],[-0.545,46.445],[-0.496,46.427],[-0.495,46.417],[-0.516,46.392],[-0.538,46.386]]]}},{"type":"Feature","properties":{"code":"79352","nom":"Villiers-sur-Chizé","pop":156},"geometry":{"type":"Polygon","coordinates":[[[-0.328,46.111],[-0.302,46.114],[-0.265,46.11],[-0.293,46.087],[-0.327,46.081],[-0.328,46.111]]]}},{"type":"Feature","properties":{"code":"79354","nom":"Vouhé","pop":356},"geometry":{"type":"Polygon","coordinates":[[[-0.261,46.584],[-0.239,46.574],[-0.223,46.55],[-0.255,46.536],[-0.285,46.55],[-0.289,46.563],[-0.261,46.584]]]}},{"type":"Feature","properties":{"code":"79355","nom":"Vouillé","pop":3566},"geometry":{"type":"Polygon","coordinates":[[[-0.354,46.348],[-0.347,46.332],[-0.316,46.326],[-0.33,46.31],[-0.325,46.293],[-0.371,46.295],[-0.389,46.305],[-0.385,46.33],[-0.354,46.348]]]}},{"type":"Feature","properties":{"code":"79357","nom":"Xaintray","pop":238},"geometry":{"type":"Polygon","coordinates":[[[-0.468,46.473],[-0.511,46.491],[-0.496,46.505],[-0.459,46.521],[-0.461,46.503],[-0.468,46.473]]]}}]}