{"type":"FeatureCollection","features":[{"type":"Feature","properties":{"code":"82001","nom":"Albefeuille-Lagarde","pop":582},"geometry":{"type":"Polygon","coordinates":[[[1.27,44.029],[1.252,44.055],[1.279,44.069],[1.287,44.059],[1.29,44.034],[1.27,44.029]]]}},{"type":"Feature","properties":{"code":"82002","nom":"Albias","pop":3240},"geometry":{"type":"Polygon","coordinates":[[[1.42,44.101],[1.431,44.103],[1.442,44.111],[1.448,44.101],[1.464,44.094],[1.492,44.082],[1.469,44.061],[1.416,44.074],[1.406,44.084],[1.42,44.101]]]}},{"type":"Feature","properties":{"code":"82003","nom":"Angeville","pop":239},"geometry":{"type":"Polygon","coordinates":[[[1.01,43.989],[1.018,44.002],[1.02,44.009],[1.059,44],[1.032,43.969],[1.01,43.989]]]}},{"type":"Feature","properties":{"code":"82004","nom":"Asques","pop":133},"geometry":{"type":"Polygon","coordinates":[[[0.979,44.003],[0.96,43.985],[0.942,43.987],[0.95,44.008],[0.923,44.027],[0.96,44.037],[0.964,44.028],[0.979,44.003]]]}},{"type":"Feature","properties":{"code":"82005","nom":"Aucamville","pop":1562},"geometry":{"type":"Polygon","coordinates":[[[1.21,43.771],[1.219,43.787],[1.183,43.794],[1.176,43.805],[1.224,43.818],[1.263,43.81],[1.267,43.798],[1.267,43.783],[1.21,43.771]]]}},{"type":"Feature","properties":{"code":"82006","nom":"Auterive","pop":65},"geometry":{"type":"Polygon","coordinates":[[[0.953,43.857],[0.963,43.863],[0.985,43.856],[0.953,43.857]]]}},{"type":"Feature","properties":{"code":"82007","nom":"Auty","pop":142},"geometry":{"type":"Polygon","coordinates":[[[1.454,44.191],[1.47,44.207],[1.491,44.185],[1.477,44.172],[1.446,44.183],[1.454,44.191]]]}},{"type":"Feature","properties":{"code":"82008","nom":"Auvillar","pop":895},"geometry":{"type":"Polygon","coordinates":[[[0.865,44.039],[0.85,44.048],[0.86,44.061],[0.89,44.083],[0.883,44.093],[0.919,44.069],[0.904,44.043],[0.865,44.039]]]}},{"type":"Feature","properties":{"code":"82009","nom":"Balignac","pop":41},"geometry":{"type":"Polygon","coordinates":[[[0.861,43.948],[0.855,43.964],[0.901,43.954],[0.895,43.952],[0.861,43.948]]]}},{"type":"Feature","properties":{"code":"82010","nom":"Bardigues","pop":235},"geometry":{"type":"Polygon","coordinates":[[[0.884,44.012],[0.858,44.035],[0.865,44.039],[0.904,44.043],[0.919,44.03],[0.884,44.012]]]}},{"type":"Feature","properties":{"code":"82011","nom":"Barry-d'Islemade","pop":940},"geometry":{"type":"Polygon","coordinates":[[[1.25,44.099],[1.266,44.087],[1.279,44.069],[1.252,44.055],[1.225,44.067],[1.25,44.099]]]}},{"type":"Feature","properties":{"code":"82012","nom":"Les Barthes","pop":596},"geometry":{"type":"Polygon","coordinates":[[[1.177,44.067],[1.151,44.086],[1.156,44.113],[1.163,44.116],[1.188,44.093],[1.177,44.067]]]}},{"type":"Feature","properties":{"code":"82013","nom":"Beaumont-de-Lomagne","pop":3824},"geometry":{"type":"Polygon","coordinates":[[[1.069,43.846],[1.046,43.839],[1,43.856],[0.985,43.856],[0.963,43.863],[0.951,43.885],[0.983,43.928],[0.985,43.91],[1.03,43.895],[1.069,43.88],[1.078,43.862],[1.069,43.846]]]}},{"type":"Feature","properties":{"code":"82014","nom":"Beaupuy","pop":273},"geometry":{"type":"Polygon","coordinates":[[[1.15,43.826],[1.144,43.822],[1.115,43.798],[1.105,43.801],[1.083,43.816],[1.098,43.831],[1.15,43.826]]]}},{"type":"Feature","properties":{"code":"82015","nom":"Belbèze-en-Lomagne","pop":172},"geometry":{"type":"Polygon","coordinates":[[[1.067,43.918],[1.087,43.903],[1.08,43.892],[1.08,43.892],[1.052,43.91],[1.067,43.918]]]}},{"type":"Feature","properties":{"code":"82016","nom":"Belvèze","pop":221},"geometry":{"type":"Polygon","coordinates":[[[1.12,44.318],[1.075,44.306],[1.064,44.306],[1.081,44.354],[1.11,44.34],[1.12,44.318]]]}},{"type":"Feature","properties":{"code":"82017","nom":"Bessens","pop":1470},"geometry":{"type":"Polygon","coordinates":[[[1.261,43.868],[1.237,43.882],[1.254,43.9],[1.293,43.897],[1.3,43.887],[1.261,43.868]]]}},{"type":"Feature","properties":{"code":"82018","nom":"Bioule","pop":1201},"geometry":{"type":"Polygon","coordinates":[[[1.508,44.107],[1.525,44.121],[1.581,44.108],[1.585,44.089],[1.535,44.087],[1.497,44.096],[1.508,44.107]]]}},{"type":"Feature","properties":{"code":"82019","nom":"Boudou","pop":757},"geometry":{"type":"Polygon","coordinates":[[[1.047,44.087],[0.992,44.088],[0.985,44.11],[1.002,44.119],[1.026,44.119],[1.047,44.087]]]}},{"type":"Feature","properties":{"code":"82020","nom":"Bouillac","pop":584},"geometry":{"type":"Polygon","coordinates":[[[1.058,43.824],[1.069,43.846],[1.078,43.862],[1.103,43.853],[1.13,43.874],[1.154,43.88],[1.166,43.851],[1.15,43.826],[1.098,43.831],[1.083,43.816],[1.082,43.815],[1.058,43.824]]]}},{"type":"Feature","properties":{"code":"82021","nom":"Bouloc-en-Quercy","pop":196},"geometry":{"type":"Polygon","coordinates":[[[1.075,44.306],[1.12,44.318],[1.151,44.307],[1.149,44.279],[1.131,44.28],[1.075,44.306]]]}},{"type":"Feature","properties":{"code":"82022","nom":"Bourg-de-Visa","pop":396},"geometry":{"type":"Polygon","coordinates":[[[0.919,44.238],[0.928,44.267],[0.951,44.275],[0.986,44.264],[0.972,44.255],[0.963,44.222],[0.929,44.23],[0.919,44.238]]]}},{"type":"Feature","properties":{"code":"82023","nom":"Bourret","pop":971},"geometry":{"type":"Polygon","coordinates":[[[1.176,43.952],[1.181,43.931],[1.158,43.92],[1.12,43.928],[1.126,43.947],[1.163,43.966],[1.176,43.952]]]}},{"type":"Feature","properties":{"code":"82024","nom":"Brassac","pop":254},"geometry":{"type":"Polygon","coordinates":[[[0.953,44.199],[0.963,44.222],[0.972,44.255],[1.005,44.232],[1.012,44.221],[0.984,44.198],[0.953,44.199]]]}},{"type":"Feature","properties":{"code":"82025","nom":"Bressols","pop":4036},"geometry":{"type":"Polygon","coordinates":[[[1.355,43.954],[1.322,43.927],[1.297,43.934],[1.279,43.96],[1.29,43.978],[1.34,43.971],[1.355,43.954]]]}},{"type":"Feature","properties":{"code":"82026","nom":"Bruniquel","pop":641},"geometry":{"type":"Polygon","coordinates":[[[1.653,44.096],[1.664,44.067],[1.692,44.063],[1.704,44.044],[1.692,44.022],[1.665,44.012],[1.643,44.03],[1.61,44.074],[1.61,44.075],[1.64,44.075],[1.653,44.096]]]}},{"type":"Feature","properties":{"code":"82027","nom":"Campsas","pop":1473},"geometry":{"type":"Polygon","coordinates":[[[1.314,43.901],[1.363,43.893],[1.365,43.89],[1.35,43.872],[1.319,43.872],[1.301,43.878],[1.3,43.887],[1.293,43.897],[1.314,43.901]]]}},{"type":"Feature","properties":{"code":"82028","nom":"Canals","pop":798},"geometry":{"type":"Polygon","coordinates":[[[1.319,43.858],[1.294,43.846],[1.276,43.851],[1.301,43.878],[1.319,43.872],[1.319,43.858]]]}},{"type":"Feature","properties":{"code":"82029","nom":"Castanet","pop":264},"geometry":{"type":"Polygon","coordinates":[[[1.971,44.276],[1.962,44.242],[1.943,44.248],[1.885,44.237],[1.916,44.263],[1.902,44.279],[1.94,44.283],[1.971,44.276]]]}},{"type":"Feature","properties":{"code":"82030","nom":"Castelferrus","pop":488},"geometry":{"type":"Polygon","coordinates":[[[1.091,44.022],[1.111,44.001],[1.112,43.999],[1.091,43.987],[1.068,43.996],[1.068,44.005],[1.091,44.022]]]}},{"type":"Feature","properties":{"code":"82031","nom":"Castelmayran","pop":1186},"geometry":{"type":"MultiPolygon","coordinates":[[[[1.049,44.048],[1.064,44.038],[1.068,44.005],[1.068,43.996],[1.059,44],[1.02,44.009],[1.029,44.033],[1.049,44.048]]],[[[1.07,44.033],[1.08,44.032],[1.075,44.031],[1.07,44.031],[1.07,44.033]]]]}},{"type":"Feature","properties":{"code":"82032","nom":"Castelsagrat","pop":547},"geometry":{"type":"Polygon","coordinates":[[[0.984,44.198],[1.004,44.177],[0.996,44.169],[0.966,44.145],[0.954,44.164],[0.93,44.17],[0.901,44.164],[0.908,44.175],[0.953,44.199],[0.984,44.198]]]}},{"type":"Feature","properties":{"code":"82033","nom":"Castelsarrasin","pop":14343},"geometry":{"type":"Polygon","coordinates":[[[1.156,44.113],[1.151,44.086],[1.177,44.067],[1.177,44.064],[1.177,44.044],[1.203,44.03],[1.165,44.017],[1.142,43.998],[1.111,44.001],[1.091,44.022],[1.08,44.032],[1.07,44.033],[1.064,44.038],[1.049,44.048],[1.066,44.08],[1.091,44.075],[1.115,44.091],[1.143,44.096],[1.156,44.113]]]}},{"type":"Feature","properties":{"code":"82034","nom":"Castéra-Bouzet","pop":129},"geometry":{"type":"Polygon","coordinates":[[[0.919,44.03],[0.923,44.027],[0.95,44.008],[0.942,43.987],[0.913,43.99],[0.906,43.986],[0.876,44.004],[0.884,44.012],[0.919,44.03]]]}},{"type":"Feature","properties":{"code":"82035","nom":"Caumont","pop":346},"geometry":{"type":"Polygon","coordinates":[[[0.991,44.044],[1.029,44.033],[1.02,44.009],[1.018,44.002],[0.979,44.003],[0.964,44.028],[0.991,44.044]]]}},{"type":"Feature","properties":{"code":"82036","nom":"Le Causé","pop":131},"geometry":{"type":"Polygon","coordinates":[[[1,43.798],[0.982,43.791],[0.956,43.789],[0.943,43.808],[0.982,43.818],[0.988,43.817],[1,43.798]]]}},{"type":"Feature","properties":{"code":"82037","nom":"Caussade","pop":6803},"geometry":{"type":"Polygon","coordinates":[[[1.525,44.121],[1.523,44.145],[1.495,44.141],[1.499,44.171],[1.51,44.19],[1.568,44.209],[1.589,44.206],[1.596,44.199],[1.58,44.186],[1.551,44.191],[1.538,44.174],[1.577,44.153],[1.575,44.126],[1.599,44.112],[1.581,44.108],[1.525,44.121]]]}},{"type":"Feature","properties":{"code":"82038","nom":"Caylus","pop":1445},"geometry":{"type":"Polygon","coordinates":[[[1.691,44.214],[1.681,44.232],[1.682,44.266],[1.681,44.294],[1.699,44.302],[1.747,44.29],[1.766,44.266],[1.797,44.254],[1.832,44.264],[1.846,44.229],[1.83,44.213],[1.792,44.197],[1.759,44.214],[1.739,44.197],[1.701,44.2],[1.691,44.214]]]}},{"type":"Feature","properties":{"code":"82039","nom":"Cayrac","pop":570},"geometry":{"type":"Polygon","coordinates":[[[1.508,44.107],[1.497,44.096],[1.464,44.094],[1.448,44.101],[1.497,44.117],[1.508,44.107]]]}},{"type":"Feature","properties":{"code":"82040","nom":"Cayriech","pop":270},"geometry":{"type":"Polygon","coordinates":[[[1.596,44.199],[1.589,44.206],[1.591,44.231],[1.615,44.226],[1.619,44.206],[1.596,44.199]]]}},{"type":"Feature","properties":{"code":"82041","nom":"Cazals","pop":236},"geometry":{"type":"Polygon","coordinates":[[[1.722,44.118],[1.659,44.117],[1.664,44.137],[1.701,44.138],[1.722,44.118]]]}},{"type":"Feature","properties":{"code":"82042","nom":"Cazes-Mondenard","pop":1238},"geometry":{"type":"Polygon","coordinates":[[[1.186,44.25],[1.212,44.267],[1.236,44.253],[1.267,44.252],[1.26,44.218],[1.229,44.197],[1.259,44.179],[1.256,44.163],[1.235,44.177],[1.194,44.156],[1.182,44.165],[1.165,44.211],[1.168,44.221],[1.192,44.231],[1.186,44.25]]]}},{"type":"Feature","properties":{"code":"82043","nom":"Comberouger","pop":268},"geometry":{"type":"Polygon","coordinates":[[[1.078,43.862],[1.069,43.88],[1.08,43.892],[1.08,43.892],[1.13,43.874],[1.103,43.853],[1.078,43.862]]]}},{"type":"Feature","properties":{"code":"82044","nom":"Corbarieu","pop":1725},"geometry":{"type":"Polygon","coordinates":[[[1.39,43.916],[1.383,43.917],[1.366,43.925],[1.355,43.952],[1.402,43.954],[1.415,43.944],[1.39,43.916]]]}},{"type":"Feature","properties":{"code":"82045","nom":"Cordes-Tolosannes","pop":357},"geometry":{"type":"Polygon","coordinates":[[[1.163,43.966],[1.126,43.947],[1.113,43.957],[1.114,43.963],[1.116,43.989],[1.112,43.999],[1.111,44.001],[1.142,43.998],[1.155,43.985],[1.163,43.966]]]}},{"type":"Feature","properties":{"code":"82046","nom":"Coutures","pop":98},"geometry":{"type":"Polygon","coordinates":[[[0.984,43.938],[0.98,43.942],[0.974,43.973],[1,43.982],[0.996,43.95],[0.984,43.938]]]}},{"type":"Feature","properties":{"code":"82047","nom":"Cumont","pop":50},"geometry":{"type":"Polygon","coordinates":[[[0.912,43.849],[0.883,43.886],[0.901,43.897],[0.896,43.883],[0.92,43.867],[0.924,43.848],[0.912,43.849]]]}},{"type":"Feature","properties":{"code":"82048","nom":"Dieupentale","pop":1655},"geometry":{"type":"Polygon","coordinates":[[[1.276,43.851],[1.273,43.852],[1.261,43.868],[1.3,43.887],[1.301,43.878],[1.276,43.851]]]}},{"type":"Feature","properties":{"code":"82049","nom":"Donzac","pop":1042},"geometry":{"type":"Polygon","coordinates":[[[0.799,44.111],[0.797,44.13],[0.834,44.116],[0.838,44.103],[0.82,44.068],[0.814,44.07],[0.799,44.111]]]}},{"type":"Feature","properties":{"code":"82050","nom":"Dunes","pop":1226},"geometry":{"type":"Polygon","coordinates":[[[0.748,44.093],[0.775,44.117],[0.799,44.111],[0.814,44.07],[0.814,44.069],[0.79,44.072],[0.753,44.056],[0.742,44.065],[0.748,44.093]]]}},{"type":"Feature","properties":{"code":"82051","nom":"Durfort-Lacapelette","pop":840},"geometry":{"type":"Polygon","coordinates":[[[1.194,44.156],[1.193,44.155],[1.112,44.157],[1.124,44.178],[1.091,44.189],[1.088,44.203],[1.098,44.204],[1.149,44.217],[1.165,44.211],[1.182,44.165],[1.194,44.156]]]}},{"type":"Feature","properties":{"code":"82052","nom":"Escatalens","pop":1148},"geometry":{"type":"Polygon","coordinates":[[[1.228,44.016],[1.229,44.013],[1.228,44.01],[1.229,43.994],[1.176,43.952],[1.163,43.966],[1.155,43.985],[1.212,44.005],[1.221,44.018],[1.228,44.016]]]}},{"type":"Feature","properties":{"code":"82053","nom":"Escazeaux","pop":287},"geometry":{"type":"Polygon","coordinates":[[[1,43.856],[1.046,43.839],[1.069,43.846],[1.058,43.824],[1.011,43.821],[0.991,43.846],[1,43.856]]]}},{"type":"Feature","properties":{"code":"82054","nom":"Espalais","pop":373},"geometry":{"type":"Polygon","coordinates":[[[0.883,44.093],[0.873,44.097],[0.877,44.101],[0.931,44.069],[0.941,44.071],[0.957,44.061],[0.919,44.069],[0.883,44.093]]]}},{"type":"Feature","properties":{"code":"82055","nom":"Esparsac","pop":252},"geometry":{"type":"Polygon","coordinates":[[[0.951,43.885],[0.94,43.886],[0.913,43.905],[0.926,43.919],[0.935,43.935],[0.959,43.928],[0.98,43.942],[0.984,43.938],[0.983,43.928],[0.951,43.885]]]}},{"type":"Feature","properties":{"code":"82056","nom":"Espinas","pop":211},"geometry":{"type":"Polygon","coordinates":[[[1.833,44.179],[1.739,44.197],[1.759,44.214],[1.792,44.197],[1.83,44.213],[1.843,44.194],[1.838,44.178],[1.833,44.179]]]}},{"type":"Feature","properties":{"code":"82057","nom":"Fabas","pop":714},"geometry":{"type":"Polygon","coordinates":[[[1.35,43.872],[1.319,43.858],[1.319,43.872],[1.35,43.872]]]}},{"type":"Feature","properties":{"code":"82058","nom":"Fajolles","pop":113},"geometry":{"type":"Polygon","coordinates":[[[0.996,43.95],[1,43.982],[1.01,43.989],[1.032,43.969],[1.027,43.962],[0.996,43.95]]]}},{"type":"Feature","properties":{"code":"82059","nom":"Faudoas","pop":291},"geometry":{"type":"Polygon","coordinates":[[[0.944,43.848],[0.953,43.857],[0.985,43.856],[1,43.856],[0.991,43.846],[1.011,43.821],[0.988,43.817],[0.982,43.818],[0.94,43.814],[0.929,43.834],[0.944,43.848]]]}},{"type":"Feature","properties":{"code":"82060","nom":"Fauroux","pop":189},"geometry":{"type":"Polygon","coordinates":[[[1.036,44.247],[1.025,44.237],[1.005,44.232],[0.972,44.255],[0.986,44.264],[0.994,44.268],[1.023,44.27],[1.036,44.247]]]}},{"type":"Feature","properties":{"code":"82061","nom":"Féneyrols","pop":176},"geometry":{"type":"Polygon","coordinates":[[[1.838,44.103],[1.825,44.108],[1.806,44.126],[1.802,44.144],[1.833,44.179],[1.838,44.178],[1.848,44.166],[1.838,44.144],[1.841,44.114],[1.838,44.103]]]}},{"type":"Feature","properties":{"code":"82062","nom":"Finhan","pop":1471},"geometry":{"type":"Polygon","coordinates":[[[1.209,43.896],[1.189,43.909],[1.187,43.93],[1.251,43.914],[1.253,43.904],[1.209,43.896]]]}},{"type":"Feature","properties":{"code":"82063","nom":"Garganvillar","pop":675},"geometry":{"type":"Polygon","coordinates":[[[1.027,43.962],[1.032,43.969],[1.059,44],[1.068,43.996],[1.091,43.987],[1.112,43.999],[1.116,43.989],[1.085,43.967],[1.066,43.957],[1.046,43.944],[1.027,43.962]]]}},{"type":"Feature","properties":{"code":"82064","nom":"Gariès","pop":129},"geometry":{"type":"Polygon","coordinates":[[[1.082,43.815],[1.059,43.799],[1,43.798],[0.988,43.817],[1.011,43.821],[1.058,43.824],[1.082,43.815]]]}},{"type":"Feature","properties":{"code":"82065","nom":"Gasques","pop":404},"geometry":{"type":"Polygon","coordinates":[[[0.888,44.149],[0.89,44.167],[0.901,44.164],[0.93,44.17],[0.926,44.129],[0.901,44.129],[0.892,44.137],[0.888,44.149]]]}},{"type":"Feature","properties":{"code":"82066","nom":"Génébrières","pop":661},"geometry":{"type":"Polygon","coordinates":[[[1.455,44.028],[1.487,44.023],[1.521,44.007],[1.527,43.992],[1.528,43.986],[1.485,43.979],[1.471,43.984],[1.455,44.028]]]}},{"type":"Feature","properties":{"code":"82067","nom":"Gensac","pop":102},"geometry":{"type":"Polygon","coordinates":[[[0.98,43.942],[0.959,43.928],[0.935,43.935],[0.942,43.953],[0.972,43.973],[0.974,43.973],[0.98,43.942]]]}},{"type":"Feature","properties":{"code":"82068","nom":"Gimat","pop":213},"geometry":{"type":"Polygon","coordinates":[[[0.94,43.886],[0.951,43.885],[0.963,43.863],[0.953,43.857],[0.944,43.848],[0.924,43.848],[0.92,43.867],[0.933,43.884],[0.94,43.886]]]}},{"type":"Feature","properties":{"code":"82069","nom":"Ginals","pop":203},"geometry":{"type":"Polygon","coordinates":[[[1.943,44.248],[1.912,44.215],[1.89,44.208],[1.843,44.194],[1.83,44.213],[1.846,44.229],[1.885,44.237],[1.943,44.248]]]}},{"type":"Feature","properties":{"code":"82070","nom":"Glatens","pop":68},"geometry":{"type":"Polygon","coordinates":[[[0.901,43.897],[0.904,43.899],[0.913,43.905],[0.94,43.886],[0.933,43.884],[0.901,43.897]]]}},{"type":"Feature","properties":{"code":"82071","nom":"Goas","pop":36},"geometry":{"type":"Polygon","coordinates":[[[0.943,43.808],[0.94,43.814],[0.982,43.818],[0.943,43.808]]]}},{"type":"Feature","properties":{"code":"82072","nom":"Golfech","pop":1007},"geometry":{"type":"Polygon","coordinates":[[[0.857,44.128],[0.869,44.128],[0.877,44.101],[0.873,44.097],[0.838,44.103],[0.834,44.116],[0.857,44.128]]]}},{"type":"Feature","properties":{"code":"82073","nom":"Goudourville","pop":976},"geometry":{"type":"Polygon","coordinates":[[[0.926,44.129],[0.937,44.135],[0.958,44.103],[0.957,44.098],[0.913,44.091],[0.901,44.129],[0.926,44.129]]]}},{"type":"Feature","properties":{"code":"82074","nom":"Gramont","pop":130},"geometry":{"type":"Polygon","coordinates":[[[0.785,43.958],[0.792,43.966],[0.814,43.957],[0.809,43.933],[0.77,43.922],[0.761,43.939],[0.785,43.958]]]}},{"type":"Feature","properties":{"code":"82075","nom":"Grisolles","pop":4214},"geometry":{"type":"Polygon","coordinates":[[[1.273,43.852],[1.276,43.851],[1.294,43.846],[1.332,43.837],[1.296,43.812],[1.302,43.8],[1.299,43.8],[1.282,43.796],[1.267,43.798],[1.263,43.81],[1.28,43.839],[1.273,43.852]]]}},{"type":"Feature","properties":{"code":"82076","nom":"L'Honor-de-Cos","pop":1610},"geometry":{"type":"Polygon","coordinates":[[[1.431,44.103],[1.42,44.101],[1.394,44.109],[1.355,44.078],[1.345,44.091],[1.308,44.127],[1.324,44.141],[1.36,44.149],[1.431,44.103]]]}},{"type":"Feature","properties":{"code":"82077","nom":"Labarthe","pop":381},"geometry":{"type":"Polygon","coordinates":[[[1.358,44.203],[1.333,44.172],[1.329,44.17],[1.303,44.203],[1.271,44.218],[1.281,44.236],[1.33,44.231],[1.358,44.203]]]}},{"type":"Feature","properties":{"code":"82078","nom":"Labastide-de-Penne","pop":125},"geometry":{"type":"Polygon","coordinates":[[[1.616,44.278],[1.58,44.26],[1.588,44.301],[1.617,44.297],[1.616,44.278]]]}},{"type":"Feature","properties":{"code":"82079","nom":"Labastide-Saint-Pierre","pop":3745},"geometry":{"type":"Polygon","coordinates":[[[1.355,43.954],[1.355,43.952],[1.366,43.925],[1.383,43.917],[1.363,43.893],[1.314,43.901],[1.322,43.927],[1.355,43.954]]]}},{"type":"Feature","properties":{"code":"82080","nom":"Labastide-du-Temple","pop":1132},"geometry":{"type":"Polygon","coordinates":[[[1.223,44.066],[1.177,44.064],[1.177,44.067],[1.188,44.093],[1.204,44.104],[1.212,44.107],[1.223,44.066]]]}},{"type":"Feature","properties":{"code":"82081","nom":"Labourgade","pop":163},"geometry":{"type":"Polygon","coordinates":[[[1.113,43.957],[1.099,43.947],[1.066,43.957],[1.085,43.967],[1.114,43.963],[1.113,43.957]]]}},{"type":"Feature","properties":{"code":"82082","nom":"Lacapelle-Livron","pop":220},"geometry":{"type":"Polygon","coordinates":[[[1.832,44.264],[1.797,44.254],[1.766,44.266],[1.747,44.29],[1.815,44.282],[1.82,44.281],[1.832,44.264]]]}},{"type":"Feature","properties":{"code":"82083","nom":"Lachapelle","pop":119},"geometry":{"type":"Polygon","coordinates":[[[0.809,43.982],[0.825,44.005],[0.853,44],[0.877,43.97],[0.855,43.971],[0.808,43.981],[0.809,43.982]]]}},{"type":"Feature","properties":{"code":"82084","nom":"Lacour","pop":171},"geometry":{"type":"Polygon","coordinates":[[[0.924,44.292],[0.978,44.305],[0.991,44.289],[0.994,44.268],[0.986,44.264],[0.951,44.275],[0.924,44.292]]]}},{"type":"Feature","properties":{"code":"82085","nom":"Lacourt-Saint-Pierre","pop":1255},"geometry":{"type":"Polygon","coordinates":[[[1.229,44.013],[1.254,43.997],[1.304,44.002],[1.29,43.978],[1.279,43.96],[1.242,43.985],[1.228,44.01],[1.229,44.013]]]}},{"type":"Feature","properties":{"code":"82086","nom":"Lafitte","pop":235},"geometry":{"type":"Polygon","coordinates":[[[1.116,43.989],[1.114,43.963],[1.085,43.967],[1.116,43.989]]]}},{"type":"Feature","properties":{"code":"82087","nom":"Lafrançaise","pop":2865},"geometry":{"type":"MultiPolygon","coordinates":[[[[1.194,44.156],[1.235,44.177],[1.256,44.163],[1.269,44.162],[1.272,44.147],[1.299,44.13],[1.295,44.124],[1.276,44.097],[1.266,44.087],[1.25,44.099],[1.248,44.113],[1.213,44.113],[1.18,44.132],[1.193,44.155],[1.194,44.156]]],[[[1.213,44.113],[1.212,44.107],[1.204,44.104],[1.213,44.113]]]]}},{"type":"Feature","properties":{"code":"82088","nom":"Laguépie","pop":644},"geometry":{"type":"Polygon","coordinates":[[[1.99,44.149],[1.969,44.143],[1.933,44.156],[1.919,44.163],[1.941,44.17],[1.955,44.185],[1.981,44.177],[1.99,44.149]]]}},{"type":"Feature","properties":{"code":"82089","nom":"Lamagistère","pop":1218},"geometry":{"type":"Polygon","coordinates":[[[0.788,44.143],[0.819,44.144],[0.857,44.128],[0.834,44.116],[0.797,44.13],[0.788,44.143]]]}},{"type":"Feature","properties":{"code":"82090","nom":"Lamothe-Capdeville","pop":1068},"geometry":{"type":"Polygon","coordinates":[[[1.355,44.078],[1.394,44.109],[1.42,44.101],[1.406,44.084],[1.355,44.078]]]}},{"type":"Feature","properties":{"code":"82091","nom":"Lamothe-Cumont","pop":126},"geometry":{"type":"Polygon","coordinates":[[[0.933,43.884],[0.92,43.867],[0.896,43.883],[0.901,43.897],[0.933,43.884]]]}},{"type":"Feature","properties":{"code":"82092","nom":"Lapenche","pop":274},"geometry":{"type":"Polygon","coordinates":[[[1.545,44.23],[1.579,44.244],[1.591,44.231],[1.589,44.206],[1.568,44.209],[1.545,44.23]]]}},{"type":"Feature","properties":{"code":"82093","nom":"Larrazet","pop":678},"geometry":{"type":"Polygon","coordinates":[[[1.099,43.947],[1.116,43.923],[1.087,43.903],[1.067,43.918],[1.071,43.934],[1.046,43.944],[1.066,43.957],[1.099,43.947]]]}},{"type":"Feature","properties":{"code":"82094","nom":"Lauzerte","pop":1443},"geometry":{"type":"Polygon","coordinates":[[[1.072,44.265],[1.082,44.275],[1.054,44.298],[1.064,44.306],[1.075,44.306],[1.131,44.28],[1.149,44.279],[1.181,44.275],[1.186,44.25],[1.192,44.231],[1.168,44.221],[1.11,44.238],[1.101,44.264],[1.072,44.265]]]}},{"type":"Feature","properties":{"code":"82095","nom":"Lavaurette","pop":214},"geometry":{"type":"Polygon","coordinates":[[[1.663,44.188],[1.643,44.197],[1.657,44.233],[1.691,44.214],[1.701,44.2],[1.663,44.188]]]}},{"type":"Feature","properties":{"code":"82096","nom":"La Ville-Dieu-du-Temple","pop":3358},"geometry":{"type":"Polygon","coordinates":[[[1.177,44.064],[1.223,44.066],[1.225,44.067],[1.252,44.055],[1.27,44.029],[1.228,44.016],[1.221,44.018],[1.203,44.03],[1.177,44.044],[1.177,44.064]]]}},{"type":"Feature","properties":{"code":"82097","nom":"Lavit","pop":1579},"geometry":{"type":"Polygon","coordinates":[[[0.972,43.973],[0.942,43.953],[0.935,43.935],[0.926,43.919],[0.903,43.924],[0.895,43.952],[0.901,43.954],[0.913,43.99],[0.942,43.987],[0.96,43.985],[0.972,43.973]]]}},{"type":"Feature","properties":{"code":"82098","nom":"Léojac","pop":1282},"geometry":{"type":"Polygon","coordinates":[[[1.426,44.034],[1.455,44.028],[1.471,43.984],[1.443,43.982],[1.426,44.034]]]}},{"type":"Feature","properties":{"code":"82099","nom":"Lizac","pop":543},"geometry":{"type":"Polygon","coordinates":[[[1.163,44.116],[1.18,44.132],[1.213,44.113],[1.213,44.113],[1.204,44.104],[1.188,44.093],[1.163,44.116]]]}},{"type":"Feature","properties":{"code":"82100","nom":"Loze","pop":118},"geometry":{"type":"Polygon","coordinates":[[[1.67,44.293],[1.705,44.307],[1.819,44.291],[1.815,44.282],[1.747,44.29],[1.699,44.302],[1.681,44.294],[1.67,44.291],[1.67,44.293]]]}},{"type":"Feature","properties":{"code":"82101","nom":"Malause","pop":1253},"geometry":{"type":"Polygon","coordinates":[[[0.943,44.083],[0.957,44.098],[0.958,44.103],[0.985,44.11],[0.992,44.088],[0.98,44.076],[0.943,44.083]]]}},{"type":"Feature","properties":{"code":"82102","nom":"Mansonville","pop":310},"geometry":{"type":"Polygon","coordinates":[[[0.858,44.035],[0.884,44.012],[0.876,44.004],[0.853,44],[0.825,44.005],[0.818,44.009],[0.82,44.028],[0.858,44.035]]]}},{"type":"Feature","properties":{"code":"82103","nom":"Marignac","pop":101},"geometry":{"type":"Polygon","coordinates":[[[0.895,43.84],[0.912,43.849],[0.924,43.848],[0.944,43.848],[0.929,43.834],[0.925,43.832],[0.895,43.84]]]}},{"type":"Feature","properties":{"code":"82104","nom":"Marsac","pop":178},"geometry":{"type":"Polygon","coordinates":[[[0.82,43.925],[0.809,43.933],[0.814,43.957],[0.792,43.966],[0.801,43.977],[0.817,43.958],[0.863,43.945],[0.852,43.923],[0.849,43.918],[0.82,43.925]]]}},{"type":"Feature","properties":{"code":"82105","nom":"Mas-Grenier","pop":1282},"geometry":{"type":"Polygon","coordinates":[[[1.187,43.93],[1.189,43.909],[1.209,43.896],[1.219,43.875],[1.206,43.868],[1.163,43.881],[1.148,43.89],[1.158,43.92],[1.181,43.931],[1.187,43.93]]]}},{"type":"Feature","properties":{"code":"82106","nom":"Maubec","pop":160},"geometry":{"type":"Polygon","coordinates":[[[0.956,43.789],[0.954,43.787],[0.897,43.789],[0.915,43.819],[0.925,43.832],[0.929,43.834],[0.94,43.814],[0.943,43.808],[0.956,43.789]]]}},{"type":"Feature","properties":{"code":"82107","nom":"Maumusson","pop":51},"geometry":{"type":"Polygon","coordinates":[[[0.904,43.899],[0.888,43.91],[0.903,43.924],[0.926,43.919],[0.913,43.905],[0.904,43.899]]]}},{"type":"Feature","properties":{"code":"82108","nom":"Meauzac","pop":1504},"geometry":{"type":"Polygon","coordinates":[[[1.225,44.067],[1.223,44.066],[1.212,44.107],[1.213,44.113],[1.213,44.113],[1.248,44.113],[1.25,44.099],[1.225,44.067]]]}},{"type":"Feature","properties":{"code":"82109","nom":"Merles","pop":200},"geometry":{"type":"Polygon","coordinates":[[[0.98,44.076],[0.983,44.05],[0.97,44.05],[0.957,44.061],[0.941,44.071],[0.942,44.083],[0.943,44.083],[0.98,44.076]]]}},{"type":"Feature","properties":{"code":"82110","nom":"Mirabel","pop":1045},"geometry":{"type":"Polygon","coordinates":[[[1.442,44.111],[1.431,44.103],[1.36,44.149],[1.38,44.159],[1.399,44.173],[1.431,44.176],[1.444,44.15],[1.453,44.116],[1.442,44.111]]]}},{"type":"Feature","properties":{"code":"82111","nom":"Miramont-de-Quercy","pop":304},"geometry":{"type":"Polygon","coordinates":[[[1.054,44.201],[1.053,44.199],[1.025,44.237],[1.036,44.247],[1.06,44.248],[1.08,44.226],[1.054,44.201]]]}},{"type":"Feature","properties":{"code":"82112","nom":"Moissac","pop":13419},"geometry":{"type":"Polygon","coordinates":[[[1.18,44.132],[1.163,44.116],[1.156,44.113],[1.143,44.096],[1.115,44.091],[1.091,44.075],[1.066,44.08],[1.047,44.087],[1.026,44.119],[1.043,44.126],[1.036,44.153],[1.009,44.163],[1.057,44.161],[1.087,44.168],[1.112,44.157],[1.193,44.155],[1.18,44.132]]]}},{"type":"Feature","properties":{"code":"82113","nom":"Molières","pop":1273},"geometry":{"type":"Polygon","coordinates":[[[1.431,44.176],[1.399,44.173],[1.38,44.159],[1.375,44.173],[1.333,44.172],[1.358,44.203],[1.394,44.229],[1.421,44.219],[1.454,44.191],[1.446,44.183],[1.431,44.176]]]}},{"type":"Feature","properties":{"code":"82114","nom":"Monbéqui","pop":665},"geometry":{"type":"Polygon","coordinates":[[[1.253,43.904],[1.254,43.9],[1.237,43.882],[1.219,43.875],[1.209,43.896],[1.253,43.904]]]}},{"type":"Feature","properties":{"code":"82115","nom":"Monclar-de-Quercy","pop":2055},"geometry":{"type":"Polygon","coordinates":[[[1.527,43.992],[1.531,44.007],[1.581,44.023],[1.607,44.01],[1.637,43.995],[1.627,43.984],[1.623,43.961],[1.552,43.963],[1.528,43.986],[1.527,43.992]]]}},{"type":"Feature","properties":{"code":"82116","nom":"Montagudet","pop":199},"geometry":{"type":"Polygon","coordinates":[[[1.072,44.265],[1.101,44.264],[1.11,44.238],[1.094,44.232],[1.08,44.226],[1.06,44.248],[1.072,44.265]]]}},{"type":"Feature","properties":{"code":"82117","nom":"Montaigu-de-Quercy","pop":1294},"geometry":{"type":"Polygon","coordinates":[[[0.978,44.305],[0.98,44.318],[0.942,44.345],[0.942,44.353],[0.997,44.369],[1.028,44.364],[1.064,44.379],[1.104,44.392],[1.132,44.394],[1.127,44.373],[1.081,44.354],[1.064,44.306],[1.054,44.298],[0.991,44.289],[0.978,44.305]]]}},{"type":"Feature","properties":{"code":"82118","nom":"Montaïn","pop":92},"geometry":{"type":"Polygon","coordinates":[[[1.116,43.923],[1.099,43.947],[1.113,43.957],[1.126,43.947],[1.12,43.928],[1.116,43.923]]]}},{"type":"Feature","properties":{"code":"82119","nom":"Montalzat","pop":663},"geometry":{"type":"Polygon","coordinates":[[[1.568,44.209],[1.51,44.19],[1.499,44.171],[1.491,44.185],[1.47,44.207],[1.527,44.237],[1.545,44.23],[1.568,44.209]]]}},{"type":"Feature","properties":{"code":"82120","nom":"Montastruc","pop":303},"geometry":{"type":"Polygon","coordinates":[[[1.295,44.124],[1.302,44.092],[1.276,44.097],[1.295,44.124]]]}},{"type":"Feature","properties":{"code":"82121","nom":"Montauban","pop":62945},"geometry":{"type":"Polygon","coordinates":[[[1.355,43.952],[1.355,43.954],[1.34,43.971],[1.29,43.978],[1.304,44.002],[1.29,44.034],[1.287,44.059],[1.312,44.089],[1.345,44.091],[1.355,44.078],[1.406,44.084],[1.416,44.074],[1.426,44.034],[1.443,43.982],[1.402,43.954],[1.355,43.952]]]}},{"type":"Feature","properties":{"code":"82122","nom":"Montbarla","pop":147},"geometry":{"type":"Polygon","coordinates":[[[1.088,44.203],[1.054,44.201],[1.08,44.226],[1.094,44.232],[1.098,44.204],[1.088,44.203]]]}},{"type":"Feature","properties":{"code":"82123","nom":"Montbartier","pop":1789},"geometry":{"type":"Polygon","coordinates":[[[1.254,43.9],[1.253,43.904],[1.251,43.914],[1.297,43.934],[1.322,43.927],[1.314,43.901],[1.293,43.897],[1.254,43.9]]]}},{"type":"Feature","properties":{"code":"82124","nom":"Montbeton","pop":4400},"geometry":{"type":"Polygon","coordinates":[[[1.304,44.002],[1.254,43.997],[1.229,44.013],[1.228,44.016],[1.27,44.029],[1.29,44.034],[1.304,44.002]]]}},{"type":"Feature","properties":{"code":"82125","nom":"Montech","pop":6663},"geometry":{"type":"Polygon","coordinates":[[[1.181,43.931],[1.176,43.952],[1.229,43.994],[1.228,44.01],[1.242,43.985],[1.279,43.96],[1.297,43.934],[1.251,43.914],[1.187,43.93],[1.181,43.931]]]}},{"type":"Feature","properties":{"code":"82126","nom":"Monteils","pop":1379},"geometry":{"type":"Polygon","coordinates":[[[1.582,44.155],[1.577,44.153],[1.538,44.174],[1.551,44.191],[1.58,44.186],[1.582,44.155]]]}},{"type":"Feature","properties":{"code":"82127","nom":"Montesquieu","pop":748},"geometry":{"type":"Polygon","coordinates":[[[1.088,44.203],[1.091,44.189],[1.124,44.178],[1.112,44.157],[1.087,44.168],[1.057,44.161],[1.009,44.163],[0.996,44.169],[1.004,44.177],[1.053,44.199],[1.054,44.201],[1.088,44.203]]]}},{"type":"Feature","properties":{"code":"82128","nom":"Montfermier","pop":111},"geometry":{"type":"Polygon","coordinates":[[[1.423,44.243],[1.426,44.242],[1.421,44.219],[1.394,44.229],[1.423,44.243]]]}},{"type":"Feature","properties":{"code":"82129","nom":"Montgaillard","pop":140},"geometry":{"type":"Polygon","coordinates":[[[0.863,43.945],[0.861,43.948],[0.895,43.952],[0.903,43.924],[0.888,43.91],[0.852,43.923],[0.863,43.945]]]}},{"type":"Feature","properties":{"code":"82130","nom":"Montjoi","pop":172},"geometry":{"type":"Polygon","coordinates":[[[0.903,44.19],[0.929,44.23],[0.963,44.222],[0.953,44.199],[0.908,44.175],[0.903,44.19]]]}},{"type":"Feature","properties":{"code":"82131","nom":"Montpezat-de-Quercy","pop":1590},"geometry":{"type":"Polygon","coordinates":[[[1.473,44.284],[1.509,44.274],[1.527,44.237],[1.47,44.207],[1.454,44.191],[1.421,44.219],[1.426,44.242],[1.451,44.254],[1.473,44.284]]]}},{"type":"Feature","properties":{"code":"82132","nom":"Montricoux","pop":1172},"geometry":{"type":"Polygon","coordinates":[[[1.599,44.112],[1.637,44.136],[1.664,44.137],[1.659,44.117],[1.653,44.096],[1.64,44.075],[1.61,44.075],[1.585,44.089],[1.581,44.108],[1.599,44.112]]]}},{"type":"Feature","properties":{"code":"82133","nom":"Mouillac","pop":90},"geometry":{"type":"Polygon","coordinates":[[[1.682,44.266],[1.66,44.283],[1.67,44.291],[1.681,44.294],[1.682,44.266]]]}},{"type":"Feature","properties":{"code":"82134","nom":"Nègrepelisse","pop":5917},"geometry":{"type":"Polygon","coordinates":[[[1.61,44.075],[1.61,44.074],[1.554,44.051],[1.529,44.015],[1.496,44.025],[1.499,44.044],[1.469,44.061],[1.492,44.082],[1.464,44.094],[1.497,44.096],[1.535,44.087],[1.585,44.089],[1.61,44.075]]]}},{"type":"Feature","properties":{"code":"82135","nom":"Nohic","pop":1388},"geometry":{"type":"Polygon","coordinates":[[[1.449,43.87],[1.409,43.883],[1.432,43.909],[1.437,43.908],[1.47,43.897],[1.449,43.87]]]}},{"type":"Feature","properties":{"code":"82136","nom":"Orgueil","pop":1720},"geometry":{"type":"Polygon","coordinates":[[[1.409,43.883],[1.365,43.89],[1.363,43.893],[1.383,43.917],[1.39,43.916],[1.432,43.909],[1.409,43.883]]]}},{"type":"Feature","properties":{"code":"82137","nom":"Parisot","pop":557},"geometry":{"type":"Polygon","coordinates":[[[1.869,44.292],[1.902,44.279],[1.916,44.263],[1.885,44.237],[1.846,44.229],[1.832,44.264],[1.82,44.281],[1.844,44.276],[1.869,44.292]]]}},{"type":"Feature","properties":{"code":"82138","nom":"Perville","pop":165},"geometry":{"type":"Polygon","coordinates":[[[0.864,44.174],[0.853,44.175],[0.86,44.193],[0.861,44.193],[0.903,44.19],[0.908,44.175],[0.901,44.164],[0.89,44.167],[0.864,44.174]]]}},{"type":"Feature","properties":{"code":"82139","nom":"Le Pin","pop":111},"geometry":{"type":"Polygon","coordinates":[[[0.97,44.05],[0.983,44.05],[0.991,44.044],[0.964,44.028],[0.96,44.037],[0.97,44.05]]]}},{"type":"Feature","properties":{"code":"82140","nom":"Piquecos","pop":450},"geometry":{"type":"Polygon","coordinates":[[[1.308,44.127],[1.345,44.091],[1.312,44.089],[1.302,44.092],[1.295,44.124],[1.299,44.13],[1.308,44.127]]]}},{"type":"Feature","properties":{"code":"82141","nom":"Pommevic","pop":599},"geometry":{"type":"Polygon","coordinates":[[[0.957,44.098],[0.943,44.083],[0.942,44.083],[0.913,44.091],[0.957,44.098]]]}},{"type":"Feature","properties":{"code":"82142","nom":"Pompignan","pop":1866},"geometry":{"type":"Polygon","coordinates":[[[1.36,43.817],[1.343,43.811],[1.312,43.801],[1.302,43.8],[1.296,43.812],[1.332,43.837],[1.36,43.817]]]}},{"type":"Feature","properties":{"code":"82143","nom":"Poupas","pop":87},"geometry":{"type":"Polygon","coordinates":[[[0.861,43.948],[0.863,43.945],[0.817,43.958],[0.801,43.977],[0.808,43.981],[0.855,43.971],[0.855,43.964],[0.861,43.948]]]}},{"type":"Feature","properties":{"code":"82144","nom":"Puycornet","pop":785},"geometry":{"type":"Polygon","coordinates":[[[1.269,44.162],[1.329,44.17],[1.333,44.172],[1.375,44.173],[1.38,44.159],[1.36,44.149],[1.324,44.141],[1.308,44.127],[1.299,44.13],[1.272,44.147],[1.269,44.162]]]}},{"type":"Feature","properties":{"code":"82145","nom":"Puygaillard-de-Quercy","pop":384},"geometry":{"type":"Polygon","coordinates":[[[1.607,44.01],[1.631,44.025],[1.604,44.051],[1.61,44.074],[1.643,44.03],[1.665,44.012],[1.654,43.993],[1.637,43.995],[1.607,44.01]]]}},{"type":"Feature","properties":{"code":"82146","nom":"Puygaillard-de-Lomagne","pop":54},"geometry":{"type":"Polygon","coordinates":[[[0.855,43.964],[0.855,43.971],[0.877,43.97],[0.906,43.986],[0.913,43.99],[0.901,43.954],[0.855,43.964]]]}},{"type":"Feature","properties":{"code":"82147","nom":"Puylagarde","pop":357},"geometry":{"type":"Polygon","coordinates":[[[1.882,44.34],[1.886,44.335],[1.859,44.32],[1.869,44.292],[1.844,44.276],[1.82,44.281],[1.815,44.282],[1.819,44.291],[1.827,44.324],[1.847,44.338],[1.882,44.34]]]}},{"type":"Feature","properties":{"code":"82148","nom":"Puylaroque","pop":719},"geometry":{"type":"Polygon","coordinates":[[[1.66,44.283],[1.682,44.266],[1.681,44.232],[1.691,44.214],[1.657,44.233],[1.615,44.226],[1.591,44.231],[1.579,44.244],[1.58,44.26],[1.616,44.278],[1.643,44.271],[1.651,44.297],[1.66,44.283]]]}},{"type":"Feature","properties":{"code":"82149","nom":"Réalville","pop":1869},"geometry":{"type":"Polygon","coordinates":[[[1.444,44.15],[1.495,44.141],[1.523,44.145],[1.525,44.121],[1.508,44.107],[1.497,44.117],[1.448,44.101],[1.442,44.111],[1.453,44.116],[1.444,44.15]]]}},{"type":"Feature","properties":{"code":"82150","nom":"Reyniès","pop":872},"geometry":{"type":"Polygon","coordinates":[[[1.433,43.94],[1.437,43.908],[1.432,43.909],[1.39,43.916],[1.415,43.944],[1.433,43.94]]]}},{"type":"Feature","properties":{"code":"82151","nom":"Roquecor","pop":400},"geometry":{"type":"Polygon","coordinates":[[[0.942,44.345],[0.98,44.318],[0.978,44.305],[0.924,44.292],[0.916,44.302],[0.909,44.32],[0.94,44.34],[0.941,44.344],[0.942,44.345]]]}},{"type":"Feature","properties":{"code":"82152","nom":"Saint-Aignan","pop":422},"geometry":{"type":"Polygon","coordinates":[[[1.07,44.033],[1.07,44.031],[1.075,44.031],[1.08,44.032],[1.091,44.022],[1.068,44.005],[1.064,44.038],[1.07,44.033]]]}},{"type":"Feature","properties":{"code":"82153","nom":"Saint-Amans-du-Pech","pop":236},"geometry":{"type":"Polygon","coordinates":[[[0.916,44.302],[0.895,44.297],[0.869,44.309],[0.873,44.324],[0.883,44.329],[0.909,44.32],[0.916,44.302]]]}},{"type":"Feature","properties":{"code":"82154","nom":"Saint-Amans-de-Pellagal","pop":217},"geometry":{"type":"Polygon","coordinates":[[[1.11,44.238],[1.168,44.221],[1.165,44.211],[1.149,44.217],[1.098,44.204],[1.094,44.232],[1.11,44.238]]]}},{"type":"Feature","properties":{"code":"82155","nom":"Saint-Antonin-Noble-Val","pop":1949},"geometry":{"type":"Polygon","coordinates":[[[1.635,44.154],[1.653,44.156],[1.663,44.188],[1.701,44.2],[1.739,44.197],[1.833,44.179],[1.802,44.144],[1.806,44.126],[1.793,44.1],[1.778,44.097],[1.722,44.118],[1.701,44.138],[1.664,44.137],[1.637,44.136],[1.635,44.154]]]}},{"type":"Feature","properties":{"code":"82156","nom":"Saint-Arroumex","pop":145},"geometry":{"type":"Polygon","coordinates":[[[1.01,43.989],[1,43.982],[0.974,43.973],[0.972,43.973],[0.96,43.985],[0.979,44.003],[1.018,44.002],[1.01,43.989]]]}},{"type":"Feature","properties":{"code":"82157","nom":"Saint-Beauzeil","pop":117},"geometry":{"type":"Polygon","coordinates":[[[0.883,44.329],[0.896,44.346],[0.94,44.34],[0.909,44.32],[0.883,44.329]]]}},{"type":"Feature","properties":{"code":"82158","nom":"Saint-Cirice","pop":157},"geometry":{"type":"Polygon","coordinates":[[[0.85,44.048],[0.813,44.052],[0.814,44.069],[0.814,44.07],[0.82,44.068],[0.86,44.061],[0.85,44.048]]]}},{"type":"Feature","properties":{"code":"82159","nom":"Saint-Cirq","pop":558},"geometry":{"type":"Polygon","coordinates":[[[1.637,44.136],[1.599,44.112],[1.575,44.126],[1.577,44.153],[1.582,44.155],[1.635,44.154],[1.637,44.136]]]}},{"type":"Feature","properties":{"code":"82160","nom":"Saint-Clair","pop":260},"geometry":{"type":"Polygon","coordinates":[[[0.937,44.135],[0.926,44.129],[0.93,44.17],[0.954,44.164],[0.966,44.145],[0.951,44.14],[0.937,44.135]]]}},{"type":"Feature","properties":{"code":"82161","nom":"Saint-Étienne-de-Tulmont","pop":4051},"geometry":{"type":"Polygon","coordinates":[[[1.487,44.023],[1.455,44.028],[1.426,44.034],[1.416,44.074],[1.469,44.061],[1.499,44.044],[1.496,44.025],[1.487,44.023]]]}},{"type":"Feature","properties":{"code":"82162","nom":"Saint-Georges","pop":273},"geometry":{"type":"Polygon","coordinates":[[[1.615,44.226],[1.657,44.233],[1.643,44.197],[1.619,44.206],[1.615,44.226]]]}},{"type":"Feature","properties":{"code":"82163","nom":"Saint-Jean-du-Bouzet","pop":54},"geometry":{"type":"Polygon","coordinates":[[[0.877,43.97],[0.853,44],[0.876,44.004],[0.906,43.986],[0.877,43.97]]]}},{"type":"Feature","properties":{"code":"82164","nom":"Sainte-Juliette","pop":131},"geometry":{"type":"Polygon","coordinates":[[[1.179,44.31],[1.184,44.287],[1.181,44.275],[1.149,44.279],[1.151,44.307],[1.179,44.31]]]}},{"type":"Feature","properties":{"code":"82165","nom":"Saint-Loup","pop":531},"geometry":{"type":"Polygon","coordinates":[[[0.873,44.097],[0.883,44.093],[0.89,44.083],[0.86,44.061],[0.82,44.068],[0.838,44.103],[0.873,44.097]]]}},{"type":"Feature","properties":{"code":"82166","nom":"Saint-Michel","pop":261},"geometry":{"type":"Polygon","coordinates":[[[0.923,44.027],[0.919,44.03],[0.904,44.043],[0.919,44.069],[0.957,44.061],[0.97,44.05],[0.96,44.037],[0.923,44.027]]]}},{"type":"Feature","properties":{"code":"82167","nom":"Saint-Nauphary","pop":1948},"geometry":{"type":"Polygon","coordinates":[[[1.465,43.932],[1.433,43.94],[1.415,43.944],[1.402,43.954],[1.443,43.982],[1.471,43.984],[1.485,43.979],[1.491,43.946],[1.479,43.941],[1.465,43.932]]]}},{"type":"Feature","properties":{"code":"82168","nom":"Saint-Nazaire-de-Valentane","pop":317},"geometry":{"type":"Polygon","coordinates":[[[1.004,44.177],[0.984,44.198],[1.012,44.221],[1.005,44.232],[1.025,44.237],[1.053,44.199],[1.004,44.177]]]}},{"type":"Feature","properties":{"code":"82169","nom":"Saint-Nicolas-de-la-Grave","pop":2281},"geometry":{"type":"Polygon","coordinates":[[[0.983,44.05],[0.98,44.076],[0.992,44.088],[1.047,44.087],[1.066,44.08],[1.049,44.048],[1.029,44.033],[0.991,44.044],[0.983,44.05]]]}},{"type":"Feature","properties":{"code":"82170","nom":"Saint-Paul-d'Espis","pop":559},"geometry":{"type":"Polygon","coordinates":[[[1.009,44.163],[1.036,44.153],[1.043,44.126],[1.026,44.119],[1.002,44.119],[0.974,44.115],[0.951,44.14],[0.966,44.145],[0.996,44.169],[1.009,44.163]]]}},{"type":"Feature","properties":{"code":"82171","nom":"Saint-Porquier","pop":1326},"geometry":{"type":"Polygon","coordinates":[[[1.142,43.998],[1.165,44.017],[1.203,44.03],[1.221,44.018],[1.212,44.005],[1.155,43.985],[1.142,43.998]]]}},{"type":"Feature","properties":{"code":"82172","nom":"Saint-Projet","pop":295},"geometry":{"type":"Polygon","coordinates":[[[1.671,44.298],[1.702,44.315],[1.783,44.328],[1.806,44.337],[1.827,44.324],[1.819,44.291],[1.705,44.307],[1.67,44.293],[1.671,44.298]]]}},{"type":"Feature","properties":{"code":"82173","nom":"Saint-Sardos","pop":1120},"geometry":{"type":"Polygon","coordinates":[[[1.116,43.923],[1.12,43.928],[1.158,43.92],[1.148,43.89],[1.163,43.881],[1.154,43.88],[1.13,43.874],[1.08,43.892],[1.087,43.903],[1.116,43.923]]]}},{"type":"Feature","properties":{"code":"82174","nom":"Saint-Vincent-d'Autéjac","pop":282},"geometry":{"type":"Polygon","coordinates":[[[1.495,44.141],[1.444,44.15],[1.431,44.176],[1.446,44.183],[1.477,44.172],[1.491,44.185],[1.499,44.171],[1.495,44.141]]]}},{"type":"Feature","properties":{"code":"82175","nom":"Saint-Vincent-Lespinasse","pop":284},"geometry":{"type":"Polygon","coordinates":[[[0.951,44.14],[0.974,44.115],[1.002,44.119],[0.985,44.11],[0.958,44.103],[0.937,44.135],[0.951,44.14]]]}},{"type":"Feature","properties":{"code":"82176","nom":"La Salvetat-Belmontet","pop":993},"geometry":{"type":"Polygon","coordinates":[[[1.552,43.963],[1.535,43.96],[1.491,43.946],[1.485,43.979],[1.528,43.986],[1.552,43.963]]]}},{"type":"Feature","properties":{"code":"82177","nom":"Sauveterre","pop":154},"geometry":{"type":"Polygon","coordinates":[[[1.285,44.253],[1.267,44.252],[1.236,44.253],[1.244,44.266],[1.3,44.295],[1.285,44.253]]]}},{"type":"Feature","properties":{"code":"82178","nom":"Savenès","pop":810},"geometry":{"type":"Polygon","coordinates":[[[1.176,43.805],[1.144,43.822],[1.15,43.826],[1.166,43.851],[1.181,43.856],[1.223,43.833],[1.224,43.818],[1.176,43.805]]]}},{"type":"Feature","properties":{"code":"82179","nom":"Septfonds","pop":2261},"geometry":{"type":"Polygon","coordinates":[[[1.663,44.188],[1.653,44.156],[1.635,44.154],[1.582,44.155],[1.58,44.186],[1.596,44.199],[1.619,44.206],[1.643,44.197],[1.663,44.188]]]}},{"type":"Feature","properties":{"code":"82180","nom":"Sérignac","pop":518},"geometry":{"type":"Polygon","coordinates":[[[1.052,43.91],[1.03,43.895],[0.985,43.91],[0.983,43.928],[0.984,43.938],[0.996,43.95],[1.027,43.962],[1.046,43.944],[1.071,43.934],[1.067,43.918],[1.052,43.91]]]}},{"type":"Feature","properties":{"code":"82181","nom":"Sistels","pop":210},"geometry":{"type":"Polygon","coordinates":[[[0.797,44.044],[0.764,44.03],[0.756,44.041],[0.753,44.056],[0.79,44.072],[0.814,44.069],[0.813,44.052],[0.797,44.044]]]}},{"type":"Feature","properties":{"code":"82182","nom":"Touffailles","pop":330},"geometry":{"type":"Polygon","coordinates":[[[0.991,44.289],[1.054,44.298],[1.082,44.275],[1.072,44.265],[1.06,44.248],[1.036,44.247],[1.023,44.27],[0.994,44.268],[0.991,44.289]]]}},{"type":"Feature","properties":{"code":"82183","nom":"Tréjouls","pop":214},"geometry":{"type":"Polygon","coordinates":[[[1.236,44.253],[1.212,44.267],[1.186,44.25],[1.181,44.275],[1.184,44.287],[1.203,44.282],[1.244,44.266],[1.236,44.253]]]}},{"type":"Feature","properties":{"code":"82184","nom":"Vaïssac","pop":964},"geometry":{"type":"Polygon","coordinates":[[[1.607,44.01],[1.581,44.023],[1.531,44.007],[1.527,43.992],[1.521,44.007],[1.487,44.023],[1.496,44.025],[1.529,44.015],[1.554,44.051],[1.61,44.074],[1.604,44.051],[1.631,44.025],[1.607,44.01]]]}},{"type":"Feature","properties":{"code":"82185","nom":"Valeilles","pop":242},"geometry":{"type":"Polygon","coordinates":[[[0.92,44.384],[0.937,44.37],[0.941,44.344],[0.94,44.34],[0.896,44.346],[0.892,44.35],[0.894,44.373],[0.911,44.383],[0.92,44.384]]]}},{"type":"Feature","properties":{"code":"82186","nom":"Valence","pop":5289},"geometry":{"type":"Polygon","coordinates":[[[0.869,44.128],[0.892,44.137],[0.901,44.129],[0.913,44.091],[0.942,44.083],[0.941,44.071],[0.931,44.069],[0.877,44.101],[0.869,44.128]]]}},{"type":"Feature","properties":{"code":"82187","nom":"Varen","pop":640},"geometry":{"type":"Polygon","coordinates":[[[1.898,44.134],[1.863,44.144],[1.85,44.135],[1.838,44.144],[1.848,44.166],[1.88,44.166],[1.911,44.185],[1.941,44.17],[1.919,44.163],[1.919,44.141],[1.914,44.136],[1.898,44.134]]]}},{"type":"Feature","properties":{"code":"82188","nom":"Varennes","pop":627},"geometry":{"type":"Polygon","coordinates":[[[1.515,43.906],[1.499,43.889],[1.477,43.908],[1.465,43.932],[1.479,43.941],[1.509,43.927],[1.515,43.906]]]}},{"type":"Feature","properties":{"code":"82189","nom":"Vazerac","pop":765},"geometry":{"type":"Polygon","coordinates":[[[1.256,44.163],[1.259,44.179],[1.229,44.197],[1.26,44.218],[1.267,44.252],[1.285,44.253],[1.281,44.236],[1.271,44.218],[1.303,44.203],[1.329,44.17],[1.269,44.162],[1.256,44.163]]]}},{"type":"Feature","properties":{"code":"82190","nom":"Verdun-sur-Garonne","pop":4961},"geometry":{"type":"Polygon","coordinates":[[[1.224,43.818],[1.223,43.833],[1.181,43.856],[1.166,43.851],[1.154,43.88],[1.163,43.881],[1.206,43.868],[1.219,43.875],[1.237,43.882],[1.261,43.868],[1.273,43.852],[1.28,43.839],[1.263,43.81],[1.224,43.818]]]}},{"type":"Feature","properties":{"code":"82191","nom":"Verfeil","pop":402},"geometry":{"type":"Polygon","coordinates":[[[1.89,44.208],[1.911,44.185],[1.88,44.166],[1.848,44.166],[1.838,44.178],[1.843,44.194],[1.89,44.208]]]}},{"type":"Feature","properties":{"code":"82192","nom":"Verlhac-Tescou","pop":569},"geometry":{"type":"Polygon","coordinates":[[[1.535,43.96],[1.578,43.939],[1.574,43.933],[1.57,43.918],[1.556,43.918],[1.523,43.904],[1.515,43.906],[1.509,43.927],[1.479,43.941],[1.491,43.946],[1.535,43.96]]]}},{"type":"Feature","properties":{"code":"82193","nom":"Vigueron","pop":112},"geometry":{"type":"Polygon","coordinates":[[[1.08,43.892],[1.069,43.88],[1.03,43.895],[1.052,43.91],[1.08,43.892]]]}},{"type":"Feature","properties":{"code":"82194","nom":"Villebrumier","pop":1348},"geometry":{"type":"Polygon","coordinates":[[[1.477,43.908],[1.47,43.897],[1.437,43.908],[1.433,43.94],[1.465,43.932],[1.477,43.908]]]}},{"type":"Feature","properties":{"code":"82195","nom":"Villemade","pop":834},"geometry":{"type":"Polygon","coordinates":[[[1.279,44.069],[1.266,44.087],[1.276,44.097],[1.302,44.092],[1.312,44.089],[1.287,44.059],[1.279,44.069]]]}}]}