{"type":"FeatureCollection","features":[{"type":"Feature","properties":{"code":"86001","nom":"Adriers","pop":698},"geometry":{"type":"Polygon","coordinates":[[[0.834,46.294],[0.844,46.283],[0.861,46.262],[0.841,46.24],[0.794,46.214],[0.791,46.235],[0.769,46.243],[0.729,46.24],[0.724,46.247],[0.713,46.287],[0.749,46.297],[0.775,46.31],[0.798,46.294],[0.834,46.294]]]}},{"type":"Feature","properties":{"code":"86002","nom":"Amberre","pop":565},"geometry":{"type":"Polygon","coordinates":[[[0.122,46.742],[0.132,46.782],[0.154,46.784],[0.171,46.769],[0.19,46.735],[0.122,46.742]]]}},{"type":"Feature","properties":{"code":"86003","nom":"Anché","pop":324},"geometry":{"type":"Polygon","coordinates":[[[0.303,46.354],[0.266,46.323],[0.239,46.346],[0.26,46.375],[0.292,46.368],[0.303,46.354]]]}},{"type":"Feature","properties":{"code":"86004","nom":"Angles-sur-l'Anglin","pop":370},"geometry":{"type":"Polygon","coordinates":[[[0.903,46.731],[0.925,46.7],[0.902,46.678],[0.867,46.684],[0.866,46.704],[0.893,46.707],[0.903,46.731]]]}},{"type":"Feature","properties":{"code":"86005","nom":"Angliers","pop":612},"geometry":{"type":"Polygon","coordinates":[[[0.126,46.914],[0.122,46.912],[0.078,46.92],[0.083,46.936],[0.052,46.947],[0.072,46.96],[0.131,46.951],[0.146,46.936],[0.126,46.914]]]}},{"type":"Feature","properties":{"code":"86006","nom":"Antigny","pop":550},"geometry":{"type":"Polygon","coordinates":[[[0.905,46.558],[0.907,46.555],[0.886,46.512],[0.827,46.507],[0.798,46.511],[0.779,46.547],[0.819,46.563],[0.866,46.563],[0.905,46.558]]]}},{"type":"Feature","properties":{"code":"86007","nom":"Antran","pop":1148},"geometry":{"type":"Polygon","coordinates":[[[0.468,46.862],[0.499,46.862],[0.522,46.875],[0.521,46.917],[0.542,46.916],[0.563,46.893],[0.547,46.853],[0.501,46.856],[0.468,46.862]]]}},{"type":"Feature","properties":{"code":"86008","nom":"Arçay","pop":343},"geometry":{"type":"Polygon","coordinates":[[[0.007,46.982],[0.026,46.941],[-0.006,46.936],[-0.014,46.922],[-0.031,46.942],[-0.001,46.963],[0.007,46.982]]]}},{"type":"Feature","properties":{"code":"86009","nom":"Archigny","pop":1058},"geometry":{"type":"Polygon","coordinates":[[[0.63,46.668],[0.642,46.691],[0.617,46.703],[0.65,46.705],[0.732,46.718],[0.759,46.712],[0.734,46.68],[0.721,46.668],[0.721,46.639],[0.684,46.631],[0.675,46.618],[0.648,46.619],[0.635,46.638],[0.63,46.668]]]}},{"type":"Feature","properties":{"code":"86010","nom":"Aslonnes","pop":1136},"geometry":{"type":"Polygon","coordinates":[[[0.34,46.425],[0.297,46.428],[0.286,46.439],[0.304,46.454],[0.317,46.48],[0.327,46.463],[0.358,46.457],[0.39,46.442],[0.394,46.436],[0.34,46.425]]]}},{"type":"Feature","properties":{"code":"86011","nom":"Asnières-sur-Blour","pop":193},"geometry":{"type":"Polygon","coordinates":[[[0.84,46.134],[0.823,46.129],[0.742,46.138],[0.729,46.135],[0.713,46.139],[0.726,46.165],[0.782,46.163],[0.828,46.172],[0.838,46.166],[0.84,46.134]]]}},{"type":"Feature","properties":{"code":"86012","nom":"Asnois","pop":129},"geometry":{"type":"Polygon","coordinates":[[[0.373,46.103],[0.376,46.117],[0.43,46.12],[0.451,46.108],[0.443,46.102],[0.404,46.078],[0.373,46.103]]]}},{"type":"Feature","properties":{"code":"86013","nom":"Aulnay","pop":107},"geometry":{"type":"Polygon","coordinates":[[[0.078,46.894],[0.068,46.897],[0.078,46.92],[0.122,46.912],[0.078,46.894]]]}},{"type":"Feature","properties":{"code":"86014","nom":"Availles-en-Châtellerault","pop":1730},"geometry":{"type":"Polygon","coordinates":[[[0.547,46.776],[0.581,46.774],[0.6,46.756],[0.589,46.735],[0.549,46.748],[0.547,46.776]]]}},{"type":"Feature","properties":{"code":"86015","nom":"Availles-Limouzine","pop":1312},"geometry":{"type":"Polygon","coordinates":[[[0.593,46.173],[0.606,46.174],[0.64,46.167],[0.665,46.173],[0.712,46.139],[0.675,46.112],[0.687,46.097],[0.609,46.09],[0.614,46.105],[0.596,46.145],[0.593,46.173]]]}},{"type":"Feature","properties":{"code":"86016","nom":"Avanton","pop":2226},"geometry":{"type":"Polygon","coordinates":[[[0.285,46.655],[0.278,46.665],[0.283,46.684],[0.306,46.675],[0.324,46.672],[0.336,46.654],[0.285,46.655]]]}},{"type":"Feature","properties":{"code":"86017","nom":"Ayron","pop":1085},"geometry":{"type":"Polygon","coordinates":[[[0.023,46.614],[-0.014,46.615],[-0.005,46.645],[0.035,46.647],[0.054,46.673],[0.064,46.681],[0.106,46.657],[0.084,46.634],[0.04,46.634],[0.023,46.614]]]}},{"type":"Feature","properties":{"code":"86018","nom":"Basses","pop":344},"geometry":{"type":"Polygon","coordinates":[[[0.15,47.055],[0.132,47.027],[0.102,47.046],[0.12,47.064],[0.15,47.055]]]}},{"type":"Feature","properties":{"code":"86019","nom":"Beaumont Saint-Cyr","pop":2908},"geometry":{"type":"Polygon","coordinates":[[[0.51,46.697],[0.492,46.681],[0.448,46.715],[0.412,46.719],[0.409,46.754],[0.438,46.77],[0.458,46.766],[0.483,46.741],[0.487,46.717],[0.51,46.697]]]}},{"type":"Feature","properties":{"code":"86020","nom":"Bellefonds","pop":247},"geometry":{"type":"Polygon","coordinates":[[[0.584,46.645],[0.58,46.653],[0.63,46.668],[0.635,46.638],[0.584,46.645]]]}},{"type":"Feature","properties":{"code":"86022","nom":"Berrie","pop":251},"geometry":{"type":"Polygon","coordinates":[[[-0.036,47.048],[-0.092,47.038],[-0.102,47.065],[-0.101,47.085],[-0.064,47.077],[-0.034,47.058],[-0.036,47.048]]]}},{"type":"Feature","properties":{"code":"86023","nom":"Berthegon","pop":259},"geometry":{"type":"Polygon","coordinates":[[[0.298,46.898],[0.265,46.881],[0.228,46.915],[0.288,46.917],[0.301,46.904],[0.298,46.898]]]}},{"type":"Feature","properties":{"code":"86024","nom":"Béruges","pop":1528},"geometry":{"type":"Polygon","coordinates":[[[0.17,46.582],[0.169,46.588],[0.199,46.58],[0.254,46.582],[0.238,46.552],[0.211,46.55],[0.225,46.524],[0.216,46.511],[0.179,46.519],[0.185,46.549],[0.16,46.56],[0.17,46.582]]]}},{"type":"Feature","properties":{"code":"86025","nom":"Béthines","pop":467},"geometry":{"type":"Polygon","coordinates":[[[1.02,46.537],[1.012,46.525],[0.983,46.51],[0.972,46.526],[0.932,46.539],[0.905,46.558],[0.941,46.581],[0.982,46.574],[1.014,46.568],[1.02,46.537]]]}},{"type":"Feature","properties":{"code":"86026","nom":"Beuxes","pop":559},"geometry":{"type":"Polygon","coordinates":[[[0.176,47.061],[0.159,47.062],[0.162,47.1],[0.182,47.115],[0.201,47.091],[0.176,47.061]]]}},{"type":"Feature","properties":{"code":"86027","nom":"Biard","pop":1910},"geometry":{"type":"Polygon","coordinates":[[[0.303,46.569],[0.278,46.584],[0.307,46.604],[0.303,46.569]]]}},{"type":"Feature","properties":{"code":"86028","nom":"Bignoux","pop":1087},"geometry":{"type":"Polygon","coordinates":[[[0.45,46.59],[0.428,46.602],[0.49,46.628],[0.49,46.606],[0.484,46.59],[0.45,46.59]]]}},{"type":"Feature","properties":{"code":"86029","nom":"Blanzay","pop":819},"geometry":{"type":"Polygon","coordinates":[[[0.214,46.204],[0.224,46.222],[0.244,46.248],[0.26,46.233],[0.3,46.231],[0.3,46.199],[0.275,46.178],[0.217,46.182],[0.214,46.204]]]}},{"type":"Feature","properties":{"code":"86031","nom":"Bonnes","pop":1688},"geometry":{"type":"Polygon","coordinates":[[[0.584,46.645],[0.635,46.638],[0.648,46.619],[0.608,46.583],[0.561,46.585],[0.566,46.603],[0.557,46.625],[0.584,46.645]]]}},{"type":"Feature","properties":{"code":"86032","nom":"Bonneuil-Matours","pop":2081},"geometry":{"type":"Polygon","coordinates":[[[0.493,46.676],[0.492,46.681],[0.51,46.697],[0.546,46.692],[0.596,46.703],[0.598,46.717],[0.617,46.703],[0.642,46.691],[0.63,46.668],[0.58,46.653],[0.57,46.666],[0.506,46.655],[0.493,46.676]]]}},{"type":"Feature","properties":{"code":"86034","nom":"Bouresse","pop":620},"geometry":{"type":"Polygon","coordinates":[[[0.626,46.376],[0.622,46.358],[0.586,46.318],[0.55,46.332],[0.53,46.359],[0.525,46.367],[0.559,46.382],[0.623,46.388],[0.626,46.376]]]}},{"type":"Feature","properties":{"code":"86035","nom":"Bourg-Archambault","pop":170},"geometry":{"type":"Polygon","coordinates":[[[1.027,46.343],[0.987,46.348],[0.977,46.378],[0.944,46.381],[0.962,46.397],[1.022,46.384],[1.05,46.363],[1.027,46.343]]]}},{"type":"Feature","properties":{"code":"86036","nom":"Bournand","pop":914},"geometry":{"type":"Polygon","coordinates":[[[0.102,47.046],[0.071,47.052],[0.046,47.038],[0.024,47.045],[0.051,47.073],[0.045,47.092],[0.084,47.118],[0.105,47.121],[0.088,47.084],[0.12,47.064],[0.102,47.046]]]}},{"type":"Feature","properties":{"code":"86037","nom":"Brigueil-le-Chantre","pop":455},"geometry":{"type":"Polygon","coordinates":[[[1.14,46.408],[1.157,46.389],[1.13,46.359],[1.078,46.358],[1.05,46.363],[1.022,46.384],[1.031,46.411],[1.045,46.422],[1.103,46.413],[1.14,46.408]]]}},{"type":"Feature","properties":{"code":"86038","nom":"Brion","pop":224},"geometry":{"type":"Polygon","coordinates":[[[0.441,46.373],[0.453,46.362],[0.498,46.366],[0.517,46.376],[0.525,46.367],[0.53,46.359],[0.462,46.345],[0.448,46.336],[0.438,46.343],[0.426,46.361],[0.441,46.373]]]}},{"type":"Feature","properties":{"code":"86039","nom":"Brux","pop":777},"geometry":{"type":"Polygon","coordinates":[[[0.139,46.24],[0.138,46.245],[0.129,46.267],[0.172,46.279],[0.218,46.271],[0.251,46.257],[0.244,46.248],[0.224,46.222],[0.201,46.219],[0.173,46.238],[0.139,46.24]]]}},{"type":"Feature","properties":{"code":"86040","nom":"La Bussière","pop":298},"geometry":{"type":"Polygon","coordinates":[[[0.773,46.623],[0.773,46.649],[0.834,46.655],[0.876,46.632],[0.844,46.6],[0.799,46.616],[0.773,46.623]]]}},{"type":"Feature","properties":{"code":"86041","nom":"Buxerolles","pop":10289},"geometry":{"type":"Polygon","coordinates":[[[0.359,46.618],[0.36,46.621],[0.376,46.623],[0.394,46.605],[0.377,46.593],[0.34,46.593],[0.359,46.618]]]}},{"type":"Feature","properties":{"code":"86042","nom":"Buxeuil","pop":887},"geometry":{"type":"Polygon","coordinates":[[[0.638,46.985],[0.694,46.973],[0.695,46.962],[0.696,46.959],[0.669,46.949],[0.628,46.974],[0.638,46.985]]]}},{"type":"Feature","properties":{"code":"86044","nom":"Ceaux-en-Loudun","pop":560},"geometry":{"type":"Polygon","coordinates":[[[0.208,47.053],[0.235,47.069],[0.268,47.068],[0.264,47.046],[0.236,47.002],[0.207,46.994],[0.194,47.006],[0.191,47.023],[0.208,47.053]]]}},{"type":"Feature","properties":{"code":"86045","nom":"Celle-Lévescault","pop":1383},"geometry":{"type":"Polygon","coordinates":[[[0.202,46.375],[0.14,46.364],[0.125,46.37],[0.126,46.399],[0.148,46.427],[0.17,46.429],[0.195,46.451],[0.2,46.447],[0.194,46.415],[0.224,46.404],[0.202,46.375]]]}},{"type":"Feature","properties":{"code":"86046","nom":"Cenon-sur-Vienne","pop":1666},"geometry":{"type":"Polygon","coordinates":[[[0.512,46.741],[0.503,46.749],[0.534,46.778],[0.547,46.776],[0.549,46.748],[0.512,46.741]]]}},{"type":"Feature","properties":{"code":"86047","nom":"Cernay","pop":466},"geometry":{"type":"Polygon","coordinates":[[[0.301,46.849],[0.31,46.844],[0.312,46.827],[0.292,46.826],[0.301,46.849]]]}},{"type":"Feature","properties":{"code":"86048","nom":"Chabournay","pop":1274},"geometry":{"type":"Polygon","coordinates":[[[0.265,46.705],[0.249,46.706],[0.267,46.734],[0.29,46.732],[0.265,46.705]]]}},{"type":"Feature","properties":{"code":"86049","nom":"Chalais","pop":465},"geometry":{"type":"Polygon","coordinates":[[[0.141,46.974],[0.131,46.951],[0.072,46.96],[0.068,46.986],[0.103,46.993],[0.118,46.971],[0.141,46.974]]]}},{"type":"Feature","properties":{"code":"86050","nom":"Chalandray","pop":784},"geometry":{"type":"Polygon","coordinates":[[[-0.066,46.623],[-0.032,46.669],[-0.001,46.678],[0.054,46.673],[0.035,46.647],[-0.005,46.645],[-0.03,46.627],[-0.066,46.623]]]}},{"type":"Feature","properties":{"code":"86051","nom":"Champagné-le-Sec","pop":215},"geometry":{"type":"Polygon","coordinates":[[[0.165,46.175],[0.171,46.194],[0.214,46.204],[0.217,46.182],[0.165,46.175]]]}},{"type":"Feature","properties":{"code":"86052","nom":"Champagné-Saint-Hilaire","pop":998},"geometry":{"type":"Polygon","coordinates":[[[0.266,46.323],[0.303,46.354],[0.334,46.366],[0.353,46.353],[0.37,46.322],[0.36,46.307],[0.331,46.283],[0.285,46.293],[0.266,46.323]]]}},{"type":"Feature","properties":{"code":"86053","nom":"Champigny en Rochereau","pop":1878},"geometry":{"type":"Polygon","coordinates":[[[0.126,46.682],[0.113,46.693],[0.116,46.741],[0.122,46.742],[0.19,46.735],[0.164,46.692],[0.149,46.68],[0.126,46.682]]]}},{"type":"Feature","properties":{"code":"86054","nom":"Champniers","pop":358},"geometry":{"type":"Polygon","coordinates":[[[0.368,46.195],[0.364,46.192],[0.333,46.203],[0.3,46.199],[0.3,46.231],[0.352,46.232],[0.368,46.195]]]}},{"type":"Feature","properties":{"code":"86055","nom":"La Chapelle-Bâton","pop":354},"geometry":{"type":"Polygon","coordinates":[[[0.417,46.223],[0.431,46.222],[0.45,46.211],[0.439,46.171],[0.413,46.16],[0.377,46.165],[0.364,46.192],[0.368,46.195],[0.417,46.223]]]}},{"type":"Feature","properties":{"code":"86058","nom":"La Chapelle-Moulière","pop":723},"geometry":{"type":"Polygon","coordinates":[[[0.58,46.653],[0.584,46.645],[0.557,46.625],[0.529,46.622],[0.5,46.635],[0.497,46.651],[0.506,46.655],[0.57,46.666],[0.58,46.653]]]}},{"type":"Feature","properties":{"code":"86059","nom":"Chapelle-Viviers","pop":551},"geometry":{"type":"Polygon","coordinates":[[[0.717,46.444],[0.699,46.46],[0.697,46.484],[0.726,46.491],[0.772,46.474],[0.776,46.463],[0.745,46.461],[0.718,46.444],[0.717,46.444]]]}},{"type":"Feature","properties":{"code":"86061","nom":"Charroux","pop":1036},"geometry":{"type":"Polygon","coordinates":[[[0.472,46.13],[0.451,46.108],[0.43,46.12],[0.376,46.117],[0.344,46.131],[0.353,46.152],[0.377,46.165],[0.413,46.16],[0.439,46.171],[0.459,46.171],[0.472,46.13]]]}},{"type":"Feature","properties":{"code":"86062","nom":"Chasseneuil-du-Poitou","pop":4743},"geometry":{"type":"Polygon","coordinates":[[[0.36,46.621],[0.336,46.654],[0.324,46.672],[0.354,46.68],[0.38,46.673],[0.386,46.645],[0.376,46.623],[0.36,46.621]]]}},{"type":"Feature","properties":{"code":"86063","nom":"Chatain","pop":240},"geometry":{"type":"Polygon","coordinates":[[[0.481,46.066],[0.444,46.051],[0.413,46.049],[0.403,46.063],[0.404,46.078],[0.443,46.102],[0.474,46.085],[0.481,46.066]]]}},{"type":"Feature","properties":{"code":"86064","nom":"Château-Garnier","pop":596},"geometry":{"type":"Polygon","coordinates":[[[0.431,46.222],[0.417,46.223],[0.399,46.249],[0.411,46.287],[0.443,46.297],[0.467,46.288],[0.485,46.259],[0.469,46.245],[0.431,46.222]]]}},{"type":"Feature","properties":{"code":"86065","nom":"Château-Larcher","pop":1034},"geometry":{"type":"Polygon","coordinates":[[[0.286,46.439],[0.297,46.428],[0.34,46.425],[0.291,46.387],[0.287,46.409],[0.265,46.424],[0.286,46.439]]]}},{"type":"Feature","properties":{"code":"86066","nom":"Châtellerault","pop":31003},"geometry":{"type":"Polygon","coordinates":[[[0.616,46.827],[0.616,46.827],[0.581,46.774],[0.547,46.776],[0.534,46.778],[0.495,46.812],[0.501,46.856],[0.547,46.853],[0.616,46.827]]]}},{"type":"Feature","properties":{"code":"86068","nom":"Chaunay","pop":1194},"geometry":{"type":"Polygon","coordinates":[[[0.165,46.175],[0.172,46.156],[0.155,46.157],[0.135,46.182],[0.108,46.186],[0.114,46.212],[0.139,46.24],[0.173,46.238],[0.201,46.219],[0.224,46.222],[0.214,46.204],[0.171,46.194],[0.165,46.175]]]}},{"type":"Feature","properties":{"code":"86069","nom":"La Chaussée","pop":189},"geometry":{"type":"Polygon","coordinates":[[[0.126,46.914],[0.139,46.887],[0.133,46.874],[0.083,46.876],[0.078,46.894],[0.122,46.912],[0.126,46.914]]]}},{"type":"Feature","properties":{"code":"86070","nom":"Chauvigny","pop":7007},"geometry":{"type":"Polygon","coordinates":[[[0.675,46.618],[0.674,46.602],[0.708,46.597],[0.734,46.588],[0.738,46.584],[0.736,46.541],[0.726,46.491],[0.697,46.484],[0.676,46.49],[0.668,46.516],[0.636,46.543],[0.61,46.537],[0.613,46.555],[0.608,46.583],[0.648,46.619],[0.675,46.618]]]}},{"type":"Feature","properties":{"code":"86072","nom":"Chenevelles","pop":435},"geometry":{"type":"Polygon","coordinates":[[[0.732,46.718],[0.65,46.705],[0.631,46.728],[0.649,46.754],[0.66,46.756],[0.719,46.727],[0.732,46.718]]]}},{"type":"Feature","properties":{"code":"86073","nom":"Cherves","pop":529},"geometry":{"type":"Polygon","coordinates":[[[-0.032,46.669],[-0.007,46.683],[0.004,46.718],[0.032,46.727],[0.063,46.706],[0.08,46.694],[0.064,46.681],[0.054,46.673],[-0.001,46.678],[-0.032,46.669]]]}},{"type":"Feature","properties":{"code":"86074","nom":"Chiré-en-Montreuil","pop":922},"geometry":{"type":"Polygon","coordinates":[[[0.122,46.59],[0.11,46.586],[0.086,46.615],[0.084,46.634],[0.106,46.657],[0.108,46.659],[0.137,46.651],[0.122,46.59]]]}},{"type":"Feature","properties":{"code":"86075","nom":"Chouppes","pop":802},"geometry":{"type":"Polygon","coordinates":[[[0.148,46.834],[0.225,46.819],[0.237,46.829],[0.254,46.813],[0.237,46.81],[0.22,46.813],[0.178,46.789],[0.154,46.784],[0.132,46.782],[0.123,46.788],[0.102,46.799],[0.148,46.834]]]}},{"type":"Feature","properties":{"code":"86076","nom":"Cissé","pop":2869},"geometry":{"type":"Polygon","coordinates":[[[0.251,46.624],[0.207,46.637],[0.205,46.654],[0.223,46.673],[0.25,46.659],[0.278,46.665],[0.285,46.655],[0.251,46.624]]]}},{"type":"Feature","properties":{"code":"86077","nom":"Civaux","pop":1210},"geometry":{"type":"Polygon","coordinates":[[[0.699,46.46],[0.717,46.444],[0.684,46.431],[0.678,46.419],[0.638,46.417],[0.632,46.42],[0.629,46.455],[0.676,46.468],[0.699,46.46]]]}},{"type":"Feature","properties":{"code":"86078","nom":"Civray","pop":2522},"geometry":{"type":"Polygon","coordinates":[[[0.322,46.131],[0.312,46.123],[0.285,46.131],[0.29,46.162],[0.322,46.131]]]}},{"type":"Feature","properties":{"code":"86079","nom":"La Roche-Rigault","pop":565},"geometry":{"type":"Polygon","coordinates":[[[0.156,46.929],[0.155,46.929],[0.146,46.936],[0.131,46.951],[0.141,46.974],[0.155,46.994],[0.194,47.006],[0.207,46.994],[0.202,46.969],[0.156,46.929]]]}},{"type":"Feature","properties":{"code":"86080","nom":"Cloué","pop":490},"geometry":{"type":"Polygon","coordinates":[[[0.181,46.459],[0.195,46.451],[0.17,46.429],[0.148,46.427],[0.143,46.455],[0.163,46.468],[0.181,46.459]]]}},{"type":"Feature","properties":{"code":"86081","nom":"Colombiers","pop":1405},"geometry":{"type":"Polygon","coordinates":[[[0.396,46.784],[0.446,46.795],[0.479,46.806],[0.486,46.784],[0.458,46.766],[0.438,46.77],[0.409,46.754],[0.383,46.767],[0.396,46.784]]]}},{"type":"Feature","properties":{"code":"86082","nom":"Valence-en-Poitou","pop":4325},"geometry":{"type":"Polygon","coordinates":[[[0.22,46.37],[0.239,46.346],[0.266,46.323],[0.285,46.293],[0.251,46.257],[0.218,46.271],[0.172,46.279],[0.155,46.297],[0.177,46.328],[0.138,46.349],[0.14,46.364],[0.202,46.375],[0.22,46.37]]]}},{"type":"Feature","properties":{"code":"86083","nom":"Coulombiers","pop":1155},"geometry":{"type":"Polygon","coordinates":[[[0.216,46.511],[0.224,46.499],[0.192,46.487],[0.181,46.459],[0.163,46.468],[0.124,46.487],[0.132,46.504],[0.179,46.519],[0.216,46.511]]]}},{"type":"Feature","properties":{"code":"86084","nom":"Coulonges-les-Hérolles","pop":230},"geometry":{"type":"Polygon","coordinates":[[[1.157,46.389],[1.14,46.408],[1.168,46.426],[1.169,46.446],[1.184,46.429],[1.213,46.433],[1.177,46.384],[1.157,46.389]]]}},{"type":"Feature","properties":{"code":"86085","nom":"Coussay","pop":266},"geometry":{"type":"Polygon","coordinates":[[[0.237,46.829],[0.225,46.819],[0.148,46.834],[0.189,46.855],[0.224,46.863],[0.237,46.829]]]}},{"type":"Feature","properties":{"code":"86086","nom":"Coussay-les-Bois","pop":919},"geometry":{"type":"Polygon","coordinates":[[[0.678,46.795],[0.67,46.825],[0.679,46.839],[0.734,46.845],[0.75,46.828],[0.79,46.816],[0.759,46.795],[0.754,46.778],[0.716,46.792],[0.678,46.795]]]}},{"type":"Feature","properties":{"code":"86087","nom":"Craon","pop":183},"geometry":{"type":"Polygon","coordinates":[[[0.076,46.772],[0.076,46.767],[0.032,46.759],[0.033,46.739],[-0.012,46.754],[-0.022,46.776],[-0.007,46.802],[0.011,46.788],[0.058,46.774],[0.076,46.772]]]}},{"type":"Feature","properties":{"code":"86088","nom":"Croutelle","pop":946},"geometry":{"type":"Polygon","coordinates":[[[0.302,46.543],[0.284,46.534],[0.294,46.549],[0.302,46.543]]]}},{"type":"Feature","properties":{"code":"86089","nom":"Cuhon","pop":377},"geometry":{"type":"Polygon","coordinates":[[[0.076,46.767],[0.076,46.772],[0.123,46.788],[0.132,46.782],[0.122,46.742],[0.116,46.741],[0.094,46.74],[0.076,46.767]]]}},{"type":"Feature","properties":{"code":"86090","nom":"Curçay-sur-Dive","pop":224},"geometry":{"type":"Polygon","coordinates":[[[-0.086,46.985],[-0.092,47.005],[-0.088,47.025],[-0.036,47.025],[-0.022,47.034],[-0.002,47.029],[-0.022,47.014],[-0.056,46.995],[-0.086,46.985]]]}},{"type":"Feature","properties":{"code":"86091","nom":"Curzay-sur-Vonne","pop":380},"geometry":{"type":"Polygon","coordinates":[[[0.077,46.49],[0.033,46.466],[0.02,46.467],[0.014,46.5],[0.036,46.51],[0.068,46.505],[0.077,46.49]]]}},{"type":"Feature","properties":{"code":"86092","nom":"Dangé-Saint-Romain","pop":2959},"geometry":{"type":"Polygon","coordinates":[[[0.554,46.958],[0.602,46.959],[0.609,46.94],[0.659,46.934],[0.664,46.908],[0.664,46.893],[0.602,46.904],[0.58,46.914],[0.553,46.92],[0.554,46.958]]]}},{"type":"Feature","properties":{"code":"86093","nom":"Dercé","pop":162},"geometry":{"type":"Polygon","coordinates":[[[0.155,46.929],[0.156,46.929],[0.201,46.951],[0.237,46.952],[0.255,46.962],[0.259,46.951],[0.218,46.926],[0.164,46.921],[0.155,46.929]]]}},{"type":"Feature","properties":{"code":"86094","nom":"Dienné","pop":581},"geometry":{"type":"Polygon","coordinates":[[[0.548,46.417],[0.525,46.418],[0.507,46.459],[0.538,46.467],[0.573,46.443],[0.548,46.417]]]}},{"type":"Feature","properties":{"code":"86095","nom":"Dissay","pop":3101},"geometry":{"type":"Polygon","coordinates":[[[0.492,46.681],[0.493,46.676],[0.448,46.675],[0.406,46.695],[0.412,46.719],[0.448,46.715],[0.492,46.681]]]}},{"type":"Feature","properties":{"code":"86096","nom":"Doussay","pop":690},"geometry":{"type":"Polygon","coordinates":[[[0.325,46.829],[0.296,46.812],[0.259,46.813],[0.254,46.813],[0.237,46.829],[0.224,46.863],[0.23,46.867],[0.251,46.872],[0.301,46.849],[0.292,46.826],[0.312,46.827],[0.31,46.844],[0.318,46.844],[0.325,46.829]]]}},{"type":"Feature","properties":{"code":"86097","nom":"La Ferrière-Airoux","pop":334},"geometry":{"type":"Polygon","coordinates":[[[0.36,46.307],[0.37,46.322],[0.395,46.338],[0.438,46.343],[0.448,46.336],[0.443,46.297],[0.411,46.287],[0.36,46.307]]]}},{"type":"Feature","properties":{"code":"86098","nom":"Fleix","pop":143},"geometry":{"type":"Polygon","coordinates":[[[0.767,46.547],[0.736,46.541],[0.738,46.584],[0.762,46.571],[0.767,46.547]]]}},{"type":"Feature","properties":{"code":"86099","nom":"Fleuré","pop":1137},"geometry":{"type":"Polygon","coordinates":[[[0.501,46.497],[0.509,46.514],[0.54,46.492],[0.566,46.487],[0.56,46.476],[0.538,46.467],[0.507,46.459],[0.493,46.471],[0.501,46.497]]]}},{"type":"Feature","properties":{"code":"86100","nom":"Fontaine-le-Comte","pop":3972},"geometry":{"type":"Polygon","coordinates":[[[0.224,46.499],[0.216,46.511],[0.225,46.524],[0.211,46.55],[0.238,46.552],[0.269,46.544],[0.291,46.554],[0.294,46.549],[0.284,46.534],[0.244,46.517],[0.238,46.502],[0.224,46.499]]]}},{"type":"Feature","properties":{"code":"86102","nom":"Frozes","pop":621},"geometry":{"type":"Polygon","coordinates":[[[0.149,46.68],[0.156,46.656],[0.137,46.651],[0.108,46.659],[0.126,46.682],[0.149,46.68]]]}},{"type":"Feature","properties":{"code":"86103","nom":"Gençay","pop":1653},"geometry":{"type":"Polygon","coordinates":[[[0.387,46.373],[0.387,46.375],[0.441,46.373],[0.426,46.361],[0.387,46.373]]]}},{"type":"Feature","properties":{"code":"86104","nom":"Genouillé","pop":504},"geometry":{"type":"Polygon","coordinates":[[[0.312,46.123],[0.322,46.131],[0.344,46.131],[0.376,46.117],[0.373,46.103],[0.345,46.076],[0.353,46.065],[0.345,46.064],[0.314,46.065],[0.304,46.099],[0.312,46.123]]]}},{"type":"Feature","properties":{"code":"86105","nom":"Gizay","pop":364},"geometry":{"type":"Polygon","coordinates":[[[0.404,46.41],[0.394,46.436],[0.39,46.442],[0.417,46.471],[0.45,46.462],[0.45,46.422],[0.428,46.409],[0.404,46.41]]]}},{"type":"Feature","properties":{"code":"86106","nom":"Glénouze","pop":106},"geometry":{"type":"Polygon","coordinates":[[[-0.001,47.028],[0.009,47.012],[0,46.99],[-0.025,46.985],[-0.022,47.014],[-0.002,47.029],[-0.001,47.028]]]}},{"type":"Feature","properties":{"code":"86107","nom":"Gouex","pop":487},"geometry":{"type":"Polygon","coordinates":[[[0.622,46.358],[0.626,46.376],[0.702,46.39],[0.703,46.383],[0.682,46.349],[0.622,46.358]]]}},{"type":"Feature","properties":{"code":"86108","nom":"La Grimaudière","pop":392},"geometry":{"type":"Polygon","coordinates":[[[-0.004,46.82],[0.015,46.834],[0.017,46.835],[0.025,46.811],[0.056,46.803],[0.058,46.774],[0.011,46.788],[-0.007,46.802],[-0.004,46.82]]]}},{"type":"Feature","properties":{"code":"86109","nom":"Guesnes","pop":239},"geometry":{"type":"Polygon","coordinates":[[[0.139,46.887],[0.126,46.914],[0.146,46.936],[0.155,46.929],[0.164,46.921],[0.167,46.895],[0.139,46.887]]]}},{"type":"Feature","properties":{"code":"86110","nom":"Haims","pop":228},"geometry":{"type":"Polygon","coordinates":[[[0.932,46.539],[0.972,46.526],[0.983,46.51],[0.951,46.497],[0.926,46.474],[0.885,46.5],[0.886,46.512],[0.907,46.555],[0.932,46.539]]]}},{"type":"Feature","properties":{"code":"86111","nom":"Ingrandes","pop":1709},"geometry":{"type":"Polygon","coordinates":[[[0.563,46.893],[0.58,46.914],[0.602,46.904],[0.664,46.893],[0.623,46.89],[0.616,46.827],[0.547,46.853],[0.563,46.893]]]}},{"type":"Feature","properties":{"code":"86112","nom":"L'Isle-Jourdain","pop":1126},"geometry":{"type":"Polygon","coordinates":[[[0.729,46.24],[0.679,46.228],[0.687,46.251],[0.724,46.247],[0.729,46.24]]]}},{"type":"Feature","properties":{"code":"86113","nom":"Iteuil","pop":2989},"geometry":{"type":"Polygon","coordinates":[[[0.253,46.5],[0.271,46.508],[0.323,46.503],[0.328,46.49],[0.317,46.48],[0.304,46.454],[0.268,46.47],[0.253,46.5]]]}},{"type":"Feature","properties":{"code":"86114","nom":"Jardres","pop":1250},"geometry":{"type":"Polygon","coordinates":[[[0.531,46.58],[0.561,46.585],[0.608,46.583],[0.613,46.555],[0.578,46.56],[0.548,46.544],[0.534,46.547],[0.531,46.58]]]}},{"type":"Feature","properties":{"code":"86115","nom":"Jaunay-Marigny","pop":7528},"geometry":{"type":"Polygon","coordinates":[[[0.406,46.695],[0.38,46.673],[0.354,46.68],[0.324,46.672],[0.306,46.675],[0.364,46.73],[0.342,46.763],[0.371,46.758],[0.384,46.784],[0.396,46.784],[0.383,46.767],[0.409,46.754],[0.412,46.719],[0.406,46.695]]]}},{"type":"Feature","properties":{"code":"86116","nom":"Jazeneuil","pop":793},"geometry":{"type":"Polygon","coordinates":[[[0.077,46.49],[0.118,46.487],[0.104,46.458],[0.079,46.439],[0.035,46.433],[0.033,46.466],[0.077,46.49]]]}},{"type":"Feature","properties":{"code":"86117","nom":"Jouhet","pop":502},"geometry":{"type":"Polygon","coordinates":[[[0.926,46.474],[0.915,46.466],[0.88,46.477],[0.856,46.469],[0.836,46.481],[0.827,46.506],[0.827,46.507],[0.886,46.512],[0.885,46.5],[0.926,46.474]]]}},{"type":"Feature","properties":{"code":"86118","nom":"Journet","pop":366},"geometry":{"type":"Polygon","coordinates":[[[0.915,46.466],[0.926,46.474],[0.951,46.497],[0.983,46.51],[1.012,46.525],[1.023,46.495],[1.03,46.478],[1.022,46.443],[1.001,46.448],[0.948,46.427],[0.904,46.457],[0.915,46.466]]]}},{"type":"Feature","properties":{"code":"86119","nom":"Joussé","pop":309},"geometry":{"type":"Polygon","coordinates":[[[0.469,46.245],[0.482,46.221],[0.45,46.211],[0.431,46.222],[0.469,46.245]]]}},{"type":"Feature","properties":{"code":"86120","nom":"Lathus-Saint-Rémy","pop":1214},"geometry":{"type":"Polygon","coordinates":[[[0.941,46.383],[0.944,46.381],[0.977,46.378],[0.987,46.348],[1.027,46.343],[1.028,46.323],[1.007,46.303],[1.006,46.281],[1.004,46.28],[0.933,46.289],[0.902,46.284],[0.891,46.269],[0.861,46.262],[0.844,46.283],[0.874,46.312],[0.907,46.3],[0.896,46.347],[0.93,46.366],[0.941,46.383]]]}},{"type":"Feature","properties":{"code":"86121","nom":"Latillé","pop":1494},"geometry":{"type":"Polygon","coordinates":[[[0.043,46.591],[0.023,46.614],[0.04,46.634],[0.084,46.634],[0.086,46.615],[0.11,46.586],[0.043,46.591]]]}},{"type":"Feature","properties":{"code":"86122","nom":"Lauthiers","pop":68},"geometry":{"type":"Polygon","coordinates":[[[0.735,46.623],[0.742,46.614],[0.734,46.588],[0.708,46.597],[0.735,46.623]]]}},{"type":"Feature","properties":{"code":"86123","nom":"Boivre-la-Vallée","pop":3024},"geometry":{"type":"Polygon","coordinates":[[[0.11,46.586],[0.122,46.59],[0.17,46.582],[0.16,46.56],[0.185,46.549],[0.179,46.519],[0.132,46.504],[0.124,46.487],[0.118,46.487],[0.077,46.49],[0.068,46.505],[0.036,46.51],[-0.006,46.524],[0.008,46.548],[-0.01,46.555],[-0.008,46.568],[0.043,46.591],[0.11,46.586]]]}},{"type":"Feature","properties":{"code":"86124","nom":"Lavoux","pop":1192},"geometry":{"type":"Polygon","coordinates":[[[0.505,46.58],[0.484,46.59],[0.49,46.606],[0.566,46.603],[0.561,46.585],[0.531,46.58],[0.505,46.58]]]}},{"type":"Feature","properties":{"code":"86125","nom":"Leigné-les-Bois","pop":547},"geometry":{"type":"Polygon","coordinates":[[[0.754,46.778],[0.753,46.777],[0.73,46.754],[0.719,46.727],[0.66,46.756],[0.681,46.781],[0.678,46.795],[0.716,46.792],[0.754,46.778]]]}},{"type":"Feature","properties":{"code":"86126","nom":"Leignes-sur-Fontaine","pop":647},"geometry":{"type":"Polygon","coordinates":[[[0.827,46.507],[0.827,46.506],[0.795,46.5],[0.772,46.474],[0.726,46.491],[0.736,46.541],[0.767,46.547],[0.779,46.547],[0.798,46.511],[0.827,46.507]]]}},{"type":"Feature","properties":{"code":"86127","nom":"Leigné-sur-Usseau","pop":451},"geometry":{"type":"Polygon","coordinates":[[[0.508,46.92],[0.466,46.899],[0.451,46.923],[0.5,46.928],[0.508,46.92]]]}},{"type":"Feature","properties":{"code":"86128","nom":"Lencloître","pop":2483},"geometry":{"type":"Polygon","coordinates":[[[0.259,46.813],[0.296,46.812],[0.325,46.829],[0.348,46.796],[0.337,46.786],[0.269,46.793],[0.259,46.813]]]}},{"type":"Feature","properties":{"code":"86129","nom":"Lésigny","pop":524},"geometry":{"type":"Polygon","coordinates":[[[0.81,46.816],[0.81,46.814],[0.79,46.816],[0.75,46.828],[0.734,46.845],[0.766,46.856],[0.797,46.847],[0.81,46.816]]]}},{"type":"Feature","properties":{"code":"86130","nom":"Leugny","pop":362},"geometry":{"type":"Polygon","coordinates":[[[0.703,46.926],[0.704,46.909],[0.729,46.883],[0.69,46.872],[0.664,46.893],[0.664,46.908],[0.703,46.926]]]}},{"type":"Feature","properties":{"code":"86131","nom":"Lhommaizé","pop":898},"geometry":{"type":"Polygon","coordinates":[[[0.538,46.467],[0.56,46.476],[0.582,46.464],[0.629,46.455],[0.632,46.42],[0.561,46.412],[0.548,46.417],[0.573,46.443],[0.538,46.467]]]}},{"type":"Feature","properties":{"code":"86132","nom":"Liglet","pop":297},"geometry":{"type":"Polygon","coordinates":[[[1.012,46.525],[1.02,46.537],[1.088,46.538],[1.124,46.522],[1.149,46.502],[1.135,46.471],[1.117,46.471],[1.082,46.472],[1.069,46.494],[1.023,46.495],[1.012,46.525]]]}},{"type":"Feature","properties":{"code":"86133","nom":"Ligugé","pop":3444},"geometry":{"type":"Polygon","coordinates":[[[0.323,46.503],[0.271,46.508],[0.253,46.5],[0.238,46.502],[0.244,46.517],[0.284,46.534],[0.302,46.543],[0.314,46.543],[0.342,46.539],[0.323,46.503]]]}},{"type":"Feature","properties":{"code":"86134","nom":"Linazay","pop":216},"geometry":{"type":"Polygon","coordinates":[[[0.172,46.156],[0.165,46.175],[0.217,46.182],[0.221,46.18],[0.213,46.159],[0.172,46.156]]]}},{"type":"Feature","properties":{"code":"86135","nom":"Liniers","pop":591},"geometry":{"type":"Polygon","coordinates":[[[0.49,46.628],[0.5,46.635],[0.529,46.622],[0.557,46.625],[0.566,46.603],[0.49,46.606],[0.49,46.628]]]}},{"type":"Feature","properties":{"code":"86136","nom":"Lizant","pop":393},"geometry":{"type":"Polygon","coordinates":[[[0.314,46.065],[0.291,46.06],[0.24,46.083],[0.262,46.098],[0.304,46.099],[0.314,46.065]]]}},{"type":"Feature","properties":{"code":"86137","nom":"Loudun","pop":6839},"geometry":{"type":"Polygon","coordinates":[[[0.068,46.986],[0.054,46.995],[0.049,47.029],[0.046,47.038],[0.071,47.052],[0.102,47.046],[0.132,47.027],[0.134,47.014],[0.155,46.994],[0.141,46.974],[0.118,46.971],[0.103,46.993],[0.068,46.986]]]}},{"type":"Feature","properties":{"code":"86138","nom":"Luchapt","pop":244},"geometry":{"type":"Polygon","coordinates":[[[0.8,46.202],[0.828,46.172],[0.782,46.163],[0.726,46.165],[0.731,46.205],[0.751,46.217],[0.741,46.194],[0.763,46.189],[0.8,46.202]]]}},{"type":"Feature","properties":{"code":"86139","nom":"Lusignan","pop":2544},"geometry":{"type":"Polygon","coordinates":[[[0.118,46.487],[0.124,46.487],[0.163,46.468],[0.143,46.455],[0.148,46.427],[0.126,46.399],[0.08,46.395],[0.079,46.439],[0.104,46.458],[0.118,46.487]]]}},{"type":"Feature","properties":{"code":"86140","nom":"Lussac-les-Châteaux","pop":2263},"geometry":{"type":"Polygon","coordinates":[[[0.717,46.444],[0.718,46.444],[0.752,46.408],[0.776,46.403],[0.772,46.371],[0.739,46.384],[0.703,46.383],[0.702,46.39],[0.684,46.431],[0.717,46.444]]]}},{"type":"Feature","properties":{"code":"86141","nom":"Magné","pop":672},"geometry":{"type":"Polygon","coordinates":[[[0.438,46.343],[0.395,46.338],[0.37,46.322],[0.353,46.353],[0.387,46.373],[0.426,46.361],[0.438,46.343]]]}},{"type":"Feature","properties":{"code":"86142","nom":"Maillé","pop":637},"geometry":{"type":"Polygon","coordinates":[[[0.064,46.681],[0.08,46.694],[0.113,46.693],[0.126,46.682],[0.108,46.659],[0.106,46.657],[0.064,46.681]]]}},{"type":"Feature","properties":{"code":"86143","nom":"Mairé","pop":173},"geometry":{"type":"Polygon","coordinates":[[[0.744,46.872],[0.766,46.856],[0.734,46.845],[0.679,46.839],[0.667,46.838],[0.69,46.872],[0.729,46.883],[0.744,46.872]]]}},{"type":"Feature","properties":{"code":"86144","nom":"Maisonneuve","pop":319},"geometry":{"type":"Polygon","coordinates":[[[0.032,46.727],[0.036,46.728],[0.078,46.729],[0.063,46.706],[0.032,46.727]]]}},{"type":"Feature","properties":{"code":"86145","nom":"Marçay","pop":1107},"geometry":{"type":"Polygon","coordinates":[[[0.238,46.502],[0.253,46.5],[0.268,46.47],[0.236,46.442],[0.2,46.447],[0.195,46.451],[0.181,46.459],[0.192,46.487],[0.224,46.499],[0.238,46.502]]]}},{"type":"Feature","properties":{"code":"86147","nom":"Marigny-Chemereau","pop":603},"geometry":{"type":"Polygon","coordinates":[[[0.2,46.447],[0.236,46.442],[0.241,46.427],[0.224,46.404],[0.194,46.415],[0.2,46.447]]]}},{"type":"Feature","properties":{"code":"86148","nom":"Marnay","pop":713},"geometry":{"type":"Polygon","coordinates":[[[0.387,46.375],[0.387,46.373],[0.353,46.353],[0.334,46.366],[0.303,46.354],[0.292,46.368],[0.291,46.387],[0.34,46.425],[0.394,46.436],[0.404,46.41],[0.374,46.388],[0.387,46.375]]]}},{"type":"Feature","properties":{"code":"86149","nom":"Martaizé","pop":355},"geometry":{"type":"Polygon","coordinates":[[[0.052,46.947],[0.083,46.936],[0.078,46.92],[0.068,46.897],[0.038,46.893],[0.021,46.906],[0.026,46.934],[0.052,46.947]]]}},{"type":"Feature","properties":{"code":"86150","nom":"Massognes","pop":274},"geometry":{"type":"Polygon","coordinates":[[[0.036,46.728],[0.033,46.739],[0.032,46.759],[0.076,46.767],[0.094,46.74],[0.078,46.729],[0.036,46.728]]]}},{"type":"Feature","properties":{"code":"86151","nom":"Maulay","pop":194},"geometry":{"type":"Polygon","coordinates":[[[0.156,46.929],[0.202,46.969],[0.207,46.994],[0.236,47.002],[0.244,46.993],[0.255,46.962],[0.237,46.952],[0.201,46.951],[0.156,46.929]]]}},{"type":"Feature","properties":{"code":"86152","nom":"Mauprévoir","pop":608},"geometry":{"type":"Polygon","coordinates":[[[0.509,46.132],[0.472,46.13],[0.459,46.171],[0.513,46.204],[0.545,46.183],[0.586,46.171],[0.583,46.16],[0.509,46.132]]]}},{"type":"Feature","properties":{"code":"86153","nom":"Mazerolles","pop":834},"geometry":{"type":"Polygon","coordinates":[[[0.626,46.376],[0.623,46.388],[0.638,46.417],[0.678,46.419],[0.684,46.431],[0.702,46.39],[0.626,46.376]]]}},{"type":"Feature","properties":{"code":"86154","nom":"Mazeuil","pop":243},"geometry":{"type":"Polygon","coordinates":[[[0.076,46.772],[0.058,46.774],[0.056,46.803],[0.063,46.817],[0.102,46.799],[0.123,46.788],[0.076,46.772]]]}},{"type":"Feature","properties":{"code":"86156","nom":"Messemé","pop":243},"geometry":{"type":"Polygon","coordinates":[[[0.194,47.006],[0.155,46.994],[0.134,47.014],[0.191,47.023],[0.194,47.006]]]}},{"type":"Feature","properties":{"code":"86157","nom":"Mignaloux-Beauvoir","pop":5229},"geometry":{"type":"Polygon","coordinates":[[[0.45,46.523],[0.449,46.523],[0.419,46.519],[0.396,46.536],[0.368,46.561],[0.391,46.549],[0.416,46.578],[0.438,46.56],[0.454,46.556],[0.436,46.544],[0.45,46.523]]]}},{"type":"Feature","properties":{"code":"86158","nom":"Migné-Auxances","pop":6285},"geometry":{"type":"Polygon","coordinates":[[[0.336,46.654],[0.36,46.621],[0.359,46.618],[0.307,46.604],[0.258,46.625],[0.251,46.624],[0.285,46.655],[0.336,46.654]]]}},{"type":"Feature","properties":{"code":"86159","nom":"Millac","pop":462},"geometry":{"type":"Polygon","coordinates":[[[0.665,46.173],[0.663,46.196],[0.686,46.204],[0.679,46.228],[0.729,46.24],[0.751,46.217],[0.731,46.205],[0.726,46.165],[0.713,46.139],[0.712,46.139],[0.665,46.173]]]}},{"type":"Feature","properties":{"code":"86160","nom":"Mirebeau","pop":2143},"geometry":{"type":"Polygon","coordinates":[[[0.225,46.78],[0.206,46.786],[0.171,46.769],[0.154,46.784],[0.178,46.789],[0.22,46.813],[0.237,46.81],[0.225,46.78]]]}},{"type":"Feature","properties":{"code":"86161","nom":"Moncontour","pop":976},"geometry":{"type":"MultiPolygon","coordinates":[[[[-0.014,46.922],[-0.006,46.936],[0.026,46.941],[0.026,46.934],[0.021,46.906],[0.038,46.893],[0.054,46.859],[0.034,46.854],[-0.036,46.875],[-0.009,46.908],[-0.014,46.922]]],[[[0.015,46.834],[-0.004,46.82],[-0.049,46.823],[-0.046,46.832],[-0.008,46.848],[0.015,46.834]]]]}},{"type":"Feature","properties":{"code":"86162","nom":"Mondion","pop":120},"geometry":{"type":"Polygon","coordinates":[[[0.439,46.929],[0.445,46.941],[0.491,46.955],[0.5,46.928],[0.451,46.923],[0.439,46.929]]]}},{"type":"Feature","properties":{"code":"86163","nom":"Montamisé","pop":3723},"geometry":{"type":"Polygon","coordinates":[[[0.386,46.645],[0.44,46.641],[0.497,46.651],[0.5,46.635],[0.49,46.628],[0.428,46.602],[0.394,46.605],[0.376,46.623],[0.386,46.645]]]}},{"type":"Feature","properties":{"code":"86164","nom":"Monthoiron","pop":673},"geometry":{"type":"Polygon","coordinates":[[[0.649,46.754],[0.631,46.728],[0.65,46.705],[0.617,46.703],[0.598,46.717],[0.589,46.735],[0.6,46.756],[0.649,46.754]]]}},{"type":"Feature","properties":{"code":"86165","nom":"Montmorillon","pop":5821},"geometry":{"type":"Polygon","coordinates":[[[0.944,46.381],[0.941,46.383],[0.901,46.389],[0.871,46.415],[0.845,46.412],[0.826,46.446],[0.861,46.454],[0.856,46.469],[0.88,46.477],[0.915,46.466],[0.904,46.457],[0.948,46.427],[0.962,46.397],[0.944,46.381]]]}},{"type":"Feature","properties":{"code":"86167","nom":"Monts-sur-Guesnes","pop":921},"geometry":{"type":"Polygon","coordinates":[[[0.222,46.914],[0.201,46.898],[0.167,46.895],[0.164,46.921],[0.218,46.926],[0.222,46.914]]]}},{"type":"Feature","properties":{"code":"86169","nom":"Morton","pop":370},"geometry":{"type":"Polygon","coordinates":[[[-0.035,47.087],[-0.034,47.121],[-0.017,47.118],[0.021,47.101],[-0.006,47.092],[-0.035,47.087]]]}},{"type":"Feature","properties":{"code":"86170","nom":"Moulismes","pop":358},"geometry":{"type":"Polygon","coordinates":[[[0.848,46.339],[0.834,46.294],[0.798,46.294],[0.775,46.31],[0.766,46.321],[0.792,46.357],[0.848,46.339]]]}},{"type":"Feature","properties":{"code":"86171","nom":"Moussac","pop":436},"geometry":{"type":"Polygon","coordinates":[[[0.712,46.3],[0.713,46.287],[0.724,46.247],[0.687,46.251],[0.68,46.263],[0.641,46.276],[0.679,46.288],[0.685,46.308],[0.712,46.3]]]}},{"type":"Feature","properties":{"code":"86172","nom":"Mouterre-sur-Blourde","pop":170},"geometry":{"type":"Polygon","coordinates":[[[0.751,46.217],[0.729,46.24],[0.769,46.243],[0.791,46.235],[0.794,46.214],[0.8,46.202],[0.763,46.189],[0.741,46.194],[0.751,46.217]]]}},{"type":"Feature","properties":{"code":"86173","nom":"Mouterre-Silly","pop":602},"geometry":{"type":"Polygon","coordinates":[[[0.026,46.941],[0.007,46.982],[0,46.99],[0.009,47.012],[-0.001,47.028],[0.049,47.029],[0.054,46.995],[0.068,46.986],[0.072,46.96],[0.052,46.947],[0.026,46.934],[0.026,46.941]]]}},{"type":"Feature","properties":{"code":"86174","nom":"Naintré","pop":5964},"geometry":{"type":"Polygon","coordinates":[[[0.512,46.741],[0.483,46.741],[0.458,46.766],[0.486,46.784],[0.479,46.806],[0.495,46.812],[0.534,46.778],[0.503,46.749],[0.512,46.741]]]}},{"type":"Feature","properties":{"code":"86175","nom":"Nalliers","pop":302},"geometry":{"type":"Polygon","coordinates":[[[0.896,46.632],[0.916,46.597],[0.871,46.591],[0.844,46.6],[0.876,46.632],[0.896,46.632]]]}},{"type":"Feature","properties":{"code":"86176","nom":"Nérignac","pop":112},"geometry":{"type":"Polygon","coordinates":[[[0.713,46.287],[0.712,46.3],[0.749,46.297],[0.713,46.287]]]}},{"type":"Feature","properties":{"code":"86177","nom":"Neuville-de-Poitou","pop":5513},"geometry":{"type":"Polygon","coordinates":[[[0.283,46.684],[0.278,46.665],[0.25,46.659],[0.223,46.673],[0.221,46.683],[0.249,46.706],[0.265,46.705],[0.283,46.684]]]}},{"type":"Feature","properties":{"code":"86178","nom":"Nieuil-l'Espoir","pop":2631},"geometry":{"type":"Polygon","coordinates":[[[0.421,46.476],[0.455,46.496],[0.449,46.523],[0.45,46.523],[0.501,46.497],[0.493,46.471],[0.45,46.462],[0.417,46.471],[0.421,46.476]]]}},{"type":"Feature","properties":{"code":"86180","nom":"Nouaillé-Maupertuis","pop":2975},"geometry":{"type":"Polygon","coordinates":[[[0.449,46.523],[0.455,46.496],[0.421,46.476],[0.417,46.481],[0.384,46.496],[0.39,46.53],[0.396,46.536],[0.419,46.519],[0.449,46.523]]]}},{"type":"Feature","properties":{"code":"86181","nom":"Nueil-sous-Faye","pop":217},"geometry":{"type":"Polygon","coordinates":[[[0.291,46.99],[0.298,46.971],[0.278,46.948],[0.259,46.951],[0.255,46.962],[0.244,46.993],[0.291,46.99]]]}},{"type":"Feature","properties":{"code":"86182","nom":"Orches","pop":353},"geometry":{"type":"Polygon","coordinates":[[[0.298,46.898],[0.301,46.904],[0.322,46.91],[0.346,46.888],[0.357,46.867],[0.323,46.859],[0.298,46.898]]]}},{"type":"Feature","properties":{"code":"86183","nom":"Les Ormes","pop":1613},"geometry":{"type":"Polygon","coordinates":[[[0.602,46.959],[0.574,46.983],[0.575,46.993],[0.624,46.994],[0.638,46.985],[0.628,46.974],[0.669,46.949],[0.659,46.934],[0.609,46.94],[0.602,46.959]]]}},{"type":"Feature","properties":{"code":"86184","nom":"Ouzilly","pop":961},"geometry":{"type":"Polygon","coordinates":[[[0.335,46.77],[0.337,46.786],[0.348,46.796],[0.373,46.787],[0.384,46.784],[0.371,46.758],[0.342,46.763],[0.335,46.77]]]}},{"type":"Feature","properties":{"code":"86186","nom":"Oyré","pop":962},"geometry":{"type":"Polygon","coordinates":[[[0.616,46.827],[0.616,46.827],[0.623,46.89],[0.664,46.893],[0.69,46.872],[0.667,46.838],[0.616,46.827]]]}},{"type":"Feature","properties":{"code":"86187","nom":"Paizay-le-Sec","pop":468},"geometry":{"type":"Polygon","coordinates":[[[0.742,46.614],[0.773,46.623],[0.799,46.616],[0.822,46.581],[0.819,46.563],[0.779,46.547],[0.767,46.547],[0.762,46.571],[0.738,46.584],[0.734,46.588],[0.742,46.614]]]}},{"type":"Feature","properties":{"code":"86189","nom":"Payroux","pop":461},"geometry":{"type":"Polygon","coordinates":[[[0.485,46.259],[0.499,46.247],[0.525,46.213],[0.513,46.204],[0.459,46.171],[0.439,46.171],[0.45,46.211],[0.482,46.221],[0.469,46.245],[0.485,46.259]]]}},{"type":"Feature","properties":{"code":"86190","nom":"Persac","pop":717},"geometry":{"type":"Polygon","coordinates":[[[0.792,46.357],[0.766,46.321],[0.775,46.31],[0.749,46.297],[0.712,46.3],[0.685,46.308],[0.673,46.327],[0.682,46.349],[0.703,46.383],[0.739,46.384],[0.772,46.371],[0.788,46.363],[0.792,46.357]]]}},{"type":"Feature","properties":{"code":"86191","nom":"Pindray","pop":253},"geometry":{"type":"Polygon","coordinates":[[[0.826,46.446],[0.776,46.463],[0.772,46.474],[0.795,46.5],[0.827,46.506],[0.836,46.481],[0.856,46.469],[0.861,46.454],[0.826,46.446]]]}},{"type":"Feature","properties":{"code":"86192","nom":"Plaisance","pop":170},"geometry":{"type":"Polygon","coordinates":[[[0.834,46.294],[0.848,46.339],[0.878,46.341],[0.874,46.312],[0.844,46.283],[0.834,46.294]]]}},{"type":"Feature","properties":{"code":"86193","nom":"Pleumartin","pop":1214},"geometry":{"type":"Polygon","coordinates":[[[0.782,46.729],[0.759,46.712],[0.732,46.718],[0.719,46.727],[0.73,46.754],[0.753,46.777],[0.777,46.753],[0.815,46.742],[0.782,46.729]]]}},{"type":"Feature","properties":{"code":"86194","nom":"Poitiers","pop":89916},"geometry":{"type":"Polygon","coordinates":[[[0.314,46.543],[0.302,46.543],[0.294,46.549],[0.291,46.554],[0.303,46.569],[0.307,46.604],[0.307,46.604],[0.359,46.618],[0.34,46.593],[0.377,46.593],[0.394,46.605],[0.428,46.602],[0.45,46.59],[0.416,46.578],[0.391,46.549],[0.368,46.561],[0.327,46.559],[0.314,46.543]]]}},{"type":"Feature","properties":{"code":"86195","nom":"Port-de-Piles","pop":545},"geometry":{"type":"Polygon","coordinates":[[[0.568,47.007],[0.591,47.007],[0.622,46.999],[0.624,46.994],[0.575,46.993],[0.567,47.003],[0.568,47.007]]]}},{"type":"Feature","properties":{"code":"86196","nom":"Pouançay","pop":230},"geometry":{"type":"Polygon","coordinates":[[[-0.097,47.092],[-0.086,47.101],[-0.068,47.094],[-0.064,47.077],[-0.101,47.085],[-0.097,47.092]]]}},{"type":"Feature","properties":{"code":"86197","nom":"Pouant","pop":407},"geometry":{"type":"Polygon","coordinates":[[[0.308,47],[0.291,46.99],[0.244,46.993],[0.236,47.002],[0.264,47.046],[0.298,47.054],[0.31,47.028],[0.308,47]]]}},{"type":"Feature","properties":{"code":"86198","nom":"Pouillé","pop":735},"geometry":{"type":"Polygon","coordinates":[[[0.598,46.528],[0.561,46.525],[0.546,46.54],[0.548,46.544],[0.578,46.56],[0.613,46.555],[0.61,46.537],[0.598,46.528]]]}},{"type":"Feature","properties":{"code":"86200","nom":"Pressac","pop":544},"geometry":{"type":"Polygon","coordinates":[[[0.54,46.086],[0.509,46.132],[0.583,46.16],[0.586,46.171],[0.593,46.173],[0.596,46.145],[0.614,46.105],[0.609,46.09],[0.596,46.073],[0.574,46.078],[0.54,46.086]]]}},{"type":"Feature","properties":{"code":"86201","nom":"Prinçay","pop":201},"geometry":{"type":"Polygon","coordinates":[[[0.278,46.948],[0.288,46.917],[0.228,46.915],[0.222,46.914],[0.218,46.926],[0.259,46.951],[0.278,46.948]]]}},{"type":"Feature","properties":{"code":"86202","nom":"La Puye","pop":608},"geometry":{"type":"Polygon","coordinates":[[[0.742,46.614],[0.735,46.623],[0.721,46.639],[0.721,46.668],[0.734,46.68],[0.765,46.672],[0.773,46.649],[0.773,46.623],[0.742,46.614]]]}},{"type":"Feature","properties":{"code":"86203","nom":"Queaux","pop":586},"geometry":{"type":"Polygon","coordinates":[[[0.685,46.308],[0.679,46.288],[0.641,46.276],[0.605,46.262],[0.584,46.297],[0.586,46.318],[0.622,46.358],[0.682,46.349],[0.673,46.327],[0.685,46.308]]]}},{"type":"Feature","properties":{"code":"86204","nom":"Quinçay","pop":2139},"geometry":{"type":"Polygon","coordinates":[[[0.207,46.637],[0.251,46.624],[0.258,46.625],[0.254,46.582],[0.199,46.58],[0.169,46.588],[0.207,46.637]]]}},{"type":"Feature","properties":{"code":"86205","nom":"Ranton","pop":204},"geometry":{"type":"Polygon","coordinates":[[[-0.025,46.985],[-0.034,46.98],[-0.056,46.995],[-0.022,47.014],[-0.025,46.985]]]}},{"type":"Feature","properties":{"code":"86206","nom":"Raslay","pop":134},"geometry":{"type":"Polygon","coordinates":[[[0.021,47.102],[0.021,47.101],[-0.017,47.118],[0.024,47.118],[0.021,47.102]]]}},{"type":"Feature","properties":{"code":"86207","nom":"La Roche-Posay","pop":1566},"geometry":{"type":"Polygon","coordinates":[[[0.81,46.814],[0.812,46.795],[0.86,46.756],[0.815,46.742],[0.777,46.753],[0.753,46.777],[0.754,46.778],[0.759,46.795],[0.79,46.816],[0.81,46.814]]]}},{"type":"Feature","properties":{"code":"86209","nom":"Roches-Prémarie-Andillé","pop":2191},"geometry":{"type":"Polygon","coordinates":[[[0.358,46.457],[0.327,46.463],[0.317,46.48],[0.328,46.49],[0.354,46.481],[0.384,46.496],[0.417,46.481],[0.41,46.466],[0.358,46.457]]]}},{"type":"Feature","properties":{"code":"86210","nom":"Roiffé","pop":747},"geometry":{"type":"Polygon","coordinates":[[[0.024,47.118],[0.041,47.146],[0.036,47.16],[0.054,47.164],[0.078,47.146],[0.084,47.118],[0.045,47.092],[0.021,47.102],[0.024,47.118]]]}},{"type":"Feature","properties":{"code":"86211","nom":"Romagne","pop":801},"geometry":{"type":"Polygon","coordinates":[[[0.361,46.25],[0.352,46.232],[0.3,46.231],[0.26,46.233],[0.244,46.248],[0.251,46.257],[0.285,46.293],[0.331,46.283],[0.361,46.25]]]}},{"type":"Feature","properties":{"code":"86213","nom":"Rouillé","pop":2533},"geometry":{"type":"Polygon","coordinates":[[[0.08,46.395],[0.034,46.374],[0.016,46.391],[-0.008,46.389],[-0.02,46.42],[-0.019,46.453],[-0.013,46.471],[0.02,46.467],[0.033,46.466],[0.035,46.433],[0.079,46.439],[0.08,46.395]]]}},{"type":"Feature","properties":{"code":"86214","nom":"Saint-Benoît","pop":7375},"geometry":{"type":"Polygon","coordinates":[[[0.368,46.561],[0.396,46.536],[0.39,46.53],[0.342,46.539],[0.314,46.543],[0.327,46.559],[0.368,46.561]]]}},{"type":"Feature","properties":{"code":"86217","nom":"Saint-Christophe","pop":279},"geometry":{"type":"Polygon","coordinates":[[[0.348,46.937],[0.388,46.944],[0.405,46.936],[0.365,46.892],[0.36,46.894],[0.348,46.937]]]}},{"type":"Feature","properties":{"code":"86218","nom":"Saint-Clair","pop":209},"geometry":{"type":"Polygon","coordinates":[[[0.068,46.897],[0.078,46.894],[0.083,46.876],[0.054,46.859],[0.038,46.893],[0.068,46.897]]]}},{"type":"Feature","properties":{"code":"86220","nom":"Saint-Gaudent","pop":303},"geometry":{"type":"Polygon","coordinates":[[[0.268,46.131],[0.285,46.131],[0.312,46.123],[0.304,46.099],[0.262,46.098],[0.263,46.113],[0.268,46.131]]]}},{"type":"Feature","properties":{"code":"86221","nom":"Saint-Genest-d'Ambière","pop":1235},"geometry":{"type":"Polygon","coordinates":[[[0.348,46.796],[0.325,46.829],[0.318,46.844],[0.323,46.859],[0.357,46.867],[0.364,46.855],[0.406,46.843],[0.408,46.838],[0.373,46.787],[0.348,46.796]]]}},{"type":"Feature","properties":{"code":"86222","nom":"Saint-Georges-lès-Baillargeaux","pop":4385},"geometry":{"type":"Polygon","coordinates":[[[0.497,46.651],[0.44,46.641],[0.386,46.645],[0.38,46.673],[0.406,46.695],[0.448,46.675],[0.493,46.676],[0.506,46.655],[0.497,46.651]]]}},{"type":"Feature","properties":{"code":"86223","nom":"Saint-Germain","pop":886},"geometry":{"type":"Polygon","coordinates":[[[0.938,46.594],[0.941,46.581],[0.905,46.558],[0.905,46.558],[0.866,46.563],[0.871,46.591],[0.916,46.597],[0.938,46.594]]]}},{"type":"Feature","properties":{"code":"86224","nom":"Saint-Gervais-les-Trois-Clochers","pop":1310},"geometry":{"type":"Polygon","coordinates":[[[0.467,46.886],[0.406,46.873],[0.373,46.878],[0.365,46.892],[0.405,46.936],[0.439,46.929],[0.451,46.923],[0.466,46.899],[0.467,46.886]]]}},{"type":"Feature","properties":{"code":"86225","nom":"Saint-Jean-de-Sauves","pop":1281},"geometry":{"type":"Polygon","coordinates":[[[0.017,46.835],[0.034,46.854],[0.054,46.859],[0.083,46.876],[0.133,46.874],[0.153,46.857],[0.148,46.834],[0.102,46.799],[0.063,46.817],[0.056,46.803],[0.025,46.811],[0.017,46.835]]]}},{"type":"Feature","properties":{"code":"86226","nom":"Saint-Julien-l'Ars","pop":2880},"geometry":{"type":"Polygon","coordinates":[[[0.505,46.58],[0.531,46.58],[0.534,46.547],[0.548,46.544],[0.546,46.54],[0.516,46.532],[0.454,46.556],[0.438,46.56],[0.497,46.56],[0.505,46.58]]]}},{"type":"Feature","properties":{"code":"86227","nom":"Saint-Laon","pop":136},"geometry":{"type":"Polygon","coordinates":[[[-0.034,46.98],[-0.025,46.985],[0,46.99],[0.007,46.982],[-0.001,46.963],[-0.031,46.942],[-0.046,46.967],[-0.034,46.98]]]}},{"type":"Feature","properties":{"code":"86228","nom":"Saint-Laurent-de-Jourdes","pop":192},"geometry":{"type":"Polygon","coordinates":[[[0.525,46.418],[0.548,46.417],[0.561,46.412],[0.559,46.382],[0.525,46.367],[0.517,46.376],[0.511,46.388],[0.525,46.418]]]}},{"type":"Feature","properties":{"code":"86229","nom":"Saint-Léger-de-Montbrillais","pop":354},"geometry":{"type":"Polygon","coordinates":[[[-0.064,47.077],[-0.068,47.094],[-0.035,47.087],[-0.006,47.092],[-0.034,47.058],[-0.064,47.077]]]}},{"type":"Feature","properties":{"code":"86230","nom":"Saint-Léomer","pop":172},"geometry":{"type":"Polygon","coordinates":[[[1.031,46.411],[1.022,46.384],[0.962,46.397],[0.948,46.427],[1.001,46.448],[1.022,46.443],[1.031,46.411]]]}},{"type":"Feature","properties":{"code":"86233","nom":"Valdivienne","pop":2715},"geometry":{"type":"Polygon","coordinates":[[[0.566,46.487],[0.598,46.528],[0.61,46.537],[0.636,46.543],[0.668,46.516],[0.676,46.49],[0.697,46.484],[0.699,46.46],[0.676,46.468],[0.629,46.455],[0.582,46.464],[0.56,46.476],[0.566,46.487]]]}},{"type":"Feature","properties":{"code":"86234","nom":"Saint-Martin-l'Ars","pop":362},"geometry":{"type":"Polygon","coordinates":[[[0.606,46.174],[0.593,46.173],[0.586,46.171],[0.545,46.183],[0.513,46.204],[0.525,46.213],[0.499,46.247],[0.52,46.25],[0.578,46.234],[0.603,46.215],[0.606,46.174]]]}},{"type":"Feature","properties":{"code":"86235","nom":"Saint-Maurice-la-Clouère","pop":1290},"geometry":{"type":"Polygon","coordinates":[[[0.387,46.375],[0.374,46.388],[0.404,46.41],[0.428,46.409],[0.509,46.396],[0.511,46.388],[0.517,46.376],[0.498,46.366],[0.453,46.362],[0.441,46.373],[0.387,46.375]]]}},{"type":"Feature","properties":{"code":"86236","nom":"Saint-Pierre-de-Maillé","pop":836},"geometry":{"type":"Polygon","coordinates":[[[0.782,46.729],[0.799,46.708],[0.823,46.714],[0.866,46.704],[0.867,46.684],[0.902,46.678],[0.907,46.667],[0.896,46.632],[0.876,46.632],[0.834,46.655],[0.773,46.649],[0.765,46.672],[0.734,46.68],[0.759,46.712],[0.782,46.729]]]}},{"type":"Feature","properties":{"code":"86237","nom":"Saint-Pierre-d'Exideuil","pop":717},"geometry":{"type":"Polygon","coordinates":[[[0.29,46.162],[0.285,46.131],[0.268,46.131],[0.242,46.152],[0.221,46.18],[0.217,46.182],[0.275,46.178],[0.29,46.162]]]}},{"type":"Feature","properties":{"code":"86239","nom":"Sainte-Radégonde","pop":187},"geometry":{"type":"Polygon","coordinates":[[[0.708,46.597],[0.674,46.602],[0.675,46.618],[0.684,46.631],[0.721,46.639],[0.735,46.623],[0.708,46.597]]]}},{"type":"Feature","properties":{"code":"86241","nom":"Saint-Rémy-sur-Creuse","pop":462},"geometry":{"type":"Polygon","coordinates":[[[0.696,46.959],[0.703,46.926],[0.664,46.908],[0.659,46.934],[0.669,46.949],[0.696,46.959]]]}},{"type":"Feature","properties":{"code":"86242","nom":"Saint-Romain","pop":386},"geometry":{"type":"Polygon","coordinates":[[[0.352,46.232],[0.361,46.25],[0.399,46.249],[0.417,46.223],[0.368,46.195],[0.352,46.232]]]}},{"type":"Feature","properties":{"code":"86244","nom":"Saint-Sauvant","pop":1293},"geometry":{"type":"Polygon","coordinates":[[[0.034,46.374],[0.08,46.395],[0.126,46.399],[0.125,46.37],[0.14,46.364],[0.138,46.349],[0.104,46.335],[0.078,46.305],[0.03,46.329],[0.015,46.326],[0.014,46.357],[0.034,46.374]]]}},{"type":"Feature","properties":{"code":"86245","nom":"Senillé-Saint-Sauveur","pop":1706},"geometry":{"type":"Polygon","coordinates":[[[0.616,46.827],[0.667,46.838],[0.679,46.839],[0.67,46.825],[0.678,46.795],[0.681,46.781],[0.66,46.756],[0.649,46.754],[0.6,46.756],[0.581,46.774],[0.616,46.827]]]}},{"type":"Feature","properties":{"code":"86246","nom":"Saint-Savin","pop":816},"geometry":{"type":"Polygon","coordinates":[[[0.819,46.563],[0.822,46.581],[0.799,46.616],[0.844,46.6],[0.871,46.591],[0.866,46.563],[0.819,46.563]]]}},{"type":"Feature","properties":{"code":"86247","nom":"Val-de-Comporté","pop":999},"geometry":{"type":"Polygon","coordinates":[[[0.2,46.117],[0.216,46.139],[0.213,46.159],[0.221,46.18],[0.242,46.152],[0.268,46.131],[0.263,46.113],[0.191,46.105],[0.2,46.117]]]}},{"type":"Feature","properties":{"code":"86248","nom":"Saint-Secondin","pop":531},"geometry":{"type":"Polygon","coordinates":[[[0.55,46.332],[0.503,46.313],[0.467,46.288],[0.443,46.297],[0.448,46.336],[0.462,46.345],[0.53,46.359],[0.55,46.332]]]}},{"type":"Feature","properties":{"code":"86249","nom":"Saires","pop":122},"geometry":{"type":"Polygon","coordinates":[[[0.265,46.881],[0.251,46.872],[0.23,46.867],[0.201,46.898],[0.222,46.914],[0.228,46.915],[0.265,46.881]]]}},{"type":"Feature","properties":{"code":"86250","nom":"Saix","pop":250},"geometry":{"type":"Polygon","coordinates":[[[-0.034,47.121],[-0.012,47.156],[0.019,47.176],[0.036,47.16],[0.041,47.146],[0.024,47.118],[-0.017,47.118],[-0.034,47.121]]]}},{"type":"Feature","properties":{"code":"86252","nom":"Sammarçolles","pop":648},"geometry":{"type":"Polygon","coordinates":[[[0.159,47.062],[0.176,47.061],[0.208,47.053],[0.191,47.023],[0.134,47.014],[0.132,47.027],[0.15,47.055],[0.159,47.062]]]}},{"type":"Feature","properties":{"code":"86253","nom":"Sanxay","pop":548},"geometry":{"type":"Polygon","coordinates":[[[-0.031,46.525],[-0.006,46.524],[0.036,46.51],[0.014,46.5],[0.02,46.467],[-0.013,46.471],[-0.044,46.472],[-0.039,46.499],[-0.031,46.525]]]}},{"type":"Feature","properties":{"code":"86254","nom":"Saulgé","pop":1011},"geometry":{"type":"Polygon","coordinates":[[[0.792,46.357],[0.788,46.363],[0.809,46.374],[0.845,46.412],[0.871,46.415],[0.901,46.389],[0.941,46.383],[0.93,46.366],[0.896,46.347],[0.907,46.3],[0.874,46.312],[0.878,46.341],[0.848,46.339],[0.792,46.357]]]}},{"type":"Feature","properties":{"code":"86255","nom":"Savigné","pop":1256},"geometry":{"type":"Polygon","coordinates":[[[0.364,46.192],[0.377,46.165],[0.353,46.152],[0.344,46.131],[0.322,46.131],[0.29,46.162],[0.275,46.178],[0.3,46.199],[0.333,46.203],[0.364,46.192]]]}},{"type":"Feature","properties":{"code":"86256","nom":"Savigny-Lévescault","pop":1240},"geometry":{"type":"Polygon","coordinates":[[[0.509,46.514],[0.501,46.497],[0.45,46.523],[0.436,46.544],[0.454,46.556],[0.516,46.532],[0.509,46.514]]]}},{"type":"Feature","properties":{"code":"86257","nom":"Savigny-sous-Faye","pop":379},"geometry":{"type":"Polygon","coordinates":[[[0.31,46.844],[0.301,46.849],[0.251,46.872],[0.265,46.881],[0.298,46.898],[0.323,46.859],[0.318,46.844],[0.31,46.844]]]}},{"type":"Feature","properties":{"code":"86258","nom":"Scorbé-Clairvaux","pop":2174},"geometry":{"type":"Polygon","coordinates":[[[0.396,46.784],[0.384,46.784],[0.373,46.787],[0.408,46.838],[0.434,46.833],[0.446,46.795],[0.396,46.784]]]}},{"type":"Feature","properties":{"code":"86260","nom":"Sérigny","pop":315},"geometry":{"type":"Polygon","coordinates":[[[0.302,46.955],[0.325,46.931],[0.348,46.937],[0.36,46.894],[0.346,46.888],[0.322,46.91],[0.301,46.904],[0.288,46.917],[0.278,46.948],[0.298,46.971],[0.302,46.955]]]}},{"type":"Feature","properties":{"code":"86261","nom":"Sèvres-Anxaumont","pop":2394},"geometry":{"type":"Polygon","coordinates":[[[0.484,46.59],[0.505,46.58],[0.497,46.56],[0.438,46.56],[0.416,46.578],[0.45,46.59],[0.484,46.59]]]}},{"type":"Feature","properties":{"code":"86262","nom":"Sillars","pop":584},"geometry":{"type":"Polygon","coordinates":[[[0.776,46.463],[0.826,46.446],[0.845,46.412],[0.809,46.374],[0.788,46.363],[0.772,46.371],[0.776,46.403],[0.752,46.408],[0.718,46.444],[0.745,46.461],[0.776,46.463]]]}},{"type":"Feature","properties":{"code":"86263","nom":"Smarves","pop":2941},"geometry":{"type":"Polygon","coordinates":[[[0.342,46.539],[0.39,46.53],[0.384,46.496],[0.354,46.481],[0.328,46.49],[0.323,46.503],[0.342,46.539]]]}},{"type":"Feature","properties":{"code":"86264","nom":"Sommières-du-Clain","pop":729},"geometry":{"type":"Polygon","coordinates":[[[0.36,46.307],[0.411,46.287],[0.399,46.249],[0.361,46.25],[0.331,46.283],[0.36,46.307]]]}},{"type":"Feature","properties":{"code":"86265","nom":"Sossais","pop":409},"geometry":{"type":"Polygon","coordinates":[[[0.36,46.894],[0.365,46.892],[0.373,46.878],[0.406,46.873],[0.406,46.843],[0.364,46.855],[0.357,46.867],[0.346,46.888],[0.36,46.894]]]}},{"type":"Feature","properties":{"code":"86266","nom":"Surin","pop":123},"geometry":{"type":"Polygon","coordinates":[[[0.403,46.063],[0.353,46.065],[0.345,46.076],[0.373,46.103],[0.404,46.078],[0.403,46.063]]]}},{"type":"Feature","properties":{"code":"86268","nom":"Tercé","pop":1135},"geometry":{"type":"Polygon","coordinates":[[[0.546,46.54],[0.561,46.525],[0.598,46.528],[0.566,46.487],[0.54,46.492],[0.509,46.514],[0.516,46.532],[0.546,46.54]]]}},{"type":"Feature","properties":{"code":"86269","nom":"Ternay","pop":189},"geometry":{"type":"Polygon","coordinates":[[[-0.088,47.025],[-0.09,47.033],[-0.092,47.038],[-0.036,47.048],[-0.022,47.034],[-0.036,47.025],[-0.088,47.025]]]}},{"type":"Feature","properties":{"code":"86270","nom":"Thollet","pop":164},"geometry":{"type":"Polygon","coordinates":[[[1.117,46.471],[1.135,46.471],[1.169,46.446],[1.168,46.426],[1.14,46.408],[1.103,46.413],[1.081,46.437],[1.117,46.471]]]}},{"type":"Feature","properties":{"code":"86271","nom":"Thurageau","pop":720},"geometry":{"type":"Polygon","coordinates":[[[0.259,46.813],[0.269,46.793],[0.337,46.786],[0.335,46.77],[0.295,46.767],[0.261,46.749],[0.22,46.751],[0.225,46.78],[0.237,46.81],[0.254,46.813],[0.259,46.813]]]}},{"type":"Feature","properties":{"code":"86272","nom":"Thuré","pop":2765},"geometry":{"type":"Polygon","coordinates":[[[0.406,46.873],[0.467,46.886],[0.468,46.862],[0.501,46.856],[0.495,46.812],[0.479,46.806],[0.446,46.795],[0.434,46.833],[0.408,46.838],[0.406,46.843],[0.406,46.873]]]}},{"type":"Feature","properties":{"code":"86273","nom":"La Trimouille","pop":859},"geometry":{"type":"Polygon","coordinates":[[[1.023,46.495],[1.069,46.494],[1.082,46.472],[1.117,46.471],[1.081,46.437],[1.103,46.413],[1.045,46.422],[1.031,46.411],[1.022,46.443],[1.03,46.478],[1.023,46.495]]]}},{"type":"Feature","properties":{"code":"86274","nom":"Les Trois-Moutiers","pop":1078},"geometry":{"type":"Polygon","coordinates":[[[-0.001,47.028],[-0.002,47.029],[-0.022,47.034],[-0.036,47.048],[-0.034,47.058],[-0.006,47.092],[0.021,47.101],[0.021,47.102],[0.045,47.092],[0.051,47.073],[0.024,47.045],[0.046,47.038],[0.049,47.029],[-0.001,47.028]]]}},{"type":"Feature","properties":{"code":"86275","nom":"Usseau","pop":573},"geometry":{"type":"Polygon","coordinates":[[[0.521,46.917],[0.522,46.875],[0.499,46.862],[0.468,46.862],[0.467,46.886],[0.466,46.899],[0.508,46.92],[0.521,46.917]]]}},{"type":"Feature","properties":{"code":"86276","nom":"Usson-du-Poitou","pop":1217},"geometry":{"type":"Polygon","coordinates":[[[0.578,46.234],[0.52,46.25],[0.499,46.247],[0.485,46.259],[0.467,46.288],[0.503,46.313],[0.55,46.332],[0.586,46.318],[0.584,46.297],[0.605,46.262],[0.578,46.234]]]}},{"type":"Feature","properties":{"code":"86279","nom":"Vaux-sur-Vienne","pop":538},"geometry":{"type":"Polygon","coordinates":[[[0.58,46.914],[0.563,46.893],[0.542,46.916],[0.553,46.92],[0.58,46.914]]]}},{"type":"Feature","properties":{"code":"86280","nom":"Vellèches","pop":347},"geometry":{"type":"Polygon","coordinates":[[[0.491,46.955],[0.505,46.96],[0.554,46.958],[0.553,46.92],[0.542,46.916],[0.521,46.917],[0.508,46.92],[0.5,46.928],[0.491,46.955]]]}},{"type":"Feature","properties":{"code":"86281","nom":"Saint-Martin-la-Pallu","pop":5713},"geometry":{"type":"Polygon","coordinates":[[[0.171,46.769],[0.206,46.786],[0.225,46.78],[0.22,46.751],[0.261,46.749],[0.295,46.767],[0.335,46.77],[0.342,46.763],[0.364,46.73],[0.306,46.675],[0.283,46.684],[0.265,46.705],[0.29,46.732],[0.267,46.734],[0.249,46.706],[0.221,46.683],[0.192,46.678],[0.164,46.692],[0.19,46.735],[0.171,46.769]]]}},{"type":"Feature","properties":{"code":"86284","nom":"Vernon","pop":730},"geometry":{"type":"Polygon","coordinates":[[[0.493,46.471],[0.507,46.459],[0.525,46.418],[0.511,46.388],[0.509,46.396],[0.428,46.409],[0.45,46.422],[0.45,46.462],[0.493,46.471]]]}},{"type":"Feature","properties":{"code":"86285","nom":"Verrières","pop":921},"geometry":{"type":"Polygon","coordinates":[[[0.632,46.42],[0.638,46.417],[0.623,46.388],[0.559,46.382],[0.561,46.412],[0.632,46.42]]]}},{"type":"Feature","properties":{"code":"86286","nom":"Verrue","pop":379},"geometry":{"type":"Polygon","coordinates":[[[0.23,46.867],[0.224,46.863],[0.189,46.855],[0.148,46.834],[0.153,46.857],[0.133,46.874],[0.139,46.887],[0.167,46.895],[0.201,46.898],[0.23,46.867]]]}},{"type":"Feature","properties":{"code":"86287","nom":"Vézières","pop":340},"geometry":{"type":"Polygon","coordinates":[[[0.105,47.121],[0.141,47.125],[0.135,47.107],[0.162,47.1],[0.159,47.062],[0.15,47.055],[0.12,47.064],[0.088,47.084],[0.105,47.121]]]}},{"type":"Feature","properties":{"code":"86288","nom":"Vicq-sur-Gartempe","pop":658},"geometry":{"type":"Polygon","coordinates":[[[0.866,46.704],[0.823,46.714],[0.799,46.708],[0.782,46.729],[0.815,46.742],[0.86,46.756],[0.867,46.748],[0.903,46.731],[0.893,46.707],[0.866,46.704]]]}},{"type":"Feature","properties":{"code":"86289","nom":"Le Vigeant","pop":657},"geometry":{"type":"Polygon","coordinates":[[[0.679,46.228],[0.686,46.204],[0.663,46.196],[0.665,46.173],[0.64,46.167],[0.606,46.174],[0.603,46.215],[0.578,46.234],[0.605,46.262],[0.641,46.276],[0.68,46.263],[0.687,46.251],[0.679,46.228]]]}},{"type":"Feature","properties":{"code":"86290","nom":"La Villedieu-du-Clain","pop":1512},"geometry":{"type":"Polygon","coordinates":[[[0.417,46.481],[0.421,46.476],[0.417,46.471],[0.39,46.442],[0.358,46.457],[0.41,46.466],[0.417,46.481]]]}},{"type":"Feature","properties":{"code":"86291","nom":"Villemort","pop":100},"geometry":{"type":"Polygon","coordinates":[[[0.907,46.555],[0.905,46.558],[0.905,46.558],[0.932,46.539],[0.907,46.555]]]}},{"type":"Feature","properties":{"code":"86292","nom":"Villiers","pop":982},"geometry":{"type":"Polygon","coordinates":[[[0.199,46.657],[0.156,46.656],[0.149,46.68],[0.164,46.692],[0.192,46.678],[0.199,46.657]]]}},{"type":"Feature","properties":{"code":"86293","nom":"Vivonne","pop":4550},"geometry":{"type":"Polygon","coordinates":[[[0.22,46.37],[0.202,46.375],[0.224,46.404],[0.241,46.427],[0.236,46.442],[0.268,46.47],[0.304,46.454],[0.286,46.439],[0.265,46.424],[0.287,46.409],[0.291,46.387],[0.292,46.368],[0.26,46.375],[0.22,46.37]]]}},{"type":"Feature","properties":{"code":"86294","nom":"Vouillé","pop":3697},"geometry":{"type":"Polygon","coordinates":[[[0.199,46.657],[0.205,46.654],[0.207,46.637],[0.169,46.588],[0.17,46.582],[0.122,46.59],[0.137,46.651],[0.156,46.656],[0.199,46.657]]]}},{"type":"Feature","properties":{"code":"86295","nom":"Voulême","pop":390},"geometry":{"type":"Polygon","coordinates":[[[0.263,46.113],[0.262,46.098],[0.24,46.083],[0.227,46.09],[0.197,46.095],[0.191,46.105],[0.263,46.113]]]}},{"type":"Feature","properties":{"code":"86296","nom":"Voulon","pop":463},"geometry":{"type":"Polygon","coordinates":[[[0.26,46.375],[0.239,46.346],[0.22,46.37],[0.26,46.375]]]}},{"type":"Feature","properties":{"code":"86297","nom":"Vouneuil-sous-Biard","pop":6290},"geometry":{"type":"Polygon","coordinates":[[[0.307,46.604],[0.278,46.584],[0.303,46.569],[0.291,46.554],[0.269,46.544],[0.238,46.552],[0.254,46.582],[0.258,46.625],[0.307,46.604],[0.307,46.604]]]}},{"type":"Feature","properties":{"code":"86298","nom":"Vouneuil-sur-Vienne","pop":2277},"geometry":{"type":"Polygon","coordinates":[[[0.483,46.741],[0.512,46.741],[0.549,46.748],[0.589,46.735],[0.598,46.717],[0.596,46.703],[0.546,46.692],[0.51,46.697],[0.487,46.717],[0.483,46.741]]]}},{"type":"Feature","properties":{"code":"86299","nom":"Vouzailles","pop":566},"geometry":{"type":"Polygon","coordinates":[[[0.113,46.693],[0.08,46.694],[0.063,46.706],[0.078,46.729],[0.094,46.74],[0.116,46.741],[0.113,46.693]]]}},{"type":"Feature","properties":{"code":"86300","nom":"Yversay","pop":611},"geometry":{"type":"Polygon","coordinates":[[[0.205,46.654],[0.199,46.657],[0.192,46.678],[0.221,46.683],[0.223,46.673],[0.205,46.654]]]}}]}