{"type":"FeatureCollection","features":[{"type":"Feature","properties":{"code":"91001","nom":"Abbéville-la-Rivière","pop":322},"geometry":{"type":"Polygon","coordinates":[[[2.182,48.313],[2.171,48.315],[2.157,48.347],[2.156,48.348],[2.189,48.36],[2.23,48.361],[2.236,48.361],[2.207,48.345],[2.182,48.313]]]}},{"type":"Feature","properties":{"code":"91016","nom":"Angerville","pop":4428},"geometry":{"type":"Polygon","coordinates":[[[1.962,48.303],[1.959,48.309],[1.982,48.328],[2.014,48.338],[2.044,48.333],[2.029,48.306],[2.053,48.295],[2.051,48.29],[1.994,48.287],[1.962,48.303]]]}},{"type":"Feature","properties":{"code":"91017","nom":"Angervilliers","pop":1772},"geometry":{"type":"Polygon","coordinates":[[[2.036,48.589],[2.033,48.598],[2.055,48.608],[2.077,48.599],[2.087,48.594],[2.055,48.576],[2.036,48.589]]]}},{"type":"Feature","properties":{"code":"91021","nom":"Arpajon","pop":11698},"geometry":{"type":"Polygon","coordinates":[[[2.242,48.579],[2.238,48.576],[2.235,48.589],[2.243,48.604],[2.258,48.591],[2.242,48.579]]]}},{"type":"Feature","properties":{"code":"91022","nom":"Arrancourt","pop":115},"geometry":{"type":"Polygon","coordinates":[[[2.169,48.313],[2.154,48.308],[2.131,48.323],[2.157,48.347],[2.171,48.315],[2.169,48.313]]]}},{"type":"Feature","properties":{"code":"91027","nom":"Athis-Mons","pop":36613},"geometry":{"type":"Polygon","coordinates":[[[2.4,48.702],[2.39,48.692],[2.359,48.7],[2.354,48.702],[2.371,48.72],[2.411,48.726],[2.414,48.718],[2.4,48.702]]]}},{"type":"Feature","properties":{"code":"91035","nom":"Authon-la-Plaine","pop":368},"geometry":{"type":"Polygon","coordinates":[[[1.943,48.441],[1.93,48.454],[1.955,48.473],[1.969,48.476],[1.981,48.453],[1.972,48.437],[1.943,48.441]]]}},{"type":"Feature","properties":{"code":"91037","nom":"Auvernaux","pop":332},"geometry":{"type":"Polygon","coordinates":[[[2.474,48.513],[2.47,48.528],[2.472,48.541],[2.5,48.543],[2.498,48.517],[2.474,48.513]]]}},{"type":"Feature","properties":{"code":"91038","nom":"Auvers-Saint-Georges","pop":1223},"geometry":{"type":"Polygon","coordinates":[[[2.217,48.499],[2.223,48.505],[2.248,48.477],[2.249,48.45],[2.24,48.444],[2.193,48.48],[2.217,48.499]]]}},{"type":"Feature","properties":{"code":"91041","nom":"Avrainville","pop":1052},"geometry":{"type":"Polygon","coordinates":[[[2.259,48.533],[2.249,48.532],[2.234,48.54],[2.226,48.567],[2.238,48.576],[2.242,48.579],[2.259,48.573],[2.264,48.562],[2.259,48.533]]]}},{"type":"Feature","properties":{"code":"91044","nom":"Ballainvilliers","pop":4904},"geometry":{"type":"Polygon","coordinates":[[[2.276,48.66],[2.277,48.671],[2.286,48.686],[2.305,48.678],[2.3,48.67],[2.291,48.658],[2.276,48.66]]]}},{"type":"Feature","properties":{"code":"91045","nom":"Ballancourt-sur-Essonne","pop":8191},"geometry":{"type":"Polygon","coordinates":[[[2.374,48.546],[2.405,48.531],[2.413,48.525],[2.406,48.504],[2.365,48.512],[2.372,48.537],[2.374,48.546]]]}},{"type":"Feature","properties":{"code":"91047","nom":"Baulne","pop":1448},"geometry":{"type":"Polygon","coordinates":[[[2.406,48.504],[2.406,48.502],[2.415,48.481],[2.391,48.481],[2.346,48.487],[2.353,48.49],[2.365,48.512],[2.406,48.504]]]}},{"type":"Feature","properties":{"code":"91064","nom":"Bièvres","pop":4686},"geometry":{"type":"Polygon","coordinates":[[[2.204,48.737],[2.19,48.739],[2.19,48.754],[2.191,48.775],[2.227,48.776],[2.229,48.774],[2.233,48.766],[2.226,48.75],[2.204,48.737]]]}},{"type":"Feature","properties":{"code":"91067","nom":"Blandy","pop":111},"geometry":{"type":"Polygon","coordinates":[[[2.238,48.316],[2.246,48.33],[2.254,48.342],[2.277,48.342],[2.269,48.315],[2.255,48.301],[2.245,48.298],[2.238,48.316]]]}},{"type":"Feature","properties":{"code":"91069","nom":"Boigneville","pop":369},"geometry":{"type":"Polygon","coordinates":[[[2.385,48.348],[2.392,48.336],[2.403,48.321],[2.358,48.309],[2.329,48.333],[2.344,48.346],[2.385,48.348]]]}},{"type":"Feature","properties":{"code":"91075","nom":"Bois-Herpin","pop":81},"geometry":{"type":"Polygon","coordinates":[[[2.23,48.361],[2.222,48.369],[2.248,48.387],[2.259,48.373],[2.254,48.362],[2.236,48.361],[2.23,48.361]]]}},{"type":"Feature","properties":{"code":"91079","nom":"Boissy-la-Rivière","pop":550},"geometry":{"type":"Polygon","coordinates":[[[2.125,48.386],[2.127,48.393],[2.19,48.389],[2.203,48.395],[2.219,48.394],[2.21,48.384],[2.179,48.368],[2.153,48.368],[2.147,48.378],[2.125,48.386]]]}},{"type":"Feature","properties":{"code":"91080","nom":"Boissy-le-Cutté","pop":1331},"geometry":{"type":"Polygon","coordinates":[[[2.282,48.46],[2.275,48.463],[2.271,48.479],[2.304,48.467],[2.293,48.459],[2.282,48.46]]]}},{"type":"Feature","properties":{"code":"91081","nom":"Boissy-le-Sec","pop":690},"geometry":{"type":"Polygon","coordinates":[[[2.083,48.459],[2.071,48.464],[2.061,48.492],[2.074,48.51],[2.107,48.509],[2.122,48.492],[2.121,48.468],[2.115,48.462],[2.083,48.459]]]}},{"type":"Feature","properties":{"code":"91085","nom":"Boissy-sous-Saint-Yon","pop":3882},"geometry":{"type":"Polygon","coordinates":[[[2.22,48.532],[2.208,48.534],[2.193,48.542],[2.188,48.547],[2.211,48.57],[2.226,48.567],[2.234,48.54],[2.22,48.532]]]}},{"type":"Feature","properties":{"code":"91086","nom":"Bondoufle","pop":10767},"geometry":{"type":"Polygon","coordinates":[[[2.399,48.624],[2.4,48.61],[2.399,48.607],[2.362,48.601],[2.359,48.618],[2.383,48.63],[2.399,48.624]]]}},{"type":"Feature","properties":{"code":"91093","nom":"Boullay-les-Troux","pop":624},"geometry":{"type":"Polygon","coordinates":[[[2.029,48.664],[2.038,48.68],[2.055,48.687],[2.066,48.687],[2.042,48.664],[2.029,48.664]]]}},{"type":"Feature","properties":{"code":"91095","nom":"Bouray-sur-Juine","pop":2108},"geometry":{"type":"Polygon","coordinates":[[[2.299,48.524],[2.324,48.519],[2.307,48.5],[2.277,48.505],[2.269,48.52],[2.299,48.524]]]}},{"type":"Feature","properties":{"code":"91097","nom":"Boussy-Saint-Antoine","pop":8097},"geometry":{"type":"Polygon","coordinates":[[[2.549,48.689],[2.543,48.687],[2.521,48.681],[2.531,48.7],[2.544,48.699],[2.549,48.689]]]}},{"type":"Feature","properties":{"code":"91098","nom":"Boutervilliers","pop":429},"geometry":{"type":"Polygon","coordinates":[[[2.071,48.464],[2.083,48.459],[2.078,48.458],[2.064,48.443],[2.037,48.445],[2.02,48.457],[2.035,48.465],[2.071,48.464]]]}},{"type":"Feature","properties":{"code":"91099","nom":"Boutigny-sur-Essonne","pop":3146},"geometry":{"type":"Polygon","coordinates":[[[2.373,48.434],[2.363,48.449],[2.4,48.461],[2.413,48.456],[2.424,48.421],[2.417,48.416],[2.387,48.412],[2.373,48.434]]]}},{"type":"Feature","properties":{"code":"91100","nom":"Bouville","pop":669},"geometry":{"type":"Polygon","coordinates":[[[2.319,48.442],[2.329,48.433],[2.325,48.425],[2.289,48.412],[2.244,48.413],[2.24,48.444],[2.249,48.45],[2.275,48.463],[2.282,48.46],[2.293,48.44],[2.319,48.442]]]}},{"type":"Feature","properties":{"code":"91103","nom":"Brétigny-sur-Orge","pop":26658},"geometry":{"type":"Polygon","coordinates":[[[2.313,48.576],[2.291,48.581],[2.29,48.581],[2.268,48.606],[2.283,48.618],[2.293,48.626],[2.329,48.62],[2.326,48.593],[2.313,48.576]]]}},{"type":"Feature","properties":{"code":"91105","nom":"Breuillet","pop":9157},"geometry":{"type":"Polygon","coordinates":[[[2.139,48.565],[2.129,48.57],[2.153,48.577],[2.199,48.58],[2.199,48.576],[2.182,48.564],[2.139,48.565]]]}},{"type":"Feature","properties":{"code":"91106","nom":"Breux-Jouy","pop":1285},"geometry":{"type":"Polygon","coordinates":[[[2.157,48.537],[2.155,48.539],[2.139,48.565],[2.182,48.564],[2.174,48.552],[2.157,48.537]]]}},{"type":"Feature","properties":{"code":"91109","nom":"Brières-les-Scellés","pop":1186},"geometry":{"type":"Polygon","coordinates":[[[2.149,48.481],[2.161,48.475],[2.165,48.454],[2.123,48.449],[2.115,48.462],[2.121,48.468],[2.149,48.481]]]}},{"type":"Feature","properties":{"code":"91111","nom":"Briis-sous-Forges","pop":3342},"geometry":{"type":"Polygon","coordinates":[[[2.12,48.652],[2.133,48.656],[2.131,48.641],[2.161,48.629],[2.143,48.61],[2.13,48.603],[2.1,48.613],[2.118,48.638],[2.12,48.652]]]}},{"type":"Feature","properties":{"code":"91112","nom":"Brouy","pop":134},"geometry":{"type":"Polygon","coordinates":[[[2.277,48.342],[2.286,48.346],[2.317,48.332],[2.296,48.308],[2.269,48.315],[2.277,48.342]]]}},{"type":"Feature","properties":{"code":"91114","nom":"Brunoy","pop":25643},"geometry":{"type":"Polygon","coordinates":[[[2.498,48.677],[2.493,48.681],[2.482,48.69],[2.519,48.713],[2.53,48.706],[2.527,48.705],[2.498,48.677]]]}},{"type":"Feature","properties":{"code":"91115","nom":"Bruyères-le-Châtel","pop":3788},"geometry":{"type":"Polygon","coordinates":[[[2.147,48.584],[2.17,48.602],[2.182,48.629],[2.202,48.629],[2.203,48.629],[2.214,48.583],[2.199,48.58],[2.153,48.577],[2.147,48.584]]]}},{"type":"Feature","properties":{"code":"91121","nom":"Buno-Bonnevaux","pop":527},"geometry":{"type":"Polygon","coordinates":[[[2.428,48.363],[2.43,48.362],[2.434,48.334],[2.392,48.336],[2.385,48.348],[2.383,48.359],[2.387,48.382],[2.408,48.387],[2.428,48.363]]]}},{"type":"Feature","properties":{"code":"91122","nom":"Bures-sur-Yvette","pop":9548},"geometry":{"type":"Polygon","coordinates":[[[2.161,48.676],[2.142,48.686],[2.171,48.707],[2.174,48.69],[2.161,48.676]]]}},{"type":"Feature","properties":{"code":"91129","nom":"Cerny","pop":3531},"geometry":{"type":"Polygon","coordinates":[[[2.271,48.479],[2.265,48.482],[2.277,48.505],[2.307,48.5],[2.353,48.49],[2.346,48.487],[2.344,48.476],[2.304,48.467],[2.271,48.479]]]}},{"type":"Feature","properties":{"code":"91130","nom":"Chalo-Saint-Mars","pop":1053},"geometry":{"type":"Polygon","coordinates":[[[2.005,48.401],[2.021,48.438],[2.037,48.445],[2.064,48.443],[2.106,48.428],[2.071,48.393],[2.051,48.385],[2.002,48.396],[2.005,48.401]]]}},{"type":"Feature","properties":{"code":"91131","nom":"Chalou-Moulineux","pop":373},"geometry":{"type":"Polygon","coordinates":[[[2.044,48.361],[2.028,48.361],[2.016,48.371],[2.002,48.396],[2.051,48.385],[2.044,48.361]]]}},{"type":"Feature","properties":{"code":"91132","nom":"Chamarande","pop":1089},"geometry":{"type":"Polygon","coordinates":[[[2.223,48.505],[2.217,48.499],[2.204,48.516],[2.208,48.534],[2.22,48.532],[2.236,48.522],[2.241,48.513],[2.223,48.505]]]}},{"type":"Feature","properties":{"code":"91135","nom":"Champcueil","pop":2854},"geometry":{"type":"Polygon","coordinates":[[[2.406,48.502],[2.406,48.504],[2.413,48.525],[2.47,48.528],[2.474,48.513],[2.479,48.495],[2.449,48.484],[2.406,48.502]]]}},{"type":"Feature","properties":{"code":"91136","nom":"Champlan","pop":2615},"geometry":{"type":"Polygon","coordinates":[[[2.267,48.718],[2.294,48.712],[2.294,48.705],[2.285,48.699],[2.268,48.704],[2.259,48.707],[2.267,48.718]]]}},{"type":"Feature","properties":{"code":"91137","nom":"Champmotteux","pop":356},"geometry":{"type":"Polygon","coordinates":[[[2.303,48.356],[2.327,48.349],[2.344,48.346],[2.329,48.333],[2.317,48.332],[2.286,48.346],[2.303,48.356]]]}},{"type":"Feature","properties":{"code":"91145","nom":"Chatignonville","pop":72},"geometry":{"type":"Polygon","coordinates":[[[1.93,48.454],[1.922,48.458],[1.933,48.481],[1.955,48.473],[1.93,48.454]]]}},{"type":"Feature","properties":{"code":"91148","nom":"Chauffour-lès-Étréchy","pop":132},"geometry":{"type":"Polygon","coordinates":[[[2.15,48.509],[2.176,48.52],[2.182,48.518],[2.151,48.502],[2.15,48.509]]]}},{"type":"Feature","properties":{"code":"91156","nom":"Cheptainville","pop":2204},"geometry":{"type":"Polygon","coordinates":[[[2.295,48.543],[2.259,48.533],[2.264,48.562],[2.283,48.559],[2.3,48.551],[2.295,48.543]]]}},{"type":"Feature","properties":{"code":"91159","nom":"Chevannes","pop":1550},"geometry":{"type":"Polygon","coordinates":[[[2.405,48.531],[2.425,48.545],[2.465,48.541],[2.472,48.541],[2.47,48.528],[2.413,48.525],[2.405,48.531]]]}},{"type":"Feature","properties":{"code":"91161","nom":"Chilly-Mazarin","pop":20443},"geometry":{"type":"Polygon","coordinates":[[[2.302,48.72],[2.325,48.711],[2.316,48.692],[2.294,48.705],[2.294,48.712],[2.302,48.72]]]}},{"type":"Feature","properties":{"code":"91174","nom":"Corbeil-Essonnes","pop":54471},"geometry":{"type":"Polygon","coordinates":[[[2.474,48.578],[2.47,48.578],[2.451,48.595],[2.437,48.611],[2.47,48.626],[2.471,48.625],[2.486,48.616],[2.49,48.608],[2.482,48.583],[2.481,48.58],[2.474,48.578]]]}},{"type":"Feature","properties":{"code":"91175","nom":"Corbreuse","pop":1640},"geometry":{"type":"Polygon","coordinates":[[[1.992,48.486],[1.969,48.476],[1.955,48.473],[1.933,48.481],[1.934,48.496],[1.953,48.523],[1.968,48.526],[1.978,48.506],[1.992,48.486]]]}},{"type":"Feature","properties":{"code":"91179","nom":"Le Coudray-Montceaux","pop":4801},"geometry":{"type":"Polygon","coordinates":[[[2.522,48.573],[2.531,48.574],[2.5,48.543],[2.472,48.541],[2.465,48.541],[2.456,48.564],[2.474,48.578],[2.481,48.58],[2.522,48.573]]]}},{"type":"Feature","properties":{"code":"91180","nom":"Courances","pop":348},"geometry":{"type":"Polygon","coordinates":[[[2.47,48.445],[2.498,48.457],[2.505,48.448],[2.504,48.43],[2.461,48.425],[2.47,48.445]]]}},{"type":"Feature","properties":{"code":"91184","nom":"Courdimanche-sur-Essonne","pop":276},"geometry":{"type":"Polygon","coordinates":[[[2.373,48.434],[2.387,48.412],[2.331,48.408],[2.332,48.412],[2.373,48.434]]]}},{"type":"Feature","properties":{"code":"91186","nom":"Courson-Monteloup","pop":563},"geometry":{"type":"Polygon","coordinates":[[[2.13,48.603],[2.143,48.61],[2.146,48.587],[2.119,48.592],[2.13,48.603]]]}},{"type":"Feature","properties":{"code":"91191","nom":"Crosne","pop":9610},"geometry":{"type":"Polygon","coordinates":[[[2.465,48.712],[2.451,48.715],[2.473,48.728],[2.475,48.728],[2.465,48.712]]]}},{"type":"Feature","properties":{"code":"91195","nom":"Dannemois","pop":865},"geometry":{"type":"Polygon","coordinates":[[[2.5,48.459],[2.498,48.457],[2.47,48.445],[2.444,48.453],[2.445,48.475],[2.5,48.459]]]}},{"type":"Feature","properties":{"code":"91198","nom":"D'Huison-Longueville","pop":1557},"geometry":{"type":"Polygon","coordinates":[[[2.329,48.433],[2.319,48.442],[2.293,48.459],[2.304,48.467],[2.344,48.476],[2.349,48.472],[2.353,48.451],[2.329,48.433]]]}},{"type":"Feature","properties":{"code":"91200","nom":"Dourdan","pop":11415},"geometry":{"type":"Polygon","coordinates":[[[1.968,48.526],[1.934,48.549],[1.963,48.561],[2.017,48.558],[2.05,48.546],[2.035,48.536],[2.033,48.501],[2.02,48.519],[1.978,48.506],[1.968,48.526]]]}},{"type":"Feature","properties":{"code":"91201","nom":"Draveil","pop":30098},"geometry":{"type":"Polygon","coordinates":[[[2.396,48.674],[2.386,48.684],[2.39,48.692],[2.4,48.702],[2.454,48.682],[2.464,48.673],[2.429,48.654],[2.407,48.667],[2.396,48.674]]]}},{"type":"Feature","properties":{"code":"91204","nom":"Écharcon","pop":708},"geometry":{"type":"Polygon","coordinates":[[[2.403,48.563],[2.391,48.558],[2.383,48.566],[2.393,48.589],[2.422,48.573],[2.403,48.563]]]}},{"type":"Feature","properties":{"code":"91207","nom":"Égly","pop":7166},"geometry":{"type":"Polygon","coordinates":[[[2.211,48.57],[2.199,48.576],[2.199,48.58],[2.214,48.583],[2.235,48.589],[2.238,48.576],[2.226,48.567],[2.211,48.57]]]}},{"type":"Feature","properties":{"code":"91215","nom":"Épinay-sous-Sénart","pop":11611},"geometry":{"type":"Polygon","coordinates":[[[2.504,48.672],[2.498,48.677],[2.527,48.705],[2.531,48.7],[2.521,48.681],[2.504,48.672]]]}},{"type":"Feature","properties":{"code":"91216","nom":"Épinay-sur-Orge","pop":10722},"geometry":{"type":"Polygon","coordinates":[[[2.319,48.666],[2.309,48.657],[2.3,48.67],[2.305,48.678],[2.327,48.687],[2.338,48.668],[2.319,48.666]]]}},{"type":"Feature","properties":{"code":"91223","nom":"Étampes","pop":26857},"geometry":{"type":"Polygon","coordinates":[[[2.234,48.397],[2.219,48.394],[2.203,48.395],[2.16,48.416],[2.127,48.393],[2.125,48.386],[2.095,48.384],[2.071,48.393],[2.106,48.428],[2.107,48.447],[2.078,48.458],[2.083,48.459],[2.115,48.462],[2.123,48.449],[2.165,48.454],[2.221,48.397],[2.234,48.397]]]}},{"type":"Feature","properties":{"code":"91225","nom":"Étiolles","pop":3105},"geometry":{"type":"Polygon","coordinates":[[[2.504,48.672],[2.518,48.66],[2.492,48.64],[2.471,48.625],[2.47,48.626],[2.452,48.638],[2.468,48.663],[2.504,48.672]]]}},{"type":"Feature","properties":{"code":"91226","nom":"Étréchy","pop":6986},"geometry":{"type":"Polygon","coordinates":[[[2.182,48.518],[2.187,48.518],[2.204,48.516],[2.217,48.499],[2.193,48.48],[2.161,48.475],[2.149,48.481],[2.151,48.502],[2.182,48.518]]]}},{"type":"Feature","properties":{"code":"91228","nom":"Évry-Courcouronnes","pop":66919},"geometry":{"type":"Polygon","coordinates":[[[2.399,48.624],[2.438,48.649],[2.452,48.638],[2.47,48.626],[2.437,48.611],[2.4,48.61],[2.399,48.624]]]}},{"type":"Feature","properties":{"code":"91232","nom":"La Ferté-Alais","pop":3731},"geometry":{"type":"Polygon","coordinates":[[[2.386,48.473],[2.349,48.472],[2.344,48.476],[2.346,48.487],[2.391,48.481],[2.386,48.473]]]}},{"type":"Feature","properties":{"code":"91235","nom":"Fleury-Mérogis","pop":13721},"geometry":{"type":"Polygon","coordinates":[[[2.359,48.618],[2.35,48.62],[2.355,48.641],[2.362,48.648],[2.366,48.646],[2.391,48.643],[2.383,48.63],[2.359,48.618]]]}},{"type":"Feature","properties":{"code":"91240","nom":"Fontaine-la-Rivière","pop":192},"geometry":{"type":"Polygon","coordinates":[[[2.189,48.36],[2.156,48.348],[2.153,48.368],[2.179,48.368],[2.189,48.36]]]}},{"type":"Feature","properties":{"code":"91243","nom":"Fontenay-lès-Briis","pop":2350},"geometry":{"type":"Polygon","coordinates":[[[2.202,48.629],[2.182,48.629],[2.17,48.602],[2.147,48.584],[2.146,48.587],[2.143,48.61],[2.161,48.629],[2.182,48.632],[2.202,48.629]]]}},{"type":"Feature","properties":{"code":"91244","nom":"Fontenay-le-Vicomte","pop":1596},"geometry":{"type":"Polygon","coordinates":[[[2.405,48.531],[2.374,48.546],[2.391,48.558],[2.403,48.563],[2.425,48.545],[2.405,48.531]]]}},{"type":"Feature","properties":{"code":"91247","nom":"La Forêt-le-Roi","pop":492},"geometry":{"type":"Polygon","coordinates":[[[2.047,48.487],[2.061,48.492],[2.071,48.464],[2.035,48.465],[2.018,48.482],[2.047,48.487]]]}},{"type":"Feature","properties":{"code":"91248","nom":"La Forêt-Sainte-Croix","pop":148},"geometry":{"type":"Polygon","coordinates":[[[2.219,48.394],[2.234,48.397],[2.236,48.398],[2.248,48.387],[2.222,48.369],[2.21,48.384],[2.219,48.394]]]}},{"type":"Feature","properties":{"code":"91249","nom":"Forges-les-Bains","pop":4241},"geometry":{"type":"Polygon","coordinates":[[[2.055,48.608],[2.043,48.626],[2.118,48.638],[2.1,48.613],[2.077,48.599],[2.055,48.608]]]}},{"type":"Feature","properties":{"code":"91272","nom":"Gif-sur-Yvette","pop":22544},"geometry":{"type":"Polygon","coordinates":[[[2.172,48.715],[2.171,48.707],[2.142,48.686],[2.122,48.68],[2.097,48.694],[2.11,48.715],[2.123,48.716],[2.155,48.719],[2.172,48.715]]]}},{"type":"Feature","properties":{"code":"91273","nom":"Gironville-sur-Essonne","pop":760},"geometry":{"type":"Polygon","coordinates":[[[2.303,48.356],[2.309,48.369],[2.327,48.379],[2.387,48.382],[2.383,48.359],[2.327,48.349],[2.303,48.356]]]}},{"type":"Feature","properties":{"code":"91274","nom":"Gometz-la-Ville","pop":1536},"geometry":{"type":"Polygon","coordinates":[[[2.133,48.656],[2.12,48.652],[2.097,48.666],[2.082,48.686],[2.097,48.694],[2.122,48.68],[2.139,48.665],[2.133,48.656]]]}},{"type":"Feature","properties":{"code":"91275","nom":"Gometz-le-Châtel","pop":2630},"geometry":{"type":"Polygon","coordinates":[[[2.161,48.676],[2.164,48.675],[2.156,48.659],[2.139,48.665],[2.122,48.68],[2.142,48.686],[2.161,48.676]]]}},{"type":"Feature","properties":{"code":"91284","nom":"Les Granges-le-Roi","pop":1197},"geometry":{"type":"Polygon","coordinates":[[[2.033,48.501],[2.047,48.487],[2.018,48.482],[1.992,48.486],[1.978,48.506],[2.02,48.519],[2.033,48.501]]]}},{"type":"Feature","properties":{"code":"91286","nom":"Grigny","pop":26842},"geometry":{"type":"Polygon","coordinates":[[[2.391,48.643],[2.366,48.646],[2.396,48.674],[2.407,48.667],[2.391,48.643]]]}},{"type":"Feature","properties":{"code":"91292","nom":"Guibeville","pop":923},"geometry":{"type":"Polygon","coordinates":[[[2.281,48.573],[2.283,48.559],[2.264,48.562],[2.259,48.573],[2.281,48.573]]]}},{"type":"Feature","properties":{"code":"91293","nom":"Guigneville-sur-Essonne","pop":904},"geometry":{"type":"Polygon","coordinates":[[[2.349,48.472],[2.386,48.473],[2.4,48.461],[2.363,48.449],[2.353,48.451],[2.349,48.472]]]}},{"type":"Feature","properties":{"code":"91294","nom":"Guillerval","pop":808},"geometry":{"type":"Polygon","coordinates":[[[2.071,48.393],[2.095,48.384],[2.11,48.373],[2.073,48.34],[2.062,48.343],[2.044,48.361],[2.051,48.385],[2.071,48.393]]]}},{"type":"Feature","properties":{"code":"91312","nom":"Igny","pop":10833},"geometry":{"type":"Polygon","coordinates":[[[2.213,48.729],[2.204,48.737],[2.226,48.75],[2.239,48.736],[2.235,48.728],[2.213,48.729]]]}},{"type":"Feature","properties":{"code":"91315","nom":"Itteville","pop":6746},"geometry":{"type":"Polygon","coordinates":[[[2.324,48.519],[2.358,48.537],[2.372,48.537],[2.365,48.512],[2.353,48.49],[2.307,48.5],[2.324,48.519]]]}},{"type":"Feature","properties":{"code":"91318","nom":"Janville-sur-Juine","pop":2041},"geometry":{"type":"Polygon","coordinates":[[[2.277,48.505],[2.265,48.482],[2.248,48.477],[2.223,48.505],[2.241,48.513],[2.269,48.52],[2.277,48.505]]]}},{"type":"Feature","properties":{"code":"91319","nom":"Janvry","pop":654},"geometry":{"type":"Polygon","coordinates":[[[2.156,48.659],[2.177,48.656],[2.182,48.632],[2.161,48.629],[2.131,48.641],[2.133,48.656],[2.139,48.665],[2.156,48.659]]]}},{"type":"Feature","properties":{"code":"91326","nom":"Juvisy-sur-Orge","pop":19292},"geometry":{"type":"Polygon","coordinates":[[[2.386,48.684],[2.372,48.686],[2.359,48.7],[2.39,48.692],[2.386,48.684]]]}},{"type":"Feature","properties":{"code":"91330","nom":"Lardy","pop":5530},"geometry":{"type":"Polygon","coordinates":[[[2.249,48.532],[2.259,48.533],[2.295,48.543],[2.299,48.524],[2.269,48.52],[2.241,48.513],[2.236,48.522],[2.249,48.532]]]}},{"type":"Feature","properties":{"code":"91332","nom":"Leudeville","pop":1562},"geometry":{"type":"Polygon","coordinates":[[[2.326,48.593],[2.339,48.59],[2.348,48.557],[2.343,48.553],[2.317,48.553],[2.313,48.576],[2.326,48.593]]]}},{"type":"Feature","properties":{"code":"91333","nom":"Leuville-sur-Orge","pop":4271},"geometry":{"type":"Polygon","coordinates":[[[2.276,48.622],[2.283,48.618],[2.268,48.606],[2.258,48.613],[2.276,48.622]]]}},{"type":"Feature","properties":{"code":"91338","nom":"Limours","pop":6517},"geometry":{"type":"Polygon","coordinates":[[[2.043,48.626],[2.042,48.627],[2.054,48.659],[2.097,48.666],[2.12,48.652],[2.118,48.638],[2.043,48.626]]]}},{"type":"Feature","properties":{"code":"91339","nom":"Linas","pop":7987},"geometry":{"type":"Polygon","coordinates":[[[2.237,48.613],[2.226,48.629],[2.253,48.639],[2.282,48.627],[2.276,48.622],[2.258,48.613],[2.237,48.613]]]}},{"type":"Feature","properties":{"code":"91340","nom":"Lisses","pop":7373},"geometry":{"type":"Polygon","coordinates":[[[2.393,48.589],[2.399,48.607],[2.4,48.61],[2.437,48.611],[2.451,48.595],[2.439,48.577],[2.422,48.573],[2.393,48.589]]]}},{"type":"Feature","properties":{"code":"91345","nom":"Longjumeau","pop":21996},"geometry":{"type":"Polygon","coordinates":[[[2.328,48.688],[2.327,48.687],[2.305,48.678],[2.286,48.686],[2.285,48.699],[2.294,48.705],[2.316,48.692],[2.328,48.688]]]}},{"type":"Feature","properties":{"code":"91347","nom":"Longpont-sur-Orge","pop":6482},"geometry":{"type":"Polygon","coordinates":[[[2.283,48.618],[2.276,48.622],[2.282,48.627],[2.273,48.652],[2.276,48.66],[2.291,48.658],[2.299,48.65],[2.298,48.644],[2.293,48.626],[2.283,48.618]]]}},{"type":"Feature","properties":{"code":"91359","nom":"Maisse","pop":2797},"geometry":{"type":"Polygon","coordinates":[[[2.327,48.379],[2.331,48.408],[2.387,48.412],[2.417,48.416],[2.408,48.387],[2.387,48.382],[2.327,48.379]]]}},{"type":"Feature","properties":{"code":"91363","nom":"Marcoussis","pop":8618},"geometry":{"type":"Polygon","coordinates":[[[2.226,48.629],[2.203,48.629],[2.202,48.629],[2.182,48.632],[2.177,48.656],[2.191,48.668],[2.196,48.669],[2.209,48.666],[2.248,48.646],[2.253,48.639],[2.226,48.629]]]}},{"type":"Feature","properties":{"code":"91374","nom":"Marolles-en-Beauce","pop":237},"geometry":{"type":"Polygon","coordinates":[[[2.222,48.369],[2.23,48.361],[2.189,48.36],[2.179,48.368],[2.21,48.384],[2.222,48.369]]]}},{"type":"Feature","properties":{"code":"91376","nom":"Marolles-en-Hurepoix","pop":5708},"geometry":{"type":"Polygon","coordinates":[[[2.283,48.559],[2.281,48.573],[2.291,48.581],[2.313,48.576],[2.317,48.553],[2.3,48.551],[2.283,48.559]]]}},{"type":"Feature","properties":{"code":"91377","nom":"Massy","pop":51729},"geometry":{"type":"Polygon","coordinates":[[[2.304,48.729],[2.302,48.72],[2.294,48.712],[2.267,48.718],[2.235,48.728],[2.239,48.736],[2.275,48.741],[2.304,48.729]]]}},{"type":"Feature","properties":{"code":"91378","nom":"Mauchamps","pop":387},"geometry":{"type":"Polygon","coordinates":[[[2.208,48.534],[2.204,48.516],[2.187,48.518],[2.193,48.542],[2.208,48.534]]]}},{"type":"Feature","properties":{"code":"91386","nom":"Mennecy","pop":16433},"geometry":{"type":"Polygon","coordinates":[[[2.439,48.577],[2.441,48.577],[2.456,48.564],[2.465,48.541],[2.425,48.545],[2.403,48.563],[2.422,48.573],[2.439,48.577]]]}},{"type":"Feature","properties":{"code":"91390","nom":"Le Mérévillois","pop":3477},"geometry":{"type":"Polygon","coordinates":[[[2.12,48.328],[2.131,48.323],[2.154,48.308],[2.162,48.303],[2.162,48.298],[2.11,48.297],[2.053,48.295],[2.029,48.306],[2.044,48.333],[2.062,48.343],[2.073,48.34],[2.104,48.343],[2.12,48.328]]]}},{"type":"Feature","properties":{"code":"91393","nom":"Mérobert","pop":635},"geometry":{"type":"Polygon","coordinates":[[[2.021,48.438],[2.005,48.401],[1.977,48.4],[1.962,48.404],[1.995,48.43],[2.021,48.438]]]}},{"type":"Feature","properties":{"code":"91399","nom":"Mespuits","pop":184},"geometry":{"type":"Polygon","coordinates":[[[2.259,48.373],[2.267,48.372],[2.309,48.369],[2.303,48.356],[2.286,48.346],[2.277,48.342],[2.254,48.342],[2.254,48.362],[2.259,48.373]]]}},{"type":"Feature","properties":{"code":"91405","nom":"Milly-la-Forêt","pop":4562},"geometry":{"type":"Polygon","coordinates":[[[2.504,48.43],[2.517,48.428],[2.547,48.402],[2.522,48.405],[2.474,48.39],[2.459,48.398],[2.428,48.363],[2.408,48.387],[2.417,48.416],[2.424,48.421],[2.461,48.425],[2.504,48.43]]]}},{"type":"Feature","properties":{"code":"91408","nom":"Moigny-sur-École","pop":1294},"geometry":{"type":"Polygon","coordinates":[[[2.413,48.456],[2.444,48.453],[2.47,48.445],[2.461,48.425],[2.424,48.421],[2.413,48.456]]]}},{"type":"Feature","properties":{"code":"91411","nom":"Les Molières","pop":1975},"geometry":{"type":"Polygon","coordinates":[[[2.054,48.659],[2.042,48.664],[2.066,48.687],[2.082,48.686],[2.097,48.666],[2.054,48.659]]]}},{"type":"Feature","properties":{"code":"91412","nom":"Mondeville","pop":726},"geometry":{"type":"Polygon","coordinates":[[[2.406,48.502],[2.449,48.484],[2.436,48.48],[2.415,48.481],[2.406,48.502]]]}},{"type":"Feature","properties":{"code":"91414","nom":"Monnerville","pop":376},"geometry":{"type":"Polygon","coordinates":[[[2.028,48.361],[2.044,48.361],[2.062,48.343],[2.044,48.333],[2.014,48.338],[2.028,48.361]]]}},{"type":"Feature","properties":{"code":"91421","nom":"Montgeron","pop":24022},"geometry":{"type":"Polygon","coordinates":[[[2.443,48.721],[2.451,48.715],[2.465,48.712],[2.482,48.69],[2.493,48.681],[2.464,48.673],[2.454,48.682],[2.435,48.71],[2.443,48.721]]]}},{"type":"Feature","properties":{"code":"91425","nom":"Montlhéry","pop":9772},"geometry":{"type":"Polygon","coordinates":[[[2.258,48.65],[2.273,48.652],[2.282,48.627],[2.253,48.639],[2.248,48.646],[2.258,48.65]]]}},{"type":"Feature","properties":{"code":"91432","nom":"Morangis","pop":14129},"geometry":{"type":"Polygon","coordinates":[[[2.352,48.703],[2.328,48.688],[2.316,48.692],[2.325,48.711],[2.344,48.717],[2.352,48.703]]]}},{"type":"Feature","properties":{"code":"91433","nom":"Morigny-Champigny","pop":4412},"geometry":{"type":"Polygon","coordinates":[[[2.236,48.398],[2.234,48.397],[2.221,48.397],[2.165,48.454],[2.161,48.475],[2.193,48.48],[2.24,48.444],[2.244,48.413],[2.236,48.398]]]}},{"type":"Feature","properties":{"code":"91434","nom":"Morsang-sur-Orge","pop":21667},"geometry":{"type":"Polygon","coordinates":[[[2.362,48.648],[2.355,48.641],[2.337,48.65],[2.342,48.668],[2.355,48.671],[2.362,48.648]]]}},{"type":"Feature","properties":{"code":"91435","nom":"Morsang-sur-Seine","pop":583},"geometry":{"type":"Polygon","coordinates":[[[2.522,48.573],[2.481,48.58],[2.482,48.583],[2.509,48.584],[2.518,48.583],[2.522,48.573]]]}},{"type":"Feature","properties":{"code":"91441","nom":"Nainville-les-Roches","pop":564},"geometry":{"type":"Polygon","coordinates":[[[2.474,48.513],[2.498,48.517],[2.513,48.509],[2.512,48.495],[2.479,48.495],[2.474,48.513]]]}},{"type":"Feature","properties":{"code":"91457","nom":"La Norville","pop":4268},"geometry":{"type":"Polygon","coordinates":[[[2.29,48.581],[2.291,48.581],[2.281,48.573],[2.259,48.573],[2.242,48.579],[2.258,48.591],[2.29,48.581]]]}},{"type":"Feature","properties":{"code":"91458","nom":"Nozay","pop":4471},"geometry":{"type":"Polygon","coordinates":[[[2.245,48.674],[2.265,48.671],[2.258,48.65],[2.248,48.646],[2.209,48.666],[2.245,48.674]]]}},{"type":"Feature","properties":{"code":"91461","nom":"Ollainville","pop":5455},"geometry":{"type":"Polygon","coordinates":[[[2.203,48.629],[2.226,48.629],[2.237,48.613],[2.243,48.604],[2.235,48.589],[2.214,48.583],[2.203,48.629]]]}},{"type":"Feature","properties":{"code":"91463","nom":"Oncy-sur-École","pop":1042},"geometry":{"type":"Polygon","coordinates":[[[2.43,48.362],[2.428,48.363],[2.459,48.398],[2.474,48.39],[2.451,48.367],[2.43,48.362]]]}},{"type":"Feature","properties":{"code":"91468","nom":"Ormoy","pop":3225},"geometry":{"type":"Polygon","coordinates":[[[2.47,48.578],[2.474,48.578],[2.456,48.564],[2.441,48.577],[2.47,48.578]]]}},{"type":"Feature","properties":{"code":"91469","nom":"Ormoy-la-Rivière","pop":943},"geometry":{"type":"Polygon","coordinates":[[[2.203,48.395],[2.19,48.389],[2.127,48.393],[2.16,48.416],[2.203,48.395]]]}},{"type":"Feature","properties":{"code":"91471","nom":"Orsay","pop":16498},"geometry":{"type":"Polygon","coordinates":[[[2.171,48.707],[2.172,48.715],[2.193,48.718],[2.21,48.702],[2.204,48.692],[2.174,48.69],[2.171,48.707]]]}},{"type":"Feature","properties":{"code":"91473","nom":"Orveau","pop":141},"geometry":{"type":"Polygon","coordinates":[[[2.293,48.459],[2.319,48.442],[2.293,48.44],[2.282,48.46],[2.293,48.459]]]}},{"type":"Feature","properties":{"code":"91477","nom":"Palaiseau","pop":37471},"geometry":{"type":"Polygon","coordinates":[[[2.193,48.718],[2.204,48.721],[2.213,48.729],[2.235,48.728],[2.267,48.718],[2.259,48.707],[2.21,48.702],[2.193,48.718]]]}},{"type":"Feature","properties":{"code":"91479","nom":"Paray-Vieille-Poste","pop":8202},"geometry":{"type":"Polygon","coordinates":[[[2.37,48.728],[2.371,48.72],[2.354,48.702],[2.352,48.703],[2.344,48.717],[2.354,48.739],[2.369,48.746],[2.37,48.728]]]}},{"type":"Feature","properties":{"code":"91482","nom":"Pecqueuse","pop":580},"geometry":{"type":"Polygon","coordinates":[[[2.02,48.642],[2.012,48.654],[2.029,48.664],[2.042,48.664],[2.054,48.659],[2.042,48.627],[2.02,48.642]]]}},{"type":"Feature","properties":{"code":"91494","nom":"Le Plessis-Pâté","pop":4154},"geometry":{"type":"Polygon","coordinates":[[[2.339,48.59],[2.326,48.593],[2.329,48.62],[2.33,48.62],[2.35,48.62],[2.359,48.618],[2.362,48.601],[2.339,48.59]]]}},{"type":"Feature","properties":{"code":"91495","nom":"Plessis-Saint-Benoist","pop":325},"geometry":{"type":"Polygon","coordinates":[[[1.995,48.43],[1.972,48.437],[1.981,48.453],[2.02,48.457],[2.037,48.445],[2.021,48.438],[1.995,48.43]]]}},{"type":"Feature","properties":{"code":"91507","nom":"Prunay-sur-Essonne","pop":324},"geometry":{"type":"Polygon","coordinates":[[[2.383,48.359],[2.385,48.348],[2.344,48.346],[2.327,48.349],[2.383,48.359]]]}},{"type":"Feature","properties":{"code":"91508","nom":"Puiselet-le-Marais","pop":261},"geometry":{"type":"Polygon","coordinates":[[[2.267,48.372],[2.259,48.373],[2.248,48.387],[2.236,48.398],[2.244,48.413],[2.289,48.412],[2.267,48.372]]]}},{"type":"Feature","properties":{"code":"91511","nom":"Pussay","pop":2288},"geometry":{"type":"Polygon","coordinates":[[[2.028,48.361],[2.014,48.338],[1.982,48.328],[1.97,48.339],[1.988,48.364],[2.016,48.371],[2.028,48.361]]]}},{"type":"Feature","properties":{"code":"91514","nom":"Quincy-sous-Sénart","pop":9477},"geometry":{"type":"Polygon","coordinates":[[[2.518,48.66],[2.504,48.672],[2.521,48.681],[2.543,48.687],[2.548,48.672],[2.533,48.657],[2.518,48.66]]]}},{"type":"Feature","properties":{"code":"91519","nom":"Richarville","pop":386},"geometry":{"type":"Polygon","coordinates":[[[1.969,48.476],[1.992,48.486],[2.018,48.482],[2.035,48.465],[2.02,48.457],[1.981,48.453],[1.969,48.476]]]}},{"type":"Feature","properties":{"code":"91521","nom":"Ris-Orangis","pop":31189},"geometry":{"type":"Polygon","coordinates":[[[2.429,48.654],[2.438,48.649],[2.399,48.624],[2.383,48.63],[2.391,48.643],[2.407,48.667],[2.429,48.654]]]}},{"type":"Feature","properties":{"code":"91525","nom":"Roinville","pop":1319},"geometry":{"type":"Polygon","coordinates":[[[2.056,48.548],[2.061,48.549],[2.074,48.51],[2.061,48.492],[2.047,48.487],[2.033,48.501],[2.035,48.536],[2.05,48.546],[2.056,48.548]]]}},{"type":"Feature","properties":{"code":"91526","nom":"Roinvilliers","pop":112},"geometry":{"type":"Polygon","coordinates":[[[2.246,48.33],[2.207,48.345],[2.236,48.361],[2.254,48.362],[2.254,48.342],[2.246,48.33]]]}},{"type":"Feature","properties":{"code":"91533","nom":"Saclas","pop":1819},"geometry":{"type":"Polygon","coordinates":[[[2.125,48.386],[2.147,48.378],[2.12,48.328],[2.104,48.343],[2.073,48.34],[2.11,48.373],[2.095,48.384],[2.125,48.386]]]}},{"type":"Feature","properties":{"code":"91534","nom":"Saclay","pop":4437},"geometry":{"type":"Polygon","coordinates":[[[2.204,48.721],[2.193,48.718],[2.172,48.715],[2.155,48.719],[2.143,48.723],[2.135,48.738],[2.139,48.743],[2.19,48.754],[2.19,48.739],[2.204,48.721]]]}},{"type":"Feature","properties":{"code":"91538","nom":"Saint-Aubin","pop":661},"geometry":{"type":"Polygon","coordinates":[[[2.123,48.716],[2.143,48.723],[2.155,48.719],[2.123,48.716]]]}},{"type":"Feature","properties":{"code":"91540","nom":"Saint-Chéron","pop":5132},"geometry":{"type":"Polygon","coordinates":[[[2.122,48.529],[2.122,48.529],[2.093,48.552],[2.101,48.555],[2.129,48.57],[2.139,48.565],[2.155,48.539],[2.122,48.529]]]}},{"type":"Feature","properties":{"code":"91544","nom":"Saint-Cyr-la-Rivière","pop":466},"geometry":{"type":"Polygon","coordinates":[[[2.12,48.328],[2.147,48.378],[2.153,48.368],[2.156,48.348],[2.157,48.347],[2.131,48.323],[2.12,48.328]]]}},{"type":"Feature","properties":{"code":"91546","nom":"Saint-Cyr-sous-Dourdan","pop":982},"geometry":{"type":"Polygon","coordinates":[[[2.017,48.558],[2.036,48.589],[2.055,48.576],[2.056,48.548],[2.05,48.546],[2.017,48.558]]]}},{"type":"Feature","properties":{"code":"91547","nom":"Saint-Escobille","pop":454},"geometry":{"type":"Polygon","coordinates":[[[1.972,48.437],[1.995,48.43],[1.962,48.404],[1.93,48.404],[1.926,48.413],[1.943,48.441],[1.972,48.437]]]}},{"type":"Feature","properties":{"code":"91549","nom":"Sainte-Geneviève-des-Bois","pop":35438},"geometry":{"type":"Polygon","coordinates":[[[2.319,48.666],[2.337,48.65],[2.355,48.641],[2.35,48.62],[2.33,48.62],[2.33,48.634],[2.298,48.644],[2.299,48.65],[2.309,48.657],[2.319,48.666]]]}},{"type":"Feature","properties":{"code":"91552","nom":"Saint-Germain-lès-Arpajon","pop":11623},"geometry":{"type":"Polygon","coordinates":[[[2.243,48.604],[2.237,48.613],[2.258,48.613],[2.268,48.606],[2.29,48.581],[2.258,48.591],[2.243,48.604]]]}},{"type":"Feature","properties":{"code":"91553","nom":"Saint-Germain-lès-Corbeil","pop":7469},"geometry":{"type":"Polygon","coordinates":[[[2.492,48.64],[2.505,48.632],[2.486,48.616],[2.471,48.625],[2.492,48.64]]]}},{"type":"Feature","properties":{"code":"91556","nom":"Saint-Hilaire","pop":401},"geometry":{"type":"Polygon","coordinates":[[[2.106,48.428],[2.064,48.443],[2.078,48.458],[2.107,48.447],[2.106,48.428]]]}},{"type":"Feature","properties":{"code":"91560","nom":"Saint-Jean-de-Beauregard","pop":471},"geometry":{"type":"Polygon","coordinates":[[[2.177,48.656],[2.156,48.659],[2.164,48.675],[2.191,48.668],[2.177,48.656]]]}},{"type":"Feature","properties":{"code":"91568","nom":"Saint-Maurice-Montcouronne","pop":1543},"geometry":{"type":"Polygon","coordinates":[[[2.153,48.577],[2.129,48.57],[2.101,48.555],[2.108,48.584],[2.093,48.593],[2.119,48.592],[2.146,48.587],[2.147,48.584],[2.153,48.577]]]}},{"type":"Feature","properties":{"code":"91570","nom":"Saint-Michel-sur-Orge","pop":21776},"geometry":{"type":"Polygon","coordinates":[[[2.33,48.62],[2.329,48.62],[2.293,48.626],[2.298,48.644],[2.33,48.634],[2.33,48.62]]]}},{"type":"Feature","properties":{"code":"91573","nom":"Saint-Pierre-du-Perray","pop":11993},"geometry":{"type":"Polygon","coordinates":[[[2.505,48.632],[2.521,48.632],[2.542,48.609],[2.542,48.597],[2.518,48.583],[2.509,48.584],[2.49,48.608],[2.486,48.616],[2.505,48.632]]]}},{"type":"Feature","properties":{"code":"91577","nom":"Saintry-sur-Seine","pop":5882},"geometry":{"type":"Polygon","coordinates":[[[2.482,48.583],[2.49,48.608],[2.509,48.584],[2.482,48.583]]]}},{"type":"Feature","properties":{"code":"91578","nom":"Saint-Sulpice-de-Favières","pop":272},"geometry":{"type":"Polygon","coordinates":[[[2.187,48.518],[2.182,48.518],[2.176,48.52],[2.157,48.537],[2.174,48.552],[2.188,48.547],[2.193,48.542],[2.187,48.518]]]}},{"type":"Feature","properties":{"code":"91579","nom":"Saint-Vrain","pop":3089},"geometry":{"type":"Polygon","coordinates":[[[2.358,48.537],[2.324,48.519],[2.299,48.524],[2.295,48.543],[2.3,48.551],[2.317,48.553],[2.343,48.553],[2.358,48.537]]]}},{"type":"Feature","properties":{"code":"91581","nom":"Saint-Yon","pop":923},"geometry":{"type":"Polygon","coordinates":[[[2.199,48.576],[2.211,48.57],[2.188,48.547],[2.174,48.552],[2.182,48.564],[2.199,48.576]]]}},{"type":"Feature","properties":{"code":"91587","nom":"Saulx-les-Chartreux","pop":6733},"geometry":{"type":"Polygon","coordinates":[[[2.277,48.671],[2.265,48.671],[2.245,48.674],[2.241,48.685],[2.268,48.704],[2.285,48.699],[2.286,48.686],[2.277,48.671]]]}},{"type":"Feature","properties":{"code":"91589","nom":"Savigny-sur-Orge","pop":37601},"geometry":{"type":"Polygon","coordinates":[[[2.327,48.687],[2.328,48.688],[2.352,48.703],[2.354,48.702],[2.359,48.7],[2.372,48.686],[2.355,48.671],[2.342,48.668],[2.338,48.668],[2.327,48.687]]]}},{"type":"Feature","properties":{"code":"91593","nom":"Sermaise","pop":1617},"geometry":{"type":"Polygon","coordinates":[[[2.061,48.549],[2.093,48.552],[2.122,48.529],[2.107,48.509],[2.074,48.51],[2.061,48.549]]]}},{"type":"Feature","properties":{"code":"91599","nom":"Soisy-sur-École","pop":1174},"geometry":{"type":"Polygon","coordinates":[[[2.506,48.461],[2.5,48.459],[2.445,48.475],[2.436,48.48],[2.449,48.484],[2.479,48.495],[2.512,48.495],[2.51,48.488],[2.506,48.461]]]}},{"type":"Feature","properties":{"code":"91600","nom":"Soisy-sur-Seine","pop":7418},"geometry":{"type":"Polygon","coordinates":[[[2.493,48.681],[2.498,48.677],[2.504,48.672],[2.468,48.663],[2.452,48.638],[2.438,48.649],[2.429,48.654],[2.464,48.673],[2.493,48.681]]]}},{"type":"Feature","properties":{"code":"91602","nom":"Souzy-la-Briche","pop":503},"geometry":{"type":"Polygon","coordinates":[[[2.176,48.52],[2.15,48.509],[2.122,48.529],[2.155,48.539],[2.157,48.537],[2.176,48.52]]]}},{"type":"Feature","properties":{"code":"91613","nom":"Congerville-Thionville","pop":211},"geometry":{"type":"Polygon","coordinates":[[[1.967,48.381],[1.977,48.4],[2.005,48.401],[2.002,48.396],[2.016,48.371],[1.988,48.364],[1.967,48.381]]]}},{"type":"Feature","properties":{"code":"91617","nom":"Tigery","pop":4333},"geometry":{"type":"Polygon","coordinates":[[[2.521,48.632],[2.505,48.632],[2.492,48.64],[2.518,48.66],[2.533,48.657],[2.548,48.65],[2.521,48.632]]]}},{"type":"Feature","properties":{"code":"91619","nom":"Torfou","pop":294},"geometry":{"type":"Polygon","coordinates":[[[2.234,48.54],[2.249,48.532],[2.236,48.522],[2.22,48.532],[2.234,48.54]]]}},{"type":"Feature","properties":{"code":"91629","nom":"Valpuiseaux","pop":617},"geometry":{"type":"Polygon","coordinates":[[[2.331,48.408],[2.327,48.379],[2.309,48.369],[2.267,48.372],[2.289,48.412],[2.325,48.425],[2.332,48.412],[2.331,48.408]]]}},{"type":"Feature","properties":{"code":"91630","nom":"Le Val-Saint-Germain","pop":1576},"geometry":{"type":"Polygon","coordinates":[[[2.101,48.555],[2.093,48.552],[2.061,48.549],[2.056,48.548],[2.055,48.576],[2.087,48.594],[2.093,48.593],[2.108,48.584],[2.101,48.555]]]}},{"type":"Feature","properties":{"code":"91631","nom":"Varennes-Jarcy","pop":2465},"geometry":{"type":"Polygon","coordinates":[[[2.548,48.672],[2.543,48.687],[2.549,48.689],[2.572,48.692],[2.584,48.677],[2.548,48.672]]]}},{"type":"Feature","properties":{"code":"91634","nom":"Vaugrigneuse","pop":1458},"geometry":{"type":"Polygon","coordinates":[[[2.093,48.593],[2.087,48.594],[2.077,48.599],[2.1,48.613],[2.13,48.603],[2.119,48.592],[2.093,48.593]]]}},{"type":"Feature","properties":{"code":"91635","nom":"Vauhallan","pop":1945},"geometry":{"type":"Polygon","coordinates":[[[2.19,48.739],[2.204,48.737],[2.213,48.729],[2.204,48.721],[2.19,48.739]]]}},{"type":"Feature","properties":{"code":"91639","nom":"Vayres-sur-Essonne","pop":978},"geometry":{"type":"Polygon","coordinates":[[[2.363,48.449],[2.373,48.434],[2.332,48.412],[2.325,48.425],[2.329,48.433],[2.353,48.451],[2.363,48.449]]]}},{"type":"Feature","properties":{"code":"91645","nom":"Verrières-le-Buisson","pop":15057},"geometry":{"type":"Polygon","coordinates":[[[2.275,48.741],[2.239,48.736],[2.226,48.75],[2.233,48.766],[2.276,48.757],[2.275,48.741]]]}},{"type":"Feature","properties":{"code":"91648","nom":"Vert-le-Grand","pop":2444},"geometry":{"type":"Polygon","coordinates":[[[2.348,48.557],[2.339,48.59],[2.362,48.601],[2.399,48.607],[2.393,48.589],[2.383,48.566],[2.348,48.557]]]}},{"type":"Feature","properties":{"code":"91649","nom":"Vert-le-Petit","pop":2714},"geometry":{"type":"Polygon","coordinates":[[[2.358,48.537],[2.343,48.553],[2.348,48.557],[2.383,48.566],[2.391,48.558],[2.374,48.546],[2.372,48.537],[2.358,48.537]]]}},{"type":"Feature","properties":{"code":"91654","nom":"Videlles","pop":581},"geometry":{"type":"Polygon","coordinates":[[[2.444,48.453],[2.413,48.456],[2.4,48.461],[2.386,48.473],[2.391,48.481],[2.415,48.481],[2.436,48.48],[2.445,48.475],[2.444,48.453]]]}},{"type":"Feature","properties":{"code":"91657","nom":"Vigneux-sur-Seine","pop":31466},"geometry":{"type":"Polygon","coordinates":[[[2.44,48.725],[2.443,48.721],[2.435,48.71],[2.454,48.682],[2.4,48.702],[2.414,48.718],[2.435,48.724],[2.44,48.725]]]}},{"type":"Feature","properties":{"code":"91659","nom":"Villabé","pop":5830},"geometry":{"type":"Polygon","coordinates":[[[2.441,48.577],[2.439,48.577],[2.451,48.595],[2.47,48.578],[2.441,48.577]]]}},{"type":"Feature","properties":{"code":"91661","nom":"Villebon-sur-Yvette","pop":10291},"geometry":{"type":"Polygon","coordinates":[[[2.205,48.685],[2.204,48.692],[2.21,48.702],[2.259,48.707],[2.268,48.704],[2.241,48.685],[2.205,48.685]]]}},{"type":"Feature","properties":{"code":"91662","nom":"Villeconin","pop":766},"geometry":{"type":"Polygon","coordinates":[[[2.122,48.529],[2.122,48.529],[2.15,48.509],[2.151,48.502],[2.149,48.481],[2.121,48.468],[2.122,48.492],[2.107,48.509],[2.122,48.529]]]}},{"type":"Feature","properties":{"code":"91665","nom":"La Ville-du-Bois","pop":8161},"geometry":{"type":"Polygon","coordinates":[[[2.277,48.671],[2.276,48.66],[2.273,48.652],[2.258,48.65],[2.265,48.671],[2.277,48.671]]]}},{"type":"Feature","properties":{"code":"91666","nom":"Villejust","pop":2558},"geometry":{"type":"Polygon","coordinates":[[[2.241,48.685],[2.245,48.674],[2.209,48.666],[2.196,48.669],[2.205,48.685],[2.241,48.685]]]}},{"type":"Feature","properties":{"code":"91667","nom":"Villemoisson-sur-Orge","pop":7332},"geometry":{"type":"Polygon","coordinates":[[[2.319,48.666],[2.338,48.668],[2.342,48.668],[2.337,48.65],[2.319,48.666]]]}},{"type":"Feature","properties":{"code":"91671","nom":"Villeneuve-sur-Auvers","pop":593},"geometry":{"type":"Polygon","coordinates":[[[2.265,48.482],[2.271,48.479],[2.275,48.463],[2.249,48.45],[2.248,48.477],[2.265,48.482]]]}},{"type":"Feature","properties":{"code":"91679","nom":"Villiers-le-Bâcle","pop":1031},"geometry":{"type":"Polygon","coordinates":[[[2.106,48.719],[2.106,48.719],[2.105,48.738],[2.135,48.738],[2.143,48.723],[2.123,48.716],[2.11,48.715],[2.108,48.718],[2.106,48.719]]]}},{"type":"Feature","properties":{"code":"91685","nom":"Villiers-sur-Orge","pop":4545},"geometry":{"type":"Polygon","coordinates":[[[2.299,48.65],[2.291,48.658],[2.3,48.67],[2.309,48.657],[2.299,48.65]]]}},{"type":"Feature","properties":{"code":"91687","nom":"Viry-Châtillon","pop":30838},"geometry":{"type":"Polygon","coordinates":[[[2.396,48.674],[2.366,48.646],[2.362,48.648],[2.355,48.671],[2.372,48.686],[2.386,48.684],[2.396,48.674]]]}},{"type":"Feature","properties":{"code":"91689","nom":"Wissous","pop":7151},"geometry":{"type":"Polygon","coordinates":[[[2.325,48.711],[2.302,48.72],[2.304,48.729],[2.321,48.749],[2.331,48.748],[2.354,48.739],[2.344,48.717],[2.325,48.711]]]}},{"type":"Feature","properties":{"code":"91691","nom":"Yerres","pop":27906},"geometry":{"type":"Polygon","coordinates":[[[2.465,48.712],[2.475,48.728],[2.485,48.729],[2.51,48.735],[2.519,48.713],[2.482,48.69],[2.465,48.712]]]}},{"type":"Feature","properties":{"code":"91692","nom":"Les Ulis","pop":25886},"geometry":{"type":"Polygon","coordinates":[[[2.204,48.692],[2.205,48.685],[2.196,48.669],[2.191,48.668],[2.164,48.675],[2.161,48.676],[2.174,48.69],[2.204,48.692]]]}}]}