{"type":"FeatureCollection","features":[{"type":"Feature","properties":{"code":"95002","nom":"Ableiges","pop":1108},"geometry":{"type":"Polygon","coordinates":[[[1.989,49.109],[1.991,49.108],[1.994,49.103],[1.995,49.084],[1.979,49.069],[1.96,49.072],[1.953,49.078],[1.951,49.086],[1.989,49.109]]]}},{"type":"Feature","properties":{"code":"95008","nom":"Aincourt","pop":854},"geometry":{"type":"Polygon","coordinates":[[[1.797,49.072],[1.794,49.059],[1.789,49.058],[1.759,49.063],[1.746,49.073],[1.761,49.087],[1.778,49.09],[1.797,49.072]]]}},{"type":"Feature","properties":{"code":"95011","nom":"Ambleville","pop":388},"geometry":{"type":"Polygon","coordinates":[[[1.692,49.129],[1.674,49.139],[1.679,49.156],[1.718,49.173],[1.722,49.172],[1.719,49.166],[1.692,49.129]]]}},{"type":"Feature","properties":{"code":"95012","nom":"Amenucourt","pop":212},"geometry":{"type":"Polygon","coordinates":[[[1.623,49.086],[1.627,49.105],[1.656,49.131],[1.671,49.127],[1.677,49.108],[1.659,49.096],[1.633,49.101],[1.623,49.086]]]}},{"type":"Feature","properties":{"code":"95014","nom":"Andilly","pop":2742},"geometry":{"type":"Polygon","coordinates":[[[2.293,48.996],[2.29,48.997],[2.292,49.006],[2.301,49.024],[2.313,49.015],[2.311,49.002],[2.293,48.996]]]}},{"type":"Feature","properties":{"code":"95018","nom":"Argenteuil","pop":106130},"geometry":{"type":"Polygon","coordinates":[[[2.248,48.937],[2.231,48.928],[2.206,48.941],[2.206,48.95],[2.226,48.971],[2.274,48.964],[2.288,48.958],[2.292,48.951],[2.291,48.951],[2.248,48.937]]]}},{"type":"Feature","properties":{"code":"95019","nom":"Arnouville","pop":15023},"geometry":{"type":"Polygon","coordinates":[[[2.432,48.98],[2.424,48.975],[2.401,48.983],[2.408,48.992],[2.416,48.999],[2.432,48.98]]]}},{"type":"Feature","properties":{"code":"95023","nom":"Arronville","pop":618},"geometry":{"type":"Polygon","coordinates":[[[2.073,49.17],[2.076,49.173],[2.095,49.19],[2.152,49.184],[2.158,49.173],[2.127,49.16],[2.087,49.161],[2.073,49.17]]]}},{"type":"Feature","properties":{"code":"95024","nom":"Arthies","pop":265},"geometry":{"type":"Polygon","coordinates":[[[1.793,49.115],[1.815,49.108],[1.815,49.076],[1.797,49.072],[1.778,49.09],[1.793,49.115]]]}},{"type":"Feature","properties":{"code":"95026","nom":"Asnières-sur-Oise","pop":3127},"geometry":{"type":"Polygon","coordinates":[[[2.339,49.146],[2.359,49.147],[2.373,49.159],[2.391,49.149],[2.441,49.146],[2.439,49.142],[2.411,49.134],[2.376,49.139],[2.355,49.122],[2.337,49.123],[2.339,49.146]]]}},{"type":"Feature","properties":{"code":"95028","nom":"Attainville","pop":1904},"geometry":{"type":"Polygon","coordinates":[[[2.375,49.063],[2.37,49.055],[2.352,49.045],[2.335,49.051],[2.33,49.064],[2.335,49.075],[2.339,49.076],[2.367,49.068],[2.375,49.063]]]}},{"type":"Feature","properties":{"code":"95039","nom":"Auvers-sur-Oise","pop":6863},"geometry":{"type":"Polygon","coordinates":[[[2.127,49.064],[2.12,49.065],[2.13,49.086],[2.15,49.104],[2.16,49.104],[2.174,49.088],[2.193,49.074],[2.189,49.072],[2.142,49.066],[2.127,49.064]]]}},{"type":"Feature","properties":{"code":"95040","nom":"Avernes","pop":871},"geometry":{"type":"Polygon","coordinates":[[[1.841,49.069],[1.823,49.076],[1.849,49.102],[1.881,49.119],[1.906,49.111],[1.891,49.072],[1.841,49.069]]]}},{"type":"Feature","properties":{"code":"95042","nom":"Baillet-en-France","pop":2021},"geometry":{"type":"Polygon","coordinates":[[[2.285,49.049],[2.274,49.069],[2.33,49.064],[2.335,49.051],[2.322,49.051],[2.285,49.049]]]}},{"type":"Feature","properties":{"code":"95046","nom":"Banthelu","pop":146},"geometry":{"type":"Polygon","coordinates":[[[1.813,49.141],[1.836,49.141],[1.832,49.12],[1.828,49.117],[1.815,49.108],[1.793,49.115],[1.799,49.131],[1.813,49.141]]]}},{"type":"Feature","properties":{"code":"95051","nom":"Beauchamp","pop":9849},"geometry":{"type":"Polygon","coordinates":[[[2.215,49.004],[2.213,49.002],[2.197,49.008],[2.183,49.025],[2.215,49.004]]]}},{"type":"Feature","properties":{"code":"95052","nom":"Beaumont-sur-Oise","pop":10232},"geometry":{"type":"Polygon","coordinates":[[[2.32,49.125],[2.313,49.123],[2.278,49.135],[2.268,49.139],[2.294,49.151],[2.312,49.15],[2.323,49.147],[2.32,49.125]]]}},{"type":"Feature","properties":{"code":"95054","nom":"Le Bellay-en-Vexin","pop":224},"geometry":{"type":"Polygon","coordinates":[[[1.883,49.138],[1.867,49.138],[1.858,49.143],[1.883,49.162],[1.893,49.144],[1.883,49.138]]]}},{"type":"Feature","properties":{"code":"95055","nom":"Bellefontaine","pop":474},"geometry":{"type":"Polygon","coordinates":[[[2.454,49.09],[2.45,49.101],[2.484,49.107],[2.488,49.094],[2.486,49.089],[2.472,49.071],[2.462,49.073],[2.454,49.09]]]}},{"type":"Feature","properties":{"code":"95056","nom":"Belloy-en-France","pop":2250},"geometry":{"type":"Polygon","coordinates":[[[2.35,49.081],[2.361,49.107],[2.391,49.11],[2.394,49.098],[2.396,49.087],[2.37,49.073],[2.35,49.081]]]}},{"type":"Feature","properties":{"code":"95058","nom":"Bernes-sur-Oise","pop":2684},"geometry":{"type":"Polygon","coordinates":[[[2.286,49.16],[2.301,49.184],[2.31,49.185],[2.312,49.15],[2.294,49.151],[2.286,49.16]]]}},{"type":"Feature","properties":{"code":"95059","nom":"Berville","pop":374},"geometry":{"type":"Polygon","coordinates":[[[2.038,49.192],[2.038,49.192],[2.081,49.211],[2.095,49.19],[2.076,49.173],[2.038,49.192]]]}},{"type":"Feature","properties":{"code":"95060","nom":"Bessancourt","pop":8869},"geometry":{"type":"Polygon","coordinates":[[[2.183,49.025],[2.168,49.031],[2.174,49.039],[2.224,49.045],[2.217,49.031],[2.183,49.025]]]}},{"type":"Feature","properties":{"code":"95061","nom":"Béthemont-la-Forêt","pop":435},"geometry":{"type":"Polygon","coordinates":[[[2.234,49.05],[2.255,49.071],[2.253,49.041],[2.234,49.05]]]}},{"type":"Feature","properties":{"code":"95063","nom":"Bezons","pop":36434},"geometry":{"type":"Polygon","coordinates":[[[2.231,48.928],[2.22,48.921],[2.2,48.909],[2.199,48.919],[2.199,48.935],[2.206,48.941],[2.231,48.928]]]}},{"type":"Feature","properties":{"code":"95074","nom":"Boisemont","pop":892},"geometry":{"type":"Polygon","coordinates":[[[2.007,49.008],[2.005,49.01],[1.992,49.021],[1.991,49.024],[2.01,49.027],[2.011,49.021],[2.007,49.008]]]}},{"type":"Feature","properties":{"code":"95078","nom":"Boissy-l'Aillerie","pop":2120},"geometry":{"type":"Polygon","coordinates":[[[2.027,49.097],[2.04,49.1],[2.045,49.083],[2.035,49.063],[2.016,49.077],[2.027,49.097]]]}},{"type":"Feature","properties":{"code":"95088","nom":"Bonneuil-en-France","pop":1185},"geometry":{"type":"Polygon","coordinates":[[[2.419,48.958],[2.424,48.975],[2.432,48.98],[2.456,48.956],[2.447,48.956],[2.419,48.958]]]}},{"type":"Feature","properties":{"code":"95091","nom":"Bouffémont","pop":6593},"geometry":{"type":"Polygon","coordinates":[[[2.322,49.051],[2.324,49.045],[2.294,49.03],[2.275,49.036],[2.285,49.049],[2.322,49.051]]]}},{"type":"Feature","properties":{"code":"95094","nom":"Bouqueval","pop":314},"geometry":{"type":"Polygon","coordinates":[[[2.434,49.035],[2.438,49.029],[2.443,49.013],[2.425,49.014],[2.411,49.024],[2.434,49.035]]]}},{"type":"Feature","properties":{"code":"95101","nom":"Bray-et-Lû","pop":954},"geometry":{"type":"Polygon","coordinates":[[[1.671,49.127],[1.656,49.131],[1.664,49.154],[1.679,49.156],[1.674,49.139],[1.671,49.127]]]}},{"type":"Feature","properties":{"code":"95102","nom":"Bréançon","pop":432},"geometry":{"type":"Polygon","coordinates":[[[2.03,49.131],[2.011,49.132],[2,49.136],[1.996,49.159],[2.012,49.166],[2.05,49.163],[2.059,49.153],[2.03,49.131]]]}},{"type":"Feature","properties":{"code":"95110","nom":"Brignancourt","pop":262},"geometry":{"type":"Polygon","coordinates":[[[1.96,49.148],[1.961,49.145],[1.934,49.132],[1.925,49.14],[1.96,49.148]]]}},{"type":"Feature","properties":{"code":"95116","nom":"Bruyères-sur-Oise","pop":4921},"geometry":{"type":"Polygon","coordinates":[[[2.359,49.147],[2.339,49.146],[2.323,49.147],[2.312,49.15],[2.31,49.185],[2.322,49.184],[2.359,49.147]]]}},{"type":"Feature","properties":{"code":"95119","nom":"Buhy","pop":329},"geometry":{"type":"Polygon","coordinates":[[[1.716,49.203],[1.726,49.194],[1.712,49.178],[1.681,49.183],[1.716,49.203]]]}},{"type":"Feature","properties":{"code":"95120","nom":"Butry-sur-Oise","pop":2252},"geometry":{"type":"Polygon","coordinates":[[[2.208,49.091],[2.206,49.087],[2.193,49.074],[2.174,49.088],[2.208,49.091]]]}},{"type":"Feature","properties":{"code":"95127","nom":"Cergy","pop":70906},"geometry":{"type":"Polygon","coordinates":[[[2.016,49.04],[2.011,49.056],[2.028,49.056],[2.072,49.047],[2.091,49.024],[2.081,49.019],[2.038,49.034],[2.016,49.04]]]}},{"type":"Feature","properties":{"code":"95134","nom":"Champagne-sur-Oise","pop":5036},"geometry":{"type":"Polygon","coordinates":[[[2.235,49.13],[2.217,49.124],[2.198,49.157],[2.197,49.167],[2.217,49.154],[2.241,49.152],[2.264,49.136],[2.235,49.13]]]}},{"type":"Feature","properties":{"code":"95139","nom":"La Chapelle-en-Vexin","pop":320},"geometry":{"type":"Polygon","coordinates":[[[1.726,49.194],[1.742,49.18],[1.722,49.172],[1.718,49.173],[1.712,49.178],[1.726,49.194]]]}},{"type":"Feature","properties":{"code":"95141","nom":"Charmont","pop":32},"geometry":{"type":"Polygon","coordinates":[[[1.767,49.132],[1.784,49.145],[1.813,49.141],[1.799,49.131],[1.772,49.129],[1.767,49.132]]]}},{"type":"Feature","properties":{"code":"95142","nom":"Chars","pop":2006},"geometry":{"type":"Polygon","coordinates":[[[1.925,49.14],[1.893,49.144],[1.883,49.162],[1.883,49.163],[1.934,49.174],[1.962,49.175],[1.978,49.164],[1.96,49.148],[1.925,49.14]]]}},{"type":"Feature","properties":{"code":"95144","nom":"Châtenay-en-France","pop":68},"geometry":{"type":"Polygon","coordinates":[[[2.441,49.068],[2.441,49.069],[2.462,49.073],[2.472,49.071],[2.482,49.055],[2.441,49.068]]]}},{"type":"Feature","properties":{"code":"95149","nom":"Chaumontel","pop":3332},"geometry":{"type":"Polygon","coordinates":[[[2.435,49.134],[2.461,49.137],[2.436,49.116],[2.435,49.134]]]}},{"type":"Feature","properties":{"code":"95150","nom":"Chaussy","pop":631},"geometry":{"type":"Polygon","coordinates":[[[1.674,49.139],[1.692,49.129],[1.738,49.115],[1.741,49.099],[1.708,49.094],[1.677,49.108],[1.671,49.127],[1.674,49.139]]]}},{"type":"Feature","properties":{"code":"95151","nom":"Chauvry","pop":297},"geometry":{"type":"Polygon","coordinates":[[[2.274,49.069],[2.285,49.049],[2.275,49.036],[2.258,49.04],[2.253,49.041],[2.255,49.071],[2.272,49.069],[2.274,49.069]]]}},{"type":"Feature","properties":{"code":"95154","nom":"Chennevières-lès-Louvres","pop":282},"geometry":{"type":"Polygon","coordinates":[[[2.528,49.038],[2.55,49.053],[2.568,49.041],[2.526,49.03],[2.528,49.038]]]}},{"type":"Feature","properties":{"code":"95157","nom":"Chérence","pop":137},"geometry":{"type":"Polygon","coordinates":[[[1.653,49.096],[1.659,49.096],[1.677,49.108],[1.708,49.094],[1.703,49.079],[1.692,49.075],[1.653,49.096]]]}},{"type":"Feature","properties":{"code":"95166","nom":"Cléry-en-Vexin","pop":476},"geometry":{"type":"Polygon","coordinates":[[[1.841,49.143],[1.858,49.143],[1.867,49.138],[1.866,49.132],[1.832,49.12],[1.836,49.141],[1.841,49.143]]]}},{"type":"Feature","properties":{"code":"95169","nom":"Commeny","pop":646},"geometry":{"type":"Polygon","coordinates":[[[1.915,49.127],[1.914,49.108],[1.906,49.111],[1.881,49.119],[1.866,49.132],[1.867,49.138],[1.883,49.138],[1.915,49.127]]]}},{"type":"Feature","properties":{"code":"95170","nom":"Condécourt","pop":564},"geometry":{"type":"Polygon","coordinates":[[[1.955,49.025],[1.938,49.022],[1.912,49.041],[1.914,49.046],[1.944,49.051],[1.961,49.035],[1.955,49.025]]]}},{"type":"Feature","properties":{"code":"95176","nom":"Cormeilles-en-Parisis","pop":27292},"geometry":{"type":"Polygon","coordinates":[[[2.173,48.953],[2.178,48.96],[2.183,48.979],[2.204,48.99],[2.229,48.973],[2.226,48.971],[2.206,48.95],[2.173,48.953]]]}},{"type":"Feature","properties":{"code":"95177","nom":"Cormeilles-en-Vexin","pop":1297},"geometry":{"type":"Polygon","coordinates":[[[2.011,49.132],[2.03,49.131],[2.044,49.108],[2.04,49.1],[2.027,49.097],[1.994,49.103],[1.991,49.108],[2.011,49.132]]]}},{"type":"Feature","properties":{"code":"95181","nom":"Courcelles-sur-Viosne","pop":310},"geometry":{"type":"Polygon","coordinates":[[[1.995,49.064],[1.979,49.069],[1.995,49.084],[2.015,49.078],[1.995,49.064]]]}},{"type":"Feature","properties":{"code":"95183","nom":"Courdimanche","pop":7311},"geometry":{"type":"Polygon","coordinates":[[[1.995,49.061],[2.011,49.056],[2.016,49.04],[2.01,49.027],[1.991,49.024],[1.984,49.035],[1.995,49.061]]]}},{"type":"Feature","properties":{"code":"95197","nom":"Deuil-la-Barre","pop":23099},"geometry":{"type":"Polygon","coordinates":[[[2.335,48.981],[2.344,48.978],[2.328,48.96],[2.313,48.962],[2.311,48.972],[2.335,48.981]]]}},{"type":"Feature","properties":{"code":"95199","nom":"Domont","pop":16065},"geometry":{"type":"Polygon","coordinates":[[[2.296,49.027],[2.294,49.03],[2.324,49.045],[2.34,49.038],[2.355,49.027],[2.322,49.011],[2.313,49.015],[2.301,49.024],[2.296,49.027]]]}},{"type":"Feature","properties":{"code":"95203","nom":"Eaubonne","pop":26211},"geometry":{"type":"Polygon","coordinates":[[[2.29,48.997],[2.293,48.996],[2.292,48.977],[2.274,48.977],[2.263,48.998],[2.273,49.006],[2.283,49.003],[2.29,48.997]]]}},{"type":"Feature","properties":{"code":"95205","nom":"Écouen","pop":7202},"geometry":{"type":"Polygon","coordinates":[[[2.383,49.042],[2.399,49.04],[2.41,49.024],[2.38,49.014],[2.363,49.01],[2.364,49.02],[2.364,49.022],[2.383,49.042]]]}},{"type":"Feature","properties":{"code":"95210","nom":"Enghien-les-Bains","pop":11432},"geometry":{"type":"Polygon","coordinates":[[[2.299,48.966],[2.298,48.975],[2.307,48.977],[2.311,48.972],[2.313,48.962],[2.299,48.966]]]}},{"type":"Feature","properties":{"code":"95211","nom":"Ennery","pop":2243},"geometry":{"type":"Polygon","coordinates":[[[2.091,49.072],[2.084,49.084],[2.117,49.094],[2.13,49.086],[2.12,49.065],[2.091,49.072]]]}},{"type":"Feature","properties":{"code":"95212","nom":"Épiais-lès-Louvres","pop":156},"geometry":{"type":"Polygon","coordinates":[[[2.525,49.027],[2.526,49.03],[2.568,49.041],[2.569,49.04],[2.535,49.024],[2.525,49.027]]]}},{"type":"Feature","properties":{"code":"95213","nom":"Épiais-Rhus","pop":603},"geometry":{"type":"Polygon","coordinates":[[[2.092,49.116],[2.073,49.101],[2.05,49.109],[2.067,49.143],[2.085,49.149],[2.092,49.116]]]}},{"type":"Feature","properties":{"code":"95214","nom":"Épinay-Champlâtreux","pop":57},"geometry":{"type":"Polygon","coordinates":[[[2.423,49.087],[2.422,49.084],[2.405,49.082],[2.396,49.087],[2.394,49.098],[2.426,49.092],[2.423,49.087]]]}},{"type":"Feature","properties":{"code":"95218","nom":"Éragny","pop":18436},"geometry":{"type":"Polygon","coordinates":[[[2.116,49.023],[2.121,49.018],[2.085,49.015],[2.081,49.019],[2.091,49.024],[2.096,49.036],[2.116,49.023]]]}},{"type":"Feature","properties":{"code":"95219","nom":"Ermont","pop":29489},"geometry":{"type":"Polygon","coordinates":[[[2.274,48.977],[2.273,48.977],[2.243,48.984],[2.244,48.994],[2.251,49.001],[2.252,49.002],[2.263,48.998],[2.274,48.977]]]}},{"type":"Feature","properties":{"code":"95229","nom":"Ézanville","pop":9858},"geometry":{"type":"Polygon","coordinates":[[[2.37,49.055],[2.383,49.042],[2.364,49.022],[2.355,49.027],[2.34,49.038],[2.352,49.045],[2.37,49.055]]]}},{"type":"Feature","properties":{"code":"95241","nom":"Fontenay-en-Parisis","pop":2219},"geometry":{"type":"Polygon","coordinates":[[[2.418,49.046],[2.413,49.056],[2.441,49.068],[2.482,49.055],[2.482,49.054],[2.474,49.042],[2.438,49.029],[2.434,49.035],[2.418,49.046]]]}},{"type":"Feature","properties":{"code":"95250","nom":"Fosses","pop":10570},"geometry":{"type":"Polygon","coordinates":[[[2.484,49.107],[2.49,49.106],[2.531,49.099],[2.531,49.096],[2.525,49.098],[2.488,49.094],[2.484,49.107]]]}},{"type":"Feature","properties":{"code":"95252","nom":"Franconville","pop":37754},"geometry":{"type":"Polygon","coordinates":[[[2.215,49.004],[2.217,49.003],[2.244,48.994],[2.243,48.984],[2.229,48.973],[2.204,48.99],[2.213,49.002],[2.215,49.004]]]}},{"type":"Feature","properties":{"code":"95253","nom":"Frémainville","pop":507},"geometry":{"type":"Polygon","coordinates":[[[1.891,49.072],[1.896,49.066],[1.865,49.057],[1.841,49.065],[1.841,49.069],[1.891,49.072]]]}},{"type":"Feature","properties":{"code":"95254","nom":"Frémécourt","pop":526},"geometry":{"type":"Polygon","coordinates":[[[1.991,49.108],[1.989,49.109],[1.975,49.125],[1.982,49.131],[2,49.136],[2.011,49.132],[1.991,49.108]]]}},{"type":"Feature","properties":{"code":"95256","nom":"Frépillon","pop":3317},"geometry":{"type":"Polygon","coordinates":[[[2.231,49.052],[2.224,49.045],[2.174,49.039],[2.204,49.061],[2.231,49.052]]]}},{"type":"Feature","properties":{"code":"95257","nom":"La Frette-sur-Seine","pop":4570},"geometry":{"type":"Polygon","coordinates":[[[2.178,48.96],[2.178,48.964],[2.166,48.981],[2.174,48.987],[2.183,48.979],[2.178,48.96]]]}},{"type":"Feature","properties":{"code":"95258","nom":"Frouville","pop":347},"geometry":{"type":"Polygon","coordinates":[[[2.129,49.154],[2.127,49.16],[2.158,49.173],[2.164,49.166],[2.165,49.143],[2.16,49.14],[2.129,49.154]]]}},{"type":"Feature","properties":{"code":"95268","nom":"Garges-lès-Gonesse","pop":41791},"geometry":{"type":"Polygon","coordinates":[[[2.424,48.975],[2.419,48.958],[2.407,48.956],[2.382,48.971],[2.401,48.983],[2.424,48.975]]]}},{"type":"Feature","properties":{"code":"95270","nom":"Genainville","pop":522},"geometry":{"type":"Polygon","coordinates":[[[1.754,49.09],[1.741,49.099],[1.738,49.115],[1.742,49.138],[1.767,49.132],[1.772,49.129],[1.777,49.108],[1.754,49.09]]]}},{"type":"Feature","properties":{"code":"95271","nom":"Génicourt","pop":514},"geometry":{"type":"Polygon","coordinates":[[[2.073,49.101],[2.084,49.084],[2.045,49.083],[2.04,49.1],[2.044,49.108],[2.05,49.109],[2.073,49.101]]]}},{"type":"Feature","properties":{"code":"95277","nom":"Gonesse","pop":27707},"geometry":{"type":"Polygon","coordinates":[[[2.443,49.013],[2.443,49.011],[2.483,48.999],[2.486,48.999],[2.502,48.979],[2.5,48.975],[2.496,48.973],[2.459,48.955],[2.456,48.956],[2.432,48.98],[2.416,48.999],[2.425,49.014],[2.443,49.013]]]}},{"type":"Feature","properties":{"code":"95280","nom":"Goussainville","pop":31301},"geometry":{"type":"Polygon","coordinates":[[[2.443,49.011],[2.443,49.013],[2.438,49.029],[2.474,49.042],[2.499,49.024],[2.491,49.01],[2.443,49.011]]]}},{"type":"Feature","properties":{"code":"95287","nom":"Grisy-les-Plâtres","pop":709},"geometry":{"type":"Polygon","coordinates":[[[2.059,49.153],[2.067,49.143],[2.05,49.109],[2.044,49.108],[2.03,49.131],[2.059,49.153]]]}},{"type":"Feature","properties":{"code":"95288","nom":"Groslay","pop":8453},"geometry":{"type":"Polygon","coordinates":[[[2.366,48.99],[2.364,48.979],[2.344,48.978],[2.335,48.981],[2.337,48.993],[2.366,48.99]]]}},{"type":"Feature","properties":{"code":"95295","nom":"Guiry-en-Vexin","pop":161},"geometry":{"type":"Polygon","coordinates":[[[1.828,49.117],[1.832,49.12],[1.866,49.132],[1.881,49.119],[1.849,49.102],[1.828,49.117]]]}},{"type":"Feature","properties":{"code":"95298","nom":"Haravilliers","pop":589},"geometry":{"type":"Polygon","coordinates":[[[1.999,49.175],[1.999,49.175],[2.022,49.189],[2.038,49.192],[2.076,49.173],[2.073,49.17],[2.05,49.163],[2.012,49.166],[1.999,49.175]]]}},{"type":"Feature","properties":{"code":"95301","nom":"Haute-Isle","pop":293},"geometry":{"type":"Polygon","coordinates":[[[1.692,49.075],[1.687,49.072],[1.646,49.081],[1.653,49.096],[1.692,49.075]]]}},{"type":"Feature","properties":{"code":"95303","nom":"Le Heaulme","pop":207},"geometry":{"type":"Polygon","coordinates":[[[1.996,49.159],[1.992,49.168],[1.999,49.175],[2.012,49.166],[1.996,49.159]]]}},{"type":"Feature","properties":{"code":"95304","nom":"Hédouville","pop":278},"geometry":{"type":"Polygon","coordinates":[[[2.197,49.167],[2.198,49.157],[2.192,49.156],[2.165,49.143],[2.164,49.166],[2.176,49.176],[2.187,49.173],[2.197,49.167]]]}},{"type":"Feature","properties":{"code":"95306","nom":"Herblay-sur-Seine","pop":31779},"geometry":{"type":"Polygon","coordinates":[[[2.121,49.018],[2.116,49.023],[2.129,49.023],[2.154,49.006],[2.193,49.005],[2.174,48.987],[2.166,48.981],[2.127,48.989],[2.121,49.018]]]}},{"type":"Feature","properties":{"code":"95308","nom":"Hérouville-en-Vexin","pop":584},"geometry":{"type":"Polygon","coordinates":[[[2.117,49.094],[2.106,49.114],[2.114,49.123],[2.135,49.116],[2.15,49.104],[2.13,49.086],[2.117,49.094]]]}},{"type":"Feature","properties":{"code":"95309","nom":"Hodent","pop":225},"geometry":{"type":"Polygon","coordinates":[[[1.784,49.145],[1.767,49.132],[1.742,49.138],[1.742,49.147],[1.775,49.153],[1.784,49.145]]]}},{"type":"Feature","properties":{"code":"95313","nom":"L'Isle-Adam","pop":12493},"geometry":{"type":"Polygon","coordinates":[[[2.206,49.087],[2.208,49.091],[2.209,49.094],[2.217,49.124],[2.235,49.13],[2.262,49.124],[2.26,49.101],[2.251,49.091],[2.236,49.088],[2.206,49.087]]]}},{"type":"Feature","properties":{"code":"95316","nom":"Jagny-sous-Bois","pop":269},"geometry":{"type":"Polygon","coordinates":[[[2.422,49.084],[2.423,49.087],[2.449,49.095],[2.454,49.09],[2.462,49.073],[2.441,49.069],[2.422,49.084]]]}},{"type":"Feature","properties":{"code":"95323","nom":"Jouy-le-Moutier","pop":17854},"geometry":{"type":"Polygon","coordinates":[[[2.024,48.998],[2.007,49.008],[2.011,49.021],[2.041,49.026],[2.064,49.008],[2.024,48.998]]]}},{"type":"Feature","properties":{"code":"95328","nom":"Labbeville","pop":641},"geometry":{"type":"Polygon","coordinates":[[[2.112,49.144],[2.129,49.154],[2.16,49.14],[2.135,49.116],[2.114,49.123],[2.112,49.144]]]}},{"type":"Feature","properties":{"code":"95331","nom":"Lassy","pop":196},"geometry":{"type":"Polygon","coordinates":[[[2.423,49.087],[2.426,49.092],[2.45,49.101],[2.449,49.095],[2.423,49.087]]]}},{"type":"Feature","properties":{"code":"95341","nom":"Livilliers","pop":389},"geometry":{"type":"Polygon","coordinates":[[[2.106,49.114],[2.117,49.094],[2.084,49.084],[2.084,49.084],[2.073,49.101],[2.092,49.116],[2.106,49.114]]]}},{"type":"Feature","properties":{"code":"95348","nom":"Longuesse","pop":496},"geometry":{"type":"Polygon","coordinates":[[[1.914,49.046],[1.908,49.048],[1.899,49.065],[1.904,49.075],[1.953,49.078],[1.96,49.072],[1.944,49.051],[1.914,49.046]]]}},{"type":"Feature","properties":{"code":"95351","nom":"Louvres","pop":12560},"geometry":{"type":"Polygon","coordinates":[[[2.526,49.03],[2.525,49.027],[2.499,49.024],[2.474,49.042],[2.482,49.054],[2.507,49.065],[2.523,49.063],[2.528,49.038],[2.526,49.03]]]}},{"type":"Feature","properties":{"code":"95352","nom":"Luzarches","pop":5008},"geometry":{"type":"Polygon","coordinates":[[[2.439,49.142],[2.435,49.134],[2.436,49.116],[2.461,49.137],[2.478,49.131],[2.499,49.122],[2.49,49.106],[2.484,49.107],[2.45,49.101],[2.45,49.101],[2.426,49.092],[2.394,49.098],[2.391,49.11],[2.396,49.116],[2.408,49.126],[2.411,49.134],[2.439,49.142]]]}},{"type":"Feature","properties":{"code":"95353","nom":"Maffliers","pop":1856},"geometry":{"type":"Polygon","coordinates":[[[2.303,49.092],[2.312,49.098],[2.339,49.077],[2.339,49.076],[2.335,49.075],[2.284,49.079],[2.303,49.092]]]}},{"type":"Feature","properties":{"code":"95355","nom":"Magny-en-Vexin","pop":5779},"geometry":{"type":"Polygon","coordinates":[[[1.836,49.141],[1.813,49.141],[1.784,49.145],[1.775,49.153],[1.794,49.18],[1.797,49.185],[1.834,49.165],[1.841,49.143],[1.836,49.141]]]}},{"type":"Feature","properties":{"code":"95365","nom":"Mareil-en-France","pop":734},"geometry":{"type":"Polygon","coordinates":[[[2.413,49.056],[2.394,49.069],[2.405,49.082],[2.422,49.084],[2.441,49.069],[2.441,49.068],[2.413,49.056]]]}},{"type":"Feature","properties":{"code":"95369","nom":"Margency","pop":3012},"geometry":{"type":"Polygon","coordinates":[[[2.292,49.006],[2.29,48.997],[2.283,49.003],[2.292,49.006]]]}},{"type":"Feature","properties":{"code":"95370","nom":"Marines","pop":3594},"geometry":{"type":"Polygon","coordinates":[[[1.992,49.168],[1.996,49.159],[2,49.136],[1.982,49.131],[1.961,49.145],[1.96,49.148],[1.978,49.164],[1.992,49.168]]]}},{"type":"Feature","properties":{"code":"95371","nom":"Marly-la-Ville","pop":6022},"geometry":{"type":"Polygon","coordinates":[[[2.525,49.098],[2.529,49.078],[2.523,49.063],[2.507,49.065],[2.486,49.089],[2.488,49.094],[2.525,49.098]]]}},{"type":"Feature","properties":{"code":"95379","nom":"Maudétour-en-Vexin","pop":208},"geometry":{"type":"Polygon","coordinates":[[[1.778,49.09],[1.761,49.087],[1.754,49.09],[1.777,49.108],[1.772,49.129],[1.799,49.131],[1.793,49.115],[1.778,49.09]]]}},{"type":"Feature","properties":{"code":"95387","nom":"Menouville","pop":62},"geometry":{"type":"Polygon","coordinates":[[[2.129,49.154],[2.112,49.144],[2.085,49.153],[2.087,49.161],[2.127,49.16],[2.129,49.154]]]}},{"type":"Feature","properties":{"code":"95388","nom":"Menucourt","pop":6184},"geometry":{"type":"Polygon","coordinates":[[[1.957,49.022],[1.955,49.025],[1.961,49.035],[1.984,49.035],[1.991,49.024],[1.992,49.021],[1.957,49.022]]]}},{"type":"Feature","properties":{"code":"95392","nom":"Mériel","pop":5347},"geometry":{"type":"Polygon","coordinates":[[[2.189,49.072],[2.193,49.074],[2.206,49.087],[2.236,49.088],[2.203,49.065],[2.189,49.072]]]}},{"type":"Feature","properties":{"code":"95394","nom":"Méry-sur-Oise","pop":9983},"geometry":{"type":"Polygon","coordinates":[[[2.203,49.065],[2.204,49.061],[2.174,49.039],[2.168,49.031],[2.156,49.036],[2.142,49.066],[2.189,49.072],[2.203,49.065]]]}},{"type":"Feature","properties":{"code":"95395","nom":"Le Mesnil-Aubry","pop":914},"geometry":{"type":"Polygon","coordinates":[[[2.413,49.056],[2.418,49.046],[2.399,49.04],[2.383,49.042],[2.37,49.055],[2.375,49.063],[2.394,49.069],[2.413,49.056]]]}},{"type":"Feature","properties":{"code":"95409","nom":"Moisselles","pop":1261},"geometry":{"type":"Polygon","coordinates":[[[2.324,49.045],[2.322,49.051],[2.335,49.051],[2.352,49.045],[2.34,49.038],[2.324,49.045]]]}},{"type":"Feature","properties":{"code":"95422","nom":"Montgeroult","pop":361},"geometry":{"type":"Polygon","coordinates":[[[2.016,49.077],[2.015,49.078],[1.995,49.084],[1.994,49.103],[2.027,49.097],[2.016,49.077]]]}},{"type":"Feature","properties":{"code":"95424","nom":"Montigny-lès-Cormeilles","pop":22457},"geometry":{"type":"Polygon","coordinates":[[[2.197,49.008],[2.213,49.002],[2.204,48.99],[2.183,48.979],[2.174,48.987],[2.193,49.005],[2.197,49.008]]]}},{"type":"Feature","properties":{"code":"95426","nom":"Montlignon","pop":3038},"geometry":{"type":"Polygon","coordinates":[[[2.292,49.006],[2.283,49.003],[2.273,49.006],[2.296,49.027],[2.301,49.024],[2.292,49.006]]]}},{"type":"Feature","properties":{"code":"95427","nom":"Montmagny","pop":15105},"geometry":{"type":"Polygon","coordinates":[[[2.353,48.966],[2.333,48.955],[2.328,48.96],[2.344,48.978],[2.364,48.979],[2.366,48.974],[2.353,48.966]]]}},{"type":"Feature","properties":{"code":"95428","nom":"Montmorency","pop":21763},"geometry":{"type":"Polygon","coordinates":[[[2.322,49.011],[2.322,49.01],[2.337,48.993],[2.335,48.981],[2.311,48.972],[2.307,48.977],[2.311,49.002],[2.313,49.015],[2.322,49.011]]]}},{"type":"Feature","properties":{"code":"95429","nom":"Montreuil-sur-Epte","pop":377},"geometry":{"type":"Polygon","coordinates":[[[1.672,49.181],[1.681,49.183],[1.712,49.178],[1.718,49.173],[1.679,49.156],[1.664,49.154],[1.672,49.181]]]}},{"type":"Feature","properties":{"code":"95430","nom":"Montsoult","pop":4023},"geometry":{"type":"Polygon","coordinates":[[[2.274,49.077],[2.284,49.079],[2.335,49.075],[2.33,49.064],[2.274,49.069],[2.272,49.069],[2.274,49.077]]]}},{"type":"Feature","properties":{"code":"95436","nom":"Mours","pop":1693},"geometry":{"type":"Polygon","coordinates":[[[2.279,49.126],[2.262,49.124],[2.235,49.13],[2.264,49.136],[2.268,49.139],[2.278,49.135],[2.279,49.126]]]}},{"type":"Feature","properties":{"code":"95438","nom":"Moussy","pop":108},"geometry":{"type":"Polygon","coordinates":[[[1.893,49.144],[1.925,49.14],[1.934,49.132],[1.931,49.13],[1.915,49.127],[1.883,49.138],[1.893,49.144]]]}},{"type":"Feature","properties":{"code":"95445","nom":"Nerville-la-Forêt","pop":756},"geometry":{"type":"Polygon","coordinates":[[[2.284,49.079],[2.274,49.077],[2.251,49.091],[2.26,49.101],[2.303,49.092],[2.284,49.079]]]}},{"type":"Feature","properties":{"code":"95446","nom":"Nesles-la-Vallée","pop":1842},"geometry":{"type":"Polygon","coordinates":[[[2.181,49.109],[2.16,49.104],[2.15,49.104],[2.135,49.116],[2.16,49.14],[2.165,49.143],[2.192,49.156],[2.199,49.118],[2.181,49.109]]]}},{"type":"Feature","properties":{"code":"95447","nom":"Neuilly-en-Vexin","pop":240},"geometry":{"type":"Polygon","coordinates":[[[1.999,49.175],[1.999,49.175],[1.992,49.168],[1.978,49.164],[1.962,49.175],[1.974,49.184],[1.999,49.175]]]}},{"type":"Feature","properties":{"code":"95450","nom":"Neuville-sur-Oise","pop":2058},"geometry":{"type":"Polygon","coordinates":[[[2.072,49.001],[2.064,49.008],[2.041,49.026],[2.038,49.034],[2.081,49.019],[2.085,49.015],[2.072,49.001]]]}},{"type":"Feature","properties":{"code":"95452","nom":"Nointel","pop":903},"geometry":{"type":"Polygon","coordinates":[[[2.279,49.126],[2.278,49.135],[2.313,49.123],[2.279,49.126]]]}},{"type":"Feature","properties":{"code":"95456","nom":"Noisy-sur-Oise","pop":549},"geometry":{"type":"Polygon","coordinates":[[[2.323,49.147],[2.339,49.146],[2.337,49.123],[2.32,49.125],[2.323,49.147]]]}},{"type":"Feature","properties":{"code":"95459","nom":"Nucourt","pop":719},"geometry":{"type":"Polygon","coordinates":[[[1.849,49.171],[1.873,49.174],[1.876,49.175],[1.883,49.163],[1.883,49.162],[1.858,49.143],[1.841,49.143],[1.834,49.165],[1.849,49.171]]]}},{"type":"Feature","properties":{"code":"95462","nom":"Omerville","pop":327},"geometry":{"type":"Polygon","coordinates":[[[1.742,49.138],[1.738,49.115],[1.692,49.129],[1.719,49.166],[1.742,49.147],[1.742,49.138]]]}},{"type":"Feature","properties":{"code":"95476","nom":"Osny","pop":17954},"geometry":{"type":"Polygon","coordinates":[[[2.084,49.084],[2.084,49.084],[2.091,49.072],[2.072,49.047],[2.028,49.056],[2.035,49.063],[2.045,49.083],[2.084,49.084]]]}},{"type":"Feature","properties":{"code":"95480","nom":"Parmain","pop":5655},"geometry":{"type":"Polygon","coordinates":[[[2.192,49.156],[2.198,49.157],[2.217,49.124],[2.209,49.094],[2.181,49.109],[2.199,49.118],[2.192,49.156]]]}},{"type":"Feature","properties":{"code":"95483","nom":"Le Perchay","pop":504},"geometry":{"type":"Polygon","coordinates":[[[1.914,49.108],[1.915,49.127],[1.931,49.13],[1.95,49.119],[1.926,49.103],[1.914,49.108]]]}},{"type":"Feature","properties":{"code":"95487","nom":"Persan","pop":14359},"geometry":{"type":"Polygon","coordinates":[[[2.268,49.139],[2.264,49.136],[2.241,49.152],[2.262,49.158],[2.286,49.16],[2.294,49.151],[2.268,49.139]]]}},{"type":"Feature","properties":{"code":"95488","nom":"Pierrelaye","pop":10130},"geometry":{"type":"Polygon","coordinates":[[[2.168,49.031],[2.183,49.025],[2.197,49.008],[2.193,49.005],[2.154,49.006],[2.129,49.023],[2.156,49.036],[2.168,49.031]]]}},{"type":"Feature","properties":{"code":"95489","nom":"Piscop","pop":768},"geometry":{"type":"Polygon","coordinates":[[[2.322,49.01],[2.322,49.011],[2.355,49.027],[2.364,49.022],[2.364,49.02],[2.322,49.01]]]}},{"type":"Feature","properties":{"code":"95491","nom":"Le Plessis-Bouchard","pop":8518},"geometry":{"type":"Polygon","coordinates":[[[2.217,49.003],[2.224,49.012],[2.251,49.001],[2.244,48.994],[2.217,49.003]]]}},{"type":"Feature","properties":{"code":"95492","nom":"Le Plessis-Gassot","pop":102},"geometry":{"type":"Polygon","coordinates":[[[2.411,49.024],[2.41,49.024],[2.399,49.04],[2.418,49.046],[2.434,49.035],[2.411,49.024]]]}},{"type":"Feature","properties":{"code":"95493","nom":"Le Plessis-Luzarches","pop":152},"geometry":{"type":"Polygon","coordinates":[[[2.45,49.101],[2.45,49.101],[2.454,49.09],[2.449,49.095],[2.45,49.101]]]}},{"type":"Feature","properties":{"code":"95500","nom":"Pontoise","pop":31970},"geometry":{"type":"Polygon","coordinates":[[[2.12,49.065],[2.127,49.064],[2.096,49.036],[2.091,49.024],[2.072,49.047],[2.091,49.072],[2.12,49.065]]]}},{"type":"Feature","properties":{"code":"95504","nom":"Presles","pop":4017},"geometry":{"type":"Polygon","coordinates":[[[2.26,49.101],[2.262,49.124],[2.279,49.126],[2.313,49.123],[2.32,49.125],[2.312,49.098],[2.303,49.092],[2.26,49.101]]]}},{"type":"Feature","properties":{"code":"95509","nom":"Puiseux-en-France","pop":3765},"geometry":{"type":"Polygon","coordinates":[[[2.482,49.055],[2.472,49.071],[2.486,49.089],[2.507,49.065],[2.482,49.054],[2.482,49.055]]]}},{"type":"Feature","properties":{"code":"95510","nom":"Puiseux-Pontoise","pop":603},"geometry":{"type":"Polygon","coordinates":[[[2.015,49.078],[2.016,49.077],[2.035,49.063],[2.028,49.056],[2.011,49.056],[1.995,49.061],[1.995,49.064],[2.015,49.078]]]}},{"type":"Feature","properties":{"code":"95523","nom":"La Roche-Guyon","pop":399},"geometry":{"type":"Polygon","coordinates":[[[1.609,49.078],[1.623,49.086],[1.633,49.101],[1.659,49.096],[1.653,49.096],[1.646,49.081],[1.62,49.074],[1.614,49.071],[1.609,49.078]]]}},{"type":"Feature","properties":{"code":"95527","nom":"Roissy-en-France","pop":2674},"geometry":{"type":"Polygon","coordinates":[[[2.491,49.01],[2.499,49.024],[2.525,49.027],[2.535,49.024],[2.553,49.01],[2.532,49.005],[2.502,48.979],[2.486,48.999],[2.488,49.002],[2.491,49.01]]]}},{"type":"Feature","properties":{"code":"95529","nom":"Ronquerolles","pop":907},"geometry":{"type":"Polygon","coordinates":[[[2.187,49.173],[2.22,49.18],[2.217,49.154],[2.197,49.167],[2.187,49.173]]]}},{"type":"Feature","properties":{"code":"95535","nom":"Sagy","pop":1096},"geometry":{"type":"Polygon","coordinates":[[[1.995,49.064],[1.995,49.061],[1.984,49.035],[1.961,49.035],[1.944,49.051],[1.96,49.072],[1.979,49.069],[1.995,49.064]]]}},{"type":"Feature","properties":{"code":"95539","nom":"Saint-Brice-sous-Forêt","pop":15063},"geometry":{"type":"Polygon","coordinates":[[[2.366,48.99],[2.337,48.993],[2.322,49.01],[2.364,49.02],[2.363,49.01],[2.366,48.99]]]}},{"type":"Feature","properties":{"code":"95541","nom":"Saint-Clair-sur-Epte","pop":964},"geometry":{"type":"Polygon","coordinates":[[[1.671,49.19],[1.675,49.204],[1.704,49.232],[1.74,49.224],[1.716,49.203],[1.681,49.183],[1.672,49.181],[1.671,49.19]]]}},{"type":"Feature","properties":{"code":"95543","nom":"Saint-Cyr-en-Arthies","pop":236},"geometry":{"type":"Polygon","coordinates":[[[1.735,49.049],[1.732,49.051],[1.724,49.055],[1.741,49.073],[1.746,49.073],[1.759,49.063],[1.751,49.048],[1.735,49.049]]]}},{"type":"Feature","properties":{"code":"95554","nom":"Saint-Gervais","pop":878},"geometry":{"type":"Polygon","coordinates":[[[1.776,49.185],[1.777,49.185],[1.794,49.18],[1.775,49.153],[1.742,49.147],[1.719,49.166],[1.722,49.172],[1.742,49.18],[1.776,49.185]]]}},{"type":"Feature","properties":{"code":"95555","nom":"Saint-Gratien","pop":21336},"geometry":{"type":"Polygon","coordinates":[[[2.273,48.977],[2.274,48.977],[2.292,48.977],[2.298,48.975],[2.299,48.966],[2.288,48.958],[2.274,48.964],[2.273,48.977]]]}},{"type":"Feature","properties":{"code":"95563","nom":"Saint-Leu-la-Forêt","pop":16138},"geometry":{"type":"Polygon","coordinates":[[[2.252,49.002],[2.251,49.001],[2.224,49.012],[2.253,49.041],[2.258,49.04],[2.252,49.002]]]}},{"type":"Feature","properties":{"code":"95566","nom":"Saint-Martin-du-Tertre","pop":2689},"geometry":{"type":"Polygon","coordinates":[[[2.35,49.081],[2.339,49.077],[2.312,49.098],[2.32,49.125],[2.337,49.123],[2.355,49.122],[2.361,49.107],[2.35,49.081]]]}},{"type":"Feature","properties":{"code":"95572","nom":"Saint-Ouen-l'Aumône","pop":25578},"geometry":{"type":"Polygon","coordinates":[[[2.129,49.023],[2.116,49.023],[2.096,49.036],[2.127,49.064],[2.142,49.066],[2.156,49.036],[2.129,49.023]]]}},{"type":"Feature","properties":{"code":"95574","nom":"Saint-Prix","pop":7612},"geometry":{"type":"Polygon","coordinates":[[[2.294,49.03],[2.296,49.027],[2.273,49.006],[2.263,48.998],[2.252,49.002],[2.258,49.04],[2.275,49.036],[2.294,49.03]]]}},{"type":"Feature","properties":{"code":"95580","nom":"Saint-Witz","pop":2724},"geometry":{"type":"Polygon","coordinates":[[[2.583,49.081],[2.546,49.071],[2.529,49.078],[2.525,49.098],[2.531,49.096],[2.56,49.098],[2.573,49.094],[2.58,49.09],[2.583,49.081]]]}},{"type":"Feature","properties":{"code":"95582","nom":"Sannois","pop":26924},"geometry":{"type":"Polygon","coordinates":[[[2.226,48.971],[2.229,48.973],[2.243,48.984],[2.273,48.977],[2.274,48.964],[2.226,48.971]]]}},{"type":"Feature","properties":{"code":"95584","nom":"Santeuil","pop":658},"geometry":{"type":"Polygon","coordinates":[[[1.975,49.125],[1.95,49.119],[1.931,49.13],[1.934,49.132],[1.961,49.145],[1.982,49.131],[1.975,49.125]]]}},{"type":"Feature","properties":{"code":"95585","nom":"Sarcelles","pop":59173},"geometry":{"type":"Polygon","coordinates":[[[2.382,48.971],[2.376,48.972],[2.366,48.974],[2.364,48.979],[2.366,48.99],[2.363,49.01],[2.38,49.014],[2.408,48.992],[2.401,48.983],[2.382,48.971]]]}},{"type":"Feature","properties":{"code":"95592","nom":"Seraincourt","pop":1305},"geometry":{"type":"Polygon","coordinates":[[[1.882,49.02],[1.861,49.014],[1.859,49.014],[1.851,49.033],[1.865,49.057],[1.896,49.066],[1.899,49.065],[1.908,49.048],[1.882,49.02]]]}},{"type":"Feature","properties":{"code":"95594","nom":"Seugy","pop":1044},"geometry":{"type":"Polygon","coordinates":[[[2.396,49.116],[2.384,49.118],[2.387,49.129],[2.408,49.126],[2.396,49.116]]]}},{"type":"Feature","properties":{"code":"95598","nom":"Soisy-sous-Montmorency","pop":18008},"geometry":{"type":"Polygon","coordinates":[[[2.307,48.977],[2.298,48.975],[2.292,48.977],[2.293,48.996],[2.311,49.002],[2.307,48.977]]]}},{"type":"Feature","properties":{"code":"95604","nom":"Survilliers","pop":4091},"geometry":{"type":"Polygon","coordinates":[[[2.542,49.122],[2.56,49.098],[2.531,49.096],[2.531,49.099],[2.542,49.122]]]}},{"type":"Feature","properties":{"code":"95607","nom":"Taverny","pop":27593},"geometry":{"type":"Polygon","coordinates":[[[2.224,49.012],[2.217,49.003],[2.215,49.004],[2.183,49.025],[2.217,49.031],[2.224,49.045],[2.231,49.052],[2.234,49.05],[2.253,49.041],[2.224,49.012]]]}},{"type":"Feature","properties":{"code":"95610","nom":"Théméricourt","pop":283},"geometry":{"type":"Polygon","coordinates":[[[1.896,49.066],[1.891,49.072],[1.906,49.111],[1.914,49.108],[1.926,49.103],[1.922,49.095],[1.904,49.075],[1.899,49.065],[1.896,49.066]]]}},{"type":"Feature","properties":{"code":"95611","nom":"Theuville","pop":53},"geometry":{"type":"Polygon","coordinates":[[[2.085,49.153],[2.085,49.149],[2.067,49.143],[2.059,49.153],[2.05,49.163],[2.073,49.17],[2.087,49.161],[2.085,49.153]]]}},{"type":"Feature","properties":{"code":"95612","nom":"Le Thillay","pop":4560},"geometry":{"type":"Polygon","coordinates":[[[2.443,49.011],[2.491,49.01],[2.488,49.002],[2.483,48.999],[2.443,49.011]]]}},{"type":"Feature","properties":{"code":"95625","nom":"Us","pop":1374},"geometry":{"type":"Polygon","coordinates":[[[1.95,49.119],[1.975,49.125],[1.989,49.109],[1.951,49.086],[1.922,49.095],[1.926,49.103],[1.95,49.119]]]}},{"type":"Feature","properties":{"code":"95627","nom":"Vallangoujard","pop":625},"geometry":{"type":"Polygon","coordinates":[[[2.106,49.114],[2.092,49.116],[2.085,49.149],[2.085,49.153],[2.112,49.144],[2.114,49.123],[2.106,49.114]]]}},{"type":"Feature","properties":{"code":"95628","nom":"Valmondois","pop":1208},"geometry":{"type":"Polygon","coordinates":[[[2.209,49.094],[2.208,49.091],[2.174,49.088],[2.16,49.104],[2.181,49.109],[2.209,49.094]]]}},{"type":"Feature","properties":{"code":"95633","nom":"Vaudherland","pop":104},"geometry":{"type":"Polygon","coordinates":[[[2.486,48.999],[2.483,48.999],[2.488,49.002],[2.486,48.999]]]}},{"type":"Feature","properties":{"code":"95637","nom":"Vauréal","pop":16079},"geometry":{"type":"Polygon","coordinates":[[[2.011,49.021],[2.01,49.027],[2.016,49.04],[2.038,49.034],[2.041,49.026],[2.011,49.021]]]}},{"type":"Feature","properties":{"code":"95641","nom":"Vémars","pop":3124},"geometry":{"type":"Polygon","coordinates":[[[2.583,49.081],[2.59,49.08],[2.571,49.061],[2.595,49.047],[2.569,49.04],[2.568,49.041],[2.55,49.053],[2.546,49.071],[2.583,49.081]]]}},{"type":"Feature","properties":{"code":"95651","nom":"Vétheuil","pop":849},"geometry":{"type":"Polygon","coordinates":[[[1.732,49.051],[1.723,49.045],[1.694,49.057],[1.687,49.072],[1.692,49.075],[1.703,49.079],[1.706,49.078],[1.724,49.055],[1.732,49.051]]]}},{"type":"Feature","properties":{"code":"95652","nom":"Viarmes","pop":5558},"geometry":{"type":"Polygon","coordinates":[[[2.396,49.116],[2.391,49.11],[2.361,49.107],[2.355,49.122],[2.376,49.139],[2.411,49.134],[2.408,49.126],[2.387,49.129],[2.384,49.118],[2.396,49.116]]]}},{"type":"Feature","properties":{"code":"95656","nom":"Vienne-en-Arthies","pop":379},"geometry":{"type":"Polygon","coordinates":[[[1.741,49.073],[1.724,49.055],[1.706,49.078],[1.741,49.073]]]}},{"type":"Feature","properties":{"code":"95658","nom":"Vigny","pop":1137},"geometry":{"type":"Polygon","coordinates":[[[1.904,49.075],[1.922,49.095],[1.951,49.086],[1.953,49.078],[1.904,49.075]]]}},{"type":"Feature","properties":{"code":"95660","nom":"Villaines-sous-Bois","pop":778},"geometry":{"type":"Polygon","coordinates":[[[2.37,49.073],[2.367,49.068],[2.339,49.076],[2.339,49.077],[2.35,49.081],[2.37,49.073]]]}},{"type":"Feature","properties":{"code":"95675","nom":"Villeron","pop":1766},"geometry":{"type":"Polygon","coordinates":[[[2.55,49.053],[2.528,49.038],[2.523,49.063],[2.529,49.078],[2.546,49.071],[2.55,49.053]]]}},{"type":"Feature","properties":{"code":"95676","nom":"Villers-en-Arthies","pop":498},"geometry":{"type":"Polygon","coordinates":[[[1.741,49.099],[1.754,49.09],[1.761,49.087],[1.746,49.073],[1.741,49.073],[1.706,49.078],[1.703,49.079],[1.708,49.094],[1.741,49.099]]]}},{"type":"Feature","properties":{"code":"95678","nom":"Villiers-Adam","pop":858},"geometry":{"type":"Polygon","coordinates":[[[2.274,49.077],[2.272,49.069],[2.255,49.071],[2.234,49.05],[2.231,49.052],[2.204,49.061],[2.203,49.065],[2.236,49.088],[2.251,49.091],[2.274,49.077]]]}},{"type":"Feature","properties":{"code":"95680","nom":"Villiers-le-Bel","pop":30053},"geometry":{"type":"Polygon","coordinates":[[[2.41,49.024],[2.411,49.024],[2.425,49.014],[2.416,48.999],[2.408,48.992],[2.38,49.014],[2.41,49.024]]]}},{"type":"Feature","properties":{"code":"95682","nom":"Villiers-le-Sec","pop":205},"geometry":{"type":"Polygon","coordinates":[[[2.396,49.087],[2.405,49.082],[2.394,49.069],[2.375,49.063],[2.367,49.068],[2.37,49.073],[2.396,49.087]]]}},{"type":"Feature","properties":{"code":"95690","nom":"Wy-dit-Joli-Village","pop":326},"geometry":{"type":"Polygon","coordinates":[[[1.823,49.076],[1.815,49.076],[1.815,49.108],[1.828,49.117],[1.849,49.102],[1.823,49.076]]]}}]}