{"type":"FeatureCollection","features":[{"type":"Feature","properties":{"code":"97201","nom":"L'Ajoupa-Bouillon","pop":1682},"geometry":{"type":"Polygon","coordinates":[[[-61.164,14.812],[-61.164,14.816],[-61.142,14.809],[-61.125,14.826],[-61.097,14.831],[-61.108,14.808],[-61.126,14.799],[-61.149,14.806],[-61.164,14.812]]]}},{"type":"Feature","properties":{"code":"97202","nom":"Les Anses-d'Arlet","pop":3912},"geometry":{"type":"Polygon","coordinates":[[[-61.053,14.456],[-61.082,14.471],[-61.08,14.489],[-61.097,14.514],[-61.074,14.541],[-61.056,14.506],[-61.053,14.456]]]}},{"type":"Feature","properties":{"code":"97203","nom":"Basse-Pointe","pop":2852},"geometry":{"type":"Polygon","coordinates":[[[-61.164,14.816],[-61.164,14.816],[-61.125,14.874],[-61.083,14.852],[-61.097,14.831],[-61.125,14.826],[-61.142,14.809],[-61.164,14.816]]]}},{"type":"Feature","properties":{"code":"97204","nom":"Le Carbet","pop":3721},"geometry":{"type":"Polygon","coordinates":[[[-61.156,14.733],[-61.122,14.719],[-61.158,14.714],[-61.154,14.694],[-61.168,14.675],[-61.185,14.709],[-61.179,14.733],[-61.156,14.733]]]}},{"type":"Feature","properties":{"code":"97205","nom":"Case-Pilote","pop":4537},"geometry":{"type":"Polygon","coordinates":[[[-61.124,14.69],[-61.116,14.691],[-61.108,14.653],[-61.118,14.628],[-61.135,14.633],[-61.154,14.656],[-61.129,14.668],[-61.124,14.69]]]}},{"type":"Feature","properties":{"code":"97206","nom":"Le Diamant","pop":6161},"geometry":{"type":"Polygon","coordinates":[[[-60.983,14.501],[-60.984,14.486],[-60.997,14.468],[-61.019,14.481],[-61.042,14.473],[-61.053,14.456],[-61.056,14.506],[-61.004,14.509],[-60.983,14.501]]]}},{"type":"Feature","properties":{"code":"97207","nom":"Ducos","pop":18105},"geometry":{"type":"Polygon","coordinates":[[[-60.954,14.555],[-60.977,14.552],[-60.977,14.555],[-60.981,14.554],[-60.986,14.557],[-60.994,14.575],[-61.002,14.562],[-60.994,14.584],[-60.965,14.609],[-60.947,14.607],[-60.936,14.588],[-60.954,14.555]]]}},{"type":"Feature","properties":{"code":"97208","nom":"Fonds-Saint-Denis","pop":640},"geometry":{"type":"Polygon","coordinates":[[[-61.085,14.725],[-61.084,14.708],[-61.101,14.696],[-61.113,14.703],[-61.122,14.719],[-61.156,14.733],[-61.133,14.746],[-61.109,14.738],[-61.087,14.743],[-61.079,14.727],[-61.085,14.725]]]}},{"type":"Feature","properties":{"code":"97209","nom":"Fort-de-France","pop":75506},"geometry":{"type":"Polygon","coordinates":[[[-61.101,14.696],[-61.084,14.708],[-61.084,14.678],[-61.039,14.643],[-61.037,14.609],[-61.091,14.6],[-61.082,14.638],[-61.097,14.663],[-61.101,14.696]]]}},{"type":"Feature","properties":{"code":"97210","nom":"Le François","pop":15778},"geometry":{"type":"Polygon","coordinates":[[[-60.896,14.563],[-60.936,14.588],[-60.947,14.607],[-60.949,14.634],[-60.927,14.634],[-60.912,14.654],[-60.894,14.65],[-60.896,14.621],[-60.85,14.585],[-60.896,14.563]]]}},{"type":"Feature","properties":{"code":"97211","nom":"Grand'Rivière","pop":487},"geometry":{"type":"Polygon","coordinates":[[[-61.167,14.817],[-61.192,14.832],[-61.204,14.862],[-61.166,14.877],[-61.167,14.817]]]}},{"type":"Feature","properties":{"code":"97212","nom":"Gros-Morne","pop":9610},"geometry":{"type":"Polygon","coordinates":[[[-60.977,14.698],[-60.989,14.684],[-60.994,14.673],[-61.057,14.702],[-61.085,14.725],[-61.079,14.727],[-61.052,14.744],[-61.022,14.735],[-60.988,14.721],[-60.977,14.698]]]}},{"type":"Feature","properties":{"code":"97213","nom":"Le Lamentin","pop":39400},"geometry":{"type":"Polygon","coordinates":[[[-61.039,14.643],[-61.005,14.658],[-60.994,14.673],[-60.989,14.684],[-60.959,14.656],[-60.949,14.634],[-60.947,14.607],[-60.965,14.609],[-60.994,14.584],[-61.002,14.562],[-61.01,14.583],[-61.008,14.612],[-61.037,14.609],[-61.039,14.643]]]}},{"type":"Feature","properties":{"code":"97214","nom":"Le Lorrain","pop":6566},"geometry":{"type":"Polygon","coordinates":[[[-61.086,14.747],[-61.099,14.772],[-61.108,14.808],[-61.097,14.831],[-61.083,14.852],[-61.054,14.833],[-61.04,14.832],[-61.054,14.799],[-61.064,14.752],[-61.086,14.747]]]}},{"type":"Feature","properties":{"code":"97215","nom":"Macouba","pop":987},"geometry":{"type":"Polygon","coordinates":[[[-61.164,14.816],[-61.167,14.817],[-61.166,14.877],[-61.125,14.874],[-61.164,14.816]]]}},{"type":"Feature","properties":{"code":"97216","nom":"Le Marigot","pop":2948},"geometry":{"type":"Polygon","coordinates":[[[-61.087,14.743],[-61.086,14.747],[-61.064,14.752],[-61.054,14.799],[-61.04,14.832],[-61.019,14.81],[-61.047,14.785],[-61.052,14.744],[-61.079,14.727],[-61.087,14.743]]]}},{"type":"Feature","properties":{"code":"97217","nom":"Le Marin","pop":8486},"geometry":{"type":"Polygon","coordinates":[[[-60.824,14.471],[-60.86,14.466],[-60.882,14.469],[-60.907,14.457],[-60.865,14.515],[-60.824,14.499],[-60.824,14.471]]]}},{"type":"Feature","properties":{"code":"97218","nom":"Le Morne-Rouge","pop":4388},"geometry":{"type":"Polygon","coordinates":[[[-61.087,14.743],[-61.109,14.738],[-61.133,14.746],[-61.159,14.76],[-61.146,14.78],[-61.149,14.806],[-61.126,14.799],[-61.108,14.808],[-61.099,14.772],[-61.086,14.747],[-61.087,14.743]]]}},{"type":"Feature","properties":{"code":"97219","nom":"Le Prêcheur","pop":1479},"geometry":{"type":"Polygon","coordinates":[[[-61.167,14.817],[-61.164,14.816],[-61.164,14.816],[-61.164,14.812],[-61.208,14.793],[-61.214,14.782],[-61.227,14.802],[-61.223,14.838],[-61.204,14.862],[-61.192,14.832],[-61.167,14.817]]]}},{"type":"Feature","properties":{"code":"97220","nom":"Rivière-Pilote","pop":11604},"geometry":{"type":"Polygon","coordinates":[[[-60.929,14.518],[-60.925,14.538],[-60.908,14.534],[-60.891,14.548],[-60.869,14.532],[-60.865,14.515],[-60.907,14.457],[-60.911,14.469],[-60.914,14.491],[-60.929,14.518]]]}},{"type":"Feature","properties":{"code":"97221","nom":"Rivière-Salée","pop":11829},"geometry":{"type":"Polygon","coordinates":[[[-60.977,14.552],[-60.954,14.555],[-60.925,14.538],[-60.929,14.518],[-60.934,14.506],[-60.96,14.497],[-60.983,14.501],[-61.004,14.509],[-61.003,14.532],[-60.98,14.551],[-60.977,14.552],[-60.977,14.552]]]}},{"type":"Feature","properties":{"code":"97222","nom":"Le Robert","pop":21553},"geometry":{"type":"Polygon","coordinates":[[[-60.989,14.684],[-60.977,14.698],[-60.929,14.717],[-60.919,14.694],[-60.942,14.668],[-60.926,14.651],[-60.913,14.665],[-60.894,14.65],[-60.912,14.654],[-60.927,14.634],[-60.949,14.634],[-60.959,14.656],[-60.989,14.684]]]}},{"type":"Feature","properties":{"code":"97223","nom":"Saint-Esprit","pop":10322},"geometry":{"type":"Polygon","coordinates":[[[-60.896,14.563],[-60.891,14.548],[-60.908,14.534],[-60.925,14.538],[-60.954,14.555],[-60.936,14.588],[-60.896,14.563]]]}},{"type":"Feature","properties":{"code":"97224","nom":"Saint-Joseph","pop":16258},"geometry":{"type":"Polygon","coordinates":[[[-61.084,14.708],[-61.085,14.725],[-61.057,14.702],[-60.994,14.673],[-61.005,14.658],[-61.039,14.643],[-61.084,14.678],[-61.084,14.708]]]}},{"type":"Feature","properties":{"code":"97225","nom":"Saint-Pierre","pop":3961},"geometry":{"type":"Polygon","coordinates":[[[-61.133,14.746],[-61.156,14.733],[-61.179,14.733],[-61.177,14.745],[-61.214,14.782],[-61.208,14.793],[-61.164,14.812],[-61.149,14.806],[-61.146,14.78],[-61.159,14.76],[-61.133,14.746]]]}},{"type":"Feature","properties":{"code":"97226","nom":"Sainte-Anne","pop":4306},"geometry":{"type":"Polygon","coordinates":[[[-60.824,14.471],[-60.826,14.437],[-60.85,14.419],[-60.858,14.398],[-60.885,14.405],[-60.886,14.427],[-60.86,14.466],[-60.824,14.471]]]}},{"type":"Feature","properties":{"code":"97227","nom":"Sainte-Luce","pop":9410},"geometry":{"type":"Polygon","coordinates":[[[-60.984,14.486],[-60.983,14.501],[-60.96,14.497],[-60.934,14.506],[-60.929,14.518],[-60.914,14.491],[-60.911,14.469],[-60.934,14.463],[-60.969,14.47],[-60.984,14.486]]]}},{"type":"Feature","properties":{"code":"97228","nom":"Sainte-Marie","pop":14756},"geometry":{"type":"Polygon","coordinates":[[[-61.052,14.744],[-61.047,14.785],[-61.019,14.81],[-60.973,14.763],[-61.022,14.735],[-61.052,14.744]]]}},{"type":"Feature","properties":{"code":"97229","nom":"Schœlcher","pop":19478},"geometry":{"type":"Polygon","coordinates":[[[-61.101,14.696],[-61.097,14.663],[-61.082,14.638],[-61.091,14.6],[-61.118,14.628],[-61.108,14.653],[-61.116,14.691],[-61.113,14.703],[-61.101,14.696]]]}},{"type":"Feature","properties":{"code":"97230","nom":"La Trinité","pop":11454},"geometry":{"type":"Polygon","coordinates":[[[-61.022,14.735],[-60.973,14.763],[-60.963,14.746],[-60.932,14.762],[-60.889,14.767],[-60.901,14.735],[-60.926,14.751],[-60.943,14.743],[-60.929,14.717],[-60.977,14.698],[-60.988,14.721],[-61.022,14.735]]]}},{"type":"Feature","properties":{"code":"97231","nom":"Les Trois-Îlets","pop":6507},"geometry":{"type":"Polygon","coordinates":[[[-61.004,14.509],[-61.056,14.506],[-61.074,14.541],[-61.061,14.549],[-61.003,14.532],[-61.004,14.509]]]}},{"type":"Feature","properties":{"code":"97232","nom":"Le Vauclin","pop":8483},"geometry":{"type":"Polygon","coordinates":[[[-60.85,14.585],[-60.855,14.573],[-60.827,14.54],[-60.838,14.512],[-60.824,14.499],[-60.865,14.515],[-60.869,14.532],[-60.891,14.548],[-60.896,14.563],[-60.85,14.585]]]}},{"type":"Feature","properties":{"code":"97233","nom":"Le Morne-Vert","pop":1718},"geometry":{"type":"Polygon","coordinates":[[[-61.116,14.691],[-61.124,14.69],[-61.154,14.694],[-61.158,14.714],[-61.122,14.719],[-61.113,14.703],[-61.116,14.691]]]}},{"type":"Feature","properties":{"code":"97234","nom":"Bellefontaine","pop":1746},"geometry":{"type":"Polygon","coordinates":[[[-61.154,14.694],[-61.124,14.69],[-61.129,14.668],[-61.154,14.656],[-61.168,14.675],[-61.154,14.694]]]}}]}