{"type":"FeatureCollection","features":[{"type":"Feature","properties":{"code":"97401","nom":"Les Avirons"},"geometry":{"type":"Polygon","coordinates":[[[55.405,-21.145],[55.406,-21.147],[55.386,-21.186],[55.358,-21.219],[55.353,-21.253],[55.322,-21.253],[55.321,-21.249],[55.335,-21.216],[55.352,-21.195],[55.405,-21.145]]]}},{"type":"Feature","properties":{"code":"97402","nom":"Bras-Panon"},"geometry":{"type":"Polygon","coordinates":[[[55.701,-21.005],[55.684,-21.009],[55.659,-21.035],[55.619,-21.041],[55.587,-21.085],[55.552,-21.073],[55.561,-21.064],[55.554,-21.036],[55.562,-21.019],[55.585,-21.001],[55.6,-21.003],[55.639,-20.978],[55.673,-20.985],[55.7,-20.979],[55.701,-21.005]]]}},{"type":"Feature","properties":{"code":"97403","nom":"Entre-Deux"},"geometry":{"type":"Polygon","coordinates":[[[55.507,-21.14],[55.527,-21.136],[55.532,-21.175],[55.515,-21.187],[55.512,-21.226],[55.479,-21.255],[55.455,-21.286],[55.464,-21.254],[55.459,-21.236],[55.462,-21.195],[55.495,-21.177],[55.507,-21.14]]]}},{"type":"Feature","properties":{"code":"97404","nom":"L'Étang-Salé"},"geometry":{"type":"Polygon","coordinates":[[[55.391,-21.293],[55.339,-21.281],[55.322,-21.253],[55.353,-21.253],[55.358,-21.219],[55.386,-21.186],[55.392,-21.26],[55.38,-21.282],[55.391,-21.293]]]}},{"type":"Feature","properties":{"code":"97405","nom":"Petite-Île"},"geometry":{"type":"Polygon","coordinates":[[[55.583,-21.372],[55.572,-21.376],[55.536,-21.363],[55.547,-21.322],[55.581,-21.309],[55.604,-21.288],[55.588,-21.316],[55.589,-21.357],[55.583,-21.372]]]}},{"type":"Feature","properties":{"code":"97406","nom":"La Plaine-des-Palmistes"},"geometry":{"type":"Polygon","coordinates":[[[55.661,-21.204],[55.638,-21.167],[55.624,-21.181],[55.591,-21.173],[55.573,-21.134],[55.63,-21.118],[55.655,-21.105],[55.716,-21.172],[55.683,-21.185],[55.661,-21.204]]]}},{"type":"Feature","properties":{"code":"97407","nom":"Le Port"},"geometry":{"type":"Polygon","coordinates":[[[55.33,-20.928],[55.319,-20.969],[55.298,-20.957],[55.277,-20.958],[55.289,-20.923],[55.33,-20.928]]]}},{"type":"Feature","properties":{"code":"97408","nom":"La Possession"},"geometry":{"type":"Polygon","coordinates":[[[55.461,-21.015],[55.452,-21.061],[55.465,-21.086],[55.464,-21.086],[55.422,-21.097],[55.405,-21.082],[55.417,-21.068],[55.402,-21.049],[55.4,-21.009],[55.355,-20.976],[55.319,-20.969],[55.33,-20.928],[55.376,-20.896],[55.392,-20.938],[55.419,-20.983],[55.449,-20.999],[55.461,-21.015]]]}},{"type":"Feature","properties":{"code":"97409","nom":"Saint-André"},"geometry":{"type":"Polygon","coordinates":[[[55.629,-20.911],[55.665,-20.925],[55.683,-20.945],[55.7,-20.979],[55.673,-20.985],[55.639,-20.978],[55.6,-21.003],[55.585,-21.001],[55.574,-20.993],[55.594,-20.971],[55.646,-20.939],[55.629,-20.911]]]}},{"type":"Feature","properties":{"code":"97410","nom":"Saint-Benoît"},"geometry":{"type":"Polygon","coordinates":[[[55.573,-21.134],[55.527,-21.136],[55.507,-21.14],[55.495,-21.111],[55.501,-21.102],[55.552,-21.073],[55.587,-21.085],[55.619,-21.041],[55.659,-21.035],[55.684,-21.009],[55.701,-21.005],[55.708,-21.028],[55.732,-21.051],[55.737,-21.07],[55.767,-21.104],[55.742,-21.13],[55.747,-21.144],[55.731,-21.168],[55.716,-21.172],[55.655,-21.105],[55.63,-21.118],[55.573,-21.134]]]}},{"type":"Feature","properties":{"code":"97411","nom":"Saint-Denis"},"geometry":{"type":"Polygon","coordinates":[[[55.376,-20.896],[55.396,-20.882],[55.452,-20.872],[55.47,-20.884],[55.502,-20.882],[55.504,-20.931],[55.49,-20.967],[55.488,-20.991],[55.469,-21.01],[55.461,-21.015],[55.449,-20.999],[55.419,-20.983],[55.392,-20.938],[55.376,-20.896]]]}},{"type":"Feature","properties":{"code":"97412","nom":"Saint-Joseph"},"geometry":{"type":"Polygon","coordinates":[[[55.604,-21.288],[55.602,-21.273],[55.601,-21.247],[55.615,-21.21],[55.634,-21.195],[55.654,-21.212],[55.648,-21.237],[55.679,-21.24],[55.691,-21.281],[55.688,-21.301],[55.706,-21.371],[55.7,-21.376],[55.68,-21.375],[55.649,-21.389],[55.61,-21.387],[55.583,-21.372],[55.589,-21.357],[55.588,-21.316],[55.604,-21.288]]]}},{"type":"Feature","properties":{"code":"97413","nom":"Saint-Leu"},"geometry":{"type":"Polygon","coordinates":[[[55.321,-21.249],[55.294,-21.231],[55.281,-21.202],[55.287,-21.161],[55.271,-21.136],[55.315,-21.12],[55.351,-21.114],[55.416,-21.123],[55.405,-21.145],[55.352,-21.195],[55.335,-21.216],[55.321,-21.249]]]}},{"type":"Feature","properties":{"code":"97414","nom":"Saint-Louis"},"geometry":{"type":"Polygon","coordinates":[[[55.404,-21.304],[55.391,-21.293],[55.38,-21.282],[55.392,-21.26],[55.386,-21.186],[55.406,-21.147],[55.438,-21.19],[55.462,-21.195],[55.459,-21.236],[55.464,-21.254],[55.455,-21.286],[55.404,-21.304]]]}},{"type":"Feature","properties":{"code":"97415","nom":"Saint-Paul"},"geometry":{"type":"Polygon","coordinates":[[[55.254,-21.11],[55.221,-21.076],[55.216,-21.039],[55.235,-21.018],[55.274,-21.004],[55.282,-20.97],[55.277,-20.958],[55.298,-20.957],[55.319,-20.969],[55.355,-20.976],[55.4,-21.009],[55.402,-21.049],[55.417,-21.068],[55.405,-21.082],[55.422,-21.097],[55.464,-21.086],[55.455,-21.1],[55.423,-21.116],[55.396,-21.098],[55.309,-21.092],[55.254,-21.11]]]}},{"type":"Feature","properties":{"code":"97416","nom":"Saint-Pierre"},"geometry":{"type":"Polygon","coordinates":[[[55.602,-21.273],[55.604,-21.288],[55.581,-21.309],[55.547,-21.322],[55.536,-21.363],[55.46,-21.341],[55.43,-21.326],[55.404,-21.304],[55.455,-21.286],[55.479,-21.255],[55.535,-21.317],[55.57,-21.298],[55.602,-21.273]]]}},{"type":"Feature","properties":{"code":"97417","nom":"Saint-Philippe"},"geometry":{"type":"Polygon","coordinates":[[[55.679,-21.24],[55.804,-21.252],[55.809,-21.331],[55.781,-21.362],[55.7,-21.376],[55.706,-21.371],[55.688,-21.301],[55.691,-21.281],[55.679,-21.24]]]}},{"type":"Feature","properties":{"code":"97418","nom":"Sainte-Marie"},"geometry":{"type":"Polygon","coordinates":[[[55.575,-20.895],[55.57,-20.948],[55.541,-21.004],[55.507,-21],[55.469,-21.01],[55.488,-20.991],[55.49,-20.967],[55.504,-20.931],[55.502,-20.882],[55.551,-20.895],[55.575,-20.895]]]}},{"type":"Feature","properties":{"code":"97419","nom":"Sainte-Rose"},"geometry":{"type":"Polygon","coordinates":[[[55.804,-21.252],[55.679,-21.24],[55.648,-21.237],[55.654,-21.212],[55.661,-21.204],[55.683,-21.185],[55.716,-21.172],[55.731,-21.168],[55.747,-21.144],[55.742,-21.13],[55.767,-21.104],[55.78,-21.122],[55.827,-21.145],[55.837,-21.183],[55.809,-21.227],[55.804,-21.252]]]}},{"type":"Feature","properties":{"code":"97420","nom":"Sainte-Suzanne"},"geometry":{"type":"Polygon","coordinates":[[[55.574,-20.993],[55.541,-21.004],[55.57,-20.948],[55.575,-20.895],[55.629,-20.911],[55.646,-20.939],[55.594,-20.971],[55.574,-20.993]]]}},{"type":"Feature","properties":{"code":"97421","nom":"Salazie"},"geometry":{"type":"Polygon","coordinates":[[[55.469,-21.01],[55.507,-21],[55.541,-21.004],[55.574,-20.993],[55.585,-21.001],[55.562,-21.019],[55.554,-21.036],[55.561,-21.064],[55.552,-21.073],[55.501,-21.102],[55.495,-21.111],[55.465,-21.086],[55.452,-21.061],[55.461,-21.015],[55.469,-21.01]]]}},{"type":"Feature","properties":{"code":"97422","nom":"Le Tampon"},"geometry":{"type":"Polygon","coordinates":[[[55.479,-21.255],[55.512,-21.226],[55.515,-21.187],[55.532,-21.175],[55.527,-21.136],[55.573,-21.134],[55.591,-21.173],[55.624,-21.181],[55.638,-21.167],[55.661,-21.204],[55.654,-21.212],[55.634,-21.195],[55.615,-21.21],[55.601,-21.247],[55.602,-21.273],[55.57,-21.298],[55.535,-21.317],[55.479,-21.255]]]}},{"type":"Feature","properties":{"code":"97423","nom":"Les Trois-Bassins"},"geometry":{"type":"Polygon","coordinates":[[[55.423,-21.116],[55.416,-21.123],[55.351,-21.114],[55.315,-21.12],[55.271,-21.136],[55.254,-21.11],[55.309,-21.092],[55.396,-21.098],[55.423,-21.116]]]}},{"type":"Feature","properties":{"code":"97424","nom":"Cilaos"},"geometry":{"type":"Polygon","coordinates":[[[55.406,-21.147],[55.405,-21.145],[55.416,-21.123],[55.423,-21.116],[55.455,-21.1],[55.464,-21.086],[55.465,-21.086],[55.495,-21.111],[55.507,-21.14],[55.495,-21.177],[55.462,-21.195],[55.438,-21.19],[55.406,-21.147]]]}}]}