{"type":"FeatureCollection","features":[{"type":"Feature","properties":{"code":"97501","nom":"Miquelon-Langlade","pop":596},"geometry":{"type":"Polygon","coordinates":[[[-56.372,46.793],[-56.37,46.823],[-56.406,46.834],[-56.381,46.857],[-56.357,46.863],[-56.33,46.897],[-56.329,46.935],[-56.359,47.005],[-56.383,47.021],[-56.389,47.054],[-56.378,47.103],[-56.331,47.091],[-56.298,47.073],[-56.254,47.059],[-56.25,47.04],[-56.27,46.999],[-56.304,46.978],[-56.326,46.927],[-56.319,46.907],[-56.289,46.891],[-56.27,46.895],[-56.239,46.871],[-56.243,46.844],[-56.319,46.803],[-56.372,46.793]]]}},{"type":"Feature","properties":{"code":"97502","nom":"Saint-Pierre","pop":5194},"geometry":{"type":"Polygon","coordinates":[[[-56.171,46.779],[-56.192,46.758],[-56.234,46.767],[-56.192,46.811],[-56.166,46.816],[-56.154,46.797],[-56.171,46.779]]]}}]}