{"type":"FeatureCollection","features":[{"type":"Feature","properties":{"code":"97601","nom":"Acoua","pop":5192},"geometry":{"type":"Polygon","coordinates":[[[45.052,-12.702],[45.059,-12.712],[45.096,-12.716],[45.095,-12.732],[45.065,-12.734],[45.043,-12.748],[45.042,-12.722],[45.052,-12.702]]]}},{"type":"Feature","properties":{"code":"97602","nom":"Bandraboua","pop":13989},"geometry":{"type":"Polygon","coordinates":[[[45.096,-12.673],[45.126,-12.701],[45.131,-12.731],[45.146,-12.728],[45.159,-12.762],[45.126,-12.754],[45.095,-12.732],[45.096,-12.716],[45.089,-12.691],[45.096,-12.673]]]}},{"type":"Feature","properties":{"code":"97603","nom":"Bandrele","pop":10282},"geometry":{"type":"Polygon","coordinates":[[[45.157,-12.979],[45.141,-12.966],[45.156,-12.962],[45.167,-12.913],[45.163,-12.88],[45.194,-12.886],[45.222,-12.872],[45.198,-12.896],[45.17,-12.943],[45.192,-12.987],[45.157,-12.979]]]}},{"type":"Feature","properties":{"code":"97604","nom":"Bouéni","pop":6189},"geometry":{"type":"Polygon","coordinates":[[[45.126,-12.934],[45.119,-12.944],[45.084,-12.961],[45.104,-12.931],[45.083,-12.922],[45.078,-12.898],[45.099,-12.899],[45.106,-12.923],[45.126,-12.934]]]}},{"type":"Feature","properties":{"code":"97605","nom":"Chiconi","pop":8295},"geometry":{"type":"Polygon","coordinates":[[[45.122,-12.84],[45.121,-12.84],[45.101,-12.834],[45.1,-12.802],[45.122,-12.808],[45.122,-12.84]]]}},{"type":"Feature","properties":{"code":"97606","nom":"Chirongui","pop":8920},"geometry":{"type":"Polygon","coordinates":[[[45.141,-12.966],[45.119,-12.944],[45.126,-12.934],[45.154,-12.925],[45.132,-12.889],[45.138,-12.869],[45.154,-12.874],[45.163,-12.88],[45.167,-12.913],[45.156,-12.962],[45.141,-12.966]]]}},{"type":"Feature","properties":{"code":"97607","nom":"Dembeni","pop":15848},"geometry":{"type":"Polygon","coordinates":[[[45.163,-12.88],[45.154,-12.874],[45.145,-12.836],[45.155,-12.82],[45.198,-12.822],[45.189,-12.839],[45.201,-12.862],[45.222,-12.872],[45.194,-12.886],[45.163,-12.88]]]}},{"type":"Feature","properties":{"code":"97608","nom":"Dzaoudzi","pop":17831},"geometry":{"type":"Polygon","coordinates":[[[45.296,-12.784],[45.271,-12.793],[45.275,-12.771],[45.296,-12.784]]]}},{"type":"Feature","properties":{"code":"97609","nom":"Kani-Kéli","pop":5507},"geometry":{"type":"Polygon","coordinates":[[[45.157,-12.979],[45.148,-13],[45.084,-12.961],[45.119,-12.944],[45.141,-12.966],[45.157,-12.979]]]}},{"type":"Feature","properties":{"code":"97610","nom":"Koungou","pop":32156},"geometry":{"type":"Polygon","coordinates":[[[45.236,-12.753],[45.199,-12.766],[45.173,-12.764],[45.159,-12.762],[45.146,-12.728],[45.204,-12.73],[45.236,-12.753]]]}},{"type":"Feature","properties":{"code":"97611","nom":"Mamoudzou","pop":71437},"geometry":{"type":"Polygon","coordinates":[[[45.198,-12.822],[45.155,-12.82],[45.153,-12.804],[45.173,-12.764],[45.199,-12.766],[45.236,-12.753],[45.233,-12.779],[45.198,-12.822]]]}},{"type":"Feature","properties":{"code":"97612","nom":"Mtsamboro","pop":7705},"geometry":{"type":"Polygon","coordinates":[[[45.096,-12.716],[45.059,-12.712],[45.052,-12.702],[45.096,-12.673],[45.089,-12.691],[45.096,-12.716]]]}},{"type":"Feature","properties":{"code":"97613","nom":"M'Tsangamouji","pop":6432},"geometry":{"type":"Polygon","coordinates":[[[45.043,-12.748],[45.065,-12.734],[45.095,-12.732],[45.126,-12.754],[45.102,-12.778],[45.043,-12.748]]]}},{"type":"Feature","properties":{"code":"97614","nom":"Ouangani","pop":10203},"geometry":{"type":"Polygon","coordinates":[[[45.154,-12.874],[45.138,-12.869],[45.122,-12.84],[45.122,-12.808],[45.153,-12.804],[45.155,-12.82],[45.145,-12.836],[45.154,-12.874]]]}},{"type":"Feature","properties":{"code":"97615","nom":"Pamandzi","pop":11442},"geometry":{"type":"Polygon","coordinates":[[[45.271,-12.793],[45.296,-12.784],[45.279,-12.805],[45.271,-12.793]]]}},{"type":"Feature","properties":{"code":"97616","nom":"Sada","pop":11156},"geometry":{"type":"Polygon","coordinates":[[[45.138,-12.869],[45.132,-12.889],[45.103,-12.844],[45.121,-12.84],[45.122,-12.84],[45.138,-12.869]]]}},{"type":"Feature","properties":{"code":"97617","nom":"Tsingoni","pop":13934},"geometry":{"type":"Polygon","coordinates":[[[45.159,-12.762],[45.173,-12.764],[45.153,-12.804],[45.122,-12.808],[45.1,-12.802],[45.102,-12.778],[45.126,-12.754],[45.159,-12.762]]]}}]}