{"type":"FeatureCollection","features":[{"type":"Feature","properties":{"code":"98411","nom":"Îles Saint-Paul et Nouvelle-Amsterdam","pop":0},"geometry":{"type":"Polygon","coordinates":[[[77.548,-37.797],[77.576,-37.796],[77.59,-37.814],[77.597,-37.854],[77.559,-37.881],[77.536,-37.872],[77.513,-37.837],[77.529,-37.8],[77.548,-37.797]]]}},{"type":"Feature","properties":{"code":"98412","nom":"Archipel des Kerguelen","pop":0},"geometry":{"type":"MultiPolygon","coordinates":[[[[68.649,-49.355],[68.671,-49.323],[68.732,-49.343],[68.787,-49.329],[68.804,-49.35],[68.777,-49.368],[68.649,-49.355]]],[[[68.605,-48.641],[68.671,-48.624],[68.67,-48.638],[68.639,-48.653],[68.605,-48.641]]],[[[68.763,-48.599],[68.781,-48.571],[68.811,-48.595],[68.78,-48.611],[68.763,-48.599]]],[[[69.139,-48.981],[69.151,-48.958],[69.152,-48.924],[69.182,-48.873],[69.227,-48.896],[69.21,-48.943],[69.17,-48.979],[69.139,-48.981]]],[[[69.213,-48.973],[69.256,-48.948],[69.273,-48.925],[69.316,-48.913],[69.328,-48.892],[69.368,-48.892],[69.377,-48.921],[69.403,-48.929],[69.409,-48.956],[69.351,-48.996],[69.339,-49.021],[69.342,-49.049],[69.315,-49.062],[69.336,-49.08],[69.31,-49.093],[69.231,-49.101],[69.201,-49.099],[69.215,-49.073],[69.2,-49.034],[69.194,-48.992],[69.213,-48.973]]],[[[69.395,-48.841],[69.441,-48.823],[69.442,-48.847],[69.499,-48.87],[69.455,-48.896],[69.404,-48.862],[69.395,-48.841]]],[[[69.602,-49.162],[69.642,-49.145],[69.662,-49.198],[69.614,-49.214],[69.574,-49.213],[69.518,-49.201],[69.522,-49.187],[69.602,-49.162]]],[[[68.735,-49.068],[68.749,-49.038],[68.792,-49.025],[68.783,-48.982],[68.804,-48.963],[68.824,-48.974],[68.861,-48.953],[68.862,-48.933],[68.821,-48.907],[68.781,-48.846],[68.807,-48.833],[68.855,-48.83],[68.88,-48.806],[68.928,-48.778],[68.926,-48.744],[68.913,-48.732],[68.933,-48.713],[68.936,-48.67],[69.001,-48.682],[69.01,-48.663],[69.042,-48.663],[69.05,-48.697],[69.074,-48.72],[69.124,-48.73],[69.068,-48.752],[69.052,-48.767],[68.994,-48.799],[68.967,-48.806],[68.909,-48.85],[68.989,-48.827],[69.096,-48.768],[69.127,-48.758],[69.17,-48.759],[69.16,-48.779],[69.102,-48.802],[69.111,-48.841],[69.15,-48.846],[69.122,-48.881],[69.073,-48.907],[69.095,-48.923],[69.117,-48.96],[69.03,-49.01],[69.001,-49.015],[69.015,-49.059],[69.059,-49.021],[69.115,-49.001],[69.126,-49.021],[69.167,-49.029],[69.191,-49.066],[69.183,-49.087],[69.156,-49.114],[69.231,-49.115],[69.278,-49.102],[69.34,-49.097],[69.396,-49.042],[69.457,-49.021],[69.468,-49.055],[69.51,-49.025],[69.538,-48.958],[69.574,-48.954],[69.623,-48.975],[69.602,-49.003],[69.61,-49.047],[69.648,-49.046],[69.659,-49.075],[69.624,-49.075],[69.648,-49.106],[69.569,-49.111],[69.559,-49.135],[69.533,-49.137],[69.453,-49.125],[69.403,-49.11],[69.348,-49.117],[69.35,-49.132],[69.303,-49.172],[69.352,-49.177],[69.358,-49.16],[69.392,-49.135],[69.42,-49.13],[69.464,-49.154],[69.402,-49.178],[69.426,-49.193],[69.445,-49.246],[69.532,-49.239],[69.529,-49.249],[69.441,-49.264],[69.5,-49.28],[69.549,-49.268],[69.593,-49.278],[69.64,-49.272],[69.706,-49.252],[69.704,-49.305],[69.758,-49.291],[69.773,-49.267],[69.801,-49.281],[69.831,-49.261],[69.852,-49.262],[69.848,-49.224],[69.877,-49.196],[69.928,-49.18],[69.938,-49.167],[69.989,-49.14],[70.038,-49.143],[70.041,-49.126],[70.072,-49.114],[70.134,-49.133],[70.16,-49.156],[70.216,-49.159],[70.226,-49.15],[70.241,-49.089],[70.272,-49.079],[70.316,-49.051],[70.39,-49.055],[70.449,-49.068],[70.522,-49.099],[70.509,-49.136],[70.521,-49.17],[70.552,-49.193],[70.557,-49.241],[70.521,-49.318],[70.448,-49.37],[70.419,-49.373],[70.376,-49.35],[70.342,-49.346],[70.32,-49.356],[70.332,-49.378],[70.302,-49.387],[70.341,-49.407],[70.426,-49.424],[70.424,-49.444],[70.356,-49.449],[70.277,-49.436],[70.277,-49.409],[70.247,-49.383],[70.243,-49.365],[70.171,-49.345],[70.113,-49.343],[70.081,-49.351],[70.053,-49.37],[70.003,-49.365],[69.992,-49.375],[69.916,-49.353],[69.874,-49.351],[69.861,-49.375],[69.902,-49.386],[69.908,-49.405],[69.886,-49.42],[69.877,-49.444],[69.832,-49.41],[69.786,-49.419],[69.751,-49.448],[69.793,-49.496],[69.8,-49.534],[69.819,-49.55],[69.903,-49.57],[69.95,-49.597],[69.994,-49.595],[70.022,-49.581],[70.009,-49.542],[70.13,-49.51],[70.186,-49.527],[70.252,-49.533],[70.317,-49.564],[70.312,-49.598],[70.291,-49.608],[70.29,-49.629],[70.2,-49.618],[70.251,-49.667],[70.245,-49.688],[70.185,-49.69],[70.131,-49.705],[70.098,-49.729],[70.025,-49.714],[69.994,-49.717],[69.975,-49.7],[69.924,-49.692],[69.87,-49.704],[69.843,-49.693],[69.824,-49.67],[69.82,-49.646],[69.797,-49.632],[69.767,-49.591],[69.762,-49.557],[69.776,-49.55],[69.739,-49.509],[69.691,-49.505],[69.706,-49.531],[69.672,-49.55],[69.7,-49.594],[69.702,-49.619],[69.685,-49.66],[69.636,-49.673],[69.615,-49.653],[69.584,-49.641],[69.554,-49.649],[69.499,-49.65],[69.428,-49.643],[69.363,-49.572],[69.313,-49.564],[69.298,-49.54],[69.321,-49.502],[69.304,-49.47],[69.285,-49.479],[69.306,-49.499],[69.293,-49.542],[69.306,-49.566],[69.255,-49.57],[69.233,-49.522],[69.234,-49.487],[69.179,-49.493],[69.194,-49.542],[69.158,-49.542],[69.174,-49.591],[69.14,-49.606],[69.1,-49.612],[69.081,-49.592],[69.086,-49.538],[69.065,-49.54],[69.055,-49.591],[69.086,-49.629],[69.095,-49.654],[69.087,-49.685],[69.041,-49.707],[68.984,-49.721],[68.932,-49.716],[68.91,-49.732],[68.845,-49.72],[68.807,-49.734],[68.78,-49.726],[68.741,-49.677],[68.784,-49.64],[68.764,-49.608],[68.826,-49.545],[68.84,-49.502],[68.827,-49.481],[68.873,-49.462],[68.887,-49.438],[68.882,-49.41],[68.8,-49.368],[68.812,-49.341],[68.853,-49.33],[68.804,-49.293],[68.816,-49.268],[68.787,-49.25],[68.757,-49.218],[68.782,-49.17],[68.819,-49.173],[68.787,-49.134],[68.805,-49.108],[68.761,-49.113],[68.768,-49.093],[68.737,-49.088],[68.735,-49.068]]],[[[69.82,-49.496],[69.842,-49.508],[69.914,-49.517],[69.938,-49.54],[69.966,-49.545],[69.997,-49.57],[69.969,-49.581],[69.929,-49.549],[69.863,-49.536],[69.826,-49.516],[69.82,-49.496]]],[[[69.805,-49.427],[69.856,-49.44],[69.901,-49.476],[69.873,-49.483],[69.833,-49.467],[69.805,-49.427]]],[[[69.875,-49.367],[69.936,-49.372],[69.921,-49.391],[69.875,-49.367]]]]}},{"type":"Feature","properties":{"code":"98413","nom":"Archipel des Crozet","pop":0},"geometry":{"type":"MultiPolygon","coordinates":[[[[50.297,-46.109],[50.285,-46.132],[50.253,-46.148],[50.241,-46.133],[50.196,-46.126],[50.168,-46.103],[50.165,-46.088],[50.192,-46.065],[50.267,-46.059],[50.295,-46.09],[50.297,-46.109]]],[[[51.653,-46.384],[51.731,-46.345],[51.79,-46.356],[51.829,-46.4],[51.846,-46.394],[51.874,-46.414],[51.872,-46.433],[51.828,-46.465],[51.75,-46.459],[51.687,-46.441],[51.645,-46.394],[51.653,-46.384]]],[[[52.102,-46.405],[52.158,-46.396],[52.187,-46.382],[52.232,-46.393],[52.274,-46.394],[52.318,-46.42],[52.324,-46.442],[52.304,-46.462],[52.259,-46.475],[52.231,-46.465],[52.183,-46.472],[52.125,-46.449],[52.094,-46.425],[52.102,-46.405]]]]}},{"type":"Feature","properties":{"code":"98414","nom":"La Terre-Adélie","pop":0},"geometry":{"type":"Polygon","coordinates":[[[136,-81.357],[136,-80.518],[136,-79.598],[136,-78.589],[136,-77.484],[136,-76.274],[136,-74.95],[136,-73.5],[136,-71.916],[136,-70.185],[136,-68.296],[136,-66.236],[136.046,-66.242],[136.144,-66.226],[136.217,-66.285],[136.301,-66.324],[136.329,-66.361],[136.481,-66.392],[136.555,-66.417],[136.577,-66.408],[136.656,-66.402],[136.668,-66.371],[136.696,-66.355],[136.791,-66.335],[136.861,-66.34],[136.939,-66.326],[137.07,-66.337],[137.113,-66.331],[137.163,-66.34],[137.27,-66.341],[137.346,-66.353],[137.436,-66.347],[137.497,-66.367],[137.582,-66.374],[137.703,-66.375],[137.847,-66.414],[137.937,-66.466],[138.038,-66.491],[138.068,-66.486],[138.134,-66.502],[138.2,-66.488],[138.25,-66.501],[138.297,-66.484],[138.31,-66.513],[138.376,-66.542],[138.403,-66.531],[138.597,-66.537],[138.605,-66.556],[138.647,-66.566],[138.755,-66.574],[138.826,-66.571],[138.942,-66.559],[138.994,-66.578],[139.065,-66.578],[139.083,-66.565],[139.18,-66.576],[139.236,-66.57],[139.379,-66.59],[139.437,-66.589],[139.485,-66.603],[139.58,-66.59],[139.582,-66.624],[139.687,-66.629],[139.803,-66.677],[139.91,-66.688],[139.926,-66.712],[140.041,-66.661],[140.141,-66.705],[140.124,-66.727],[140.259,-66.727],[140.344,-66.739],[140.414,-66.736],[140.504,-66.724],[140.572,-66.733],[140.619,-66.75],[140.673,-66.747],[140.772,-66.755],[140.869,-66.746],[140.927,-66.746],[141.058,-66.786],[141.09,-66.776],[141.183,-66.781],[141.35,-66.839],[141.49,-66.801],[141.551,-66.78],[141.748,-66.787],[141.862,-66.781],[141.961,-66.801],[142,-66.803],[142,-68.786],[142,-70.607],[142,-72.277],[142,-73.807],[142,-75.208],[142,-76.491],[142,-77.664],[142,-78.737],[142,-79.718],[142,-80.614],[142,-81.433],[142,-82.18],[142,-82.863],[142,-83.487],[142,-84.056],[142,-84.576],[142,-85.05],[136,-85.05],[136,-84.568],[136,-84.039],[136,-83.458],[136,-82.822],[136,-82.123],[136,-81.357]]]}},{"type":"Feature","properties":{"code":"98415","nom":"Îles Éparses de l'océan Indien","pop":0},"geometry":{"type":"Polygon","coordinates":[[[40.355,-22.339],[40.376,-22.356],[40.353,-22.373],[40.33,-22.373],[40.332,-22.347],[40.355,-22.339]]]}}]}