{"type":"FeatureCollection","features":[{"type":"Feature","properties":{"code":"98611","nom":"Alo"},"geometry":{"type":"MultiPolygon","coordinates":[[[[-178.05,-14.353],[-178.067,-14.333],[-178.03,-14.324],[-178.02,-14.345],[-178.05,-14.353]]],[[[-178.155,-14.246],[-178.132,-14.259],[-178.066,-14.313],[-178.143,-14.308],[-178.135,-14.278],[-178.155,-14.246]]]]}},{"type":"Feature","properties":{"code":"98612","nom":"Sigave"},"geometry":{"type":"Polygon","coordinates":[[[-178.155,-14.246],[-178.135,-14.278],[-178.143,-14.308],[-178.168,-14.288],[-178.182,-14.254],[-178.155,-14.246]]]}},{"type":"Feature","properties":{"code":"98613","nom":"Uvea"},"geometry":{"type":"Polygon","coordinates":[[[-176.171,-13.283],[-176.183,-13.298],[-176.2,-13.344],[-176.247,-13.313],[-176.251,-13.291],[-176.225,-13.278],[-176.218,-13.23],[-176.199,-13.219],[-176.162,-13.265],[-176.171,-13.283]]]}}]}