{"type":"FeatureCollection","features":[{"type":"Feature","properties":{"code":"98711","nom":"Anaa"},"geometry":{"type":"Polygon","coordinates":[[[-145.596,-17.336],[-145.595,-17.371],[-145.581,-17.377],[-145.585,-17.393],[-145.607,-17.358],[-145.596,-17.336]]]}},{"type":"Feature","properties":{"code":"98712","nom":"Arue"},"geometry":{"type":"Polygon","coordinates":[[[-149.503,-17.512],[-149.49,-17.542],[-149.491,-17.574],[-149.517,-17.541],[-149.539,-17.523],[-149.503,-17.512]]]}},{"type":"Feature","properties":{"code":"98713","nom":"Arutua"},"geometry":{"type":"Polygon","coordinates":[[[-146.623,-15.248],[-146.613,-15.249],[-146.607,-15.254],[-146.602,-15.268],[-146.601,-15.282],[-146.603,-15.289],[-146.603,-15.302],[-146.606,-15.326],[-146.608,-15.33],[-146.604,-15.277],[-146.606,-15.262],[-146.612,-15.254],[-146.623,-15.248]]]}},{"type":"Feature","properties":{"code":"98714","nom":"Bora-Bora"},"geometry":{"type":"Polygon","coordinates":[[[-151.757,-16.487],[-151.747,-16.465],[-151.723,-16.479],[-151.721,-16.519],[-151.743,-16.516],[-151.757,-16.487]]]}},{"type":"Feature","properties":{"code":"98715","nom":"Faaa"},"geometry":{"type":"Polygon","coordinates":[[[-149.581,-17.545],[-149.583,-17.556],[-149.529,-17.592],[-149.499,-17.619],[-149.515,-17.624],[-149.532,-17.61],[-149.551,-17.61],[-149.568,-17.594],[-149.62,-17.574],[-149.621,-17.562],[-149.581,-17.545]]]}},{"type":"Feature","properties":{"code":"98716","nom":"Fakarava"},"geometry":{"type":"MultiPolygon","coordinates":[[[[-146.364,-16.116],[-146.337,-16.125],[-146.317,-16.15],[-146.319,-16.185],[-146.372,-16.188],[-146.386,-16.171],[-146.397,-16.141],[-146.364,-16.116]],[[-146.365,-16.124],[-146.383,-16.133],[-146.39,-16.157],[-146.37,-16.18],[-146.339,-16.178],[-146.327,-16.158],[-146.331,-16.142],[-146.365,-16.124]]],[[[-145.538,-16.268],[-145.546,-16.261],[-145.547,-16.252],[-145.558,-16.234],[-145.557,-16.218],[-145.571,-16.18],[-145.576,-16.159],[-145.598,-16.132],[-145.606,-16.114],[-145.615,-16.086],[-145.615,-16.072],[-145.622,-16.053],[-145.641,-16.051],[-145.685,-16.067],[-145.687,-16.064],[-145.64,-16.048],[-145.622,-16.049],[-145.614,-16.065],[-145.61,-16.094],[-145.598,-16.124],[-145.587,-16.142],[-145.574,-16.155],[-145.57,-16.173],[-145.555,-16.221],[-145.552,-16.237],[-145.538,-16.268]]]]}},{"type":"Feature","properties":{"code":"98717","nom":"Fangatau"},"geometry":{"type":"Polygon","coordinates":[[[-140.119,-15.964],[-140.103,-15.966],[-140.094,-15.971],[-140.099,-15.977],[-140.106,-15.97],[-140.119,-15.964]]]}},{"type":"Feature","properties":{"code":"98718","nom":"Fatu-Hiva"},"geometry":{"type":"Polygon","coordinates":[[[-138.675,-10.419],[-138.659,-10.421],[-138.613,-10.46],[-138.61,-10.489],[-138.622,-10.522],[-138.658,-10.553],[-138.689,-10.525],[-138.674,-10.492],[-138.672,-10.455],[-138.689,-10.426],[-138.675,-10.419]]]}},{"type":"Feature","properties":{"code":"98719","nom":"Gambier"},"geometry":{"type":"MultiPolygon","coordinates":[[[[-136.523,-21.332],[-136.535,-21.358],[-136.554,-21.359],[-136.551,-21.332],[-136.523,-21.332]]],[[[-134.936,-23.074],[-134.944,-23.093],[-134.969,-23.114],[-134.972,-23.135],[-134.994,-23.131],[-134.998,-23.118],[-134.977,-23.117],[-134.97,-23.092],[-134.956,-23.096],[-134.936,-23.074]]]]}},{"type":"Feature","properties":{"code":"98720","nom":"Hao"},"geometry":{"type":"Polygon","coordinates":[[[-140.962,-18.062],[-140.954,-18.065],[-140.938,-18.081],[-140.926,-18.089],[-140.912,-18.096],[-140.906,-18.102],[-140.897,-18.124],[-140.884,-18.142],[-140.887,-18.143],[-140.896,-18.131],[-140.903,-18.117],[-140.908,-18.103],[-140.913,-18.097],[-140.935,-18.087],[-140.943,-18.08],[-140.962,-18.062]]]}},{"type":"Feature","properties":{"code":"98721","nom":"Hikueru"},"geometry":{"type":"Polygon","coordinates":[[[-142.161,-18.18],[-142.155,-18.186],[-142.138,-18.221],[-142.119,-18.244],[-142.12,-18.246],[-142.139,-18.225],[-142.154,-18.193],[-142.161,-18.18]]]}},{"type":"Feature","properties":{"code":"98722","nom":"Hitiaa O Te Ra"},"geometry":{"type":"Polygon","coordinates":[[[-149.312,-17.653],[-149.374,-17.631],[-149.404,-17.632],[-149.412,-17.665],[-149.46,-17.675],[-149.483,-17.644],[-149.477,-17.622],[-149.464,-17.614],[-149.448,-17.549],[-149.456,-17.508],[-149.405,-17.516],[-149.377,-17.537],[-149.341,-17.544],[-149.309,-17.578],[-149.3,-17.608],[-149.312,-17.653]]]}},{"type":"Feature","properties":{"code":"98723","nom":"Hiva-Oa"},"geometry":{"type":"MultiPolygon","coordinates":[[[[-138.862,-9.759],[-138.847,-9.771],[-138.883,-9.799],[-138.912,-9.808],[-138.974,-9.802],[-138.992,-9.813],[-139.039,-9.806],[-139.07,-9.851],[-139.097,-9.849],[-139.136,-9.826],[-139.164,-9.775],[-139.148,-9.757],[-139.087,-9.74],[-139.038,-9.706],[-139.02,-9.712],[-139.006,-9.698],[-138.971,-9.706],[-138.962,-9.739],[-138.931,-9.734],[-138.895,-9.738],[-138.862,-9.759]]],[[[-138.827,-9.954],[-138.815,-10.016],[-138.841,-9.986],[-138.827,-9.954]]]]}},{"type":"Feature","properties":{"code":"98724","nom":"Huahine"},"geometry":{"type":"MultiPolygon","coordinates":[[[[-150.985,-16.822],[-151.023,-16.788],[-151.015,-16.771],[-150.982,-16.755],[-150.964,-16.763],[-150.959,-16.788],[-150.985,-16.822]]],[[[-150.976,-16.745],[-151.001,-16.748],[-151.022,-16.77],[-151.047,-16.758],[-151.034,-16.716],[-151.04,-16.703],[-150.99,-16.698],[-150.976,-16.745]]]]}},{"type":"Feature","properties":{"code":"98725","nom":"Mahina"},"geometry":{"type":"Polygon","coordinates":[[[-149.456,-17.508],[-149.448,-17.549],[-149.464,-17.614],[-149.477,-17.622],[-149.495,-17.613],[-149.491,-17.574],[-149.49,-17.542],[-149.503,-17.512],[-149.494,-17.501],[-149.456,-17.508]]]}},{"type":"Feature","properties":{"code":"98726","nom":"Makemo"},"geometry":{"type":"Polygon","coordinates":[[[-143.574,-16.626],[-143.588,-16.627],[-143.595,-16.626],[-143.616,-16.618],[-143.629,-16.61],[-143.633,-16.61],[-143.644,-16.603],[-143.661,-16.584],[-143.682,-16.573],[-143.682,-16.57],[-143.664,-16.579],[-143.651,-16.589],[-143.644,-16.598],[-143.633,-16.607],[-143.595,-16.623],[-143.574,-16.626]]]}},{"type":"Feature","properties":{"code":"98727","nom":"Manihi"},"geometry":{"type":"Polygon","coordinates":[[[-146.061,-14.431],[-146.071,-14.446],[-146.076,-14.44],[-146.061,-14.431]]]}},{"type":"Feature","properties":{"code":"98728","nom":"Maupiti"},"geometry":{"type":"Polygon","coordinates":[[[-153.951,-16.772],[-153.939,-16.781],[-153.938,-16.793],[-153.928,-16.813],[-153.93,-16.814],[-153.94,-16.796],[-153.941,-16.783],[-153.951,-16.772]]]}},{"type":"Feature","properties":{"code":"98729","nom":"Moorea-Maiao"},"geometry":{"type":"MultiPolygon","coordinates":[[[[-150.63,-17.633],[-150.61,-17.658],[-150.622,-17.679],[-150.643,-17.645],[-150.63,-17.633]]],[[[-149.774,-17.474],[-149.762,-17.487],[-149.777,-17.524],[-149.775,-17.543],[-149.79,-17.555],[-149.799,-17.582],[-149.823,-17.593],[-149.854,-17.577],[-149.903,-17.537],[-149.915,-17.512],[-149.914,-17.493],[-149.871,-17.492],[-149.845,-17.485],[-149.818,-17.488],[-149.774,-17.474]]]]}},{"type":"Feature","properties":{"code":"98730","nom":"Napuka"},"geometry":{"type":"Polygon","coordinates":[[[-141.227,-14.152],[-141.213,-14.157],[-141.196,-14.174],[-141.182,-14.182],[-141.177,-14.194],[-141.184,-14.197],[-141.191,-14.191],[-141.182,-14.186],[-141.201,-14.174],[-141.215,-14.16],[-141.227,-14.152]]]}},{"type":"Feature","properties":{"code":"98731","nom":"Nuku-Hiva"},"geometry":{"type":"MultiPolygon","coordinates":[[[[-140.652,-7.955],[-140.64,-7.974],[-140.681,-7.997],[-140.696,-8.027],[-140.722,-8.026],[-140.717,-7.994],[-140.697,-7.971],[-140.668,-7.969],[-140.652,-7.955]]],[[[-140.068,-8.92],[-140.075,-8.928],[-140.124,-8.934],[-140.185,-8.962],[-140.221,-8.929],[-140.23,-8.88],[-140.249,-8.845],[-140.248,-8.801],[-140.218,-8.787],[-140.161,-8.792],[-140.126,-8.816],[-140.111,-8.808],[-140.081,-8.826],[-140.054,-8.827],[-140.016,-8.867],[-140.01,-8.892],[-140.042,-8.912],[-140.068,-8.92]]]]}},{"type":"Feature","properties":{"code":"98732","nom":"Nukutavake"},"geometry":{"type":"Polygon","coordinates":[[[-139.213,-19.328],[-139.205,-19.33],[-139.197,-19.337],[-139.196,-19.341],[-139.203,-19.36],[-139.207,-19.365],[-139.209,-19.364],[-139.203,-19.358],[-139.197,-19.342],[-139.201,-19.335],[-139.213,-19.328]]]}},{"type":"Feature","properties":{"code":"98733","nom":"Paea"},"geometry":{"type":"Polygon","coordinates":[[[-149.502,-17.661],[-149.505,-17.681],[-149.556,-17.73],[-149.564,-17.747],[-149.578,-17.74],[-149.586,-17.685],[-149.596,-17.664],[-149.556,-17.646],[-149.502,-17.661]]]}},{"type":"Feature","properties":{"code":"98734","nom":"Papara"},"geometry":{"type":"Polygon","coordinates":[[[-149.46,-17.675],[-149.464,-17.714],[-149.452,-17.748],[-149.455,-17.779],[-149.525,-17.754],[-149.564,-17.747],[-149.556,-17.73],[-149.505,-17.681],[-149.502,-17.661],[-149.483,-17.644],[-149.46,-17.675]]]}},{"type":"Feature","properties":{"code":"98735","nom":"Papeete"},"geometry":{"type":"Polygon","coordinates":[[[-149.553,-17.525],[-149.551,-17.55],[-149.538,-17.562],[-149.529,-17.592],[-149.583,-17.556],[-149.581,-17.545],[-149.553,-17.525]]]}},{"type":"Feature","properties":{"code":"98736","nom":"Pirae"},"geometry":{"type":"Polygon","coordinates":[[[-149.539,-17.523],[-149.517,-17.541],[-149.491,-17.574],[-149.495,-17.613],[-149.499,-17.619],[-149.529,-17.592],[-149.538,-17.562],[-149.551,-17.55],[-149.553,-17.525],[-149.539,-17.523]]]}},{"type":"Feature","properties":{"code":"98737","nom":"Pukapuka"},"geometry":{"type":"Polygon","coordinates":[[[-138.818,-14.798],[-138.817,-14.807],[-138.832,-14.801],[-138.818,-14.798]]]}},{"type":"Feature","properties":{"code":"98738","nom":"Punaauia"},"geometry":{"type":"Polygon","coordinates":[[[-149.499,-17.619],[-149.495,-17.613],[-149.477,-17.622],[-149.483,-17.644],[-149.502,-17.661],[-149.556,-17.646],[-149.596,-17.664],[-149.616,-17.634],[-149.613,-17.599],[-149.62,-17.574],[-149.568,-17.594],[-149.551,-17.61],[-149.532,-17.61],[-149.515,-17.624],[-149.499,-17.619]]]}},{"type":"Feature","properties":{"code":"98739","nom":"Raivavae"},"geometry":{"type":"Polygon","coordinates":[[[-147.654,-23.876],[-147.669,-23.888],[-147.69,-23.877],[-147.675,-23.861],[-147.654,-23.876]]]}},{"type":"Feature","properties":{"code":"98740","nom":"Rangiroa"},"geometry":{"type":"MultiPolygon","coordinates":[[[[-148.258,-15.808],[-148.246,-15.834],[-148.22,-15.845],[-148.225,-15.86],[-148.247,-15.873],[-148.281,-15.852],[-148.277,-15.817],[-148.258,-15.808]]],[[[-147.59,-14.994],[-147.568,-15.026],[-147.537,-15.054],[-147.525,-15.07],[-147.487,-15.103],[-147.469,-15.109],[-147.443,-15.127],[-147.427,-15.146],[-147.412,-15.158],[-147.394,-15.178],[-147.351,-15.202],[-147.352,-15.206],[-147.396,-15.18],[-147.415,-15.158],[-147.421,-15.158],[-147.439,-15.134],[-147.47,-15.113],[-147.479,-15.111],[-147.53,-15.071],[-147.542,-15.053],[-147.569,-15.03],[-147.59,-14.994]]]]}},{"type":"Feature","properties":{"code":"98741","nom":"Rapa"},"geometry":{"type":"Polygon","coordinates":[[[-144.373,-27.579],[-144.329,-27.572],[-144.312,-27.599],[-144.367,-27.632],[-144.381,-27.612],[-144.373,-27.579]]]}},{"type":"Feature","properties":{"code":"98742","nom":"Reao"},"geometry":{"type":"Polygon","coordinates":[[[-136.45,-18.462],[-136.438,-18.465],[-136.405,-18.483],[-136.381,-18.493],[-136.375,-18.497],[-136.363,-18.51],[-136.347,-18.52],[-136.327,-18.53],[-136.303,-18.549],[-136.294,-18.558],[-136.29,-18.57],[-136.303,-18.577],[-136.295,-18.563],[-136.308,-18.547],[-136.331,-18.529],[-136.357,-18.517],[-136.378,-18.497],[-136.4,-18.488],[-136.42,-18.478],[-136.45,-18.462]]]}},{"type":"Feature","properties":{"code":"98743","nom":"Rimatara"},"geometry":{"type":"Polygon","coordinates":[[[-152.818,-22.658],[-152.808,-22.635],[-152.792,-22.638],[-152.8,-22.663],[-152.818,-22.658]]]}},{"type":"Feature","properties":{"code":"98744","nom":"Rurutu"},"geometry":{"type":"Polygon","coordinates":[[[-151.341,-22.524],[-151.357,-22.499],[-151.354,-22.476],[-151.368,-22.469],[-151.377,-22.444],[-151.353,-22.435],[-151.323,-22.455],[-151.323,-22.497],[-151.341,-22.524]]]}},{"type":"Feature","properties":{"code":"98745","nom":"Tahaa"},"geometry":{"type":"Polygon","coordinates":[[[-151.518,-16.662],[-151.545,-16.642],[-151.549,-16.619],[-151.533,-16.589],[-151.514,-16.577],[-151.464,-16.589],[-151.434,-16.616],[-151.457,-16.649],[-151.451,-16.672],[-151.465,-16.683],[-151.498,-16.677],[-151.518,-16.662]]]}},{"type":"Feature","properties":{"code":"98746","nom":"Tahuata"},"geometry":{"type":"Polygon","coordinates":[[[-139.099,-9.896],[-139.098,-9.895],[-139.069,-9.901],[-139.043,-9.919],[-139.039,-9.948],[-139.071,-9.952],[-139.102,-9.982],[-139.111,-10.009],[-139.131,-10],[-139.131,-9.975],[-139.118,-9.964],[-139.118,-9.931],[-139.099,-9.896]]]}},{"type":"Feature","properties":{"code":"98747","nom":"Taiarapu-Est"},"geometry":{"type":"Polygon","coordinates":[[[-149.156,-17.877],[-149.176,-17.833],[-149.193,-17.82],[-149.235,-17.808],[-149.247,-17.785],[-149.287,-17.757],[-149.327,-17.741],[-149.326,-17.734],[-149.336,-17.735],[-149.349,-17.729],[-149.354,-17.692],[-149.381,-17.675],[-149.412,-17.665],[-149.404,-17.632],[-149.374,-17.631],[-149.312,-17.653],[-149.299,-17.728],[-149.258,-17.739],[-149.23,-17.735],[-149.213,-17.745],[-149.169,-17.754],[-149.128,-17.782],[-149.129,-17.841],[-149.156,-17.877]]]}},{"type":"Feature","properties":{"code":"98748","nom":"Taiarapu-Ouest"},"geometry":{"type":"Polygon","coordinates":[[[-149.156,-17.877],[-149.186,-17.878],[-149.219,-17.864],[-149.243,-17.863],[-149.266,-17.85],[-149.297,-17.82],[-149.292,-17.808],[-149.327,-17.741],[-149.287,-17.757],[-149.247,-17.785],[-149.235,-17.808],[-149.193,-17.82],[-149.176,-17.833],[-149.156,-17.877]]]}},{"type":"Feature","properties":{"code":"98749","nom":"Takaroa"},"geometry":{"type":"Polygon","coordinates":[[[-145.216,-14.599],[-145.225,-14.604],[-145.235,-14.619],[-145.236,-14.639],[-145.24,-14.658],[-145.25,-14.681],[-145.254,-14.685],[-145.257,-14.698],[-145.25,-14.704],[-145.239,-14.705],[-145.246,-14.713],[-145.261,-14.7],[-145.259,-14.683],[-145.248,-14.669],[-145.239,-14.637],[-145.238,-14.616],[-145.227,-14.601],[-145.216,-14.599]]]}},{"type":"Feature","properties":{"code":"98750","nom":"Taputapuatea"},"geometry":{"type":"Polygon","coordinates":[[[-151.415,-16.896],[-151.421,-16.864],[-151.44,-16.86],[-151.454,-16.836],[-151.452,-16.766],[-151.434,-16.746],[-151.396,-16.812],[-151.357,-16.836],[-151.355,-16.862],[-151.365,-16.872],[-151.415,-16.896]]]}},{"type":"Feature","properties":{"code":"98751","nom":"Tatakoto"},"geometry":{"type":"Polygon","coordinates":[[[-138.337,-17.326],[-138.357,-17.331],[-138.405,-17.33],[-138.431,-17.336],[-138.432,-17.333],[-138.412,-17.328],[-138.36,-17.328],[-138.337,-17.326]]]}},{"type":"Feature","properties":{"code":"98752","nom":"Teva I Uta"},"geometry":{"type":"Polygon","coordinates":[[[-149.336,-17.735],[-149.356,-17.759],[-149.393,-17.762],[-149.415,-17.774],[-149.455,-17.779],[-149.452,-17.748],[-149.464,-17.714],[-149.46,-17.675],[-149.412,-17.665],[-149.381,-17.675],[-149.354,-17.692],[-149.349,-17.729],[-149.336,-17.735]]]}},{"type":"Feature","properties":{"code":"98753","nom":"Tubuai"},"geometry":{"type":"Polygon","coordinates":[[[-149.445,-23.387],[-149.505,-23.403],[-149.531,-23.369],[-149.514,-23.354],[-149.463,-23.343],[-149.439,-23.358],[-149.445,-23.387]]]}},{"type":"Feature","properties":{"code":"98754","nom":"Tumaraa"},"geometry":{"type":"Polygon","coordinates":[[[-151.452,-16.766],[-151.454,-16.836],[-151.44,-16.86],[-151.421,-16.864],[-151.415,-16.896],[-151.434,-16.895],[-151.446,-16.917],[-151.471,-16.906],[-151.462,-16.885],[-151.483,-16.839],[-151.493,-16.793],[-151.486,-16.741],[-151.452,-16.766]]]}},{"type":"Feature","properties":{"code":"98755","nom":"Tureia"},"geometry":{"type":"MultiPolygon","coordinates":[[[[-139.029,-21.886],[-139.028,-21.886],[-139.03,-21.887],[-139.029,-21.886]]],[[[-138.791,-21.839],[-138.803,-21.812],[-138.843,-21.806],[-138.798,-21.811],[-138.791,-21.839]]],[[[-138.565,-20.769],[-138.556,-20.771],[-138.565,-20.775],[-138.565,-20.769]]]]}},{"type":"Feature","properties":{"code":"98756","nom":"Ua-Huka"},"geometry":{"type":"Polygon","coordinates":[[[-139.551,-8.865],[-139.5,-8.89],[-139.486,-8.914],[-139.488,-8.937],[-139.511,-8.928],[-139.543,-8.933],[-139.591,-8.95],[-139.614,-8.923],[-139.606,-8.896],[-139.586,-8.877],[-139.551,-8.865]]]}},{"type":"Feature","properties":{"code":"98757","nom":"Ua-Pou"},"geometry":{"type":"Polygon","coordinates":[[[-140.056,-9.467],[-140.076,-9.461],[-140.104,-9.432],[-140.129,-9.395],[-140.128,-9.38],[-140.077,-9.338],[-140.055,-9.347],[-140.024,-9.375],[-140.039,-9.424],[-140.037,-9.448],[-140.056,-9.467]]]}},{"type":"Feature","properties":{"code":"98758","nom":"Uturoa"},"geometry":{"type":"Polygon","coordinates":[[[-151.434,-16.746],[-151.452,-16.766],[-151.486,-16.741],[-151.473,-16.723],[-151.455,-16.722],[-151.434,-16.746]]]}}]}