{"type":"FeatureCollection","features":[{"type":"Feature","properties":{"code":"98801","nom":"Belep"},"geometry":{"type":"MultiPolygon","coordinates":[[[[163.702,-19.769],[163.673,-19.771],[163.653,-19.752],[163.629,-19.689],[163.646,-19.671],[163.672,-19.686],[163.673,-19.722],[163.7,-19.744],[163.702,-19.769]]],[[[163.574,-19.563],[163.581,-19.544],[163.613,-19.597],[163.585,-19.595],[163.59,-19.574],[163.574,-19.563]]]]}},{"type":"Feature","properties":{"code":"98802","nom":"Bouloupari"},"geometry":{"type":"MultiPolygon","coordinates":[[[[166.061,-22.005],[166.031,-22.027],[166.021,-21.984],[166.069,-21.995],[166.061,-22.005]]],[[[165.871,-21.862],[165.896,-21.827],[165.912,-21.822],[165.916,-21.796],[165.949,-21.779],[165.964,-21.758],[165.955,-21.737],[165.99,-21.715],[165.999,-21.69],[166.015,-21.686],[166.021,-21.698],[166.055,-21.721],[166.086,-21.711],[166.087,-21.737],[166.062,-21.783],[166.087,-21.795],[166.144,-21.798],[166.176,-21.771],[166.253,-21.807],[166.267,-21.825],[166.304,-21.828],[166.337,-21.858],[166.366,-21.851],[166.398,-21.881],[166.347,-21.886],[166.33,-21.904],[166.336,-21.917],[166.292,-21.948],[166.256,-21.965],[166.215,-21.966],[166.193,-21.973],[166.162,-21.994],[166.169,-21.971],[166.065,-21.911],[166.068,-21.883],[166.033,-21.881],[166.027,-21.893],[166.035,-21.939],[166.011,-21.933],[166.004,-21.948],[165.979,-21.929],[165.95,-21.922],[165.921,-21.88],[165.901,-21.867],[165.871,-21.862]]]]}},{"type":"Feature","properties":{"code":"98803","nom":"Bourail"},"geometry":{"type":"Polygon","coordinates":[[[165.542,-21.693],[165.519,-21.686],[165.47,-21.651],[165.501,-21.629],[165.438,-21.605],[165.429,-21.62],[165.393,-21.612],[165.336,-21.589],[165.286,-21.573],[165.267,-21.557],[165.26,-21.533],[165.276,-21.513],[165.232,-21.509],[165.24,-21.492],[165.289,-21.478],[165.325,-21.424],[165.343,-21.413],[165.375,-21.412],[165.415,-21.427],[165.428,-21.441],[165.456,-21.431],[165.48,-21.407],[165.5,-21.413],[165.514,-21.43],[165.534,-21.42],[165.555,-21.427],[165.591,-21.47],[165.627,-21.5],[165.644,-21.571],[165.649,-21.615],[165.614,-21.628],[165.582,-21.628],[165.592,-21.667],[165.542,-21.693]]]}},{"type":"Feature","properties":{"code":"98804","nom":"Canala"},"geometry":{"type":"Polygon","coordinates":[[[166.148,-21.542],[166.109,-21.555],[166.099,-21.574],[166.061,-21.584],[166.055,-21.625],[166.022,-21.64],[165.992,-21.625],[165.957,-21.597],[165.939,-21.595],[165.921,-21.613],[165.873,-21.612],[165.843,-21.606],[165.833,-21.576],[165.856,-21.564],[165.855,-21.539],[165.843,-21.516],[165.871,-21.487],[165.874,-21.458],[165.898,-21.457],[165.894,-21.426],[165.901,-21.406],[165.882,-21.358],[165.872,-21.355],[165.882,-21.355],[165.922,-21.415],[165.945,-21.438],[165.921,-21.466],[165.956,-21.482],[165.961,-21.516],[165.995,-21.499],[165.988,-21.467],[165.964,-21.455],[165.968,-21.441],[165.954,-21.409],[165.975,-21.411],[165.998,-21.441],[166.057,-21.487],[166.07,-21.515],[166.12,-21.515],[166.148,-21.542]]]}},{"type":"Feature","properties":{"code":"98805","nom":"Dumbéa"},"geometry":{"type":"Polygon","coordinates":[[[166.388,-22.173],[166.422,-22.136],[166.409,-22.11],[166.422,-22.07],[166.442,-22.076],[166.452,-22.047],[166.466,-22.04],[166.498,-22.046],[166.545,-22.071],[166.555,-22.087],[166.586,-22.091],[166.604,-22.105],[166.605,-22.133],[166.597,-22.152],[166.566,-22.169],[166.541,-22.163],[166.517,-22.168],[166.49,-22.189],[166.484,-22.217],[166.459,-22.224],[166.441,-22.209],[166.445,-22.172],[166.388,-22.173]]]}},{"type":"Feature","properties":{"code":"98806","nom":"Farino"},"geometry":{"type":"Polygon","coordinates":[[[165.775,-21.601],[165.8,-21.618],[165.786,-21.632],[165.781,-21.664],[165.793,-21.684],[165.772,-21.695],[165.759,-21.67],[165.721,-21.679],[165.716,-21.639],[165.738,-21.63],[165.775,-21.601]]]}},{"type":"Feature","properties":{"code":"98807","nom":"Hienghène"},"geometry":{"type":"Polygon","coordinates":[[[164.776,-20.524],[164.8,-20.552],[164.818,-20.562],[164.856,-20.624],[164.879,-20.628],[164.923,-20.654],[164.947,-20.689],[164.966,-20.68],[164.985,-20.687],[165.025,-20.719],[165.039,-20.738],[165.026,-20.751],[165.055,-20.767],[165.046,-20.818],[165.036,-20.829],[164.993,-20.839],[165.004,-20.874],[164.999,-20.895],[164.978,-20.904],[164.97,-20.924],[164.978,-20.955],[164.935,-20.959],[164.919,-20.928],[164.872,-20.893],[164.867,-20.872],[164.85,-20.866],[164.851,-20.844],[164.867,-20.826],[164.857,-20.808],[164.86,-20.782],[164.833,-20.771],[164.822,-20.754],[164.746,-20.729],[164.721,-20.726],[164.706,-20.712],[164.666,-20.703],[164.625,-20.688],[164.611,-20.662],[164.636,-20.621],[164.677,-20.599],[164.661,-20.575],[164.663,-20.548],[164.661,-20.53],[164.696,-20.507],[164.725,-20.52],[164.758,-20.545],[164.776,-20.524]]]}},{"type":"Feature","properties":{"code":"98808","nom":"Houaïlou"},"geometry":{"type":"Polygon","coordinates":[[[165.548,-21.139],[165.585,-21.171],[165.61,-21.181],[165.6,-21.207],[165.603,-21.233],[165.627,-21.267],[165.673,-21.286],[165.692,-21.285],[165.712,-21.302],[165.76,-21.299],[165.789,-21.341],[165.772,-21.356],[165.738,-21.364],[165.747,-21.379],[165.703,-21.422],[165.693,-21.457],[165.659,-21.462],[165.637,-21.48],[165.632,-21.5],[165.627,-21.5],[165.591,-21.47],[165.555,-21.427],[165.534,-21.42],[165.514,-21.43],[165.5,-21.413],[165.48,-21.407],[165.456,-21.431],[165.428,-21.441],[165.415,-21.427],[165.375,-21.412],[165.37,-21.383],[165.356,-21.358],[165.368,-21.341],[165.343,-21.328],[165.367,-21.312],[165.357,-21.278],[165.358,-21.226],[165.372,-21.221],[165.395,-21.236],[165.428,-21.246],[165.461,-21.243],[165.483,-21.227],[165.485,-21.191],[165.51,-21.186],[165.523,-21.168],[165.521,-21.147],[165.548,-21.139]]]}},{"type":"Feature","properties":{"code":"98809","nom":"L'Île-des-Pins"},"geometry":{"type":"MultiPolygon","coordinates":[[[[167.505,-22.689],[167.528,-22.643],[167.557,-22.667],[167.546,-22.695],[167.505,-22.689]]],[[[167.42,-22.64],[167.425,-22.588],[167.417,-22.556],[167.443,-22.538],[167.466,-22.542],[167.495,-22.56],[167.511,-22.557],[167.518,-22.581],[167.547,-22.596],[167.558,-22.615],[167.544,-22.629],[167.518,-22.613],[167.523,-22.651],[167.493,-22.675],[167.452,-22.666],[167.42,-22.64]]]]}},{"type":"Feature","properties":{"code":"98810","nom":"Kaala-Gomen"},"geometry":{"type":"Polygon","coordinates":[[[164.545,-20.896],[164.523,-20.886],[164.479,-20.849],[164.463,-20.827],[164.441,-20.821],[164.414,-20.781],[164.412,-20.755],[164.423,-20.725],[164.355,-20.674],[164.319,-20.632],[164.365,-20.63],[164.386,-20.613],[164.395,-20.57],[164.432,-20.585],[164.451,-20.578],[164.478,-20.597],[164.521,-20.586],[164.515,-20.568],[164.552,-20.57],[164.593,-20.576],[164.622,-20.587],[164.64,-20.551],[164.663,-20.548],[164.661,-20.575],[164.677,-20.599],[164.636,-20.621],[164.611,-20.662],[164.625,-20.688],[164.666,-20.703],[164.67,-20.738],[164.653,-20.76],[164.604,-20.756],[164.585,-20.783],[164.589,-20.816],[164.583,-20.831],[164.555,-20.848],[164.545,-20.896]]]}},{"type":"Feature","properties":{"code":"98811","nom":"Koné"},"geometry":{"type":"Polygon","coordinates":[[[164.935,-20.959],[164.978,-20.955],[165.006,-20.965],[165.007,-20.987],[165.037,-20.981],[165.073,-20.982],[165.087,-20.992],[165.089,-21.021],[165.078,-21.033],[165.064,-21.024],[165.037,-21.031],[165.009,-21.052],[164.994,-21.048],[164.98,-21.077],[164.94,-21.078],[164.933,-21.099],[164.877,-21.111],[164.866,-21.105],[164.836,-21.11],[164.83,-21.067],[164.807,-21.051],[164.791,-21.054],[164.769,-21.085],[164.753,-21.079],[164.747,-21.051],[164.714,-21.054],[164.714,-21.054],[164.714,-21.054],[164.749,-21.018],[164.785,-21.003],[164.798,-20.989],[164.826,-20.997],[164.842,-20.983],[164.911,-20.943],[164.935,-20.959]]]}},{"type":"Feature","properties":{"code":"98812","nom":"Koumac"},"geometry":{"type":"Polygon","coordinates":[[[164.184,-20.387],[164.226,-20.421],[164.267,-20.433],[164.285,-20.413],[164.273,-20.384],[164.285,-20.376],[164.312,-20.383],[164.342,-20.4],[164.362,-20.429],[164.385,-20.438],[164.405,-20.462],[164.422,-20.497],[164.447,-20.486],[164.512,-20.545],[164.54,-20.551],[164.552,-20.57],[164.515,-20.568],[164.521,-20.586],[164.478,-20.597],[164.451,-20.578],[164.432,-20.585],[164.395,-20.57],[164.386,-20.613],[164.365,-20.63],[164.319,-20.632],[164.317,-20.608],[164.298,-20.578],[164.239,-20.548],[164.207,-20.51],[164.182,-20.488],[164.161,-20.425],[164.126,-20.402],[164.122,-20.382],[164.16,-20.397],[164.183,-20.388],[164.184,-20.388],[164.184,-20.387]]]}},{"type":"Feature","properties":{"code":"98813","nom":"La Foa"},"geometry":{"type":"Polygon","coordinates":[[[165.724,-21.703],[165.721,-21.679],[165.759,-21.67],[165.772,-21.695],[165.793,-21.684],[165.836,-21.689],[165.84,-21.667],[165.882,-21.634],[165.873,-21.612],[165.921,-21.613],[165.939,-21.595],[165.957,-21.597],[165.992,-21.625],[166.022,-21.64],[166.011,-21.666],[166.015,-21.686],[165.999,-21.69],[165.99,-21.715],[165.955,-21.737],[165.964,-21.758],[165.949,-21.779],[165.916,-21.796],[165.912,-21.822],[165.896,-21.827],[165.871,-21.862],[165.838,-21.853],[165.832,-21.828],[165.801,-21.804],[165.803,-21.789],[165.762,-21.799],[165.754,-21.784],[165.774,-21.771],[165.749,-21.755],[165.767,-21.737],[165.793,-21.738],[165.795,-21.722],[165.763,-21.719],[165.724,-21.703]]]}},{"type":"Feature","properties":{"code":"98814","nom":"Lifou"},"geometry":{"type":"MultiPolygon","coordinates":[[[[167.816,-21.088],[167.832,-21.112],[167.821,-21.129],[167.794,-21.091],[167.816,-21.088]]],[[[167.141,-21.079],[167.091,-21.036],[167.089,-21.019],[167.055,-20.988],[167.064,-20.969],[167.052,-20.948],[167.027,-20.941],[167.011,-20.918],[167.046,-20.912],[167.073,-20.929],[167.124,-20.907],[167.141,-20.873],[167.164,-20.857],[167.18,-20.815],[167.171,-20.793],[167.146,-20.782],[167.12,-20.785],[167.097,-20.765],[167.039,-20.781],[167.029,-20.768],[167.039,-20.733],[167.062,-20.717],[167.105,-20.711],[167.136,-20.725],[167.163,-20.712],[167.162,-20.69],[167.209,-20.68],[167.248,-20.696],[167.276,-20.727],[167.302,-20.742],[167.277,-20.763],[167.272,-20.821],[167.29,-20.876],[167.26,-20.912],[167.289,-20.914],[167.32,-20.937],[167.35,-20.939],[167.378,-20.956],[167.385,-20.98],[167.381,-21.015],[167.412,-21.035],[167.427,-21.033],[167.46,-21.061],[167.409,-21.096],[167.414,-21.164],[167.382,-21.183],[167.339,-21.183],[167.306,-21.134],[167.266,-21.12],[167.262,-21.091],[167.216,-21.091],[167.141,-21.079]]]]}},{"type":"Feature","properties":{"code":"98815","nom":"Maré"},"geometry":{"type":"Polygon","coordinates":[[[167.973,-21.426],[167.999,-21.458],[168.029,-21.467],[168.053,-21.455],[168.087,-21.454],[168.117,-21.435],[168.133,-21.446],[168.117,-21.485],[168.114,-21.544],[168.107,-21.589],[168.116,-21.627],[168.054,-21.64],[168.037,-21.659],[167.983,-21.658],[167.958,-21.649],[167.945,-21.631],[167.953,-21.617],[167.908,-21.597],[167.864,-21.598],[167.864,-21.575],[167.879,-21.551],[167.854,-21.527],[167.832,-21.481],[167.839,-21.455],[167.826,-21.421],[167.807,-21.406],[167.8,-21.383],[167.841,-21.376],[167.873,-21.4],[167.892,-21.403],[167.899,-21.383],[167.959,-21.367],[167.953,-21.388],[167.973,-21.426]]]}},{"type":"Feature","properties":{"code":"98816","nom":"Moindou"},"geometry":{"type":"Polygon","coordinates":[[[165.724,-21.703],[165.711,-21.71],[165.718,-21.734],[165.689,-21.744],[165.678,-21.735],[165.673,-21.706],[165.637,-21.726],[165.611,-21.713],[165.584,-21.715],[165.537,-21.694],[165.537,-21.694],[165.542,-21.693],[165.592,-21.667],[165.582,-21.628],[165.614,-21.628],[165.649,-21.615],[165.644,-21.571],[165.627,-21.5],[165.632,-21.5],[165.664,-21.523],[165.701,-21.516],[165.739,-21.536],[165.761,-21.534],[165.776,-21.548],[165.775,-21.601],[165.738,-21.63],[165.716,-21.639],[165.721,-21.679],[165.724,-21.703]]]}},{"type":"Feature","properties":{"code":"98817","nom":"Le Mont-Dore"},"geometry":{"type":"MultiPolygon","coordinates":[[[[166.779,-22.46],[166.786,-22.399],[166.839,-22.398],[166.848,-22.415],[166.809,-22.448],[166.779,-22.46]]],[[[166.49,-22.222],[166.484,-22.217],[166.49,-22.189],[166.517,-22.168],[166.541,-22.163],[166.566,-22.169],[166.597,-22.152],[166.629,-22.161],[166.663,-22.194],[166.69,-22.158],[166.722,-22.166],[166.763,-22.163],[166.777,-22.178],[166.767,-22.208],[166.793,-22.247],[166.817,-22.246],[166.843,-22.272],[166.865,-22.263],[166.897,-22.277],[166.91,-22.312],[166.95,-22.308],[166.966,-22.32],[166.974,-22.353],[166.925,-22.395],[166.894,-22.365],[166.87,-22.325],[166.828,-22.335],[166.811,-22.347],[166.808,-22.373],[166.782,-22.391],[166.729,-22.373],[166.745,-22.35],[166.701,-22.335],[166.683,-22.308],[166.653,-22.296],[166.63,-22.274],[166.6,-22.293],[166.557,-22.261],[166.571,-22.238],[166.527,-22.237],[166.49,-22.222]]]]}},{"type":"Feature","properties":{"code":"98818","nom":"Nouméa"},"geometry":{"type":"Polygon","coordinates":[[[166.49,-22.222],[166.493,-22.232],[166.458,-22.282],[166.438,-22.3],[166.432,-22.245],[166.439,-22.222],[166.459,-22.224],[166.484,-22.217],[166.49,-22.222]]]}},{"type":"Feature","properties":{"code":"98819","nom":"Ouégoa"},"geometry":{"type":"MultiPolygon","coordinates":[[[[164.421,-20.277],[164.413,-20.286],[164.461,-20.318],[164.49,-20.352],[164.513,-20.348],[164.523,-20.378],[164.546,-20.408],[164.553,-20.446],[164.572,-20.442],[164.606,-20.465],[164.669,-20.482],[164.696,-20.507],[164.661,-20.53],[164.663,-20.548],[164.64,-20.551],[164.622,-20.587],[164.593,-20.576],[164.552,-20.57],[164.54,-20.551],[164.512,-20.545],[164.447,-20.486],[164.422,-20.497],[164.405,-20.462],[164.385,-20.438],[164.362,-20.429],[164.342,-20.4],[164.312,-20.383],[164.353,-20.355],[164.357,-20.352],[164.358,-20.353],[164.358,-20.336],[164.331,-20.321],[164.333,-20.305],[164.305,-20.256],[164.307,-20.236],[164.327,-20.233],[164.366,-20.256],[164.414,-20.262],[164.421,-20.277]]],[[[164.182,-20.078],[164.211,-20.103],[164.227,-20.147],[164.181,-20.124],[164.169,-20.1],[164.182,-20.078]]]]}},{"type":"Feature","properties":{"code":"98820","nom":"Ouvéa"},"geometry":{"type":"Polygon","coordinates":[[[166.666,-20.467],[166.61,-20.471],[166.581,-20.511],[166.572,-20.546],[166.569,-20.588],[166.579,-20.603],[166.618,-20.597],[166.595,-20.632],[166.568,-20.688],[166.503,-20.707],[166.489,-20.692],[166.515,-20.672],[166.542,-20.642],[166.558,-20.609],[166.561,-20.558],[166.572,-20.52],[166.592,-20.488],[166.595,-20.453],[166.577,-20.426],[166.552,-20.418],[166.557,-20.402],[166.608,-20.395],[166.625,-20.429],[166.657,-20.451],[166.666,-20.467]]]}},{"type":"Feature","properties":{"code":"98821","nom":"Païta"},"geometry":{"type":"Polygon","coordinates":[[[166.388,-22.173],[166.353,-22.205],[166.332,-22.196],[166.324,-22.153],[166.283,-22.146],[166.269,-22.17],[166.222,-22.141],[166.201,-22.112],[166.175,-22.102],[166.151,-22.083],[166.127,-22.1],[166.115,-22.088],[166.133,-22.072],[166.164,-22.077],[166.159,-22.039],[166.199,-22.04],[166.15,-22.006],[166.162,-21.994],[166.193,-21.973],[166.215,-21.966],[166.256,-21.965],[166.292,-21.948],[166.336,-21.917],[166.33,-21.904],[166.347,-21.886],[166.398,-21.881],[166.426,-21.899],[166.428,-21.95],[166.437,-21.973],[166.472,-22.016],[166.466,-22.04],[166.452,-22.047],[166.442,-22.076],[166.422,-22.07],[166.409,-22.11],[166.422,-22.136],[166.388,-22.173]]]}},{"type":"Feature","properties":{"code":"98822","nom":"Poindimié"},"geometry":{"type":"Polygon","coordinates":[[[165.246,-20.883],[165.264,-20.867],[165.336,-20.937],[165.373,-20.935],[165.414,-20.946],[165.397,-21.012],[165.363,-21.018],[165.347,-21.033],[165.307,-21.042],[165.282,-21.021],[165.233,-21.033],[165.174,-21.039],[165.149,-21.046],[165.116,-21.048],[165.097,-21.033],[165.078,-21.033],[165.089,-21.021],[165.087,-20.992],[165.073,-20.982],[165.037,-20.981],[165.007,-20.987],[165.006,-20.965],[164.978,-20.955],[164.97,-20.924],[164.978,-20.904],[164.999,-20.895],[165.004,-20.874],[164.993,-20.839],[165.036,-20.829],[165.046,-20.818],[165.094,-20.836],[165.11,-20.834],[165.124,-20.878],[165.154,-20.881],[165.159,-20.901],[165.192,-20.896],[165.216,-20.914],[165.246,-20.883]]]}},{"type":"Feature","properties":{"code":"98823","nom":"Ponérihouen"},"geometry":{"type":"Polygon","coordinates":[[[165.548,-21.139],[165.521,-21.147],[165.523,-21.168],[165.51,-21.186],[165.485,-21.191],[165.483,-21.227],[165.461,-21.243],[165.428,-21.246],[165.395,-21.236],[165.372,-21.221],[165.358,-21.226],[165.325,-21.222],[165.304,-21.206],[165.295,-21.184],[165.263,-21.176],[165.236,-21.191],[165.233,-21.209],[165.195,-21.2],[165.169,-21.226],[165.142,-21.229],[165.137,-21.216],[165.143,-21.191],[165.129,-21.152],[165.141,-21.145],[165.13,-21.113],[165.149,-21.046],[165.174,-21.039],[165.233,-21.033],[165.282,-21.021],[165.307,-21.042],[165.347,-21.033],[165.363,-21.018],[165.392,-21.015],[165.403,-21.025],[165.408,-21.061],[165.449,-21.102],[165.482,-21.113],[165.485,-21.137],[165.527,-21.13],[165.548,-21.139]]]}},{"type":"Feature","properties":{"code":"98824","nom":"Pouébo"},"geometry":{"type":"Polygon","coordinates":[[[164.776,-20.524],[164.758,-20.545],[164.725,-20.52],[164.696,-20.507],[164.669,-20.482],[164.606,-20.465],[164.572,-20.442],[164.553,-20.446],[164.546,-20.408],[164.523,-20.378],[164.513,-20.348],[164.49,-20.352],[164.461,-20.318],[164.413,-20.286],[164.421,-20.277],[164.453,-20.28],[164.533,-20.329],[164.577,-20.371],[164.593,-20.405],[164.647,-20.427],[164.673,-20.453],[164.699,-20.468],[164.73,-20.475],[164.76,-20.498],[164.776,-20.524]]]}},{"type":"Feature","properties":{"code":"98825","nom":"Pouembout"},"geometry":{"type":"Polygon","coordinates":[[[164.978,-21.307],[164.972,-21.351],[164.952,-21.358],[164.936,-21.342],[164.949,-21.293],[164.913,-21.28],[164.894,-21.244],[164.869,-21.228],[164.861,-21.203],[164.832,-21.176],[164.841,-21.148],[164.862,-21.145],[164.857,-21.112],[164.866,-21.105],[164.877,-21.111],[164.933,-21.099],[164.94,-21.078],[164.98,-21.077],[164.994,-21.048],[165.009,-21.052],[165.037,-21.031],[165.064,-21.024],[165.078,-21.033],[165.097,-21.033],[165.116,-21.048],[165.149,-21.046],[165.13,-21.113],[165.141,-21.145],[165.129,-21.152],[165.143,-21.191],[165.137,-21.216],[165.116,-21.216],[165.086,-21.241],[165.052,-21.253],[165.018,-21.292],[165.006,-21.286],[164.978,-21.307]]]}},{"type":"Feature","properties":{"code":"98826","nom":"Poum"},"geometry":{"type":"MultiPolygon","coordinates":[[[[164.353,-20.355],[164.312,-20.383],[164.285,-20.376],[164.273,-20.384],[164.285,-20.413],[164.267,-20.433],[164.226,-20.421],[164.184,-20.387],[164.183,-20.338],[164.16,-20.312],[164.137,-20.297],[164.083,-20.291],[164.093,-20.266],[164.04,-20.301],[164.037,-20.283],[164,-20.248],[164.033,-20.227],[164.073,-20.232],[164.065,-20.194],[164.068,-20.167],[164.054,-20.137],[164.043,-20.134],[164.015,-20.084],[164.031,-20.079],[164.095,-20.157],[164.128,-20.175],[164.161,-20.214],[164.171,-20.235],[164.212,-20.255],[164.221,-20.268],[164.265,-20.297],[164.275,-20.284],[164.307,-20.303],[164.297,-20.324],[164.324,-20.329],[164.353,-20.355]]],[[[163.813,-20.029],[163.828,-20.038],[163.821,-20.062],[163.789,-20.049],[163.813,-20.029]]],[[[163.964,-20],[163.981,-20.037],[163.997,-20.049],[163.965,-20.078],[163.953,-20.071],[163.955,-20.046],[163.971,-20.018],[163.964,-20]]]]}},{"type":"Feature","properties":{"code":"98827","nom":"Poya"},"geometry":{"type":"Polygon","coordinates":[[[164.978,-21.307],[165.006,-21.286],[165.018,-21.292],[165.052,-21.253],[165.086,-21.241],[165.116,-21.216],[165.137,-21.216],[165.142,-21.229],[165.169,-21.226],[165.195,-21.2],[165.233,-21.209],[165.236,-21.191],[165.263,-21.176],[165.295,-21.184],[165.304,-21.206],[165.325,-21.222],[165.358,-21.226],[165.357,-21.278],[165.367,-21.312],[165.343,-21.328],[165.368,-21.341],[165.356,-21.358],[165.37,-21.383],[165.375,-21.412],[165.343,-21.413],[165.325,-21.424],[165.289,-21.478],[165.24,-21.492],[165.213,-21.495],[165.184,-21.485],[165.148,-21.461],[165.124,-21.419],[165.128,-21.388],[165.143,-21.375],[165.136,-21.335],[165.11,-21.342],[165.104,-21.363],[165.083,-21.39],[165.061,-21.369],[165.055,-21.345],[165.041,-21.344],[165.026,-21.317],[165,-21.336],[164.978,-21.307]]]}},{"type":"Feature","properties":{"code":"98828","nom":"Sarraméa"},"geometry":{"type":"Polygon","coordinates":[[[165.775,-21.601],[165.776,-21.548],[165.81,-21.557],[165.833,-21.576],[165.843,-21.606],[165.873,-21.612],[165.882,-21.634],[165.84,-21.667],[165.836,-21.689],[165.793,-21.684],[165.781,-21.664],[165.786,-21.632],[165.8,-21.618],[165.775,-21.601]]]}},{"type":"Feature","properties":{"code":"98829","nom":"Thio"},"geometry":{"type":"Polygon","coordinates":[[[166.148,-21.542],[166.173,-21.566],[166.197,-21.576],[166.22,-21.602],[166.285,-21.636],[166.324,-21.649],[166.345,-21.683],[166.374,-21.701],[166.41,-21.7],[166.427,-21.724],[166.465,-21.749],[166.471,-21.778],[166.524,-21.819],[166.551,-21.847],[166.52,-21.848],[166.478,-21.86],[166.462,-21.893],[166.426,-21.899],[166.398,-21.881],[166.366,-21.851],[166.337,-21.858],[166.304,-21.828],[166.267,-21.825],[166.253,-21.807],[166.176,-21.771],[166.144,-21.798],[166.087,-21.795],[166.062,-21.783],[166.087,-21.737],[166.086,-21.711],[166.055,-21.721],[166.021,-21.698],[166.015,-21.686],[166.011,-21.666],[166.022,-21.64],[166.055,-21.625],[166.061,-21.584],[166.099,-21.574],[166.109,-21.555],[166.148,-21.542]]]}},{"type":"Feature","properties":{"code":"98830","nom":"Touho"},"geometry":{"type":"Polygon","coordinates":[[[165.246,-20.883],[165.216,-20.914],[165.192,-20.896],[165.159,-20.901],[165.154,-20.881],[165.124,-20.878],[165.11,-20.834],[165.094,-20.836],[165.046,-20.818],[165.055,-20.767],[165.026,-20.751],[165.039,-20.738],[165.025,-20.719],[165.026,-20.719],[165.03,-20.719],[165.03,-20.718],[165.03,-20.717],[165.057,-20.733],[165.117,-20.755],[165.197,-20.762],[165.263,-20.794],[165.257,-20.852],[165.246,-20.883]]]}},{"type":"Feature","properties":{"code":"98831","nom":"Voh"},"geometry":{"type":"Polygon","coordinates":[[[164.714,-21.054],[164.692,-21.038],[164.689,-21.002],[164.706,-20.984],[164.676,-20.969],[164.682,-20.947],[164.664,-20.912],[164.648,-20.903],[164.638,-20.931],[164.621,-20.917],[164.595,-20.924],[164.569,-20.891],[164.545,-20.896],[164.555,-20.848],[164.583,-20.831],[164.589,-20.816],[164.585,-20.783],[164.604,-20.756],[164.653,-20.76],[164.67,-20.738],[164.666,-20.703],[164.706,-20.712],[164.721,-20.726],[164.746,-20.729],[164.822,-20.754],[164.833,-20.771],[164.86,-20.782],[164.857,-20.808],[164.867,-20.826],[164.851,-20.844],[164.85,-20.866],[164.867,-20.872],[164.872,-20.893],[164.919,-20.928],[164.935,-20.959],[164.911,-20.943],[164.842,-20.983],[164.826,-20.997],[164.798,-20.989],[164.785,-21.003],[164.749,-21.018],[164.714,-21.054],[164.714,-21.054],[164.714,-21.054]]]}},{"type":"Feature","properties":{"code":"98832","nom":"Yaté"},"geometry":{"type":"Polygon","coordinates":[[[166.551,-21.847],[166.564,-21.877],[166.614,-21.904],[166.621,-21.921],[166.663,-21.943],[166.675,-21.924],[166.719,-21.958],[166.726,-21.981],[166.754,-21.991],[166.759,-22.014],[166.791,-22.015],[166.858,-22.032],[166.932,-22.083],[166.948,-22.1],[166.942,-22.146],[167.011,-22.234],[167.023,-22.277],[166.997,-22.342],[166.974,-22.353],[166.966,-22.32],[166.95,-22.308],[166.91,-22.312],[166.897,-22.277],[166.865,-22.263],[166.843,-22.272],[166.817,-22.246],[166.793,-22.247],[166.767,-22.208],[166.777,-22.178],[166.763,-22.163],[166.722,-22.166],[166.69,-22.158],[166.663,-22.194],[166.629,-22.161],[166.597,-22.152],[166.605,-22.133],[166.604,-22.105],[166.586,-22.091],[166.555,-22.087],[166.545,-22.071],[166.498,-22.046],[166.466,-22.04],[166.472,-22.016],[166.437,-21.973],[166.428,-21.95],[166.426,-21.899],[166.462,-21.893],[166.478,-21.86],[166.52,-21.848],[166.551,-21.847]]]}},{"type":"Feature","properties":{"code":"98833","nom":"Kouaoua"},"geometry":{"type":"Polygon","coordinates":[[[165.872,-21.355],[165.882,-21.358],[165.901,-21.406],[165.894,-21.426],[165.898,-21.457],[165.874,-21.458],[165.871,-21.487],[165.843,-21.516],[165.855,-21.539],[165.856,-21.564],[165.833,-21.576],[165.81,-21.557],[165.776,-21.548],[165.761,-21.534],[165.739,-21.536],[165.701,-21.516],[165.664,-21.523],[165.632,-21.5],[165.637,-21.48],[165.659,-21.462],[165.693,-21.457],[165.703,-21.422],[165.747,-21.379],[165.738,-21.364],[165.772,-21.356],[165.789,-21.341],[165.841,-21.391],[165.872,-21.355]]]}}]}