{"type":"FeatureCollection","features":[{"type":"Feature","properties":{"code":"75101","nom":"Paris 1er Arrondissement","pop":15114},"geometry":{"type":"Polygon","coordinates":[[[2.3259,48.8696],[2.328,48.8699],[2.3304,48.8683],[2.351,48.8634],[2.3502,48.862],[2.3476,48.8574],[2.3446,48.8541],[2.3377,48.8583],[2.3329,48.8593],[2.3209,48.863],[2.3259,48.8696]]]}},{"type":"Feature","properties":{"code":"75102","nom":"Paris 2e Arrondissement","pop":19847},"geometry":{"type":"Polygon","coordinates":[[[2.3479,48.8707],[2.3543,48.8693],[2.351,48.8634],[2.3304,48.8683],[2.328,48.8699],[2.34,48.872],[2.3479,48.8707]]]}},{"type":"Feature","properties":{"code":"75103","nom":"Paris 3e Arrondissement","pop":32179},"geometry":{"type":"Polygon","coordinates":[[[2.3502,48.862],[2.351,48.8634],[2.3543,48.8693],[2.3639,48.8675],[2.3667,48.8631],[2.3685,48.8558],[2.3649,48.8563],[2.3594,48.8583],[2.3567,48.8601],[2.3502,48.862]]]}},{"type":"Feature","properties":{"code":"75104","nom":"Paris 4e Arrondissement","pop":27332},"geometry":{"type":"Polygon","coordinates":[[[2.3691,48.8532],[2.3664,48.8473],[2.3645,48.8462],[2.3611,48.8486],[2.3546,48.851],[2.349,48.8524],[2.3446,48.8541],[2.3476,48.8574],[2.3502,48.862],[2.3567,48.8601],[2.3594,48.8583],[2.3649,48.8563],[2.3685,48.8558],[2.3691,48.8532]]]}},{"type":"Feature","properties":{"code":"75105","nom":"Paris 5e Arrondissement","pop":55252},"geometry":{"type":"Polygon","coordinates":[[[2.3421,48.8383],[2.3367,48.8397],[2.3446,48.8541],[2.349,48.8524],[2.3546,48.851],[2.3611,48.8486],[2.3645,48.8462],[2.3661,48.845],[2.3617,48.8399],[2.3519,48.8368],[2.3421,48.8383]]]}},{"type":"Feature","properties":{"code":"75106","nom":"Paris 6e Arrondissement","pop":40389},"geometry":{"type":"Polygon","coordinates":[[[2.3329,48.8593],[2.3377,48.8583],[2.3446,48.8541],[2.3367,48.8397],[2.3246,48.8436],[2.3167,48.8469],[2.3287,48.8519],[2.3333,48.8583],[2.3329,48.8593]]]}},{"type":"Feature","properties":{"code":"75107","nom":"Paris 7e Arrondissement","pop":48015},"geometry":{"type":"Polygon","coordinates":[[[2.3017,48.8635],[2.3187,48.8637],[2.3209,48.863],[2.3329,48.8593],[2.3333,48.8583],[2.3287,48.8519],[2.3167,48.8469],[2.3137,48.8459],[2.3105,48.848],[2.3074,48.8471],[2.2897,48.8582],[2.2949,48.8619],[2.3017,48.8635]]]}},{"type":"Feature","properties":{"code":"75108","nom":"Paris 8e Arrondissement","pop":35317},"geometry":{"type":"Polygon","coordinates":[[[2.3017,48.8635],[2.2998,48.8655],[2.2989,48.8686],[2.295,48.8738],[2.2982,48.8781],[2.3086,48.8803],[2.3156,48.8812],[2.3272,48.8835],[2.327,48.8738],[2.3259,48.8696],[2.3209,48.863],[2.3187,48.8637],[2.3017,48.8635]]]}},{"type":"Feature","properties":{"code":"75109","nom":"Paris 9e Arrondissement","pop":57271},"geometry":{"type":"Polygon","coordinates":[[[2.3272,48.8835],[2.3274,48.8835],[2.3295,48.8846],[2.3398,48.882],[2.3495,48.8837],[2.3499,48.8806],[2.3479,48.874],[2.3479,48.8707],[2.34,48.872],[2.328,48.8699],[2.3259,48.8696],[2.327,48.8738],[2.3272,48.8835]]]}},{"type":"Feature","properties":{"code":"75110","nom":"Paris 10e Arrondissement","pop":83873},"geometry":{"type":"Polygon","coordinates":[[[2.3639,48.8675],[2.3543,48.8693],[2.3479,48.8707],[2.3479,48.874],[2.3499,48.8806],[2.3495,48.8837],[2.359,48.8844],[2.3647,48.8844],[2.368,48.8842],[2.3702,48.8827],[2.3703,48.878],[2.3769,48.872],[2.3639,48.8675]]]}},{"type":"Feature","properties":{"code":"75111","nom":"Paris 11e Arrondissement","pop":138170},"geometry":{"type":"Polygon","coordinates":[[[2.3691,48.8532],[2.3685,48.8558],[2.3667,48.8631],[2.3639,48.8675],[2.3769,48.872],[2.383,48.8672],[2.3874,48.8628],[2.3895,48.8585],[2.3943,48.8565],[2.3984,48.8513],[2.3991,48.8481],[2.3845,48.8501],[2.3788,48.8506],[2.3691,48.8532]]]}},{"type":"Feature","properties":{"code":"75112","nom":"Paris 12e Arrondissement","pop":138024},"geometry":{"type":"Polygon","coordinates":[[[2.4673,48.8391],[2.4699,48.8364],[2.4695,48.8345],[2.4658,48.8319],[2.4647,48.8276],[2.4657,48.8262],[2.4629,48.8202],[2.4612,48.8184],[2.4591,48.817],[2.4535,48.8171],[2.4478,48.818],[2.4373,48.8182],[2.4304,48.8229],[2.428,48.8239],[2.42,48.8241],[2.4092,48.8255],[2.4022,48.8296],[2.3943,48.8275],[2.3901,48.8257],[2.3784,48.835],[2.3736,48.8393],[2.3661,48.845],[2.3645,48.8462],[2.3664,48.8473],[2.3691,48.8532],[2.3788,48.8506],[2.3845,48.8501],[2.3991,48.8481],[2.416,48.8466],[2.4122,48.8345],[2.4173,48.8342],[2.4221,48.8358],[2.4195,48.8414],[2.4218,48.8444],[2.4239,48.8422],[2.4276,48.8416],[2.4372,48.8409],[2.438,48.8447],[2.4408,48.846],[2.4466,48.8458],[2.4479,48.8449],[2.4586,48.8434],[2.4649,48.8414],[2.4673,48.8391]]]}},{"type":"Feature","properties":{"code":"75113","nom":"Paris 13e Arrondissement","pop":181271},"geometry":{"type":"Polygon","coordinates":[[[2.3661,48.845],[2.3736,48.8393],[2.3784,48.835],[2.3901,48.8257],[2.3815,48.8224],[2.3808,48.8217],[2.3642,48.8164],[2.3562,48.8159],[2.3524,48.8186],[2.3472,48.8161],[2.3439,48.8158],[2.3446,48.8196],[2.3425,48.8215],[2.3411,48.832],[2.3421,48.8383],[2.3519,48.8368],[2.3617,48.8399],[2.3661,48.845]]]}},{"type":"Feature","properties":{"code":"75114","nom":"Paris 14e Arrondissement","pop":136455},"geometry":{"type":"Polygon","coordinates":[[[2.3367,48.8397],[2.3421,48.8383],[2.3411,48.832],[2.3425,48.8215],[2.3446,48.8196],[2.3439,48.8158],[2.3417,48.8163],[2.3319,48.817],[2.3325,48.8182],[2.3141,48.8223],[2.3013,48.8251],[2.3071,48.8302],[2.3199,48.8405],[2.3246,48.8436],[2.3367,48.8397]]]}},{"type":"Feature","properties":{"code":"75115","nom":"Paris 15e Arrondissement","pop":229713},"geometry":{"type":"Polygon","coordinates":[[[2.2894,48.8283],[2.2791,48.8325],[2.2728,48.8279],[2.2676,48.828],[2.2673,48.8315],[2.2699,48.833],[2.2675,48.8346],[2.2628,48.8339],[2.266,48.8368],[2.2755,48.8467],[2.278,48.8489],[2.2873,48.8554],[2.2897,48.8582],[2.3074,48.8471],[2.3105,48.848],[2.3137,48.8459],[2.3167,48.8469],[2.3246,48.8436],[2.3199,48.8405],[2.3071,48.8302],[2.3013,48.8251],[2.2922,48.8271],[2.2894,48.8283]]]}},{"type":"Feature","properties":{"code":"75116","nom":"Paris 16e Arrondissement","pop":159386},"geometry":{"type":"Polygon","coordinates":[[[2.2242,48.8535],[2.2257,48.8594],[2.2284,48.8654],[2.2317,48.8691],[2.2403,48.872],[2.2457,48.8765],[2.2548,48.8741],[2.2585,48.8804],[2.2775,48.878],[2.2799,48.8786],[2.295,48.8738],[2.2989,48.8686],[2.2998,48.8655],[2.3017,48.8635],[2.2949,48.8619],[2.2897,48.8582],[2.2873,48.8554],[2.278,48.8489],[2.2755,48.8467],[2.266,48.8368],[2.2628,48.8339],[2.2551,48.8348],[2.2517,48.8388],[2.2508,48.8455],[2.2424,48.8477],[2.2392,48.85],[2.2242,48.8535]]]}},{"type":"Feature","properties":{"code":"75117","nom":"Paris 17e Arrondissement","pop":159212},"geometry":{"type":"Polygon","coordinates":[[[2.3038,48.8942],[2.3125,48.8978],[2.3199,48.9005],[2.3301,48.901],[2.3256,48.8875],[2.3274,48.8835],[2.3272,48.8835],[2.3156,48.8812],[2.3086,48.8803],[2.2982,48.8781],[2.295,48.8738],[2.2799,48.8786],[2.2809,48.8828],[2.2845,48.8856],[2.2916,48.8895],[2.295,48.8899],[2.3038,48.8942]]]}},{"type":"Feature","properties":{"code":"75118","nom":"Paris 18e Arrondissement","pop":183127},"geometry":{"type":"Polygon","coordinates":[[[2.352,48.9015],[2.3656,48.9018],[2.3703,48.9018],[2.37,48.894],[2.3668,48.8866],[2.3647,48.8844],[2.359,48.8844],[2.3495,48.8837],[2.3398,48.882],[2.3295,48.8846],[2.3274,48.8835],[2.3256,48.8875],[2.3301,48.901],[2.352,48.9015]]]}},{"type":"Feature","properties":{"code":"75119","nom":"Paris 19e Arrondissement","pop":178691},"geometry":{"type":"Polygon","coordinates":[[[2.4108,48.8784],[2.4026,48.876],[2.3954,48.8753],[2.3896,48.8753],[2.3848,48.8737],[2.3769,48.872],[2.3703,48.878],[2.3702,48.8827],[2.368,48.8842],[2.3647,48.8844],[2.3668,48.8866],[2.37,48.894],[2.3703,48.9018],[2.3845,48.9021],[2.3893,48.9012],[2.3955,48.8983],[2.3977,48.8946],[2.3989,48.8895],[2.3993,48.8854],[2.4015,48.8826],[2.4094,48.8803],[2.4108,48.8784]]]}},{"type":"Feature","properties":{"code":"75120","nom":"Paris 20e Arrondissement","pop":185140},"geometry":{"type":"Polygon","coordinates":[[[2.4153,48.8552],[2.4163,48.8492],[2.416,48.8466],[2.3991,48.8481],[2.3984,48.8513],[2.3943,48.8565],[2.3895,48.8585],[2.3874,48.8628],[2.383,48.8672],[2.3769,48.872],[2.3848,48.8737],[2.3896,48.8753],[2.3954,48.8753],[2.4026,48.876],[2.4108,48.8784],[2.4134,48.8731],[2.414,48.8647],[2.4153,48.8552]]]}}]}