{"type":"FeatureCollection","features":[{"type":"Feature","properties":{"code":"90001","nom":"Andelnans","pop":1093},"geometry":{"type":"Polygon","coordinates":[[[6.881,47.6106],[6.881,47.6096],[6.8865,47.6024],[6.8846,47.598],[6.8729,47.5967],[6.8683,47.5948],[6.8665,47.5927],[6.863,47.5922],[6.8631,47.5949],[6.8601,47.5949],[6.8593,47.5993],[6.854,47.599],[6.8503,47.6016],[6.8484,47.6043],[6.8463,47.6046],[6.8402,47.6029],[6.8388,47.6074],[6.8393,47.6074],[6.8427,47.6089],[6.8536,47.6103],[6.8543,47.6097],[6.8632,47.6089],[6.8732,47.6112],[6.8772,47.6103],[6.881,47.6108],[6.881,47.6106]]]}},{"type":"Feature","properties":{"code":"90002","nom":"Angeot","pop":354},"geometry":{"type":"Polygon","coordinates":[[[7.0382,47.6926],[7.0364,47.6922],[7.0237,47.69],[7.0221,47.6891],[7.0101,47.6884],[7.0093,47.6876],[6.9989,47.6891],[6.9858,47.6871],[6.9835,47.686],[6.9761,47.6897],[6.9741,47.6883],[6.9682,47.6905],[6.9722,47.6916],[6.9782,47.6943],[6.9836,47.6971],[6.9895,47.6994],[7.0008,47.7047],[7.0131,47.7056],[7.0188,47.7051],[7.0275,47.7053],[7.0265,47.701],[7.0305,47.6997],[7.0338,47.6997],[7.0329,47.6954],[7.0373,47.6947],[7.0382,47.6926]]]}},{"type":"Feature","properties":{"code":"90003","nom":"Anjoutey","pop":611},"geometry":{"type":"Polygon","coordinates":[[[6.8905,47.6945],[6.8907,47.7004],[6.9001,47.7002],[6.9117,47.7014],[6.9143,47.7028],[6.9265,47.7072],[6.9255,47.7097],[6.9308,47.713],[6.9359,47.7154],[6.9433,47.7223],[6.9445,47.7218],[6.9473,47.722],[6.9516,47.7228],[6.9522,47.7198],[6.9539,47.7173],[6.9525,47.7169],[6.9477,47.7133],[6.9449,47.7092],[6.9457,47.7073],[6.9439,47.7043],[6.9444,47.7003],[6.9465,47.6982],[6.9507,47.6968],[6.9545,47.6944],[6.9549,47.6931],[6.9502,47.6921],[6.9385,47.694],[6.9343,47.693],[6.9267,47.6902],[6.923,47.69],[6.9186,47.6882],[6.9139,47.6906],[6.905,47.6908],[6.9019,47.6945],[6.8984,47.6932],[6.8923,47.6927],[6.8905,47.6945]]]}},{"type":"Feature","properties":{"code":"90004","nom":"Argiésans","pop":607},"geometry":{"type":"Polygon","coordinates":[[[6.8008,47.6002],[6.807,47.6019],[6.8103,47.6039],[6.8131,47.6042],[6.815,47.6087],[6.8151,47.613],[6.8132,47.6154],[6.8155,47.6166],[6.8244,47.6104],[6.8291,47.6099],[6.8388,47.6074],[6.8402,47.6029],[6.8388,47.6007],[6.8359,47.5992],[6.8341,47.5986],[6.8323,47.5999],[6.8292,47.5982],[6.8251,47.5989],[6.8216,47.6006],[6.8177,47.5983],[6.8149,47.6008],[6.8048,47.5978],[6.8008,47.6002]]]}},{"type":"Feature","properties":{"code":"90005","nom":"Auxelles-Bas","pop":417},"geometry":{"type":"Polygon","coordinates":[[[6.813,47.7274],[6.8045,47.7223],[6.8018,47.7211],[6.8018,47.7191],[6.7968,47.7169],[6.7843,47.7174],[6.7749,47.7157],[6.7716,47.7126],[6.7689,47.7146],[6.7669,47.7191],[6.7624,47.7205],[6.7566,47.7244],[6.7562,47.7255],[6.7606,47.7292],[6.7604,47.738],[6.7596,47.7392],[6.7738,47.7423],[6.7792,47.7402],[6.7858,47.7392],[6.7874,47.7401],[6.7953,47.7393],[6.7991,47.742],[6.8048,47.7415],[6.8069,47.74],[6.8075,47.7353],[6.812,47.7309],[6.813,47.7274]]]}},{"type":"Feature","properties":{"code":"90006","nom":"Auxelles-Haut","pop":287},"geometry":{"type":"Polygon","coordinates":[[[6.7579,47.7479],[6.7599,47.7489],[6.7612,47.7516],[6.7645,47.7537],[6.7644,47.7585],[6.7673,47.7607],[6.7724,47.7656],[6.7746,47.7667],[6.7792,47.7663],[6.7877,47.7602],[6.7915,47.7546],[6.7897,47.7525],[6.7996,47.7486],[6.8042,47.7446],[6.8048,47.7415],[6.7991,47.742],[6.7953,47.7393],[6.7874,47.7401],[6.7858,47.7392],[6.7792,47.7402],[6.7738,47.7423],[6.7596,47.7392],[6.7579,47.7479]]]}},{"type":"Feature","properties":{"code":"90007","nom":"Banvillars","pop":289},"geometry":{"type":"Polygon","coordinates":[[[6.7913,47.5963],[6.7933,47.5993],[6.7973,47.6006],[6.8008,47.6002],[6.8048,47.5978],[6.8149,47.6008],[6.8177,47.5983],[6.8216,47.6006],[6.8251,47.5989],[6.8292,47.5982],[6.8323,47.5999],[6.8341,47.5986],[6.8266,47.5922],[6.8273,47.5888],[6.8237,47.5836],[6.8228,47.5795],[6.8203,47.5755],[6.818,47.5778],[6.8104,47.5812],[6.8055,47.5821],[6.8019,47.5843],[6.8015,47.5869],[6.8036,47.5884],[6.8008,47.5919],[6.7988,47.5909],[6.7913,47.5963]]]}},{"type":"Feature","properties":{"code":"90008","nom":"Bavilliers","pop":4678},"geometry":{"type":"Polygon","coordinates":[[[6.8155,47.6166],[6.8101,47.6201],[6.8069,47.6227],[6.8119,47.6252],[6.8172,47.6244],[6.822,47.6243],[6.8261,47.6263],[6.8349,47.6359],[6.8363,47.6313],[6.8381,47.6311],[6.8403,47.6279],[6.8462,47.6266],[6.8481,47.6235],[6.8472,47.622],[6.8467,47.6164],[6.8431,47.6129],[6.8399,47.6112],[6.8393,47.6074],[6.8388,47.6074],[6.8291,47.6099],[6.8244,47.6104],[6.8155,47.6166]]]}},{"type":"Feature","properties":{"code":"90009","nom":"Beaucourt","pop":4966},"geometry":{"type":"Polygon","coordinates":[[[6.9157,47.4782],[6.9115,47.4843],[6.9096,47.4896],[6.9096,47.4915],[6.9075,47.4948],[6.9164,47.498],[6.9235,47.498],[6.9227,47.5001],[6.9255,47.4994],[6.9302,47.5004],[6.9318,47.4962],[6.9336,47.496],[6.9351,47.4905],[6.9352,47.4856],[6.9401,47.487],[6.9427,47.4849],[6.9412,47.4828],[6.9395,47.4744],[6.9385,47.4731],[6.936,47.4732],[6.927,47.4761],[6.9157,47.4782]]]}},{"type":"Feature","properties":{"code":"90010","nom":"Belfort","pop":45912},"geometry":{"type":"Polygon","coordinates":[[[6.8786,47.6297],[6.8729,47.6272],[6.8611,47.6243],[6.859,47.6266],[6.8553,47.6263],[6.8525,47.6203],[6.8497,47.6204],[6.8472,47.622],[6.8481,47.6235],[6.8462,47.6266],[6.8403,47.6279],[6.8381,47.6311],[6.8363,47.6313],[6.8349,47.6359],[6.8319,47.6399],[6.8279,47.6419],[6.8282,47.6454],[6.8248,47.6472],[6.8185,47.6462],[6.8168,47.6466],[6.8214,47.65],[6.825,47.6515],[6.8274,47.6514],[6.8326,47.6471],[6.8349,47.6472],[6.8367,47.6512],[6.8374,47.6562],[6.832,47.6569],[6.8233,47.6544],[6.8195,47.6522],[6.8177,47.6534],[6.8102,47.6529],[6.8045,47.6534],[6.7984,47.6505],[6.7917,47.6556],[6.7887,47.6545],[6.7875,47.6574],[6.7893,47.6581],[6.7997,47.6603],[6.8019,47.6616],[6.8043,47.6653],[6.8074,47.6667],[6.8111,47.6674],[6.8224,47.6677],[6.8307,47.6713],[6.8353,47.6695],[6.8348,47.6648],[6.8365,47.6606],[6.8434,47.6614],[6.8503,47.6612],[6.8549,47.6577],[6.8621,47.6545],[6.8644,47.6544],[6.8755,47.6521],[6.8762,47.6501],[6.8812,47.6499],[6.8859,47.652],[6.8898,47.6528],[6.8941,47.6551],[6.894,47.6526],[6.8846,47.6481],[6.8861,47.6457],[6.8885,47.6464],[6.8889,47.6427],[6.8859,47.6412],[6.8829,47.6386],[6.8794,47.6384],[6.8812,47.6361],[6.8738,47.6309],[6.8786,47.6297]]]}},{"type":"Feature","properties":{"code":"90011","nom":"Bermont","pop":358},"geometry":{"type":"Polygon","coordinates":[[[6.8217,47.5733],[6.8212,47.5744],[6.8308,47.5738],[6.8407,47.5766],[6.841,47.5797],[6.8451,47.5821],[6.8547,47.5846],[6.8591,47.5849],[6.8589,47.5823],[6.8614,47.5824],[6.862,47.5809],[6.8589,47.5786],[6.8585,47.576],[6.8566,47.5751],[6.8568,47.5698],[6.8546,47.5667],[6.8501,47.5676],[6.8488,47.5715],[6.8456,47.5737],[6.843,47.5706],[6.8435,47.5667],[6.8391,47.5685],[6.8337,47.5685],[6.829,47.5692],[6.8217,47.5733]]]}},{"type":"Feature","properties":{"code":"90012","nom":"Bessoncourt","pop":1309},"geometry":{"type":"Polygon","coordinates":[[[6.9095,47.6449],[6.9152,47.6495],[6.9208,47.6511],[6.9262,47.6554],[6.9298,47.6564],[6.9352,47.6553],[6.9397,47.6505],[6.9487,47.6541],[6.9569,47.6532],[6.9669,47.6547],[6.9701,47.6548],[6.9699,47.6516],[6.9711,47.6476],[6.974,47.6424],[6.971,47.6367],[6.9664,47.6371],[6.959,47.6385],[6.9498,47.6364],[6.9463,47.637],[6.9391,47.6353],[6.9355,47.6372],[6.9266,47.6382],[6.9108,47.6386],[6.9112,47.6407],[6.9095,47.6449]]]}},{"type":"Feature","properties":{"code":"90013","nom":"Bethonvilliers","pop":232},"geometry":{"type":"Polygon","coordinates":[[[6.9577,47.6891],[6.9599,47.6897],[6.9676,47.6904],[6.9698,47.6873],[6.9756,47.6808],[6.9768,47.6782],[6.9737,47.6737],[6.9632,47.6705],[6.9619,47.6721],[6.9626,47.6756],[6.9616,47.6797],[6.9582,47.6865],[6.9577,47.6891]]]}},{"type":"Feature","properties":{"code":"90014","nom":"Boron","pop":484},"geometry":{"type":"Polygon","coordinates":[[[6.9975,47.56],[6.9996,47.56],[7.002,47.5642],[7.0083,47.5679],[7.0092,47.5654],[7.0148,47.5652],[7.0189,47.5635],[7.0216,47.564],[7.0281,47.5619],[7.0275,47.56],[7.0301,47.5576],[7.033,47.5567],[7.0334,47.5505],[7.0366,47.5492],[7.0396,47.5463],[7.0389,47.5443],[7.0325,47.5433],[7.0279,47.5418],[7.0262,47.5449],[7.0228,47.5443],[7.0186,47.5451],[7.0132,47.5444],[7.0101,47.5464],[7.0049,47.5456],[6.9964,47.5474],[6.9925,47.5497],[6.9928,47.5552],[6.9936,47.5566],[6.9974,47.5583],[6.9975,47.56]]]}},{"type":"Feature","properties":{"code":"90015","nom":"Botans","pop":249},"geometry":{"type":"Polygon","coordinates":[[[6.863,47.5922],[6.86,47.5922],[6.8593,47.5891],[6.8545,47.5892],[6.8534,47.5869],[6.8497,47.5863],[6.8486,47.5901],[6.8455,47.5902],[6.8432,47.5927],[6.8403,47.5924],[6.8399,47.5949],[6.8368,47.5945],[6.8359,47.5992],[6.8388,47.6007],[6.8402,47.6029],[6.8463,47.6046],[6.8484,47.6043],[6.8503,47.6016],[6.854,47.599],[6.8593,47.5993],[6.8601,47.5949],[6.8631,47.5949],[6.863,47.5922]]]}},{"type":"Feature","properties":{"code":"90016","nom":"Bourg-sous-Châtelet","pop":115},"geometry":{"type":"Polygon","coordinates":[[[6.9507,47.6968],[6.9465,47.6982],[6.9444,47.7003],[6.9439,47.7043],[6.9457,47.7073],[6.9449,47.7092],[6.9477,47.7133],[6.9525,47.7169],[6.9521,47.7135],[6.9492,47.7094],[6.952,47.7073],[6.9521,47.7028],[6.9506,47.7003],[6.9507,47.6968]]]}},{"type":"Feature","properties":{"code":"90017","nom":"Bourogne","pop":1741},"geometry":{"type":"Polygon","coordinates":[[[6.8902,47.5501],[6.8856,47.5547],[6.8834,47.5555],[6.883,47.5595],[6.8804,47.5629],[6.8775,47.5635],[6.8733,47.5673],[6.8754,47.5682],[6.8776,47.5723],[6.8822,47.5746],[6.8845,47.5809],[6.8888,47.5803],[6.8946,47.5815],[6.8981,47.5814],[6.911,47.5823],[6.918,47.581],[6.9219,47.5781],[6.9271,47.5736],[6.9314,47.573],[6.9341,47.5706],[6.9383,47.5687],[6.9376,47.5667],[6.9339,47.5629],[6.9393,47.5563],[6.9349,47.559],[6.9277,47.5564],[6.9311,47.5533],[6.9255,47.5507],[6.9215,47.55],[6.9217,47.5484],[6.9154,47.5461],[6.9128,47.5439],[6.9072,47.5424],[6.9057,47.548],[6.902,47.55],[6.896,47.5497],[6.8902,47.5501]]]}},{"type":"Feature","properties":{"code":"90018","nom":"Brebotte","pop":353},"geometry":{"type":"Polygon","coordinates":[[[6.9749,47.5879],[6.9785,47.5892],[6.9856,47.5885],[6.9866,47.5872],[6.9965,47.5839],[6.996,47.5822],[6.9932,47.5807],[6.9857,47.5807],[6.9833,47.5803],[6.9775,47.5771],[6.971,47.5689],[6.9668,47.5657],[6.9658,47.5645],[6.9603,47.567],[6.9551,47.5724],[6.9543,47.5745],[6.9567,47.576],[6.9611,47.577],[6.9618,47.5824],[6.9648,47.5833],[6.9651,47.5862],[6.9712,47.5878],[6.9749,47.5879]]]}},{"type":"Feature","properties":{"code":"90019","nom":"Bretagne","pop":319},"geometry":{"type":"Polygon","coordinates":[[[7.0187,47.5869],[7.0141,47.5828],[7.0088,47.5819],[7.0084,47.5836],[6.9981,47.5813],[6.9932,47.5807],[6.996,47.5822],[6.9965,47.5839],[6.9866,47.5872],[6.9856,47.5885],[6.9785,47.5892],[6.9749,47.5879],[6.9729,47.5885],[6.9741,47.5919],[6.9796,47.5954],[6.9919,47.5969],[6.9953,47.5995],[6.9994,47.6012],[7.0011,47.5998],[7.0047,47.5992],[7.0081,47.5972],[7.0091,47.5995],[7.012,47.6004],[7.0195,47.5959],[7.0216,47.5937],[7.0203,47.5924],[7.0158,47.5919],[7.0196,47.5886],[7.0187,47.5869]]]}},{"type":"Feature","properties":{"code":"90020","nom":"Buc","pop":244},"geometry":{"type":"Polygon","coordinates":[[[6.7893,47.6047],[6.7883,47.6051],[6.7871,47.6101],[6.7846,47.612],[6.7811,47.613],[6.7777,47.6157],[6.7791,47.6202],[6.7787,47.6223],[6.7805,47.6253],[6.7838,47.6259],[6.7894,47.6256],[6.7909,47.6274],[6.7941,47.6255],[6.7979,47.6253],[6.7993,47.6236],[6.7979,47.6199],[6.7984,47.6138],[6.7945,47.6117],[6.7903,47.607],[6.7893,47.6047]]]}},{"type":"Feature","properties":{"code":"90021","nom":"Charmois","pop":369},"geometry":{"type":"Polygon","coordinates":[[[6.9565,47.5808],[6.953,47.5792],[6.9502,47.5744],[6.9492,47.5701],[6.9469,47.5704],[6.9431,47.566],[6.9399,47.5648],[6.9376,47.5667],[6.9383,47.5687],[6.9341,47.5706],[6.9314,47.573],[6.9271,47.5736],[6.9219,47.5781],[6.9317,47.5831],[6.9335,47.5859],[6.9382,47.5872],[6.9422,47.59],[6.947,47.5902],[6.9484,47.593],[6.9507,47.5932],[6.9517,47.5941],[6.9511,47.5912],[6.9586,47.5862],[6.9577,47.5817],[6.9565,47.5808]]]}},{"type":"Feature","properties":{"code":"90022","nom":"Châtenois-les-Forges","pop":2608},"geometry":{"type":"Polygon","coordinates":[[[6.8306,47.5464],[6.8168,47.5478],[6.8126,47.5552],[6.8098,47.5575],[6.8071,47.5631],[6.8104,47.5694],[6.8217,47.5733],[6.829,47.5692],[6.8337,47.5685],[6.8391,47.5685],[6.8435,47.5667],[6.843,47.5706],[6.8456,47.5737],[6.8488,47.5715],[6.8501,47.5676],[6.8546,47.5667],[6.856,47.564],[6.8605,47.5581],[6.8607,47.5554],[6.8576,47.5539],[6.8559,47.548],[6.8474,47.5481],[6.8438,47.5474],[6.8362,47.5482],[6.8306,47.5464]]]}},{"type":"Feature","properties":{"code":"90023","nom":"Chaux","pop":1184},"geometry":{"type":"Polygon","coordinates":[[[6.8726,47.6992],[6.8614,47.6999],[6.8602,47.699],[6.8526,47.6974],[6.8364,47.6982],[6.8316,47.6973],[6.8291,47.6982],[6.829,47.7031],[6.8274,47.7097],[6.8245,47.7081],[6.8209,47.7087],[6.8202,47.7112],[6.8146,47.7148],[6.8148,47.7181],[6.8136,47.7217],[6.8076,47.7196],[6.8045,47.7223],[6.813,47.7274],[6.8199,47.7283],[6.8253,47.728],[6.8309,47.7303],[6.8345,47.7308],[6.8336,47.729],[6.836,47.7276],[6.8371,47.7239],[6.842,47.7248],[6.8425,47.7187],[6.8556,47.7175],[6.8602,47.7148],[6.8638,47.7107],[6.8646,47.7075],[6.8669,47.7046],[6.8721,47.7007],[6.8726,47.6992]]]}},{"type":"Feature","properties":{"code":"90024","nom":"Chavanatte","pop":130},"geometry":{"type":"Polygon","coordinates":[[[7.0555,47.5768],[7.0568,47.5787],[7.0564,47.5815],[7.0614,47.5832],[7.0646,47.583],[7.0667,47.5869],[7.0665,47.5892],[7.0643,47.5929],[7.0675,47.5936],[7.0732,47.5929],[7.0766,47.5905],[7.0853,47.5932],[7.0873,47.5896],[7.0865,47.5855],[7.0858,47.5828],[7.0824,47.5789],[7.0772,47.5759],[7.0702,47.5741],[7.0675,47.5719],[7.0578,47.5693],[7.0568,47.572],[7.0539,47.5745],[7.0555,47.5768]]]}},{"type":"Feature","properties":{"code":"90025","nom":"Chavannes-les-Grands","pop":345},"geometry":{"type":"Polygon","coordinates":[[[7.0741,47.5989],[7.0742,47.5989],[7.0782,47.5969],[7.0809,47.5962],[7.0818,47.5939],[7.0853,47.5932],[7.0766,47.5905],[7.0732,47.5929],[7.0675,47.5936],[7.0643,47.5929],[7.0665,47.5892],[7.0667,47.5869],[7.0646,47.583],[7.0614,47.5832],[7.0564,47.5815],[7.0568,47.5787],[7.0555,47.5768],[7.0519,47.5777],[7.0505,47.5766],[7.0462,47.5795],[7.0472,47.5824],[7.0416,47.5809],[7.0405,47.5825],[7.0371,47.582],[7.0331,47.5781],[7.0323,47.5821],[7.0298,47.5831],[7.0238,47.583],[7.0242,47.5849],[7.0187,47.5869],[7.0196,47.5886],[7.0248,47.5892],[7.0255,47.5927],[7.0344,47.5941],[7.0398,47.6011],[7.0413,47.6006],[7.0463,47.601],[7.0476,47.5987],[7.0519,47.6005],[7.0544,47.5986],[7.0581,47.5991],[7.0643,47.6012],[7.0668,47.5997],[7.0704,47.6007],[7.0696,47.5975],[7.0715,47.5965],[7.0741,47.5989]]]}},{"type":"Feature","properties":{"code":"90026","nom":"Chèvremont","pop":1539},"geometry":{"type":"Polygon","coordinates":[[[6.9108,47.6386],[6.9266,47.6382],[6.9355,47.6372],[6.9391,47.6353],[6.9463,47.637],[6.9498,47.6364],[6.959,47.6385],[6.9664,47.6371],[6.9632,47.6344],[6.9621,47.6317],[6.9622,47.6285],[6.9518,47.628],[6.9522,47.6255],[6.9472,47.6215],[6.9496,47.615],[6.9423,47.6167],[6.9403,47.6179],[6.9326,47.6169],[6.9275,47.6173],[6.9243,47.6167],[6.9185,47.6176],[6.9175,47.621],[6.9147,47.6217],[6.908,47.62],[6.9021,47.62],[6.8949,47.6212],[6.8941,47.6219],[6.8953,47.6248],[6.9006,47.6255],[6.8996,47.6283],[6.9021,47.6299],[6.9028,47.632],[6.9077,47.6322],[6.9078,47.6346],[6.9108,47.6386]]]}},{"type":"Feature","properties":{"code":"90027","nom":"Courcelles","pop":132},"geometry":{"type":"Polygon","coordinates":[[[7.0817,47.5083],[7.0888,47.5073],[7.0916,47.5077],[7.0948,47.506],[7.0943,47.5022],[7.0969,47.4952],[7.0914,47.4947],[7.0814,47.4897],[7.0749,47.4882],[7.0725,47.4897],[7.0721,47.4924],[7.0608,47.4954],[7.0524,47.4951],[7.0445,47.4984],[7.0369,47.4975],[7.0366,47.4992],[7.0475,47.5011],[7.0571,47.5046],[7.0616,47.5046],[7.0802,47.5085],[7.0817,47.5083]]]}},{"type":"Feature","properties":{"code":"90028","nom":"Courtelevant","pop":379},"geometry":{"type":"Polygon","coordinates":[[[7.0916,47.5077],[7.0888,47.5073],[7.0817,47.5083],[7.0744,47.5122],[7.0741,47.525],[7.0744,47.5298],[7.0761,47.5342],[7.076,47.5369],[7.0731,47.5379],[7.0694,47.5415],[7.0668,47.542],[7.0766,47.5449],[7.081,47.544],[7.0829,47.5393],[7.0822,47.5367],[7.0876,47.5378],[7.0911,47.5365],[7.093,47.5347],[7.0961,47.5339],[7.0994,47.5353],[7.1023,47.532],[7.0974,47.5263],[7.0969,47.5167],[7.0939,47.5143],[7.092,47.5107],[7.0916,47.5077]]]}},{"type":"Feature","properties":{"code":"90029","nom":"Cravanche","pop":1942},"geometry":{"type":"Polygon","coordinates":[[[6.8168,47.6466],[6.8142,47.6482],[6.8102,47.6529],[6.8177,47.6534],[6.8195,47.6522],[6.8233,47.6544],[6.832,47.6569],[6.8374,47.6562],[6.8367,47.6512],[6.8349,47.6472],[6.8326,47.6471],[6.8274,47.6514],[6.825,47.6515],[6.8214,47.65],[6.8168,47.6466]]]}},{"type":"Feature","properties":{"code":"90030","nom":"Croix","pop":180},"geometry":{"type":"Polygon","coordinates":[[[6.935,47.4472],[6.9343,47.4509],[6.9325,47.4526],[6.9325,47.4558],[6.936,47.4558],[6.9438,47.4534],[6.9582,47.4551],[6.9621,47.454],[6.9661,47.4518],[6.9668,47.4501],[6.9712,47.4491],[6.9703,47.4471],[6.9663,47.4377],[6.9637,47.4358],[6.9576,47.4338],[6.955,47.4353],[6.9403,47.4333],[6.9373,47.4353],[6.933,47.4406],[6.9357,47.4439],[6.935,47.4472]]]}},{"type":"Feature","properties":{"code":"90031","nom":"Cunelières","pop":341},"geometry":{"type":"Polygon","coordinates":[[[7.0066,47.6264],[7.0077,47.6194],[7.005,47.6196],[7.001,47.6203],[6.9949,47.6201],[6.9887,47.6223],[6.9849,47.6222],[6.9826,47.6245],[6.9788,47.6262],[6.9787,47.6278],[6.9792,47.6284],[6.9916,47.6321],[6.9936,47.6307],[6.9974,47.6299],[7.0021,47.6311],[7.0044,47.6296],[7.0066,47.6264]]]}},{"type":"Feature","properties":{"code":"90032","nom":"Danjoutin","pop":3519},"geometry":{"type":"Polygon","coordinates":[[[6.8786,47.6297],[6.8841,47.6285],[6.8885,47.6248],[6.8901,47.6222],[6.8858,47.6156],[6.8842,47.6113],[6.881,47.6108],[6.8772,47.6103],[6.8732,47.6112],[6.8632,47.6089],[6.8543,47.6097],[6.8536,47.6103],[6.8427,47.6089],[6.8393,47.6074],[6.8399,47.6112],[6.8431,47.6129],[6.8467,47.6164],[6.8472,47.622],[6.8497,47.6204],[6.8525,47.6203],[6.8553,47.6263],[6.859,47.6266],[6.8611,47.6243],[6.8729,47.6272],[6.8786,47.6297]]]}},{"type":"Feature","properties":{"code":"90033","nom":"Delle","pop":5623},"geometry":{"type":"Polygon","coordinates":[[[7.0249,47.5043],[7.0202,47.5044],[7.0037,47.5007],[6.9959,47.4973],[6.9883,47.4948],[6.986,47.4933],[6.9829,47.4943],[6.9788,47.4955],[6.9779,47.4974],[6.9724,47.4978],[6.9638,47.4963],[6.9661,47.503],[6.9662,47.506],[6.9699,47.5067],[6.9699,47.5111],[6.9925,47.5178],[6.9921,47.5199],[6.9957,47.521],[6.9985,47.5245],[7.0001,47.5228],[7.0041,47.5216],[7.0187,47.5196],[7.0196,47.5201],[7.024,47.5194],[7.0243,47.5161],[7.0265,47.5117],[7.0281,47.5104],[7.0254,47.5066],[7.0249,47.5043]]]}},{"type":"Feature","properties":{"code":"90034","nom":"Denney","pop":763},"geometry":{"type":"Polygon","coordinates":[[[6.8941,47.6551],[6.8959,47.6585],[6.894,47.6601],[6.8985,47.6632],[6.9088,47.6649],[6.9102,47.6629],[6.9201,47.6621],[6.924,47.6601],[6.9262,47.6554],[6.9208,47.6511],[6.9152,47.6495],[6.9095,47.6449],[6.9061,47.6473],[6.9049,47.6492],[6.8972,47.6508],[6.8911,47.6492],[6.8885,47.6464],[6.8861,47.6457],[6.8846,47.6481],[6.894,47.6526],[6.8941,47.6551]]]}},{"type":"Feature","properties":{"code":"90035","nom":"Dorans","pop":824},"geometry":{"type":"Polygon","coordinates":[[[6.8593,47.5891],[6.8591,47.5849],[6.8547,47.5846],[6.8451,47.5821],[6.841,47.5797],[6.8407,47.5766],[6.8308,47.5738],[6.8212,47.5744],[6.8203,47.5755],[6.8228,47.5795],[6.8237,47.5836],[6.8273,47.5888],[6.8266,47.5922],[6.8341,47.5986],[6.8359,47.5992],[6.8368,47.5945],[6.8399,47.5949],[6.8403,47.5924],[6.8432,47.5927],[6.8455,47.5902],[6.8486,47.5901],[6.8497,47.5863],[6.8534,47.5869],[6.8545,47.5892],[6.8593,47.5891]]]}},{"type":"Feature","properties":{"code":"90036","nom":"Eguenigue","pop":272},"geometry":{"type":"Polygon","coordinates":[[[6.9267,47.6902],[6.9343,47.693],[6.9378,47.6887],[6.9432,47.6892],[6.944,47.683],[6.9367,47.6796],[6.9364,47.6755],[6.9387,47.6668],[6.928,47.6639],[6.9275,47.6701],[6.9287,47.6729],[6.9284,47.6774],[6.9291,47.683],[6.9268,47.6845],[6.9259,47.6877],[6.9267,47.6902]]]}},{"type":"Feature","properties":{"code":"90037","nom":"Éloie","pop":952},"geometry":{"type":"Polygon","coordinates":[[[6.8614,47.6999],[6.8726,47.6992],[6.8806,47.6985],[6.8868,47.6965],[6.8905,47.6945],[6.8923,47.6927],[6.8902,47.6892],[6.8909,47.6866],[6.8864,47.6847],[6.8856,47.6804],[6.8863,47.6759],[6.8852,47.674],[6.8637,47.6781],[6.8561,47.6819],[6.8538,47.6841],[6.8574,47.685],[6.8547,47.6904],[6.8611,47.6924],[6.8633,47.6923],[6.8609,47.697],[6.8632,47.6975],[6.8614,47.6999]]]}},{"type":"Feature","properties":{"code":"90039","nom":"Essert","pop":3417},"geometry":{"type":"Polygon","coordinates":[[[6.7993,47.6236],[6.7979,47.6253],[6.7941,47.6255],[6.7909,47.6274],[6.7915,47.6293],[6.8003,47.6347],[6.801,47.636],[6.7978,47.6409],[6.7995,47.6427],[6.7939,47.6475],[6.7904,47.6479],[6.7923,47.6492],[6.7984,47.6505],[6.8045,47.6534],[6.8102,47.6529],[6.8142,47.6482],[6.8168,47.6466],[6.8185,47.6462],[6.8248,47.6472],[6.8282,47.6454],[6.8279,47.6419],[6.8319,47.6399],[6.8349,47.6359],[6.8261,47.6263],[6.822,47.6243],[6.8172,47.6244],[6.8119,47.6252],[6.8069,47.6227],[6.8024,47.6242],[6.7993,47.6236]]]}},{"type":"Feature","properties":{"code":"90041","nom":"Étueffont","pop":1393},"geometry":{"type":"Polygon","coordinates":[[[6.8972,47.7381],[6.8914,47.7458],[6.8896,47.7494],[6.8966,47.7493],[6.9028,47.7467],[6.9053,47.747],[6.9105,47.746],[6.9222,47.7471],[6.925,47.7453],[6.9277,47.7419],[6.93,47.7372],[6.9361,47.7344],[6.9418,47.7284],[6.9445,47.7218],[6.9433,47.7223],[6.9359,47.7154],[6.9308,47.713],[6.9255,47.7097],[6.9265,47.7072],[6.9143,47.7028],[6.9117,47.7014],[6.9001,47.7002],[6.8907,47.7004],[6.8926,47.7043],[6.8921,47.7067],[6.8954,47.7132],[6.9012,47.7136],[6.906,47.7154],[6.9084,47.718],[6.9084,47.7222],[6.9068,47.7235],[6.9038,47.7324],[6.8972,47.7381]]]}},{"type":"Feature","properties":{"code":"90042","nom":"Évette-Salbert","pop":2029},"geometry":{"type":"Polygon","coordinates":[[[6.7786,47.6759],[6.7787,47.6783],[6.7817,47.6842],[6.782,47.6873],[6.7802,47.6898],[6.7891,47.6903],[6.7953,47.6901],[6.7974,47.6906],[6.8077,47.6825],[6.8111,47.6801],[6.8149,47.68],[6.8157,47.6785],[6.8207,47.6782],[6.8249,47.6752],[6.8296,47.6736],[6.8307,47.6713],[6.8224,47.6677],[6.8111,47.6674],[6.8074,47.6667],[6.8043,47.6653],[6.8019,47.6616],[6.7997,47.6603],[6.7893,47.6581],[6.7875,47.6574],[6.7887,47.6545],[6.7917,47.6556],[6.7984,47.6505],[6.7923,47.6492],[6.7904,47.6479],[6.7875,47.6517],[6.7868,47.6532],[6.7819,47.6553],[6.781,47.6583],[6.7819,47.6623],[6.7773,47.6651],[6.7761,47.6681],[6.7786,47.6735],[6.7786,47.6759]]]}},{"type":"Feature","properties":{"code":"90043","nom":"Faverois","pop":593},"geometry":{"type":"Polygon","coordinates":[[[7.0279,47.5418],[7.0325,47.5433],[7.0389,47.5443],[7.0396,47.5463],[7.0439,47.5458],[7.0478,47.5425],[7.0522,47.5411],[7.0485,47.5363],[7.0513,47.5299],[7.0506,47.5289],[7.0532,47.523],[7.047,47.5194],[7.0453,47.5142],[7.0348,47.5137],[7.0265,47.5117],[7.0243,47.5161],[7.024,47.5194],[7.0196,47.5201],[7.0216,47.5242],[7.0251,47.5277],[7.0246,47.5319],[7.023,47.535],[7.0279,47.5418]]]}},{"type":"Feature","properties":{"code":"90044","nom":"Felon","pop":222},"geometry":{"type":"Polygon","coordinates":[[[6.9842,47.7164],[6.9878,47.718],[6.9919,47.7144],[6.9929,47.708],[6.9974,47.7088],[7.0008,47.7047],[6.9895,47.6994],[6.9836,47.6971],[6.9782,47.6943],[6.9756,47.6991],[6.9683,47.7026],[6.9659,47.7049],[6.958,47.7106],[6.9573,47.7135],[6.9663,47.7111],[6.9842,47.7164]]]}},{"type":"Feature","properties":{"code":"90045","nom":"Fêche-l'Église","pop":702},"geometry":{"type":"Polygon","coordinates":[[[6.958,47.5156],[6.9659,47.5132],[6.9699,47.5111],[6.9699,47.5067],[6.9662,47.506],[6.9661,47.503],[6.9638,47.4963],[6.9604,47.4963],[6.9604,47.4936],[6.9567,47.4939],[6.9556,47.4905],[6.9538,47.4902],[6.9524,47.4851],[6.9491,47.4857],[6.9473,47.4893],[6.9477,47.4931],[6.9468,47.4964],[6.9447,47.498],[6.9455,47.5051],[6.9472,47.5057],[6.9497,47.5087],[6.9462,47.5113],[6.945,47.5133],[6.9494,47.5161],[6.9519,47.5165],[6.958,47.5156]]]}},{"type":"Feature","properties":{"code":"90046","nom":"Florimont","pop":473},"geometry":{"type":"Polygon","coordinates":[[[7.0396,47.5463],[7.0366,47.5492],[7.0334,47.5505],[7.033,47.5567],[7.0301,47.5576],[7.0275,47.56],[7.0281,47.5619],[7.0216,47.564],[7.0238,47.5658],[7.0261,47.5697],[7.0331,47.5781],[7.0371,47.582],[7.0405,47.5825],[7.0416,47.5809],[7.0472,47.5824],[7.0462,47.5795],[7.0505,47.5766],[7.0519,47.5777],[7.0555,47.5768],[7.0539,47.5745],[7.0568,47.572],[7.0578,47.5693],[7.0541,47.5637],[7.0496,47.5631],[7.0524,47.5588],[7.0573,47.5558],[7.0622,47.5476],[7.0634,47.5438],[7.0668,47.542],[7.0694,47.5415],[7.0731,47.5379],[7.076,47.5369],[7.0761,47.5342],[7.0744,47.5298],[7.0741,47.525],[7.0744,47.5122],[7.0817,47.5083],[7.0802,47.5085],[7.0616,47.5046],[7.0571,47.5046],[7.0475,47.5011],[7.0366,47.4992],[7.0342,47.4992],[7.0291,47.5015],[7.0276,47.5013],[7.0249,47.5043],[7.0254,47.5066],[7.0281,47.5104],[7.0265,47.5117],[7.0348,47.5137],[7.0453,47.5142],[7.047,47.5194],[7.0532,47.523],[7.0506,47.5289],[7.0513,47.5299],[7.0485,47.5363],[7.0522,47.5411],[7.0478,47.5425],[7.0439,47.5458],[7.0396,47.5463]]]}},{"type":"Feature","properties":{"code":"90047","nom":"Fontaine","pop":605},"geometry":{"type":"Polygon","coordinates":[[[7.0189,47.6509],[7.0173,47.6495],[7.0166,47.6454],[7.0109,47.6453],[7.0067,47.6434],[7.0063,47.6469],[7.0078,47.6492],[7.0057,47.651],[6.9965,47.6518],[6.9928,47.6511],[6.9911,47.6541],[6.9845,47.6544],[6.9789,47.6552],[6.9753,47.6545],[6.9712,47.6552],[6.9713,47.6582],[6.9726,47.665],[6.9719,47.6686],[6.9756,47.6687],[6.9788,47.6672],[6.9868,47.6687],[7.0016,47.6699],[7.0092,47.6688],[7.0096,47.668],[7.0101,47.6654],[7.013,47.6662],[7.0135,47.6638],[7.019,47.6653],[7.023,47.6623],[7.0225,47.6554],[7.0202,47.6535],[7.0189,47.6509]]]}},{"type":"Feature","properties":{"code":"90048","nom":"Fontenelle","pop":135},"geometry":{"type":"Polygon","coordinates":[[[6.9634,47.6161],[6.959,47.6142],[6.9499,47.6128],[6.9496,47.615],[6.9472,47.6215],[6.9522,47.6255],[6.9518,47.628],[6.9622,47.6285],[6.9646,47.627],[6.9632,47.6247],[6.9656,47.6209],[6.9652,47.6195],[6.9616,47.6177],[6.9634,47.6161]]]}},{"type":"Feature","properties":{"code":"90049","nom":"Foussemagne","pop":869},"geometry":{"type":"Polygon","coordinates":[[[7.0105,47.6303],[7.0059,47.6289],[7.0066,47.6264],[7.0044,47.6296],[7.0021,47.6311],[6.9974,47.6299],[6.9936,47.6307],[6.9916,47.6321],[6.9792,47.6284],[6.9787,47.6278],[6.9754,47.6282],[6.9732,47.6306],[6.9724,47.6368],[6.9784,47.6373],[6.9811,47.6385],[6.9926,47.6415],[6.9923,47.643],[6.9948,47.6461],[6.9931,47.6477],[6.9928,47.6511],[6.9965,47.6518],[7.0057,47.651],[7.0078,47.6492],[7.0063,47.6469],[7.0067,47.6434],[7.0109,47.6453],[7.0166,47.6454],[7.0185,47.641],[7.0133,47.6401],[7.0125,47.638],[7.016,47.6359],[7.0135,47.6348],[7.0144,47.6327],[7.0126,47.6314],[7.0168,47.6271],[7.0143,47.6258],[7.0105,47.6303]]]}},{"type":"Feature","properties":{"code":"90050","nom":"Frais","pop":249},"geometry":{"type":"Polygon","coordinates":[[[6.9724,47.6368],[6.971,47.6367],[6.974,47.6424],[6.9711,47.6476],[6.9699,47.6516],[6.9701,47.6548],[6.9712,47.6552],[6.9753,47.6545],[6.9789,47.6552],[6.9845,47.6544],[6.9911,47.6541],[6.9928,47.6511],[6.9931,47.6477],[6.9948,47.6461],[6.9923,47.643],[6.9926,47.6415],[6.9811,47.6385],[6.9784,47.6373],[6.9724,47.6368]]]}},{"type":"Feature","properties":{"code":"90051","nom":"Froidefontaine","pop":433},"geometry":{"type":"Polygon","coordinates":[[[6.9376,47.5667],[6.9399,47.5648],[6.9431,47.566],[6.9469,47.5704],[6.9492,47.5701],[6.9502,47.5744],[6.953,47.5792],[6.9565,47.5808],[6.9587,47.5794],[6.9618,47.5824],[6.9611,47.577],[6.9567,47.576],[6.9543,47.5745],[6.9551,47.5724],[6.9603,47.567],[6.9658,47.5645],[6.9668,47.5657],[6.9733,47.5646],[6.9759,47.5629],[6.9808,47.5637],[6.98,47.5627],[6.9853,47.5595],[6.9806,47.5579],[6.9692,47.5573],[6.9647,47.5574],[6.9547,47.5544],[6.9509,47.5548],[6.9472,47.5569],[6.9422,47.5554],[6.9393,47.5563],[6.9339,47.5629],[6.9376,47.5667]]]}},{"type":"Feature","properties":{"code":"90052","nom":"Giromagny","pop":2907},"geometry":{"type":"Polygon","coordinates":[[[6.8345,47.7308],[6.8309,47.7303],[6.8253,47.728],[6.8199,47.7283],[6.813,47.7274],[6.812,47.7309],[6.8075,47.7353],[6.8069,47.74],[6.8048,47.7415],[6.8042,47.7446],[6.7996,47.7486],[6.8013,47.7493],[6.8111,47.7466],[6.8153,47.7468],[6.8155,47.7492],[6.8191,47.7504],[6.8231,47.7498],[6.8262,47.7514],[6.8282,47.7549],[6.8317,47.7574],[6.8345,47.7575],[6.8373,47.7515],[6.8386,47.7465],[6.8376,47.7437],[6.8381,47.7372],[6.84,47.7354],[6.834,47.7329],[6.8345,47.7308]]]}},{"type":"Feature","properties":{"code":"90053","nom":"Grandvillars","pop":2947},"geometry":{"type":"Polygon","coordinates":[[[6.945,47.5133],[6.9428,47.5136],[6.9376,47.5174],[6.9406,47.5191],[6.939,47.5215],[6.9442,47.5231],[6.9416,47.5274],[6.9415,47.532],[6.9481,47.5363],[6.95,47.5403],[6.9502,47.5437],[6.9544,47.5515],[6.9547,47.5544],[6.9647,47.5574],[6.9692,47.5573],[6.9806,47.5579],[6.9853,47.5595],[6.9905,47.5613],[6.9972,47.5623],[6.9975,47.56],[6.9974,47.5583],[6.9936,47.5566],[6.9928,47.5552],[6.9925,47.5497],[6.9964,47.5474],[7.0049,47.5456],[7.0101,47.5464],[7.0132,47.5444],[7.0088,47.5438],[7.0071,47.5412],[7.0028,47.5406],[6.9946,47.5358],[6.9899,47.535],[6.989,47.5333],[6.9877,47.5302],[6.984,47.5243],[6.9773,47.5219],[6.9722,47.5212],[6.9653,47.5178],[6.9609,47.5184],[6.958,47.5156],[6.9519,47.5165],[6.9494,47.5161],[6.945,47.5133]]]}},{"type":"Feature","properties":{"code":"90054","nom":"Grosmagny","pop":569},"geometry":{"type":"Polygon","coordinates":[[[6.8883,47.7508],[6.8896,47.7494],[6.8914,47.7458],[6.8972,47.7381],[6.8933,47.7281],[6.8937,47.7269],[6.8918,47.7233],[6.894,47.718],[6.8939,47.7156],[6.8954,47.7132],[6.8921,47.7067],[6.8926,47.7043],[6.8907,47.7004],[6.8905,47.6945],[6.8868,47.6965],[6.8806,47.6985],[6.8726,47.6992],[6.8721,47.7007],[6.8669,47.7046],[6.8646,47.7075],[6.8638,47.7107],[6.8602,47.7148],[6.8614,47.7153],[6.8642,47.7202],[6.8651,47.7286],[6.8691,47.7299],[6.8803,47.7312],[6.8863,47.7349],[6.8858,47.7384],[6.8883,47.7431],[6.8864,47.7447],[6.8867,47.749],[6.8883,47.7508]]]}},{"type":"Feature","properties":{"code":"90055","nom":"Grosne","pop":321},"geometry":{"type":"Polygon","coordinates":[[[7.002,47.5642],[6.9996,47.56],[6.9975,47.56],[6.9972,47.5623],[6.9905,47.5613],[6.9853,47.5595],[6.98,47.5627],[6.9808,47.5637],[6.9802,47.5665],[6.9841,47.5682],[6.9865,47.5714],[6.987,47.5737],[6.9855,47.5768],[6.9857,47.5807],[6.9932,47.5807],[6.9981,47.5813],[7.0084,47.5836],[7.0088,47.5819],[7.0071,47.5743],[7.0049,47.5713],[7.0052,47.5679],[7.002,47.5642]]]}},{"type":"Feature","properties":{"code":"90056","nom":"Joncherey","pop":1451},"geometry":{"type":"Polygon","coordinates":[[[7.0132,47.5444],[7.0186,47.5451],[7.0228,47.5443],[7.0262,47.5449],[7.0279,47.5418],[7.023,47.535],[7.0246,47.5319],[7.0251,47.5277],[7.0216,47.5242],[7.0196,47.5201],[7.0187,47.5196],[7.0041,47.5216],[7.0001,47.5228],[6.9985,47.5245],[6.9978,47.5272],[6.9952,47.5269],[6.9903,47.5291],[6.9886,47.5307],[6.989,47.5333],[6.9899,47.535],[6.9946,47.5358],[7.0028,47.5406],[7.0071,47.5412],[7.0088,47.5438],[7.0132,47.5444]]]}},{"type":"Feature","properties":{"code":"90057","nom":"Lachapelle-sous-Chaux","pop":745},"geometry":{"type":"Polygon","coordinates":[[[6.7974,47.6906],[6.7953,47.6901],[6.7891,47.6903],[6.7802,47.6898],[6.7788,47.6937],[6.7794,47.6953],[6.7778,47.6982],[6.7739,47.6992],[6.7705,47.7016],[6.7701,47.7034],[6.77,47.7077],[6.7721,47.7095],[6.7716,47.7126],[6.7749,47.7157],[6.7843,47.7174],[6.7968,47.7169],[6.8018,47.7191],[6.8018,47.7211],[6.8045,47.7223],[6.8076,47.7196],[6.8136,47.7217],[6.8148,47.7181],[6.8146,47.7148],[6.8202,47.7112],[6.8209,47.7087],[6.8245,47.7081],[6.8274,47.7097],[6.829,47.7031],[6.8291,47.6982],[6.8247,47.6963],[6.8197,47.6954],[6.8125,47.6917],[6.8099,47.6936],[6.8054,47.692],[6.8013,47.6919],[6.7974,47.6906]]]}},{"type":"Feature","properties":{"code":"90058","nom":"Lachapelle-sous-Rougemont","pop":539},"geometry":{"type":"Polygon","coordinates":[[[7.0378,47.7216],[7.0359,47.7214],[7.0375,47.7176],[7.0345,47.7163],[7.0275,47.7053],[7.0188,47.7051],[7.0131,47.7056],[7.0008,47.7047],[6.9974,47.7088],[6.9929,47.708],[6.9919,47.7144],[7.0012,47.7177],[7.0113,47.7197],[7.0199,47.7224],[7.0223,47.7222],[7.0325,47.7261],[7.0352,47.7246],[7.0378,47.7216]]]}},{"type":"Feature","properties":{"code":"90059","nom":"Lacollonge","pop":234},"geometry":{"type":"Polygon","coordinates":[[[6.9713,47.6582],[6.962,47.6561],[6.9575,47.6567],[6.9522,47.6624],[6.9577,47.6622],[6.9567,47.6673],[6.9523,47.6682],[6.9492,47.666],[6.9486,47.6628],[6.9434,47.6626],[6.9415,47.6617],[6.9409,47.6669],[6.9445,47.6669],[6.9509,47.6684],[6.9548,47.6687],[6.9624,47.6679],[6.9673,47.6693],[6.9722,47.6698],[6.9719,47.6686],[6.9726,47.665],[6.9713,47.6582]]]}},{"type":"Feature","properties":{"code":"90060","nom":"Lagrange","pop":144},"geometry":{"type":"Polygon","coordinates":[[[6.9676,47.6904],[6.9682,47.6905],[6.9741,47.6883],[6.9761,47.6897],[6.9835,47.686],[6.9843,47.6832],[6.9841,47.6788],[6.9768,47.6782],[6.9756,47.6808],[6.9698,47.6873],[6.9676,47.6904]]]}},{"type":"Feature","properties":{"code":"90061","nom":"Lamadeleine-Val-des-Anges","pop":46},"geometry":{"type":"Polygon","coordinates":[[[6.8896,47.7494],[6.8883,47.7508],[6.8881,47.7535],[6.8897,47.7548],[6.8934,47.7583],[6.8954,47.7623],[6.8987,47.7657],[6.9054,47.7668],[6.9038,47.7708],[6.9023,47.7766],[6.9077,47.7777],[6.9114,47.7781],[6.9168,47.7758],[6.9223,47.7724],[6.9228,47.7719],[6.9254,47.7661],[6.9246,47.7635],[6.9212,47.7581],[6.921,47.7558],[6.9232,47.7515],[6.9222,47.7471],[6.9105,47.746],[6.9053,47.747],[6.9028,47.7467],[6.8966,47.7493],[6.8896,47.7494]]]}},{"type":"Feature","properties":{"code":"90062","nom":"Larivière","pop":282},"geometry":{"type":"Polygon","coordinates":[[[6.9722,47.6698],[6.9737,47.6737],[6.9768,47.6782],[6.9841,47.6788],[6.9843,47.6832],[6.9835,47.686],[6.9858,47.6871],[6.9989,47.6891],[7.0093,47.6876],[7.0076,47.6858],[7.0064,47.6822],[7.0047,47.6807],[7.0033,47.6773],[7.004,47.6752],[7.0075,47.6748],[7.0175,47.676],[7.0205,47.6735],[7.0152,47.6723],[7.0092,47.6688],[7.0016,47.6699],[6.9868,47.6687],[6.9788,47.6672],[6.9756,47.6687],[6.9719,47.6686],[6.9722,47.6698]]]}},{"type":"Feature","properties":{"code":"90063","nom":"Lebetain","pop":422},"geometry":{"type":"Polygon","coordinates":[[[6.9524,47.4851],[6.9538,47.4902],[6.9556,47.4905],[6.9567,47.4939],[6.9604,47.4936],[6.9604,47.4963],[6.9638,47.4963],[6.9724,47.4978],[6.9779,47.4974],[6.9788,47.4955],[6.9829,47.4943],[6.9857,47.4926],[6.9886,47.4869],[6.9886,47.481],[6.9864,47.4763],[6.9883,47.4731],[6.9814,47.4731],[6.9722,47.4774],[6.9699,47.4794],[6.9627,47.4815],[6.9573,47.4824],[6.9524,47.4851]]]}},{"type":"Feature","properties":{"code":"90064","nom":"Lepuix-Neuf","pop":307},"geometry":{"type":"Polygon","coordinates":[[[7.1189,47.5476],[7.1229,47.5437],[7.1276,47.5427],[7.1316,47.5403],[7.133,47.5395],[7.1285,47.5366],[7.1224,47.5341],[7.1178,47.534],[7.1053,47.5317],[7.1023,47.532],[7.0994,47.5353],[7.0961,47.5339],[7.093,47.5347],[7.0911,47.5365],[7.0876,47.5378],[7.0822,47.5367],[7.0829,47.5393],[7.081,47.544],[7.0859,47.5506],[7.0892,47.5482],[7.0924,47.5493],[7.0936,47.5479],[7.0999,47.5495],[7.1046,47.5522],[7.1057,47.5516],[7.1101,47.5491],[7.1189,47.5476]]]}},{"type":"Feature","properties":{"code":"90065","nom":"Lepuix","pop":1115},"geometry":{"type":"Polygon","coordinates":[[[6.8459,47.8229],[6.841,47.819],[6.843,47.8128],[6.8506,47.8068],[6.8482,47.8043],[6.8489,47.8018],[6.8516,47.798],[6.8549,47.7957],[6.86,47.7943],[6.8621,47.7921],[6.8607,47.7896],[6.8627,47.7855],[6.8654,47.7849],[6.8618,47.7814],[6.8562,47.7746],[6.8556,47.7732],[6.8504,47.7723],[6.8444,47.7703],[6.8422,47.7688],[6.8395,47.7642],[6.8345,47.7575],[6.8317,47.7574],[6.8282,47.7549],[6.8262,47.7514],[6.8231,47.7498],[6.8191,47.7504],[6.8155,47.7492],[6.8153,47.7468],[6.8111,47.7466],[6.8013,47.7493],[6.7996,47.7486],[6.7897,47.7525],[6.7915,47.7546],[6.7877,47.7602],[6.7792,47.7663],[6.7746,47.7667],[6.7746,47.7682],[6.7784,47.7706],[6.7795,47.7747],[6.7835,47.7788],[6.7856,47.7821],[6.7926,47.7851],[6.7961,47.785],[6.7969,47.7863],[6.808,47.7934],[6.8113,47.7943],[6.8117,47.7977],[6.8145,47.7985],[6.8159,47.801],[6.8207,47.8059],[6.8205,47.8069],[6.8249,47.8091],[6.8236,47.8133],[6.8238,47.8143],[6.834,47.8186],[6.8355,47.8215],[6.8394,47.8247],[6.8423,47.8251],[6.8459,47.8229]]]}},{"type":"Feature","properties":{"code":"90066","nom":"Leval","pop":250},"geometry":{"type":"Polygon","coordinates":[[[7.0158,47.7438],[7.0194,47.7366],[7.021,47.7346],[7.0136,47.7321],[7.0063,47.7273],[7.0003,47.7247],[6.987,47.7204],[6.9817,47.7189],[6.9742,47.7211],[6.9699,47.7233],[6.9681,47.727],[6.9727,47.728],[6.9765,47.7299],[6.9823,47.7365],[6.999,47.746],[7.0062,47.7431],[7.0129,47.7414],[7.0158,47.7438]]]}},{"type":"Feature","properties":{"code":"90067","nom":"Menoncourt","pop":391},"geometry":{"type":"Polygon","coordinates":[[[6.9549,47.6931],[6.9577,47.6891],[6.9582,47.6865],[6.9616,47.6797],[6.9626,47.6756],[6.9619,47.6721],[6.9632,47.6705],[6.9737,47.6737],[6.9722,47.6698],[6.9673,47.6693],[6.9624,47.6679],[6.9548,47.6687],[6.9509,47.6684],[6.9445,47.6669],[6.9409,47.6669],[6.9387,47.6668],[6.9364,47.6755],[6.9367,47.6796],[6.944,47.683],[6.9432,47.6892],[6.9378,47.6887],[6.9343,47.693],[6.9385,47.694],[6.9502,47.6921],[6.9549,47.6931]]]}},{"type":"Feature","properties":{"code":"90068","nom":"Meroux-Moval","pop":1440},"geometry":{"type":"Polygon","coordinates":[[[6.9442,47.596],[6.9445,47.5944],[6.9507,47.5932],[6.9484,47.593],[6.947,47.5902],[6.9422,47.59],[6.9382,47.5872],[6.9335,47.5859],[6.9317,47.5831],[6.9219,47.5781],[6.918,47.581],[6.911,47.5823],[6.8981,47.5814],[6.8946,47.5815],[6.8888,47.5803],[6.8845,47.5809],[6.8802,47.582],[6.8771,47.5848],[6.8785,47.5863],[6.8765,47.5913],[6.8817,47.5919],[6.88,47.5956],[6.8846,47.598],[6.8865,47.6024],[6.881,47.6096],[6.881,47.6106],[6.8912,47.6109],[6.8921,47.6067],[6.8961,47.6068],[6.8971,47.604],[6.9001,47.6046],[6.9068,47.6032],[6.909,47.6008],[6.9121,47.5996],[6.9213,47.5994],[6.9233,47.5968],[6.9358,47.5944],[6.9392,47.5941],[6.9442,47.596]]]}},{"type":"Feature","properties":{"code":"90069","nom":"Méziré","pop":1255},"geometry":{"type":"Polygon","coordinates":[[[6.9072,47.5424],[6.9128,47.5439],[6.9154,47.5461],[6.9204,47.5455],[6.9227,47.5432],[6.9263,47.5446],[6.9275,47.5421],[6.9285,47.5347],[6.9349,47.5351],[6.9337,47.5268],[6.9328,47.5241],[6.9358,47.5205],[6.939,47.5215],[6.9406,47.5191],[6.9376,47.5174],[6.9346,47.5178],[6.9321,47.5192],[6.928,47.5185],[6.9252,47.5196],[6.9208,47.5201],[6.919,47.5212],[6.9168,47.5247],[6.9074,47.5259],[6.9072,47.5271],[6.9128,47.5276],[6.9158,47.5295],[6.9163,47.5322],[6.9113,47.5389],[6.9081,47.5408],[6.9072,47.5424]]]}},{"type":"Feature","properties":{"code":"90070","nom":"Montbouton","pop":422},"geometry":{"type":"Polygon","coordinates":[[[6.9325,47.4558],[6.9307,47.4584],[6.9263,47.4596],[6.9245,47.4621],[6.922,47.4625],[6.9224,47.4663],[6.9206,47.4686],[6.9137,47.4694],[6.9124,47.4711],[6.9074,47.4729],[6.9083,47.4744],[6.9127,47.4761],[6.9157,47.4782],[6.927,47.4761],[6.936,47.4732],[6.9385,47.4731],[6.9373,47.4699],[6.9352,47.4676],[6.9354,47.4654],[6.9377,47.4634],[6.9377,47.4594],[6.936,47.4558],[6.9325,47.4558]]]}},{"type":"Feature","properties":{"code":"90071","nom":"Montreux-Château","pop":1180},"geometry":{"type":"Polygon","coordinates":[[[6.9778,47.5964],[6.9802,47.597],[6.9809,47.6008],[6.9788,47.6036],[6.9789,47.6066],[6.9854,47.6089],[6.9857,47.6115],[6.983,47.6134],[6.9879,47.6161],[6.9885,47.6172],[6.9849,47.6222],[6.9887,47.6223],[6.9949,47.6201],[7.001,47.6203],[7.005,47.6196],[7.0073,47.6144],[7.0064,47.6123],[7.0103,47.6047],[7.0057,47.6021],[7.0091,47.5995],[7.0081,47.5972],[7.0047,47.5992],[7.0011,47.5998],[6.9994,47.6012],[6.9953,47.5995],[6.9919,47.5969],[6.9796,47.5954],[6.9778,47.5964]]]}},{"type":"Feature","properties":{"code":"90072","nom":"Morvillars","pop":1113},"geometry":{"type":"Polygon","coordinates":[[[6.939,47.5215],[6.9358,47.5205],[6.9328,47.5241],[6.9337,47.5268],[6.9349,47.5351],[6.9285,47.5347],[6.9275,47.5421],[6.9263,47.5446],[6.9227,47.5432],[6.9204,47.5455],[6.9154,47.5461],[6.9217,47.5484],[6.9215,47.55],[6.9255,47.5507],[6.9311,47.5533],[6.9277,47.5564],[6.9349,47.559],[6.9393,47.5563],[6.9422,47.5554],[6.9472,47.5569],[6.9509,47.5548],[6.9547,47.5544],[6.9544,47.5515],[6.9502,47.5437],[6.95,47.5403],[6.9481,47.5363],[6.9415,47.532],[6.9416,47.5274],[6.9442,47.5231],[6.939,47.5215]]]}},{"type":"Feature","properties":{"code":"90074","nom":"Novillard","pop":300},"geometry":{"type":"Polygon","coordinates":[[[6.9507,47.5932],[6.9445,47.5944],[6.9442,47.596],[6.9432,47.5976],[6.9462,47.6039],[6.9428,47.605],[6.9456,47.6087],[6.949,47.6092],[6.9499,47.6128],[6.959,47.6142],[6.9634,47.6161],[6.9667,47.6124],[6.9705,47.6106],[6.9747,47.6102],[6.9789,47.6066],[6.9788,47.6036],[6.9809,47.6008],[6.9802,47.597],[6.9778,47.5964],[6.9723,47.599],[6.9672,47.5993],[6.9632,47.6005],[6.9586,47.6006],[6.9521,47.5985],[6.949,47.6028],[6.9456,47.6011],[6.9477,47.5955],[6.9514,47.5961],[6.9517,47.5941],[6.9507,47.5932]]]}},{"type":"Feature","properties":{"code":"90075","nom":"Offemont","pop":4051},"geometry":{"type":"Polygon","coordinates":[[[6.8959,47.6585],[6.8941,47.6551],[6.8898,47.6528],[6.8859,47.652],[6.8812,47.6499],[6.8762,47.6501],[6.8755,47.6521],[6.8644,47.6544],[6.8621,47.6545],[6.8549,47.6577],[6.8503,47.6612],[6.8543,47.6605],[6.8652,47.6679],[6.8657,47.6717],[6.8633,47.6769],[6.8637,47.6781],[6.8852,47.674],[6.8826,47.6709],[6.8844,47.6669],[6.8876,47.6664],[6.8926,47.6597],[6.8959,47.6585]]]}},{"type":"Feature","properties":{"code":"90076","nom":"Pérouse","pop":1196},"geometry":{"type":"Polygon","coordinates":[[[6.8885,47.6464],[6.8911,47.6492],[6.8972,47.6508],[6.9049,47.6492],[6.9061,47.6473],[6.9095,47.6449],[6.9112,47.6407],[6.9108,47.6386],[6.9078,47.6346],[6.9077,47.6322],[6.9028,47.632],[6.9021,47.6299],[6.8996,47.6283],[6.9006,47.6255],[6.8953,47.6248],[6.8941,47.6219],[6.8901,47.6222],[6.8885,47.6248],[6.8841,47.6285],[6.8786,47.6297],[6.8738,47.6309],[6.8812,47.6361],[6.8794,47.6384],[6.8829,47.6386],[6.8859,47.6412],[6.8889,47.6427],[6.8885,47.6464]]]}},{"type":"Feature","properties":{"code":"90077","nom":"Petit-Croix","pop":308},"geometry":{"type":"Polygon","coordinates":[[[6.9622,47.6285],[6.9621,47.6317],[6.9632,47.6344],[6.9664,47.6371],[6.971,47.6367],[6.9724,47.6368],[6.9732,47.6306],[6.9754,47.6282],[6.9787,47.6278],[6.9788,47.6262],[6.9826,47.6245],[6.9849,47.6222],[6.9885,47.6172],[6.9879,47.6161],[6.983,47.6134],[6.9857,47.6115],[6.9854,47.6089],[6.9789,47.6066],[6.9747,47.6102],[6.9705,47.6106],[6.9667,47.6124],[6.9634,47.6161],[6.9616,47.6177],[6.9652,47.6195],[6.9656,47.6209],[6.9632,47.6247],[6.9646,47.627],[6.9622,47.6285]]]}},{"type":"Feature","properties":{"code":"90078","nom":"Petitefontaine","pop":193},"geometry":{"type":"Polygon","coordinates":[[[6.9817,47.7189],[6.987,47.7204],[7.0003,47.7247],[7.0063,47.7273],[7.0136,47.7321],[7.021,47.7346],[7.0325,47.7261],[7.0223,47.7222],[7.0199,47.7224],[7.0113,47.7197],[7.0012,47.7177],[6.9919,47.7144],[6.9878,47.718],[6.9842,47.7164],[6.9817,47.7189]]]}},{"type":"Feature","properties":{"code":"90079","nom":"Petitmagny","pop":315},"geometry":{"type":"Polygon","coordinates":[[[6.8954,47.7132],[6.8939,47.7156],[6.894,47.718],[6.8918,47.7233],[6.8937,47.7269],[6.8933,47.7281],[6.8972,47.7381],[6.9038,47.7324],[6.9068,47.7235],[6.9084,47.7222],[6.9084,47.718],[6.906,47.7154],[6.9012,47.7136],[6.8954,47.7132]]]}},{"type":"Feature","properties":{"code":"90080","nom":"Phaffans","pop":432},"geometry":{"type":"Polygon","coordinates":[[[6.9387,47.6668],[6.9409,47.6669],[6.9415,47.6617],[6.9434,47.6626],[6.9486,47.6628],[6.9492,47.666],[6.9523,47.6682],[6.9567,47.6673],[6.9577,47.6622],[6.9522,47.6624],[6.9575,47.6567],[6.962,47.6561],[6.9713,47.6582],[6.9712,47.6552],[6.9701,47.6548],[6.9669,47.6547],[6.9569,47.6532],[6.9487,47.6541],[6.9397,47.6505],[6.9352,47.6553],[6.9298,47.6564],[6.9262,47.6554],[6.924,47.6601],[6.928,47.6639],[6.9387,47.6668]]]}},{"type":"Feature","properties":{"code":"90081","nom":"Réchésy","pop":764},"geometry":{"type":"Polygon","coordinates":[[[7.133,47.5395],[7.1358,47.5369],[7.1373,47.534],[7.1364,47.5321],[7.1381,47.5306],[7.1383,47.5277],[7.142,47.5252],[7.1434,47.5246],[7.1394,47.5193],[7.1378,47.5106],[7.1342,47.505],[7.1303,47.5029],[7.1266,47.5026],[7.1157,47.4963],[7.1125,47.4951],[7.1,47.4943],[7.0969,47.4952],[7.0943,47.5022],[7.0948,47.506],[7.0916,47.5077],[7.092,47.5107],[7.0939,47.5143],[7.0969,47.5167],[7.0974,47.5263],[7.1023,47.532],[7.1053,47.5317],[7.1178,47.534],[7.1224,47.5341],[7.1285,47.5366],[7.133,47.5395]]]}},{"type":"Feature","properties":{"code":"90082","nom":"Autrechêne","pop":281},"geometry":{"type":"Polygon","coordinates":[[[6.9778,47.5964],[6.9796,47.5954],[6.9741,47.5919],[6.9729,47.5885],[6.9749,47.5879],[6.9712,47.5878],[6.9651,47.5862],[6.9648,47.5833],[6.9618,47.5824],[6.9587,47.5794],[6.9565,47.5808],[6.9577,47.5817],[6.9586,47.5862],[6.9511,47.5912],[6.9517,47.5941],[6.9514,47.5961],[6.9477,47.5955],[6.9456,47.6011],[6.949,47.6028],[6.9521,47.5985],[6.9586,47.6006],[6.9632,47.6005],[6.9672,47.5993],[6.9723,47.599],[6.9778,47.5964]]]}},{"type":"Feature","properties":{"code":"90083","nom":"Recouvrance","pop":147},"geometry":{"type":"Polygon","coordinates":[[[6.9808,47.5637],[6.9759,47.5629],[6.9733,47.5646],[6.9668,47.5657],[6.971,47.5689],[6.9775,47.5771],[6.9833,47.5803],[6.9857,47.5807],[6.9855,47.5768],[6.987,47.5737],[6.9865,47.5714],[6.9841,47.5682],[6.9802,47.5665],[6.9808,47.5637]]]}},{"type":"Feature","properties":{"code":"90084","nom":"Reppe","pop":322},"geometry":{"type":"Polygon","coordinates":[[[7.0375,47.6754],[7.0414,47.6724],[7.0461,47.6714],[7.0437,47.6685],[7.0414,47.6674],[7.0408,47.6652],[7.0352,47.6635],[7.0349,47.6601],[7.0393,47.6505],[7.0359,47.6495],[7.031,47.65],[7.0246,47.6497],[7.0189,47.6509],[7.0202,47.6535],[7.0225,47.6554],[7.023,47.6623],[7.019,47.6653],[7.0135,47.6638],[7.013,47.6662],[7.0101,47.6654],[7.0096,47.668],[7.0248,47.6724],[7.0375,47.6754]]]}},{"type":"Feature","properties":{"code":"90085","nom":"Riervescemont","pop":83},"geometry":{"type":"Polygon","coordinates":[[[6.8654,47.7849],[6.866,47.7839],[6.872,47.7818],[6.8772,47.7824],[6.8818,47.7821],[6.8919,47.7787],[6.893,47.7776],[6.9023,47.7766],[6.9038,47.7708],[6.9054,47.7668],[6.8987,47.7657],[6.8954,47.7623],[6.8934,47.7583],[6.8897,47.7548],[6.8838,47.7555],[6.8767,47.7552],[6.876,47.7561],[6.8698,47.7554],[6.8578,47.7549],[6.86,47.7574],[6.8623,47.7623],[6.8597,47.7681],[6.8577,47.7695],[6.8556,47.7732],[6.8562,47.7746],[6.8618,47.7814],[6.8654,47.7849]]]}},{"type":"Feature","properties":{"code":"90086","nom":"Romagny-sous-Rougemont","pop":213},"geometry":{"type":"Polygon","coordinates":[[[6.9842,47.7164],[6.9663,47.7111],[6.9573,47.7135],[6.9559,47.7179],[6.9539,47.7173],[6.9522,47.7198],[6.9516,47.7228],[6.9473,47.722],[6.9508,47.724],[6.9588,47.7253],[6.9626,47.7255],[6.9681,47.727],[6.9699,47.7233],[6.9742,47.7211],[6.9817,47.7189],[6.9842,47.7164]]]}},{"type":"Feature","properties":{"code":"90087","nom":"Roppe","pop":1041},"geometry":{"type":"Polygon","coordinates":[[[6.928,47.6639],[6.924,47.6601],[6.9201,47.6621],[6.9102,47.6629],[6.9088,47.6649],[6.9074,47.6665],[6.9097,47.6678],[6.908,47.671],[6.9034,47.671],[6.8996,47.6721],[6.8983,47.6753],[6.8856,47.6804],[6.8864,47.6847],[6.8909,47.6866],[6.8902,47.6892],[6.8923,47.6927],[6.8984,47.6932],[6.9019,47.6945],[6.905,47.6908],[6.9139,47.6906],[6.9186,47.6882],[6.923,47.69],[6.9267,47.6902],[6.9259,47.6877],[6.9268,47.6845],[6.9291,47.683],[6.9284,47.6774],[6.9287,47.6729],[6.9275,47.6701],[6.928,47.6639]]]}},{"type":"Feature","properties":{"code":"90088","nom":"Rougegoutte","pop":987},"geometry":{"type":"Polygon","coordinates":[[[6.8602,47.7148],[6.8556,47.7175],[6.8425,47.7187],[6.842,47.7248],[6.8371,47.7239],[6.836,47.7276],[6.8336,47.729],[6.8345,47.7308],[6.834,47.7329],[6.84,47.7354],[6.8461,47.7345],[6.8515,47.7382],[6.8551,47.7377],[6.8588,47.7405],[6.8603,47.7432],[6.8611,47.748],[6.8662,47.7503],[6.8733,47.7502],[6.8786,47.7515],[6.8865,47.7521],[6.8883,47.7508],[6.8867,47.749],[6.8864,47.7447],[6.8883,47.7431],[6.8858,47.7384],[6.8863,47.7349],[6.8803,47.7312],[6.8691,47.7299],[6.8651,47.7286],[6.8642,47.7202],[6.8614,47.7153],[6.8602,47.7148]]]}},{"type":"Feature","properties":{"code":"90089","nom":"Rougemont-le-Château","pop":1487},"geometry":{"type":"Polygon","coordinates":[[[6.9222,47.7471],[6.9232,47.7515],[6.921,47.7558],[6.9212,47.7581],[6.9246,47.7635],[6.9254,47.7661],[6.9228,47.7719],[6.9255,47.7696],[6.9318,47.7697],[6.9344,47.7715],[6.94,47.7717],[6.9435,47.7666],[6.9459,47.7654],[6.9522,47.7644],[6.9544,47.7612],[6.9598,47.7596],[6.9642,47.756],[6.9706,47.7542],[6.9722,47.7516],[6.9749,47.751],[6.9811,47.7514],[6.9852,47.7491],[6.9953,47.7462],[6.999,47.746],[6.9823,47.7365],[6.9765,47.7299],[6.9727,47.728],[6.9681,47.727],[6.9626,47.7255],[6.9588,47.7253],[6.9508,47.724],[6.9473,47.722],[6.9445,47.7218],[6.9418,47.7284],[6.9361,47.7344],[6.93,47.7372],[6.9277,47.7419],[6.925,47.7453],[6.9222,47.7471]]]}},{"type":"Feature","properties":{"code":"90090","nom":"Saint-Dizier-l'Évêque","pop":427},"geometry":{"type":"Polygon","coordinates":[[[6.9427,47.4849],[6.9433,47.4872],[6.9468,47.4876],[6.9491,47.4857],[6.9524,47.4851],[6.9573,47.4824],[6.9627,47.4815],[6.9699,47.4794],[6.9722,47.4774],[6.9814,47.4731],[6.9883,47.4731],[6.9932,47.4707],[6.9908,47.4676],[6.9917,47.4664],[6.9918,47.4648],[6.9888,47.4626],[6.9818,47.4602],[6.9767,47.4567],[6.9726,47.4522],[6.9712,47.4491],[6.9668,47.4501],[6.9661,47.4518],[6.9621,47.454],[6.9582,47.4551],[6.9438,47.4534],[6.936,47.4558],[6.9377,47.4594],[6.9377,47.4634],[6.9354,47.4654],[6.9352,47.4676],[6.9373,47.4699],[6.9385,47.4731],[6.9395,47.4744],[6.9412,47.4828],[6.9427,47.4849]]]}},{"type":"Feature","properties":{"code":"90091","nom":"Saint-Germain-le-Châtelet","pop":654},"geometry":{"type":"Polygon","coordinates":[[[6.9676,47.6904],[6.9599,47.6897],[6.9577,47.6891],[6.9549,47.6931],[6.9545,47.6944],[6.9507,47.6968],[6.9506,47.7003],[6.9521,47.7028],[6.952,47.7073],[6.9492,47.7094],[6.9521,47.7135],[6.9525,47.7169],[6.9539,47.7173],[6.9559,47.7179],[6.9573,47.7135],[6.958,47.7106],[6.9659,47.7049],[6.9683,47.7026],[6.9756,47.6991],[6.9782,47.6943],[6.9722,47.6916],[6.9682,47.6905],[6.9676,47.6904]]]}},{"type":"Feature","properties":{"code":"90093","nom":"Sermamagny","pop":929},"geometry":{"type":"Polygon","coordinates":[[[6.7974,47.6906],[6.8013,47.6919],[6.8054,47.692],[6.8099,47.6936],[6.8125,47.6917],[6.8197,47.6954],[6.8247,47.6963],[6.8291,47.6982],[6.8316,47.6973],[6.8364,47.6982],[6.8526,47.6974],[6.8602,47.699],[6.8614,47.6999],[6.8632,47.6975],[6.8609,47.697],[6.8633,47.6923],[6.8611,47.6924],[6.8547,47.6904],[6.8574,47.685],[6.8538,47.6841],[6.8494,47.6823],[6.8474,47.6791],[6.8406,47.6783],[6.8312,47.6759],[6.8296,47.6736],[6.8249,47.6752],[6.8207,47.6782],[6.8157,47.6785],[6.8149,47.68],[6.8111,47.6801],[6.8077,47.6825],[6.7974,47.6906]]]}},{"type":"Feature","properties":{"code":"90094","nom":"Sevenans","pop":688},"geometry":{"type":"Polygon","coordinates":[[[6.8593,47.5891],[6.86,47.5922],[6.863,47.5922],[6.8665,47.5927],[6.8683,47.5948],[6.8729,47.5967],[6.8846,47.598],[6.88,47.5956],[6.8817,47.5919],[6.8765,47.5913],[6.8785,47.5863],[6.8771,47.5848],[6.872,47.5815],[6.8614,47.5824],[6.8589,47.5823],[6.8591,47.5849],[6.8593,47.5891]]]}},{"type":"Feature","properties":{"code":"90095","nom":"Suarce","pop":442},"geometry":{"type":"Polygon","coordinates":[[[7.0889,47.5838],[7.0907,47.5792],[7.0919,47.5788],[7.0941,47.5735],[7.0995,47.5728],[7.1054,47.5691],[7.1061,47.5661],[7.1083,47.5639],[7.1079,47.5587],[7.1073,47.5561],[7.1082,47.5521],[7.1057,47.5516],[7.1046,47.5522],[7.0999,47.5495],[7.0936,47.5479],[7.0924,47.5493],[7.0892,47.5482],[7.0859,47.5506],[7.081,47.544],[7.0766,47.5449],[7.0668,47.542],[7.0634,47.5438],[7.0622,47.5476],[7.0573,47.5558],[7.0524,47.5588],[7.0496,47.5631],[7.0541,47.5637],[7.0578,47.5693],[7.0675,47.5719],[7.0702,47.5741],[7.0772,47.5759],[7.0824,47.5789],[7.0858,47.5828],[7.0865,47.5855],[7.0889,47.5838]]]}},{"type":"Feature","properties":{"code":"90096","nom":"Thiancourt","pop":286},"geometry":{"type":"Polygon","coordinates":[[[6.9699,47.5111],[6.9659,47.5132],[6.958,47.5156],[6.9609,47.5184],[6.9653,47.5178],[6.9722,47.5212],[6.9773,47.5219],[6.984,47.5243],[6.9877,47.5302],[6.989,47.5333],[6.9886,47.5307],[6.9903,47.5291],[6.9952,47.5269],[6.9978,47.5272],[6.9985,47.5245],[6.9957,47.521],[6.9921,47.5199],[6.9925,47.5178],[6.9699,47.5111]]]}},{"type":"Feature","properties":{"code":"90097","nom":"Trévenans","pop":1310},"geometry":{"type":"Polygon","coordinates":[[[6.8602,47.5477],[6.8559,47.548],[6.8576,47.5539],[6.8607,47.5554],[6.8605,47.5581],[6.856,47.564],[6.8546,47.5667],[6.8568,47.5698],[6.8566,47.5751],[6.8585,47.576],[6.8589,47.5786],[6.862,47.5809],[6.8614,47.5824],[6.872,47.5815],[6.8771,47.5848],[6.8802,47.582],[6.8845,47.5809],[6.8822,47.5746],[6.8776,47.5723],[6.8754,47.5682],[6.8733,47.5673],[6.8775,47.5635],[6.8804,47.5629],[6.883,47.5595],[6.8834,47.5555],[6.8743,47.5513],[6.8692,47.551],[6.8611,47.5492],[6.8602,47.5477]]]}},{"type":"Feature","properties":{"code":"90098","nom":"Urcerey","pop":257},"geometry":{"type":"Polygon","coordinates":[[[6.8008,47.6002],[6.7973,47.6006],[6.7933,47.5993],[6.7893,47.6047],[6.7903,47.607],[6.7945,47.6117],[6.7984,47.6138],[6.7979,47.6199],[6.7993,47.6236],[6.8024,47.6242],[6.8069,47.6227],[6.8101,47.6201],[6.8155,47.6166],[6.8132,47.6154],[6.8151,47.613],[6.815,47.6087],[6.8131,47.6042],[6.8103,47.6039],[6.807,47.6019],[6.8008,47.6002]]]}},{"type":"Feature","properties":{"code":"90099","nom":"Valdoie","pop":5175},"geometry":{"type":"Polygon","coordinates":[[[6.8538,47.6841],[6.8561,47.6819],[6.8637,47.6781],[6.8633,47.6769],[6.8657,47.6717],[6.8652,47.6679],[6.8543,47.6605],[6.8503,47.6612],[6.8434,47.6614],[6.8365,47.6606],[6.8348,47.6648],[6.8353,47.6695],[6.8307,47.6713],[6.8296,47.6736],[6.8312,47.6759],[6.8406,47.6783],[6.8474,47.6791],[6.8494,47.6823],[6.8538,47.6841]]]}},{"type":"Feature","properties":{"code":"90100","nom":"Vauthiermont","pop":232},"geometry":{"type":"Polygon","coordinates":[[[7.0364,47.6922],[7.0386,47.6878],[7.0411,47.6858],[7.0481,47.6845],[7.0475,47.6827],[7.0427,47.6811],[7.0429,47.6795],[7.0389,47.6785],[7.0375,47.6754],[7.0248,47.6724],[7.0096,47.668],[7.0092,47.6688],[7.0152,47.6723],[7.0205,47.6735],[7.0175,47.676],[7.0075,47.6748],[7.004,47.6752],[7.0033,47.6773],[7.0047,47.6807],[7.0064,47.6822],[7.0076,47.6858],[7.0093,47.6876],[7.0101,47.6884],[7.0221,47.6891],[7.0237,47.69],[7.0364,47.6922]]]}},{"type":"Feature","properties":{"code":"90101","nom":"Vellescot","pop":257},"geometry":{"type":"Polygon","coordinates":[[[7.0088,47.5819],[7.0141,47.5828],[7.0187,47.5869],[7.0242,47.5849],[7.0238,47.583],[7.0298,47.5831],[7.0323,47.5821],[7.0331,47.5781],[7.0261,47.5697],[7.0238,47.5658],[7.0216,47.564],[7.0189,47.5635],[7.0148,47.5652],[7.0092,47.5654],[7.0083,47.5679],[7.002,47.5642],[7.0052,47.5679],[7.0049,47.5713],[7.0071,47.5743],[7.0088,47.5819]]]}},{"type":"Feature","properties":{"code":"90102","nom":"Vescemont","pop":717},"geometry":{"type":"Polygon","coordinates":[[[6.8556,47.7732],[6.8577,47.7695],[6.8597,47.7681],[6.8623,47.7623],[6.86,47.7574],[6.8578,47.7549],[6.8698,47.7554],[6.876,47.7561],[6.8767,47.7552],[6.8838,47.7555],[6.8897,47.7548],[6.8881,47.7535],[6.8883,47.7508],[6.8865,47.7521],[6.8786,47.7515],[6.8733,47.7502],[6.8662,47.7503],[6.8611,47.748],[6.8603,47.7432],[6.8588,47.7405],[6.8551,47.7377],[6.8515,47.7382],[6.8461,47.7345],[6.84,47.7354],[6.8381,47.7372],[6.8376,47.7437],[6.8386,47.7465],[6.8373,47.7515],[6.8345,47.7575],[6.8395,47.7642],[6.8422,47.7688],[6.8444,47.7703],[6.8504,47.7723],[6.8556,47.7732]]]}},{"type":"Feature","properties":{"code":"90103","nom":"Vétrigne","pop":636},"geometry":{"type":"Polygon","coordinates":[[[6.8856,47.6804],[6.8983,47.6753],[6.8996,47.6721],[6.9034,47.671],[6.908,47.671],[6.9097,47.6678],[6.9074,47.6665],[6.9088,47.6649],[6.8985,47.6632],[6.894,47.6601],[6.8959,47.6585],[6.8926,47.6597],[6.8876,47.6664],[6.8844,47.6669],[6.8826,47.6709],[6.8852,47.674],[6.8863,47.6759],[6.8856,47.6804]]]}},{"type":"Feature","properties":{"code":"90104","nom":"Vézelois","pop":1029},"geometry":{"type":"Polygon","coordinates":[[[6.881,47.6106],[6.881,47.6108],[6.8842,47.6113],[6.8858,47.6156],[6.8901,47.6222],[6.8941,47.6219],[6.8949,47.6212],[6.9021,47.62],[6.908,47.62],[6.9147,47.6217],[6.9175,47.621],[6.9185,47.6176],[6.9243,47.6167],[6.9275,47.6173],[6.9326,47.6169],[6.9403,47.6179],[6.9423,47.6167],[6.9496,47.615],[6.9499,47.6128],[6.949,47.6092],[6.9456,47.6087],[6.9428,47.605],[6.9462,47.6039],[6.9432,47.5976],[6.9442,47.596],[6.9392,47.5941],[6.9358,47.5944],[6.9233,47.5968],[6.9213,47.5994],[6.9121,47.5996],[6.909,47.6008],[6.9068,47.6032],[6.9001,47.6046],[6.8971,47.604],[6.8961,47.6068],[6.8921,47.6067],[6.8912,47.6109],[6.881,47.6106]]]}},{"type":"Feature","properties":{"code":"90105","nom":"Villars-le-Sec","pop":176},"geometry":{"type":"Polygon","coordinates":[[[6.9703,47.4471],[6.9712,47.4491],[6.9726,47.4522],[6.9767,47.4567],[6.9818,47.4602],[6.9888,47.4626],[6.9918,47.4648],[6.9917,47.4664],[7.0005,47.4672],[6.9998,47.465],[7.0013,47.4619],[6.9982,47.4597],[6.9975,47.4564],[7.0014,47.456],[7.0022,47.4542],[6.9959,47.4496],[6.9902,47.448],[6.9841,47.4482],[6.981,47.4492],[6.9734,47.4472],[6.9703,47.4471]]]}}]}