{"type":"FeatureCollection","features":[{"type":"Feature","properties":{"code":"92002","nom":"Antony","pop":64263},"geometry":{"type":"Polygon","coordinates":[[[2.3124,48.7721],[2.3199,48.7707],[2.3159,48.7668],[2.3134,48.7602],[2.3087,48.7554],[2.3115,48.7543],[2.3123,48.7514],[2.3141,48.7513],[2.3207,48.7488],[2.3185,48.745],[2.3143,48.7433],[2.317,48.7409],[2.313,48.7382],[2.3146,48.7369],[2.3187,48.737],[2.3154,48.7333],[2.3144,48.7304],[2.3079,48.7294],[2.3038,48.7295],[2.3015,48.7362],[2.2996,48.7392],[2.2896,48.7356],[2.2821,48.7339],[2.2799,48.7327],[2.2754,48.7384],[2.2746,48.7407],[2.2848,48.7456],[2.2854,48.7475],[2.2796,48.753],[2.275,48.7553],[2.2761,48.7566],[2.2786,48.76],[2.2908,48.7609],[2.2919,48.7644],[2.2903,48.7666],[2.3066,48.7692],[2.3074,48.7708],[2.3118,48.7707],[2.3124,48.7721]]]}},{"type":"Feature","properties":{"code":"92004","nom":"Asnières-sur-Seine","pop":93941},"geometry":{"type":"Polygon","coordinates":[[[2.2733,48.9268],[2.2724,48.9285],[2.273,48.9338],[2.281,48.9331],[2.2844,48.9302],[2.2845,48.9261],[2.2884,48.9204],[2.2919,48.9179],[2.2953,48.9197],[2.2963,48.9128],[2.3101,48.9184],[2.3178,48.9208],[2.322,48.9187],[2.3198,48.9159],[2.3138,48.914],[2.3075,48.9122],[2.3023,48.9112],[2.2951,48.9082],[2.2923,48.906],[2.2874,48.9036],[2.2843,48.9023],[2.2818,48.9046],[2.2801,48.9036],[2.2743,48.9083],[2.2682,48.906],[2.2664,48.9063],[2.265,48.9102],[2.2722,48.9102],[2.2723,48.9127],[2.2806,48.9191],[2.2761,48.923],[2.2733,48.9268]]]}},{"type":"Feature","properties":{"code":"92007","nom":"Bagneux","pop":44572},"geometry":{"type":"Polygon","coordinates":[[[2.3027,48.8111],[2.3175,48.8099],[2.3191,48.81],[2.3183,48.806],[2.324,48.8054],[2.3239,48.8016],[2.3187,48.788],[2.3124,48.7893],[2.3097,48.7849],[2.3034,48.7854],[2.2989,48.7923],[2.2983,48.7945],[2.2962,48.7958],[2.2922,48.796],[2.2996,48.8029],[2.303,48.8034],[2.3059,48.8086],[2.3017,48.81],[2.3027,48.8111]]]}},{"type":"Feature","properties":{"code":"92009","nom":"Bois-Colombes","pop":28909},"geometry":{"type":"Polygon","coordinates":[[[2.2664,48.9063],[2.267,48.9047],[2.2633,48.9034],[2.2614,48.9068],[2.2582,48.9061],[2.257,48.9109],[2.2574,48.9136],[2.2616,48.9139],[2.2632,48.9202],[2.2672,48.9195],[2.2698,48.9247],[2.2733,48.9268],[2.2761,48.923],[2.2806,48.9191],[2.2723,48.9127],[2.2722,48.9102],[2.265,48.9102],[2.2664,48.9063]]]}},{"type":"Feature","properties":{"code":"92012","nom":"Boulogne-Billancourt","pop":119019},"geometry":{"type":"Polygon","coordinates":[[[2.2628,48.8339],[2.261,48.832],[2.2517,48.8258],[2.2491,48.8246],[2.2391,48.8217],[2.2361,48.8215],[2.2326,48.8227],[2.2276,48.8268],[2.2259,48.8327],[2.224,48.8351],[2.223,48.8396],[2.2253,48.8463],[2.2255,48.8497],[2.2242,48.8535],[2.2392,48.85],[2.2424,48.8477],[2.2508,48.8455],[2.2517,48.8388],[2.2551,48.8348],[2.2628,48.8339]]]}},{"type":"Feature","properties":{"code":"92014","nom":"Bourg-la-Reine","pop":21019},"geometry":{"type":"Polygon","coordinates":[[[2.3199,48.7707],[2.3124,48.7721],[2.3143,48.7768],[2.3069,48.7775],[2.3097,48.7849],[2.3124,48.7893],[2.3187,48.788],[2.3251,48.7863],[2.3244,48.7822],[2.3258,48.7819],[2.3237,48.7766],[2.3199,48.7707]]]}},{"type":"Feature","properties":{"code":"92019","nom":"Châtenay-Malabry","pop":35825},"geometry":{"type":"Polygon","coordinates":[[[2.2329,48.766],[2.2331,48.7691],[2.2306,48.7714],[2.2307,48.7736],[2.2288,48.7745],[2.2304,48.7768],[2.2375,48.7763],[2.2365,48.775],[2.2392,48.7727],[2.2465,48.7735],[2.2511,48.7726],[2.2599,48.7732],[2.2724,48.7773],[2.2744,48.777],[2.2762,48.7813],[2.2795,48.7825],[2.2804,48.7802],[2.2783,48.7765],[2.2815,48.7745],[2.2863,48.7742],[2.2863,48.7713],[2.2903,48.7666],[2.2919,48.7644],[2.2908,48.7609],[2.2786,48.76],[2.2761,48.7566],[2.2714,48.7578],[2.2707,48.7607],[2.2672,48.7623],[2.262,48.7598],[2.2594,48.761],[2.255,48.7614],[2.247,48.7608],[2.2452,48.7626],[2.2407,48.7638],[2.2386,48.7665],[2.2329,48.766]]]}},{"type":"Feature","properties":{"code":"92020","nom":"Châtillon","pop":36705},"geometry":{"type":"Polygon","coordinates":[[[2.3027,48.8111],[2.3017,48.81],[2.3059,48.8086],[2.303,48.8034],[2.2996,48.8029],[2.2922,48.796],[2.2879,48.7945],[2.2865,48.7961],[2.2805,48.795],[2.2767,48.7959],[2.2722,48.7941],[2.2714,48.7949],[2.2764,48.7977],[2.2775,48.8015],[2.2731,48.8019],[2.2761,48.8053],[2.2799,48.8109],[2.2852,48.8106],[2.2905,48.809],[2.298,48.8121],[2.3001,48.8113],[2.3027,48.8111]]]}},{"type":"Feature","properties":{"code":"92022","nom":"Chaville","pop":20594},"geometry":{"type":"Polygon","coordinates":[[[2.1785,48.8149],[2.1898,48.8158],[2.1979,48.8209],[2.2003,48.8191],[2.199,48.8165],[2.1967,48.8151],[2.2056,48.8092],[2.2045,48.8027],[2.206,48.7999],[2.2026,48.7984],[2.1987,48.7985],[2.1965,48.7976],[2.1829,48.7972],[2.187,48.8007],[2.182,48.8006],[2.1804,48.8048],[2.1831,48.8053],[2.1804,48.8082],[2.1764,48.8109],[2.1767,48.814],[2.1785,48.8149]]]}},{"type":"Feature","properties":{"code":"92023","nom":"Clamart","pop":58576},"geometry":{"type":"Polygon","coordinates":[[[2.2266,48.7761],[2.2241,48.7778],[2.2237,48.7806],[2.2266,48.7816],[2.2348,48.7845],[2.2365,48.789],[2.2348,48.7954],[2.2388,48.7978],[2.2423,48.8034],[2.2451,48.8047],[2.2483,48.8039],[2.2504,48.8079],[2.255,48.8101],[2.2543,48.8143],[2.2519,48.8164],[2.2565,48.817],[2.2615,48.8133],[2.2726,48.8144],[2.2772,48.8153],[2.2782,48.8142],[2.2745,48.8134],[2.2799,48.8109],[2.2761,48.8053],[2.2731,48.8019],[2.2775,48.8015],[2.2764,48.7977],[2.2714,48.7949],[2.2722,48.7941],[2.2717,48.7905],[2.2637,48.7883],[2.2556,48.7852],[2.2507,48.7845],[2.2484,48.7825],[2.2463,48.7791],[2.2403,48.7798],[2.2392,48.7762],[2.2375,48.7763],[2.2304,48.7768],[2.2288,48.7745],[2.2266,48.7761]]]}},{"type":"Feature","properties":{"code":"92024","nom":"Clichy","pop":64410},"geometry":{"type":"Polygon","coordinates":[[[2.3138,48.914],[2.3209,48.9046],[2.3199,48.9005],[2.3125,48.8978],[2.3038,48.8942],[2.2874,48.9036],[2.2923,48.906],[2.2951,48.9082],[2.3023,48.9112],[2.3075,48.9122],[2.3138,48.914]]]}},{"type":"Feature","properties":{"code":"92025","nom":"Colombes","pop":91053},"geometry":{"type":"Polygon","coordinates":[[[2.2204,48.9206],[2.2311,48.9277],[2.2418,48.9329],[2.2476,48.9367],[2.251,48.9359],[2.2581,48.9376],[2.2625,48.9355],[2.273,48.9338],[2.2724,48.9285],[2.2733,48.9268],[2.2698,48.9247],[2.2672,48.9195],[2.2632,48.9202],[2.2616,48.9139],[2.2574,48.9136],[2.2531,48.9133],[2.2474,48.912],[2.2291,48.906],[2.2291,48.9083],[2.2266,48.9121],[2.2221,48.9165],[2.2241,48.918],[2.2204,48.9206]]]}},{"type":"Feature","properties":{"code":"92026","nom":"Courbevoie","pop":82902},"geometry":{"type":"Polygon","coordinates":[[[2.2338,48.8957],[2.2306,48.9003],[2.2316,48.9007],[2.2426,48.9028],[2.2465,48.902],[2.2559,48.9045],[2.2582,48.9061],[2.2614,48.9068],[2.2633,48.9034],[2.267,48.9047],[2.2664,48.9063],[2.2682,48.906],[2.2743,48.9083],[2.2801,48.9036],[2.2818,48.9046],[2.2843,48.9023],[2.2711,48.8984],[2.2643,48.8955],[2.2538,48.8869],[2.2412,48.8909],[2.2407,48.8944],[2.2338,48.8957]]]}},{"type":"Feature","properties":{"code":"92032","nom":"Fontenay-aux-Roses","pop":24070},"geometry":{"type":"Polygon","coordinates":[[[2.2717,48.7905],[2.2722,48.7941],[2.2767,48.7959],[2.2805,48.795],[2.2865,48.7961],[2.2879,48.7945],[2.2922,48.796],[2.2962,48.7958],[2.2983,48.7945],[2.2989,48.7923],[2.3034,48.7854],[2.2935,48.7842],[2.2876,48.7825],[2.282,48.7832],[2.2748,48.7858],[2.2717,48.7905]]]}},{"type":"Feature","properties":{"code":"92033","nom":"Garches","pop":17743},"geometry":{"type":"Polygon","coordinates":[[[2.1826,48.8516],[2.1873,48.8526],[2.1904,48.8521],[2.1943,48.8561],[2.1979,48.8548],[2.2055,48.8518],[2.2052,48.8511],[2.198,48.8474],[2.1988,48.8415],[2.1876,48.8389],[2.1872,48.8377],[2.1864,48.8385],[2.1764,48.8381],[2.1719,48.8385],[2.1667,48.8377],[2.167,48.8422],[2.1789,48.8441],[2.1818,48.8482],[2.1826,48.8516]]]}},{"type":"Feature","properties":{"code":"92035","nom":"La Garenne-Colombes","pop":30197},"geometry":{"type":"Polygon","coordinates":[[[2.2291,48.906],[2.2474,48.912],[2.2531,48.9133],[2.2574,48.9136],[2.257,48.9109],[2.2582,48.9061],[2.2559,48.9045],[2.2465,48.902],[2.2426,48.9028],[2.2316,48.9007],[2.2291,48.906]]]}},{"type":"Feature","properties":{"code":"92036","nom":"Gennevilliers","pop":50979},"geometry":{"type":"Polygon","coordinates":[[[2.2908,48.9511],[2.3031,48.95],[2.3117,48.9479],[2.3092,48.9403],[2.319,48.9364],[2.3222,48.9328],[2.3184,48.9275],[2.3254,48.9249],[2.3284,48.9228],[2.322,48.9187],[2.3178,48.9208],[2.3101,48.9184],[2.2963,48.9128],[2.2953,48.9197],[2.2919,48.9179],[2.2884,48.9204],[2.2845,48.9261],[2.2844,48.9302],[2.281,48.9331],[2.273,48.9338],[2.2625,48.9355],[2.2581,48.9376],[2.251,48.9359],[2.2476,48.9367],[2.2556,48.9402],[2.2586,48.9424],[2.2686,48.9465],[2.2815,48.9498],[2.2908,48.9511]]]}},{"type":"Feature","properties":{"code":"92040","nom":"Issy-les-Moulineaux","pop":67669},"geometry":{"type":"Polygon","coordinates":[[[2.2894,48.8283],[2.2844,48.8275],[2.2805,48.8259],[2.2819,48.8202],[2.2759,48.8173],[2.2726,48.8144],[2.2615,48.8133],[2.2565,48.817],[2.2519,48.8164],[2.2493,48.8178],[2.2427,48.819],[2.2361,48.8215],[2.2391,48.8217],[2.2491,48.8246],[2.2517,48.8258],[2.261,48.832],[2.2628,48.8339],[2.2675,48.8346],[2.2699,48.833],[2.2673,48.8315],[2.2676,48.828],[2.2728,48.8279],[2.2791,48.8325],[2.2894,48.8283]]]}},{"type":"Feature","properties":{"code":"92044","nom":"Levallois-Perret","pop":68092},"geometry":{"type":"Polygon","coordinates":[[[2.3038,48.8942],[2.295,48.8899],[2.2916,48.8895],[2.2845,48.8856],[2.2711,48.8984],[2.2843,48.9023],[2.2874,48.9036],[2.3038,48.8942]]]}},{"type":"Feature","properties":{"code":"92046","nom":"Malakoff","pop":30557},"geometry":{"type":"Polygon","coordinates":[[[2.2799,48.8109],[2.2745,48.8134],[2.2782,48.8142],[2.288,48.8165],[2.2934,48.8189],[2.3013,48.8251],[2.3141,48.8223],[2.3025,48.8137],[2.3001,48.8113],[2.298,48.8121],[2.2905,48.809],[2.2852,48.8106],[2.2799,48.8109]]]}},{"type":"Feature","properties":{"code":"92047","nom":"Marnes-la-Coquette","pop":1752},"geometry":{"type":"Polygon","coordinates":[[[2.1808,48.8306],[2.1762,48.8281],[2.1739,48.8243],[2.1649,48.8232],[2.1618,48.8237],[2.1594,48.8209],[2.1528,48.8211],[2.1507,48.8188],[2.1515,48.8214],[2.151,48.8233],[2.1518,48.83],[2.156,48.8376],[2.1667,48.8377],[2.1719,48.8385],[2.1764,48.8381],[2.1864,48.8385],[2.1872,48.8377],[2.1853,48.8339],[2.1808,48.8306]]]}},{"type":"Feature","properties":{"code":"92048","nom":"Meudon","pop":46334},"geometry":{"type":"Polygon","coordinates":[[[2.2326,48.8227],[2.2361,48.8215],[2.2427,48.819],[2.2493,48.8178],[2.2519,48.8164],[2.2543,48.8143],[2.255,48.8101],[2.2504,48.8079],[2.2483,48.8039],[2.2451,48.8047],[2.2423,48.8034],[2.2388,48.7978],[2.2348,48.7954],[2.2365,48.789],[2.2348,48.7845],[2.2266,48.7816],[2.2233,48.7859],[2.2192,48.7854],[2.2115,48.7881],[2.2116,48.7913],[2.2099,48.7939],[2.2045,48.7958],[2.2026,48.7984],[2.206,48.7999],[2.2045,48.8027],[2.2056,48.8092],[2.2114,48.8117],[2.2158,48.8128],[2.2202,48.8151],[2.2171,48.8177],[2.221,48.8196],[2.2273,48.8237],[2.2308,48.8216],[2.2326,48.8227]]]}},{"type":"Feature","properties":{"code":"92049","nom":"Montrouge","pop":46324},"geometry":{"type":"Polygon","coordinates":[[[2.3027,48.8111],[2.3001,48.8113],[2.3025,48.8137],[2.3141,48.8223],[2.3325,48.8182],[2.3319,48.817],[2.3291,48.8138],[2.3256,48.8096],[2.3191,48.81],[2.3175,48.8099],[2.3027,48.8111]]]}},{"type":"Feature","properties":{"code":"92050","nom":"Nanterre","pop":97783},"geometry":{"type":"Polygon","coordinates":[[[2.1693,48.8958],[2.1744,48.8991],[2.1826,48.9025],[2.192,48.9046],[2.2005,48.9086],[2.206,48.9108],[2.2112,48.914],[2.2142,48.9166],[2.2204,48.9206],[2.2241,48.918],[2.2221,48.9165],[2.2266,48.9121],[2.2291,48.9083],[2.2291,48.906],[2.2316,48.9007],[2.2306,48.9003],[2.2338,48.8957],[2.2343,48.8951],[2.2301,48.8911],[2.2304,48.8894],[2.2245,48.8854],[2.2236,48.8828],[2.2164,48.8781],[2.2078,48.8742],[2.1999,48.8796],[2.1901,48.8853],[2.1801,48.8904],[2.1761,48.892],[2.1693,48.8958]]]}},{"type":"Feature","properties":{"code":"92051","nom":"Neuilly-sur-Seine","pop":59538},"geometry":{"type":"Polygon","coordinates":[[[2.2457,48.8765],[2.251,48.8812],[2.2544,48.8849],[2.2538,48.8869],[2.2643,48.8955],[2.2711,48.8984],[2.2845,48.8856],[2.2809,48.8828],[2.2799,48.8786],[2.2775,48.878],[2.2585,48.8804],[2.2548,48.8741],[2.2457,48.8765]]]}},{"type":"Feature","properties":{"code":"92060","nom":"Le Plessis-Robinson","pop":28848},"geometry":{"type":"Polygon","coordinates":[[[2.282,48.7832],[2.2795,48.7825],[2.2762,48.7813],[2.2744,48.777],[2.2724,48.7773],[2.2599,48.7732],[2.2511,48.7726],[2.2465,48.7735],[2.2392,48.7727],[2.2365,48.775],[2.2375,48.7763],[2.2392,48.7762],[2.2403,48.7798],[2.2463,48.7791],[2.2484,48.7825],[2.2507,48.7845],[2.2556,48.7852],[2.2637,48.7883],[2.2717,48.7905],[2.2748,48.7858],[2.282,48.7832]]]}},{"type":"Feature","properties":{"code":"92062","nom":"Puteaux","pop":44002},"geometry":{"type":"Polygon","coordinates":[[[2.2538,48.8869],[2.2544,48.8849],[2.251,48.8812],[2.2457,48.8765],[2.2403,48.872],[2.2317,48.8691],[2.2368,48.8735],[2.2319,48.8759],[2.2364,48.8796],[2.2306,48.8799],[2.2236,48.8828],[2.2245,48.8854],[2.2304,48.8894],[2.2301,48.8911],[2.2343,48.8951],[2.2338,48.8957],[2.2407,48.8944],[2.2412,48.8909],[2.2538,48.8869]]]}},{"type":"Feature","properties":{"code":"92063","nom":"Rueil-Malmaison","pop":82874},"geometry":{"type":"Polygon","coordinates":[[[2.2078,48.8742],[2.2113,48.8689],[2.2078,48.8644],[2.2021,48.8662],[2.1998,48.8614],[2.2036,48.8606],[2.2025,48.8584],[2.1979,48.8548],[2.1943,48.8561],[2.1904,48.8521],[2.1873,48.8526],[2.1826,48.8516],[2.1766,48.8516],[2.1736,48.8501],[2.1693,48.8497],[2.1599,48.8476],[2.1591,48.8493],[2.1544,48.8528],[2.1501,48.857],[2.1533,48.8614],[2.1538,48.8644],[2.1573,48.8689],[2.1521,48.8682],[2.1485,48.8685],[2.1504,48.8709],[2.1522,48.8725],[2.1583,48.8806],[2.1633,48.8829],[2.1629,48.8873],[2.1693,48.8958],[2.1761,48.892],[2.1801,48.8904],[2.1901,48.8853],[2.1999,48.8796],[2.2078,48.8742]]]}},{"type":"Feature","properties":{"code":"92064","nom":"Saint-Cloud","pop":29855},"geometry":{"type":"Polygon","coordinates":[[[2.1808,48.8306],[2.1853,48.8339],[2.1872,48.8377],[2.1876,48.8389],[2.1988,48.8415],[2.198,48.8474],[2.2052,48.8511],[2.2055,48.8518],[2.1979,48.8548],[2.2025,48.8584],[2.2036,48.8606],[2.2062,48.8603],[2.2126,48.8617],[2.2137,48.8593],[2.2215,48.86],[2.2257,48.8594],[2.2242,48.8535],[2.2255,48.8497],[2.2253,48.8463],[2.223,48.8396],[2.224,48.8351],[2.2221,48.8354],[2.2224,48.8315],[2.2238,48.8297],[2.2181,48.8274],[2.211,48.8276],[2.2069,48.8289],[2.1994,48.8298],[2.1848,48.8289],[2.1808,48.8306]]]}},{"type":"Feature","properties":{"code":"92071","nom":"Sceaux","pop":20884},"geometry":{"type":"Polygon","coordinates":[[[2.2795,48.7825],[2.282,48.7832],[2.2876,48.7825],[2.2935,48.7842],[2.3034,48.7854],[2.3097,48.7849],[2.3069,48.7775],[2.3143,48.7768],[2.3124,48.7721],[2.3118,48.7707],[2.3074,48.7708],[2.3066,48.7692],[2.2903,48.7666],[2.2863,48.7713],[2.2863,48.7742],[2.2815,48.7745],[2.2783,48.7765],[2.2804,48.7802],[2.2795,48.7825]]]}},{"type":"Feature","properties":{"code":"92072","nom":"Sèvres","pop":22303},"geometry":{"type":"Polygon","coordinates":[[[2.1785,48.8149],[2.1816,48.8178],[2.1849,48.8177],[2.1928,48.8215],[2.1989,48.8222],[2.2009,48.824],[2.1982,48.826],[2.1994,48.8298],[2.2069,48.8289],[2.211,48.8276],[2.2181,48.8274],[2.2238,48.8297],[2.2224,48.8315],[2.2221,48.8354],[2.224,48.8351],[2.2259,48.8327],[2.2276,48.8268],[2.2326,48.8227],[2.2308,48.8216],[2.2273,48.8237],[2.221,48.8196],[2.2171,48.8177],[2.2202,48.8151],[2.2158,48.8128],[2.2114,48.8117],[2.2056,48.8092],[2.1967,48.8151],[2.199,48.8165],[2.2003,48.8191],[2.1979,48.8209],[2.1898,48.8158],[2.1785,48.8149]]]}},{"type":"Feature","properties":{"code":"92073","nom":"Suresnes","pop":48956},"geometry":{"type":"Polygon","coordinates":[[[2.2317,48.8691],[2.2284,48.8654],[2.2257,48.8594],[2.2215,48.86],[2.2137,48.8593],[2.2126,48.8617],[2.2062,48.8603],[2.2036,48.8606],[2.1998,48.8614],[2.2021,48.8662],[2.2078,48.8644],[2.2113,48.8689],[2.2078,48.8742],[2.2164,48.8781],[2.2236,48.8828],[2.2306,48.8799],[2.2364,48.8796],[2.2319,48.8759],[2.2368,48.8735],[2.2317,48.8691]]]}},{"type":"Feature","properties":{"code":"92075","nom":"Vanves","pop":28622},"geometry":{"type":"Polygon","coordinates":[[[2.3013,48.8251],[2.2934,48.8189],[2.288,48.8165],[2.2782,48.8142],[2.2772,48.8153],[2.2726,48.8144],[2.2759,48.8173],[2.2819,48.8202],[2.2805,48.8259],[2.2844,48.8275],[2.2894,48.8283],[2.2922,48.8271],[2.3013,48.8251]]]}},{"type":"Feature","properties":{"code":"92076","nom":"Vaucresson","pop":8432},"geometry":{"type":"Polygon","coordinates":[[[2.1515,48.8214],[2.1485,48.8285],[2.1459,48.8369],[2.1457,48.8418],[2.1475,48.8432],[2.151,48.8481],[2.1532,48.8489],[2.1599,48.8476],[2.1693,48.8497],[2.1736,48.8501],[2.1766,48.8516],[2.1826,48.8516],[2.1818,48.8482],[2.1789,48.8441],[2.167,48.8422],[2.1667,48.8377],[2.156,48.8376],[2.1518,48.83],[2.151,48.8233],[2.1515,48.8214]]]}},{"type":"Feature","properties":{"code":"92077","nom":"Ville-d'Avray","pop":11089},"geometry":{"type":"Polygon","coordinates":[[[2.1767,48.814],[2.1748,48.8151],[2.1693,48.8159],[2.1665,48.8123],[2.1613,48.8128],[2.1516,48.817],[2.1507,48.8188],[2.1528,48.8211],[2.1594,48.8209],[2.1618,48.8237],[2.1649,48.8232],[2.1739,48.8243],[2.1762,48.8281],[2.1808,48.8306],[2.1848,48.8289],[2.1994,48.8298],[2.1982,48.826],[2.2009,48.824],[2.1989,48.8222],[2.1928,48.8215],[2.1849,48.8177],[2.1816,48.8178],[2.1785,48.8149],[2.1767,48.814]]]}},{"type":"Feature","properties":{"code":"92078","nom":"Villeneuve-la-Garenne","pop":26021},"geometry":{"type":"Polygon","coordinates":[[[2.3284,48.9228],[2.3254,48.9249],[2.3184,48.9275],[2.3222,48.9328],[2.319,48.9364],[2.3092,48.9403],[2.3117,48.9479],[2.3241,48.946],[2.3295,48.9446],[2.3332,48.9429],[2.3354,48.9409],[2.337,48.9354],[2.3364,48.9323],[2.3336,48.9275],[2.3284,48.9228]]]}}]}