{"type":"FeatureCollection","features":[{"type":"Feature","properties":{"code":"93001","nom":"Aubervilliers","pop":88365},"geometry":{"type":"Polygon","coordinates":[[[2.3703,48.9018],[2.3656,48.9018],[2.3657,48.9092],[2.3667,48.9154],[2.3667,48.9235],[2.3683,48.9245],[2.372,48.9225],[2.3748,48.9238],[2.3788,48.9216],[2.38,48.9198],[2.3865,48.9192],[2.3898,48.92],[2.3923,48.9226],[2.3945,48.9217],[2.3986,48.9225],[2.4018,48.9217],[2.4039,48.9195],[2.4076,48.918],[2.4044,48.915],[2.4075,48.9139],[2.4115,48.9113],[2.4083,48.9081],[2.4061,48.9085],[2.4004,48.9113],[2.3893,48.9012],[2.3845,48.9021],[2.3703,48.9018]]]}},{"type":"Feature","properties":{"code":"93005","nom":"Aulnay-sous-Bois","pop":87599},"geometry":{"type":"Polygon","coordinates":[[[2.4595,48.955],[2.4606,48.9582],[2.4629,48.9597],[2.4673,48.9643],[2.4695,48.963],[2.475,48.9677],[2.4778,48.9667],[2.4808,48.9698],[2.4868,48.9673],[2.4903,48.9701],[2.4883,48.9713],[2.4925,48.9746],[2.4962,48.9726],[2.5051,48.9657],[2.508,48.9646],[2.5199,48.9552],[2.5241,48.9505],[2.517,48.9482],[2.5173,48.9467],[2.5122,48.9442],[2.5083,48.9403],[2.51,48.9395],[2.506,48.9341],[2.5144,48.9303],[2.5134,48.9279],[2.5181,48.9251],[2.515,48.9232],[2.5123,48.9194],[2.5072,48.9188],[2.4919,48.9169],[2.4887,48.9186],[2.4853,48.9178],[2.4794,48.9184],[2.4795,48.9199],[2.481,48.9234],[2.4814,48.9287],[2.4793,48.9304],[2.4822,48.9321],[2.4842,48.936],[2.4834,48.9375],[2.4761,48.9397],[2.4796,48.9427],[2.4754,48.9459],[2.4715,48.9471],[2.4723,48.9516],[2.461,48.9537],[2.4595,48.955]]]}},{"type":"Feature","properties":{"code":"93006","nom":"Bagnolet","pop":43086},"geometry":{"type":"Polygon","coordinates":[[[2.4134,48.8731],[2.4158,48.8751],[2.4219,48.8783],[2.4298,48.8783],[2.433,48.879],[2.4371,48.8773],[2.4354,48.8746],[2.4305,48.8707],[2.4296,48.8676],[2.4278,48.8664],[2.4287,48.8636],[2.4239,48.8627],[2.4225,48.8609],[2.4234,48.8573],[2.4153,48.8552],[2.414,48.8647],[2.4134,48.8731]]]}},{"type":"Feature","properties":{"code":"93007","nom":"Le Blanc-Mesnil","pop":62376},"geometry":{"type":"Polygon","coordinates":[[[2.4795,48.9199],[2.477,48.9202],[2.4744,48.9184],[2.4719,48.9206],[2.4686,48.9193],[2.462,48.9209],[2.4626,48.925],[2.4622,48.9279],[2.4639,48.9308],[2.4574,48.9344],[2.4578,48.9358],[2.4518,48.9391],[2.4486,48.9396],[2.4425,48.9373],[2.433,48.9382],[2.4309,48.9402],[2.4352,48.9451],[2.4425,48.9533],[2.4475,48.9558],[2.4503,48.9549],[2.4559,48.9557],[2.4595,48.955],[2.461,48.9537],[2.4723,48.9516],[2.4715,48.9471],[2.4754,48.9459],[2.4796,48.9427],[2.4761,48.9397],[2.4834,48.9375],[2.4842,48.936],[2.4822,48.9321],[2.4793,48.9304],[2.4814,48.9287],[2.481,48.9234],[2.4795,48.9199]]]}},{"type":"Feature","properties":{"code":"93008","nom":"Bobigny","pop":56927},"geometry":{"type":"Polygon","coordinates":[[[2.4755,48.9164],[2.4762,48.9132],[2.4702,48.905],[2.4621,48.9054],[2.4616,48.9022],[2.4417,48.8984],[2.4277,48.8959],[2.4242,48.8967],[2.4213,48.9021],[2.4116,48.9062],[2.4146,48.9089],[2.4153,48.912],[2.4129,48.9154],[2.4101,48.9166],[2.4135,48.9194],[2.4197,48.9171],[2.4369,48.9131],[2.4411,48.9153],[2.4499,48.9131],[2.4559,48.9104],[2.4636,48.9121],[2.4677,48.9146],[2.4755,48.9164]]]}},{"type":"Feature","properties":{"code":"93010","nom":"Bondy","pop":50595},"geometry":{"type":"Polygon","coordinates":[[[2.4755,48.9164],[2.4744,48.9184],[2.477,48.9202],[2.4795,48.9199],[2.4794,48.9184],[2.4853,48.9178],[2.4887,48.9186],[2.4919,48.9169],[2.491,48.9098],[2.4937,48.9073],[2.4999,48.9046],[2.4985,48.8996],[2.4956,48.8967],[2.5002,48.8957],[2.4955,48.8893],[2.4911,48.8909],[2.4899,48.8884],[2.487,48.887],[2.4766,48.8888],[2.4713,48.8891],[2.4729,48.8957],[2.4746,48.8981],[2.4691,48.8995],[2.4707,48.903],[2.4702,48.905],[2.4762,48.9132],[2.4755,48.9164]]]}},{"type":"Feature","properties":{"code":"93013","nom":"Le Bourget","pop":15925},"geometry":{"type":"Polygon","coordinates":[[[2.4226,48.93],[2.4199,48.9293],[2.4161,48.9304],[2.4125,48.9327],[2.4177,48.9337],[2.4158,48.9373],[2.4176,48.9399],[2.4225,48.9403],[2.4226,48.9417],[2.4266,48.9426],[2.4306,48.9463],[2.4352,48.9451],[2.4309,48.9402],[2.433,48.9382],[2.4425,48.9373],[2.4449,48.9335],[2.4442,48.9327],[2.4373,48.9326],[2.4226,48.93]]]}},{"type":"Feature","properties":{"code":"93014","nom":"Clichy-sous-Bois","pop":29354},"geometry":{"type":"Polygon","coordinates":[[[2.5592,48.9213],[2.5623,48.9204],[2.5646,48.9137],[2.5601,48.9111],[2.5652,48.9084],[2.5518,48.902],[2.549,48.9019],[2.5462,48.8989],[2.5393,48.8993],[2.536,48.8983],[2.5357,48.8949],[2.532,48.8953],[2.5298,48.9032],[2.5259,48.9039],[2.5211,48.9034],[2.5271,48.907],[2.5384,48.9095],[2.5411,48.9157],[2.5445,48.9181],[2.5476,48.9164],[2.5529,48.915],[2.5592,48.9213]]]}},{"type":"Feature","properties":{"code":"93015","nom":"Coubron","pop":5175},"geometry":{"type":"Polygon","coordinates":[[[2.5592,48.9213],[2.5617,48.9259],[2.5644,48.9281],[2.5675,48.9244],[2.5721,48.9243],[2.5765,48.9273],[2.587,48.9275],[2.5906,48.9281],[2.5926,48.925],[2.5893,48.9222],[2.5889,48.9172],[2.5904,48.9158],[2.5907,48.9119],[2.5888,48.9095],[2.5923,48.9077],[2.5914,48.9071],[2.5839,48.9106],[2.5791,48.9083],[2.5775,48.9065],[2.5721,48.9078],[2.5652,48.9084],[2.5601,48.9111],[2.5646,48.9137],[2.5623,48.9204],[2.5592,48.9213]]]}},{"type":"Feature","properties":{"code":"93027","nom":"La Courneuve","pop":47167},"geometry":{"type":"Polygon","coordinates":[[[2.4135,48.9194],[2.4101,48.9166],[2.4076,48.918],[2.4039,48.9195],[2.4018,48.9217],[2.3986,48.9225],[2.3945,48.9217],[2.3923,48.9226],[2.3898,48.92],[2.3865,48.9192],[2.38,48.9198],[2.3788,48.9216],[2.3748,48.9238],[2.3778,48.9253],[2.3751,48.9277],[2.3776,48.9318],[2.3825,48.9308],[2.3833,48.9328],[2.3847,48.9403],[2.3961,48.9455],[2.3982,48.9482],[2.4041,48.9515],[2.4092,48.946],[2.4173,48.9414],[2.4176,48.9399],[2.4158,48.9373],[2.4177,48.9337],[2.4125,48.9327],[2.4161,48.9304],[2.4199,48.9293],[2.4226,48.93],[2.4163,48.9218],[2.4135,48.9194]]]}},{"type":"Feature","properties":{"code":"93029","nom":"Drancy","pop":72390},"geometry":{"type":"Polygon","coordinates":[[[2.4135,48.9194],[2.4163,48.9218],[2.4226,48.93],[2.4373,48.9326],[2.4442,48.9327],[2.4449,48.9335],[2.4425,48.9373],[2.4486,48.9396],[2.4518,48.9391],[2.4578,48.9358],[2.4574,48.9344],[2.4639,48.9308],[2.4622,48.9279],[2.4626,48.925],[2.462,48.9209],[2.4686,48.9193],[2.4719,48.9206],[2.4744,48.9184],[2.4755,48.9164],[2.4677,48.9146],[2.4636,48.9121],[2.4559,48.9104],[2.4499,48.9131],[2.4411,48.9153],[2.4369,48.9131],[2.4197,48.9171],[2.4135,48.9194]]]}},{"type":"Feature","properties":{"code":"93030","nom":"Dugny","pop":11700},"geometry":{"type":"Polygon","coordinates":[[[2.4475,48.9558],[2.4425,48.9533],[2.4352,48.9451],[2.4306,48.9463],[2.4266,48.9426],[2.4226,48.9417],[2.4225,48.9403],[2.4176,48.9399],[2.4173,48.9414],[2.4092,48.946],[2.4041,48.9515],[2.4082,48.9532],[2.4074,48.9561],[2.4097,48.9579],[2.4125,48.9577],[2.4174,48.9595],[2.4188,48.9577],[2.427,48.9594],[2.4326,48.9576],[2.4356,48.9554],[2.4452,48.9567],[2.4475,48.9558]]]}},{"type":"Feature","properties":{"code":"93031","nom":"Épinay-sur-Seine","pop":52833},"geometry":{"type":"Polygon","coordinates":[[[2.3383,48.9426],[2.3355,48.9447],[2.3234,48.9483],[2.3144,48.9501],[2.3006,48.952],[2.2922,48.9515],[2.2883,48.9584],[2.2903,48.9617],[2.2989,48.9663],[2.3012,48.9655],[2.3051,48.9622],[2.3089,48.9635],[2.3104,48.9617],[2.313,48.9624],[2.3198,48.9585],[2.3227,48.9575],[2.3279,48.9595],[2.3334,48.9553],[2.346,48.9464],[2.3394,48.9476],[2.3369,48.9451],[2.3408,48.9443],[2.3383,48.9426]]]}},{"type":"Feature","properties":{"code":"93032","nom":"Gagny","pop":42313},"geometry":{"type":"Polygon","coordinates":[[[2.53,48.8744],[2.5286,48.8789],[2.525,48.8839],[2.5182,48.8911],[2.5197,48.8908],[2.5229,48.8932],[2.5261,48.8918],[2.5326,48.8932],[2.532,48.8953],[2.5357,48.8949],[2.536,48.8983],[2.5393,48.8993],[2.5462,48.8989],[2.5442,48.8962],[2.5477,48.8958],[2.5467,48.8912],[2.549,48.8903],[2.55,48.8848],[2.5592,48.8852],[2.5648,48.8814],[2.5658,48.882],[2.5714,48.8798],[2.5712,48.8781],[2.5678,48.8727],[2.5706,48.8693],[2.5676,48.8659],[2.5643,48.8656],[2.5583,48.8674],[2.555,48.8698],[2.5519,48.8744],[2.5471,48.8722],[2.5393,48.8697],[2.5355,48.8742],[2.5312,48.8767],[2.53,48.8744]]]}},{"type":"Feature","properties":{"code":"93033","nom":"Gournay-sur-Marne","pop":7320},"geometry":{"type":"Polygon","coordinates":[[[2.5875,48.865],[2.587,48.8602],[2.5832,48.8584],[2.5832,48.8554],[2.5801,48.8554],[2.5742,48.8534],[2.5697,48.8581],[2.5671,48.8575],[2.5659,48.8608],[2.5643,48.8618],[2.5642,48.8646],[2.5676,48.8659],[2.5724,48.8679],[2.5762,48.8652],[2.5832,48.8656],[2.5875,48.865]]]}},{"type":"Feature","properties":{"code":"93039","nom":"L'Île-Saint-Denis","pop":8696},"geometry":{"type":"Polygon","coordinates":[[[2.2908,48.9511],[2.2922,48.9515],[2.3006,48.952],[2.3144,48.9501],[2.3234,48.9483],[2.3355,48.9447],[2.3383,48.9426],[2.3415,48.9368],[2.3416,48.9338],[2.339,48.929],[2.3332,48.9232],[2.3284,48.9185],[2.3198,48.9159],[2.322,48.9187],[2.3284,48.9228],[2.3336,48.9275],[2.3364,48.9323],[2.337,48.9354],[2.3354,48.9409],[2.3332,48.9429],[2.3295,48.9446],[2.3241,48.946],[2.3117,48.9479],[2.3031,48.95],[2.2908,48.9511]]]}},{"type":"Feature","properties":{"code":"93045","nom":"Les Lilas","pop":23843},"geometry":{"type":"Polygon","coordinates":[[[2.4298,48.8783],[2.4219,48.8783],[2.4158,48.8751],[2.4134,48.8731],[2.4108,48.8784],[2.4119,48.8788],[2.4115,48.8832],[2.4173,48.884],[2.4224,48.8876],[2.4244,48.891],[2.4265,48.8883],[2.4267,48.8859],[2.4245,48.8831],[2.4291,48.8826],[2.4284,48.8802],[2.4298,48.8783]]]}},{"type":"Feature","properties":{"code":"93046","nom":"Livry-Gargan","pop":47228},"geometry":{"type":"Polygon","coordinates":[[[2.5644,48.9281],[2.5617,48.9259],[2.5592,48.9213],[2.5529,48.915],[2.5476,48.9164],[2.5445,48.9181],[2.5411,48.9157],[2.5384,48.9095],[2.5271,48.907],[2.5211,48.9034],[2.511,48.9018],[2.5211,48.9119],[2.5102,48.9103],[2.5072,48.9188],[2.5123,48.9194],[2.515,48.9232],[2.5181,48.9251],[2.5217,48.9239],[2.5242,48.925],[2.5246,48.9271],[2.5279,48.9262],[2.5319,48.9273],[2.5366,48.9259],[2.5392,48.9276],[2.5439,48.9346],[2.5491,48.9353],[2.557,48.9342],[2.5614,48.9335],[2.5642,48.93],[2.5644,48.9281]]]}},{"type":"Feature","properties":{"code":"93047","nom":"Montfermeil","pop":28703},"geometry":{"type":"Polygon","coordinates":[[[2.5914,48.9071],[2.5856,48.9047],[2.5847,48.9022],[2.5891,48.8986],[2.587,48.898],[2.587,48.894],[2.5839,48.8948],[2.5783,48.8934],[2.5766,48.8922],[2.5723,48.8925],[2.5684,48.891],[2.5628,48.8897],[2.5592,48.8852],[2.55,48.8848],[2.549,48.8903],[2.5467,48.8912],[2.5477,48.8958],[2.5442,48.8962],[2.5462,48.8989],[2.549,48.9019],[2.5518,48.902],[2.5652,48.9084],[2.5721,48.9078],[2.5775,48.9065],[2.5791,48.9083],[2.5839,48.9106],[2.5914,48.9071]]]}},{"type":"Feature","properties":{"code":"93048","nom":"Montreuil","pop":111934},"geometry":{"type":"Polygon","coordinates":[[[2.419,48.8494],[2.4163,48.8492],[2.4153,48.8552],[2.4234,48.8573],[2.4225,48.8609],[2.4239,48.8627],[2.4287,48.8636],[2.4278,48.8664],[2.4296,48.8676],[2.4305,48.8707],[2.4354,48.8746],[2.4386,48.8713],[2.444,48.872],[2.4466,48.873],[2.4493,48.8769],[2.4518,48.8785],[2.4649,48.8781],[2.4703,48.8742],[2.4722,48.8675],[2.4788,48.8684],[2.4822,48.8671],[2.4828,48.864],[2.4816,48.8615],[2.4808,48.8601],[2.4732,48.8602],[2.4699,48.8607],[2.4668,48.8601],[2.4674,48.8566],[2.4555,48.8557],[2.4488,48.8535],[2.4471,48.8512],[2.4352,48.8534],[2.4346,48.8508],[2.4296,48.8511],[2.4293,48.8487],[2.419,48.8494]]]}},{"type":"Feature","properties":{"code":"93049","nom":"Neuilly-Plaisance","pop":21941},"geometry":{"type":"Polygon","coordinates":[[[2.521,48.8522],[2.5156,48.8513],[2.5135,48.8501],[2.5135,48.8513],[2.5087,48.8534],[2.5055,48.8572],[2.5,48.8557],[2.4968,48.8557],[2.4949,48.8588],[2.4961,48.8607],[2.4994,48.8636],[2.5012,48.8682],[2.5009,48.873],[2.5058,48.873],[2.5094,48.8781],[2.515,48.8749],[2.5205,48.8746],[2.5242,48.8725],[2.5208,48.8695],[2.5162,48.8674],[2.5185,48.8644],[2.5193,48.8604],[2.5161,48.8563],[2.5164,48.8533],[2.5201,48.8541],[2.521,48.8522]]]}},{"type":"Feature","properties":{"code":"93050","nom":"Neuilly-sur-Marne","pop":39800},"geometry":{"type":"Polygon","coordinates":[[[2.521,48.8522],[2.5201,48.8541],[2.5164,48.8533],[2.5161,48.8563],[2.5193,48.8604],[2.5185,48.8644],[2.5162,48.8674],[2.5208,48.8695],[2.5242,48.8725],[2.5205,48.8746],[2.5261,48.8753],[2.53,48.8744],[2.5312,48.8767],[2.5355,48.8742],[2.5393,48.8697],[2.5471,48.8722],[2.5519,48.8744],[2.555,48.8698],[2.5583,48.8674],[2.5643,48.8656],[2.5676,48.8659],[2.5642,48.8646],[2.5643,48.8618],[2.5659,48.8608],[2.5671,48.8575],[2.5671,48.8554],[2.5618,48.8539],[2.5511,48.8546],[2.5447,48.8542],[2.5415,48.853],[2.5333,48.8537],[2.521,48.8522]]]}},{"type":"Feature","properties":{"code":"93051","nom":"Noisy-le-Grand","pop":72978},"geometry":{"type":"Polygon","coordinates":[[[2.5156,48.8513],[2.521,48.8522],[2.5333,48.8537],[2.5415,48.853],[2.5447,48.8542],[2.5511,48.8546],[2.5618,48.8539],[2.5671,48.8554],[2.5671,48.8575],[2.5697,48.8581],[2.5742,48.8534],[2.5867,48.8344],[2.5857,48.8294],[2.5872,48.8256],[2.5924,48.827],[2.5924,48.8238],[2.5939,48.8223],[2.5958,48.8141],[2.5959,48.8098],[2.5918,48.8072],[2.5902,48.8088],[2.5811,48.8106],[2.5742,48.813],[2.5698,48.8152],[2.5687,48.818],[2.571,48.8226],[2.5692,48.8241],[2.5613,48.8265],[2.5606,48.8289],[2.5527,48.8324],[2.5473,48.8361],[2.5441,48.835],[2.5381,48.8369],[2.5367,48.8385],[2.5392,48.84],[2.5356,48.843],[2.5345,48.8453],[2.5288,48.8436],[2.5247,48.8491],[2.519,48.848],[2.5156,48.8513]]]}},{"type":"Feature","properties":{"code":"93053","nom":"Noisy-le-Sec","pop":45510},"geometry":{"type":"Polygon","coordinates":[[[2.4417,48.8984],[2.4616,48.9022],[2.4621,48.9054],[2.4702,48.905],[2.4707,48.903],[2.4691,48.8995],[2.4746,48.8981],[2.4729,48.8957],[2.4713,48.8891],[2.4766,48.8888],[2.4754,48.8863],[2.4703,48.8868],[2.4692,48.884],[2.4667,48.8816],[2.4649,48.8781],[2.4518,48.8785],[2.4522,48.8813],[2.4541,48.8843],[2.4485,48.8864],[2.4432,48.8829],[2.4404,48.8846],[2.4448,48.8884],[2.4444,48.8908],[2.439,48.8932],[2.4417,48.8984]]]}},{"type":"Feature","properties":{"code":"93055","nom":"Pantin","pop":61929},"geometry":{"type":"Polygon","coordinates":[[[2.4277,48.8959],[2.4266,48.8929],[2.4244,48.891],[2.4224,48.8876],[2.4173,48.884],[2.4115,48.8832],[2.41,48.8861],[2.4101,48.8891],[2.4062,48.8883],[2.3989,48.8895],[2.3977,48.8946],[2.3955,48.8983],[2.3893,48.9012],[2.4004,48.9113],[2.4061,48.9085],[2.4083,48.9081],[2.4115,48.9113],[2.4075,48.9139],[2.4044,48.915],[2.4076,48.918],[2.4101,48.9166],[2.4129,48.9154],[2.4153,48.912],[2.4146,48.9089],[2.4116,48.9062],[2.4213,48.9021],[2.4242,48.8967],[2.4277,48.8959]]]}},{"type":"Feature","properties":{"code":"93057","nom":"Les Pavillons-sous-Bois","pop":25804},"geometry":{"type":"Polygon","coordinates":[[[2.5072,48.9188],[2.5102,48.9103],[2.5211,48.9119],[2.511,48.9018],[2.508,48.8985],[2.5023,48.8993],[2.5002,48.8957],[2.4956,48.8967],[2.4985,48.8996],[2.4999,48.9046],[2.4937,48.9073],[2.491,48.9098],[2.4919,48.9169],[2.5072,48.9188]]]}},{"type":"Feature","properties":{"code":"93059","nom":"Pierrefitte-sur-Seine","pop":0},"geometry":{"type":"Polygon","coordinates":[[[2.3516,48.9504],[2.3537,48.954],[2.3535,48.9568],[2.3549,48.9597],[2.3528,48.9603],[2.3535,48.9656],[2.359,48.9729],[2.3617,48.974],[2.3657,48.974],[2.3689,48.973],[2.3757,48.9721],[2.3738,48.9675],[2.3733,48.9601],[2.369,48.9601],[2.3655,48.9588],[2.3714,48.9475],[2.3594,48.9477],[2.3598,48.9487],[2.3516,48.9504]]]}},{"type":"Feature","properties":{"code":"93061","nom":"Le Pré-Saint-Gervais","pop":16993},"geometry":{"type":"Polygon","coordinates":[[[2.3989,48.8895],[2.4062,48.8883],[2.4101,48.8891],[2.41,48.8861],[2.4115,48.8832],[2.4119,48.8788],[2.4108,48.8784],[2.4094,48.8803],[2.4015,48.8826],[2.3993,48.8854],[2.3989,48.8895]]]}},{"type":"Feature","properties":{"code":"93062","nom":"Le Raincy","pop":14735},"geometry":{"type":"Polygon","coordinates":[[[2.532,48.8953],[2.5326,48.8932],[2.5261,48.8918],[2.5229,48.8932],[2.5197,48.8908],[2.5182,48.8911],[2.516,48.8878],[2.5112,48.8897],[2.5097,48.8921],[2.5066,48.8927],[2.508,48.8985],[2.511,48.9018],[2.5211,48.9034],[2.5259,48.9039],[2.5298,48.9032],[2.532,48.8953]]]}},{"type":"Feature","properties":{"code":"93063","nom":"Romainville","pop":37152},"geometry":{"type":"Polygon","coordinates":[[[2.4518,48.8785],[2.4493,48.8769],[2.4466,48.873],[2.444,48.872],[2.4386,48.8713],[2.4354,48.8746],[2.4371,48.8773],[2.433,48.879],[2.4298,48.8783],[2.4284,48.8802],[2.4291,48.8826],[2.4245,48.8831],[2.4267,48.8859],[2.4265,48.8883],[2.4244,48.891],[2.4266,48.8929],[2.4277,48.8959],[2.4417,48.8984],[2.439,48.8932],[2.4444,48.8908],[2.4448,48.8884],[2.4404,48.8846],[2.4432,48.8829],[2.4485,48.8864],[2.4541,48.8843],[2.4522,48.8813],[2.4518,48.8785]]]}},{"type":"Feature","properties":{"code":"93064","nom":"Rosny-sous-Bois","pop":47180},"geometry":{"type":"Polygon","coordinates":[[[2.4649,48.8781],[2.4667,48.8816],[2.4692,48.884],[2.4703,48.8868],[2.4754,48.8863],[2.4766,48.8888],[2.487,48.887],[2.4945,48.8849],[2.494,48.8827],[2.4976,48.8783],[2.5008,48.8771],[2.5041,48.8773],[2.5057,48.8793],[2.5094,48.8781],[2.5058,48.873],[2.5009,48.873],[2.5012,48.8682],[2.4994,48.8636],[2.4961,48.8607],[2.4916,48.8595],[2.491,48.8608],[2.4867,48.8607],[2.4816,48.8615],[2.4828,48.864],[2.4822,48.8671],[2.4788,48.8684],[2.4722,48.8675],[2.4703,48.8742],[2.4649,48.8781]]]}},{"type":"Feature","properties":{"code":"93066","nom":"Saint-Denis","pop":149077},"geometry":{"type":"Polygon","coordinates":[[[2.3714,48.9475],[2.3752,48.9476],[2.3771,48.9446],[2.3821,48.9454],[2.3837,48.9435],[2.3902,48.9455],[2.3898,48.9468],[2.3962,48.9493],[2.3982,48.9482],[2.3961,48.9455],[2.3847,48.9403],[2.3833,48.9328],[2.3825,48.9308],[2.3776,48.9318],[2.3751,48.9277],[2.3778,48.9253],[2.3748,48.9238],[2.372,48.9225],[2.3683,48.9245],[2.3667,48.9235],[2.3667,48.9154],[2.3657,48.9092],[2.3656,48.9018],[2.352,48.9015],[2.3508,48.9109],[2.3484,48.911],[2.3471,48.9144],[2.3447,48.914],[2.3378,48.9152],[2.34,48.9196],[2.3332,48.9232],[2.339,48.929],[2.3416,48.9338],[2.3415,48.9368],[2.3383,48.9426],[2.3408,48.9443],[2.3369,48.9451],[2.3394,48.9476],[2.346,48.9464],[2.3506,48.9487],[2.3516,48.9504],[2.3598,48.9487],[2.3594,48.9477],[2.3714,48.9475]]]}},{"type":"Feature","properties":{"code":"93070","nom":"Saint-Ouen-sur-Seine","pop":53615},"geometry":{"type":"Polygon","coordinates":[[[2.3301,48.901],[2.3199,48.9005],[2.3209,48.9046],[2.3138,48.914],[2.3198,48.9159],[2.3284,48.9185],[2.3332,48.9232],[2.34,48.9196],[2.3378,48.9152],[2.3447,48.914],[2.3471,48.9144],[2.3484,48.911],[2.3508,48.9109],[2.352,48.9015],[2.3301,48.901]]]}},{"type":"Feature","properties":{"code":"93071","nom":"Sevran","pop":52535},"geometry":{"type":"Polygon","coordinates":[[[2.5566,48.9353],[2.557,48.9342],[2.5491,48.9353],[2.5439,48.9346],[2.5392,48.9276],[2.5366,48.9259],[2.5319,48.9273],[2.5279,48.9262],[2.5246,48.9271],[2.5242,48.925],[2.5217,48.9239],[2.5181,48.9251],[2.5134,48.9279],[2.5144,48.9303],[2.506,48.9341],[2.51,48.9395],[2.5083,48.9403],[2.5122,48.9442],[2.5173,48.9467],[2.517,48.9482],[2.5241,48.9505],[2.5309,48.9516],[2.5311,48.9505],[2.5382,48.9515],[2.5427,48.9506],[2.5478,48.9471],[2.5502,48.9471],[2.5537,48.9437],[2.5566,48.9353]]]}},{"type":"Feature","properties":{"code":"93072","nom":"Stains","pop":41388},"geometry":{"type":"Polygon","coordinates":[[[2.3757,48.9721],[2.3824,48.9712],[2.3846,48.9702],[2.3943,48.9625],[2.3989,48.9596],[2.4074,48.9561],[2.4082,48.9532],[2.4041,48.9515],[2.3982,48.9482],[2.3962,48.9493],[2.3898,48.9468],[2.3902,48.9455],[2.3837,48.9435],[2.3821,48.9454],[2.3771,48.9446],[2.3752,48.9476],[2.3714,48.9475],[2.3655,48.9588],[2.369,48.9601],[2.3733,48.9601],[2.3738,48.9675],[2.3757,48.9721]]]}},{"type":"Feature","properties":{"code":"93073","nom":"Tremblay-en-France","pop":38348},"geometry":{"type":"Polygon","coordinates":[[[2.5005,48.9754],[2.5019,48.9785],[2.5049,48.9788],[2.5088,48.9806],[2.5147,48.9822],[2.5123,48.986],[2.517,48.9861],[2.5192,48.9878],[2.5189,48.991],[2.5228,48.9921],[2.5244,48.9962],[2.5279,49.0005],[2.5311,49.0031],[2.5322,49.0052],[2.544,49.0056],[2.5478,49.005],[2.5488,49.0067],[2.5531,49.0068],[2.5535,49.0101],[2.5579,49.0119],[2.5656,49.0123],[2.5691,49.0113],[2.5707,49.0077],[2.5667,49.007],[2.567,49.0056],[2.5713,49.0042],[2.5735,49.001],[2.576,49.0003],[2.5782,48.995],[2.5813,48.9905],[2.5793,48.9902],[2.5814,48.986],[2.5766,48.9841],[2.5791,48.9793],[2.5755,48.9793],[2.5688,48.9805],[2.5637,48.9806],[2.5622,48.9791],[2.5672,48.9744],[2.5696,48.9711],[2.5756,48.9651],[2.5777,48.9639],[2.5815,48.9589],[2.5855,48.957],[2.5892,48.954],[2.5914,48.9503],[2.5934,48.9475],[2.5936,48.9453],[2.5959,48.9386],[2.5806,48.9371],[2.5769,48.9364],[2.5714,48.9393],[2.5689,48.9433],[2.5635,48.9481],[2.5624,48.9516],[2.5645,48.9555],[2.5596,48.9613],[2.5576,48.9655],[2.5501,48.9713],[2.5432,48.9672],[2.5407,48.9685],[2.5362,48.9658],[2.5334,48.9655],[2.5312,48.9695],[2.5258,48.9766],[2.5203,48.9764],[2.5085,48.9768],[2.5005,48.9754]]]}},{"type":"Feature","properties":{"code":"93074","nom":"Vaujours","pop":8007},"geometry":{"type":"Polygon","coordinates":[[[2.557,48.9342],[2.5566,48.9353],[2.5617,48.9354],[2.5685,48.937],[2.5688,48.9383],[2.5663,48.9427],[2.5689,48.9433],[2.5714,48.9393],[2.5769,48.9364],[2.5806,48.9371],[2.5959,48.9386],[2.6016,48.9385],[2.6033,48.9377],[2.6021,48.935],[2.6027,48.9294],[2.5977,48.9278],[2.5963,48.9259],[2.5926,48.925],[2.5906,48.9281],[2.587,48.9275],[2.5765,48.9273],[2.5721,48.9243],[2.5675,48.9244],[2.5644,48.9281],[2.5642,48.93],[2.5614,48.9335],[2.557,48.9342]]]}},{"type":"Feature","properties":{"code":"93077","nom":"Villemomble","pop":29795},"geometry":{"type":"Polygon","coordinates":[[[2.53,48.8744],[2.5261,48.8753],[2.5205,48.8746],[2.515,48.8749],[2.5094,48.8781],[2.5057,48.8793],[2.5041,48.8773],[2.5008,48.8771],[2.4976,48.8783],[2.494,48.8827],[2.4945,48.8849],[2.487,48.887],[2.4899,48.8884],[2.4911,48.8909],[2.4955,48.8893],[2.5002,48.8957],[2.5023,48.8993],[2.508,48.8985],[2.5066,48.8927],[2.5097,48.8921],[2.5112,48.8897],[2.516,48.8878],[2.5182,48.8911],[2.525,48.8839],[2.5286,48.8789],[2.53,48.8744]]]}},{"type":"Feature","properties":{"code":"93078","nom":"Villepinte","pop":41470},"geometry":{"type":"Polygon","coordinates":[[[2.4962,48.9726],[2.5005,48.9754],[2.5085,48.9768],[2.5203,48.9764],[2.5258,48.9766],[2.5312,48.9695],[2.5334,48.9655],[2.5362,48.9658],[2.5407,48.9685],[2.5432,48.9672],[2.5501,48.9713],[2.5576,48.9655],[2.5596,48.9613],[2.5645,48.9555],[2.5624,48.9516],[2.5635,48.9481],[2.5689,48.9433],[2.5663,48.9427],[2.5688,48.9383],[2.5685,48.937],[2.5617,48.9354],[2.5566,48.9353],[2.5537,48.9437],[2.5502,48.9471],[2.5478,48.9471],[2.5427,48.9506],[2.5382,48.9515],[2.5311,48.9505],[2.5309,48.9516],[2.5241,48.9505],[2.5199,48.9552],[2.508,48.9646],[2.5051,48.9657],[2.4962,48.9726]]]}},{"type":"Feature","properties":{"code":"93079","nom":"Villetaneuse","pop":12530},"geometry":{"type":"Polygon","coordinates":[[[2.3535,48.9656],[2.3528,48.9603],[2.3549,48.9597],[2.3535,48.9568],[2.3537,48.954],[2.3516,48.9504],[2.3506,48.9487],[2.346,48.9464],[2.3334,48.9553],[2.3381,48.9601],[2.3439,48.9684],[2.3516,48.9666],[2.3535,48.9656]]]}}]}