{"type":"FeatureCollection","features":[{"type":"Feature","properties":{"code":"94001","nom":"Ablon-sur-Seine","pop":5988},"geometry":{"type":"Polygon","coordinates":[[[2.435,48.7243],[2.4285,48.7233],[2.4199,48.7208],[2.4144,48.7177],[2.415,48.721],[2.4112,48.7227],[2.4109,48.7261],[2.4155,48.7266],[2.4211,48.7295],[2.426,48.7282],[2.4276,48.7286],[2.4314,48.7265],[2.4341,48.7266],[2.435,48.7243]]]}},{"type":"Feature","properties":{"code":"94002","nom":"Alfortville","pop":45531},"geometry":{"type":"Polygon","coordinates":[[[2.4147,48.7772],[2.422,48.7879],[2.4228,48.7911],[2.4207,48.7957],[2.411,48.8037],[2.409,48.8085],[2.4103,48.8145],[2.4094,48.8166],[2.4159,48.8162],[2.4181,48.8135],[2.4226,48.8096],[2.4248,48.8063],[2.4328,48.7866],[2.4339,48.7839],[2.43,48.7823],[2.4288,48.7802],[2.4283,48.7761],[2.4147,48.7772]]]}},{"type":"Feature","properties":{"code":"94003","nom":"Arcueil","pop":22200},"geometry":{"type":"Polygon","coordinates":[[[2.345,48.8054],[2.3439,48.8033],[2.3478,48.8015],[2.3438,48.7977],[2.34,48.7973],[2.3281,48.7997],[2.3239,48.8016],[2.324,48.8054],[2.3183,48.806],[2.3191,48.81],[2.3256,48.8096],[2.3291,48.8138],[2.3341,48.8126],[2.3373,48.8136],[2.3403,48.8124],[2.3391,48.8109],[2.3423,48.8096],[2.3426,48.8066],[2.345,48.8054]]]}},{"type":"Feature","properties":{"code":"94004","nom":"Boissy-Saint-Léger","pop":17325},"geometry":{"type":"Polygon","coordinates":[[[2.493,48.7593],[2.4969,48.7609],[2.4996,48.763],[2.5055,48.7611],[2.5073,48.7617],[2.5138,48.7609],[2.5167,48.7614],[2.5229,48.7575],[2.5264,48.7562],[2.5372,48.7545],[2.5389,48.7554],[2.5573,48.7546],[2.555,48.7537],[2.5512,48.75],[2.5491,48.752],[2.5465,48.752],[2.5435,48.7488],[2.5526,48.7468],[2.5444,48.7362],[2.5344,48.7295],[2.5365,48.7282],[2.5308,48.7274],[2.5222,48.7324],[2.5169,48.7385],[2.5118,48.7446],[2.5104,48.7471],[2.5045,48.7438],[2.5016,48.7462],[2.5011,48.7507],[2.493,48.7593]]]}},{"type":"Feature","properties":{"code":"94011","nom":"Bonneuil-sur-Marne","pop":18270},"geometry":{"type":"Polygon","coordinates":[[[2.4996,48.763],[2.4969,48.7609],[2.493,48.7593],[2.486,48.7576],[2.4835,48.7565],[2.4795,48.7605],[2.4767,48.7595],[2.4735,48.7617],[2.4772,48.7628],[2.4749,48.7654],[2.4774,48.7661],[2.4716,48.7729],[2.4746,48.7746],[2.4728,48.7765],[2.475,48.7776],[2.4726,48.7799],[2.4754,48.7814],[2.4729,48.7872],[2.4746,48.7877],[2.4788,48.786],[2.4863,48.7842],[2.4932,48.7841],[2.5004,48.7847],[2.5102,48.7841],[2.5124,48.7848],[2.5121,48.7819],[2.5063,48.78],[2.5024,48.777],[2.498,48.7757],[2.4976,48.7691],[2.4955,48.7692],[2.494,48.7665],[2.4996,48.763]]]}},{"type":"Feature","properties":{"code":"94015","nom":"Bry-sur-Marne","pop":18503},"geometry":{"type":"Polygon","coordinates":[[[2.5135,48.8501],[2.5156,48.8513],[2.519,48.848],[2.5247,48.8491],[2.5288,48.8436],[2.5345,48.8453],[2.5356,48.843],[2.5392,48.84],[2.5367,48.8385],[2.5335,48.8356],[2.5352,48.8344],[2.5319,48.8292],[2.5265,48.8289],[2.525,48.8272],[2.5201,48.8296],[2.5105,48.8277],[2.5051,48.8296],[2.5117,48.8294],[2.5166,48.8318],[2.5177,48.8348],[2.5163,48.8372],[2.5134,48.8391],[2.5116,48.8438],[2.5114,48.8469],[2.5135,48.8501]]]}},{"type":"Feature","properties":{"code":"94016","nom":"Cachan","pop":31103},"geometry":{"type":"Polygon","coordinates":[[[2.3239,48.8016],[2.3281,48.7997],[2.34,48.7973],[2.3438,48.7977],[2.3449,48.7939],[2.3442,48.7907],[2.3412,48.7843],[2.3386,48.7827],[2.3344,48.7844],[2.3284,48.7844],[2.3258,48.7819],[2.3244,48.7822],[2.3251,48.7863],[2.3187,48.788],[2.3239,48.8016]]]}},{"type":"Feature","properties":{"code":"94017","nom":"Champigny-sur-Marne","pop":78072},"geometry":{"type":"Polygon","coordinates":[[[2.4976,48.8308],[2.5051,48.8296],[2.5105,48.8277],[2.5201,48.8296],[2.525,48.8272],[2.5241,48.8252],[2.5259,48.824],[2.525,48.8214],[2.5296,48.8213],[2.5324,48.8197],[2.5348,48.8171],[2.5449,48.8198],[2.5487,48.8197],[2.5545,48.8182],[2.5574,48.8188],[2.5655,48.814],[2.5621,48.8116],[2.5585,48.8076],[2.5538,48.8076],[2.554,48.8049],[2.551,48.8032],[2.5451,48.8055],[2.5396,48.8061],[2.5289,48.8062],[2.5288,48.8053],[2.5223,48.8042],[2.52,48.8071],[2.5146,48.8093],[2.5087,48.8102],[2.4979,48.8104],[2.4801,48.8135],[2.4819,48.8159],[2.4817,48.8201],[2.4787,48.8235],[2.478,48.8272],[2.4757,48.8306],[2.483,48.8315],[2.487,48.8311],[2.4976,48.8308]]]}},{"type":"Feature","properties":{"code":"94018","nom":"Charenton-le-Pont","pop":28830},"geometry":{"type":"Polygon","coordinates":[[[2.4198,48.8169],[2.4159,48.8162],[2.4094,48.8166],[2.4004,48.8198],[2.3955,48.822],[2.3901,48.8257],[2.3943,48.8275],[2.4022,48.8296],[2.4092,48.8255],[2.42,48.8241],[2.4198,48.8169]]]}},{"type":"Feature","properties":{"code":"94019","nom":"Chennevières-sur-Marne","pop":18710},"geometry":{"type":"Polygon","coordinates":[[[2.5585,48.8076],[2.5598,48.805],[2.5665,48.8052],[2.571,48.8021],[2.5715,48.7989],[2.563,48.7955],[2.5554,48.792],[2.5558,48.7944],[2.5534,48.7956],[2.5534,48.7983],[2.5474,48.7975],[2.5477,48.7965],[2.5459,48.7907],[2.5325,48.792],[2.5306,48.7868],[2.5224,48.782],[2.5179,48.7855],[2.517,48.7864],[2.5196,48.7881],[2.5227,48.7927],[2.5235,48.7957],[2.5223,48.8042],[2.5288,48.8053],[2.5289,48.8062],[2.5396,48.8061],[2.5451,48.8055],[2.551,48.8032],[2.554,48.8049],[2.5538,48.8076],[2.5585,48.8076]]]}},{"type":"Feature","properties":{"code":"94021","nom":"Chevilly-Larue","pop":19826},"geometry":{"type":"Polygon","coordinates":[[[2.3686,48.7575],[2.362,48.7569],[2.3601,48.7606],[2.3555,48.7592],[2.3542,48.7605],[2.3481,48.7585],[2.3462,48.7604],[2.3439,48.7563],[2.3401,48.7589],[2.3352,48.7611],[2.3382,48.7631],[2.3327,48.7647],[2.3359,48.7702],[2.3338,48.7708],[2.3359,48.7735],[2.3389,48.7744],[2.3434,48.7735],[2.3428,48.7723],[2.3498,48.7711],[2.3518,48.7739],[2.3674,48.7794],[2.3678,48.7719],[2.3686,48.7575]]]}},{"type":"Feature","properties":{"code":"94022","nom":"Choisy-le-Roi","pop":45946},"geometry":{"type":"Polygon","coordinates":[[[2.4355,48.7672],[2.4398,48.7647],[2.4385,48.7636],[2.4423,48.7618],[2.4414,48.7612],[2.4342,48.7634],[2.4266,48.7605],[2.4285,48.7581],[2.4257,48.7571],[2.4286,48.7526],[2.4275,48.7509],[2.4246,48.7527],[2.4202,48.7497],[2.4181,48.7529],[2.4133,48.7525],[2.4061,48.7511],[2.4033,48.7612],[2.3981,48.7659],[2.4039,48.7669],[2.3987,48.7748],[2.402,48.773],[2.4058,48.7739],[2.4119,48.7742],[2.4147,48.7772],[2.4283,48.7761],[2.4275,48.7708],[2.4305,48.7706],[2.432,48.7668],[2.4355,48.7672]]]}},{"type":"Feature","properties":{"code":"94028","nom":"Créteil","pop":93397},"geometry":{"type":"Polygon","coordinates":[[[2.4735,48.7617],[2.4721,48.7633],[2.4682,48.7624],[2.4662,48.7661],[2.4634,48.7668],[2.46,48.7657],[2.4537,48.7675],[2.4493,48.7701],[2.4408,48.7718],[2.4392,48.7712],[2.4355,48.7672],[2.432,48.7668],[2.4305,48.7706],[2.4275,48.7708],[2.4283,48.7761],[2.4288,48.7802],[2.43,48.7823],[2.4339,48.7839],[2.4328,48.7866],[2.4391,48.7892],[2.4368,48.7923],[2.4409,48.7935],[2.4458,48.8008],[2.4545,48.806],[2.4575,48.8051],[2.464,48.8074],[2.4681,48.8046],[2.4718,48.7943],[2.4724,48.7905],[2.4746,48.7877],[2.4729,48.7872],[2.4754,48.7814],[2.4726,48.7799],[2.475,48.7776],[2.4728,48.7765],[2.4746,48.7746],[2.4716,48.7729],[2.4774,48.7661],[2.4749,48.7654],[2.4772,48.7628],[2.4735,48.7617]]]}},{"type":"Feature","properties":{"code":"94033","nom":"Fontenay-sous-Bois","pop":53757},"geometry":{"type":"Polygon","coordinates":[[[2.4471,48.8512],[2.4488,48.8535],[2.4555,48.8557],[2.4674,48.8566],[2.4668,48.8601],[2.4699,48.8607],[2.4732,48.8602],[2.4808,48.8601],[2.4816,48.8615],[2.4867,48.8607],[2.491,48.8608],[2.4916,48.8595],[2.4961,48.8607],[2.4949,48.8588],[2.4968,48.8557],[2.5,48.8557],[2.4972,48.8549],[2.4958,48.8528],[2.4933,48.8517],[2.4935,48.8487],[2.4916,48.8478],[2.4882,48.8465],[2.4832,48.8424],[2.4799,48.8419],[2.4768,48.8428],[2.4732,48.8401],[2.4722,48.8421],[2.4687,48.8409],[2.4673,48.8391],[2.4649,48.8414],[2.4586,48.8434],[2.4479,48.8449],[2.448,48.8468],[2.4579,48.8452],[2.4559,48.8473],[2.4563,48.8496],[2.4471,48.8512]]]}},{"type":"Feature","properties":{"code":"94034","nom":"Fresnes","pop":29528},"geometry":{"type":"Polygon","coordinates":[[[2.3305,48.7482],[2.3262,48.7515],[2.3227,48.7481],[2.3207,48.7488],[2.3141,48.7513],[2.3123,48.7514],[2.3115,48.7543],[2.3087,48.7554],[2.3134,48.7602],[2.3159,48.7668],[2.3234,48.7667],[2.3327,48.7647],[2.3382,48.7631],[2.3352,48.7611],[2.3401,48.7589],[2.3439,48.7563],[2.3361,48.7476],[2.3322,48.7495],[2.3305,48.7482]]]}},{"type":"Feature","properties":{"code":"94037","nom":"Gentilly","pop":19963},"geometry":{"type":"Polygon","coordinates":[[[2.3291,48.8138],[2.3319,48.817],[2.3417,48.8163],[2.3439,48.8158],[2.3472,48.8161],[2.3524,48.8186],[2.3562,48.8159],[2.354,48.8131],[2.3507,48.8113],[2.345,48.8054],[2.3426,48.8066],[2.3423,48.8096],[2.3391,48.8109],[2.3403,48.8124],[2.3373,48.8136],[2.3341,48.8126],[2.3291,48.8138]]]}},{"type":"Feature","properties":{"code":"94038","nom":"L'Haÿ-les-Roses","pop":31188},"geometry":{"type":"Polygon","coordinates":[[[2.3674,48.7794],[2.3518,48.7739],[2.3498,48.7711],[2.3428,48.7723],[2.3434,48.7735],[2.3389,48.7744],[2.3359,48.7735],[2.3338,48.7708],[2.3359,48.7702],[2.3327,48.7647],[2.3234,48.7667],[2.3159,48.7668],[2.3199,48.7707],[2.3237,48.7766],[2.3258,48.7819],[2.3284,48.7844],[2.3344,48.7844],[2.3386,48.7827],[2.3412,48.7843],[2.3442,48.7907],[2.3462,48.7896],[2.3447,48.7855],[2.3478,48.7849],[2.3475,48.7822],[2.3526,48.781],[2.3549,48.7788],[2.3581,48.7787],[2.3673,48.7809],[2.3674,48.7794]]]}},{"type":"Feature","properties":{"code":"94041","nom":"Ivry-sur-Seine","pop":65064},"geometry":{"type":"Polygon","coordinates":[[[2.4094,48.8166],[2.4103,48.8145],[2.409,48.8085],[2.4042,48.8081],[2.4051,48.805],[2.3997,48.8043],[2.3946,48.7999],[2.3917,48.7993],[2.3868,48.8005],[2.3857,48.8043],[2.3793,48.8014],[2.3758,48.806],[2.3712,48.804],[2.3672,48.8081],[2.3642,48.8112],[2.3662,48.8119],[2.3642,48.8164],[2.3808,48.8217],[2.3815,48.8224],[2.3901,48.8257],[2.3955,48.822],[2.4004,48.8198],[2.4094,48.8166]]]}},{"type":"Feature","properties":{"code":"94042","nom":"Joinville-le-Pont","pop":20525},"geometry":{"type":"Polygon","coordinates":[[[2.4545,48.8133],[2.4594,48.8127],[2.4655,48.8163],[2.4612,48.8184],[2.4629,48.8202],[2.4657,48.8262],[2.4695,48.8301],[2.4714,48.829],[2.4757,48.8306],[2.478,48.8272],[2.4787,48.8235],[2.4817,48.8201],[2.4819,48.8159],[2.4801,48.8135],[2.4738,48.8158],[2.4699,48.8124],[2.4661,48.8106],[2.4647,48.8118],[2.4606,48.8093],[2.4567,48.8112],[2.4545,48.8133]]]}},{"type":"Feature","properties":{"code":"94043","nom":"Le Kremlin-Bicêtre","pop":24110},"geometry":{"type":"Polygon","coordinates":[[[2.3478,48.8015],[2.3439,48.8033],[2.345,48.8054],[2.3507,48.8113],[2.354,48.8131],[2.3562,48.8159],[2.3642,48.8164],[2.3662,48.8119],[2.3642,48.8112],[2.3672,48.8081],[2.3581,48.806],[2.3587,48.8042],[2.3541,48.8024],[2.3478,48.8015]]]}},{"type":"Feature","properties":{"code":"94044","nom":"Limeil-Brévannes","pop":27406},"geometry":{"type":"Polygon","coordinates":[[[2.4682,48.7624],[2.4721,48.7633],[2.4735,48.7617],[2.4767,48.7595],[2.4795,48.7605],[2.4835,48.7565],[2.486,48.7576],[2.493,48.7593],[2.5011,48.7507],[2.5016,48.7462],[2.5045,48.7438],[2.5104,48.7471],[2.5118,48.7446],[2.5169,48.7385],[2.515,48.7388],[2.5086,48.7369],[2.51,48.7348],[2.5062,48.7359],[2.5039,48.7354],[2.4846,48.7293],[2.4824,48.7328],[2.4778,48.7358],[2.4736,48.7399],[2.476,48.741],[2.4734,48.7451],[2.4736,48.7488],[2.4725,48.7525],[2.4678,48.7513],[2.4688,48.7601],[2.4682,48.7624]]]}},{"type":"Feature","properties":{"code":"94046","nom":"Maisons-Alfort","pop":56799},"geometry":{"type":"Polygon","coordinates":[[[2.4545,48.8133],[2.4567,48.8112],[2.4606,48.8093],[2.464,48.8074],[2.4575,48.8051],[2.4545,48.806],[2.4458,48.8008],[2.4409,48.7935],[2.4368,48.7923],[2.4391,48.7892],[2.4328,48.7866],[2.4248,48.8063],[2.4226,48.8096],[2.4181,48.8135],[2.4159,48.8162],[2.4198,48.8169],[2.4324,48.8161],[2.437,48.8169],[2.4511,48.8158],[2.4545,48.8133]]]}},{"type":"Feature","properties":{"code":"94047","nom":"Mandres-les-Roses","pop":4922},"geometry":{"type":"Polygon","coordinates":[[[2.5268,48.7047],[2.5296,48.7062],[2.5327,48.7054],[2.5344,48.7097],[2.5365,48.7096],[2.5415,48.7118],[2.5485,48.7119],[2.5517,48.7158],[2.554,48.7154],[2.5576,48.7142],[2.563,48.7092],[2.5678,48.709],[2.5687,48.7072],[2.5619,48.7026],[2.5578,48.7016],[2.5532,48.6982],[2.5459,48.6995],[2.5442,48.6986],[2.5413,48.7004],[2.5362,48.6973],[2.5357,48.7011],[2.5313,48.6996],[2.5284,48.7039],[2.5268,48.7047]]]}},{"type":"Feature","properties":{"code":"94048","nom":"Marolles-en-Brie","pop":4781},"geometry":{"type":"Polygon","coordinates":[[[2.5534,48.7223],[2.5489,48.7254],[2.5435,48.7253],[2.5369,48.7263],[2.5365,48.7282],[2.5344,48.7295],[2.5444,48.7362],[2.5526,48.7468],[2.5435,48.7488],[2.5465,48.752],[2.5491,48.752],[2.5512,48.75],[2.555,48.7537],[2.5573,48.7546],[2.5603,48.7532],[2.5702,48.7512],[2.5686,48.7484],[2.5734,48.7478],[2.5729,48.7439],[2.5654,48.739],[2.5649,48.735],[2.5588,48.7363],[2.5568,48.7331],[2.5553,48.7261],[2.5534,48.7223]]]}},{"type":"Feature","properties":{"code":"94052","nom":"Nogent-sur-Marne","pop":32455},"geometry":{"type":"Polygon","coordinates":[[[2.4757,48.8306],[2.4714,48.829],[2.4695,48.8301],[2.4657,48.8262],[2.4647,48.8276],[2.4658,48.8319],[2.4695,48.8345],[2.4699,48.8364],[2.4673,48.8391],[2.4687,48.8409],[2.4722,48.8421],[2.4732,48.8401],[2.4768,48.8428],[2.4799,48.8419],[2.4832,48.8424],[2.4882,48.8465],[2.4916,48.8478],[2.4931,48.8438],[2.4945,48.8364],[2.4976,48.8308],[2.487,48.8311],[2.483,48.8315],[2.4757,48.8306]]]}},{"type":"Feature","properties":{"code":"94053","nom":"Noiseau","pop":4628},"geometry":{"type":"Polygon","coordinates":[[[2.5355,48.777],[2.5409,48.781],[2.5446,48.7825],[2.5497,48.7823],[2.5542,48.7836],[2.5575,48.7865],[2.5619,48.7879],[2.5638,48.7856],[2.5637,48.7829],[2.5665,48.7783],[2.5677,48.7746],[2.5721,48.7743],[2.5737,48.7716],[2.5705,48.7692],[2.5717,48.7671],[2.5681,48.7673],[2.5632,48.7636],[2.5593,48.7661],[2.5568,48.7643],[2.5505,48.7655],[2.5435,48.7652],[2.5394,48.7673],[2.5406,48.7707],[2.5368,48.7733],[2.5355,48.777]]]}},{"type":"Feature","properties":{"code":"94054","nom":"Orly","pop":24658},"geometry":{"type":"Polygon","coordinates":[[[2.3702,48.7279],[2.3693,48.7461],[2.3745,48.7462],[2.3742,48.7485],[2.3778,48.7493],[2.3821,48.7482],[2.3857,48.7494],[2.3894,48.7496],[2.3873,48.7528],[2.3932,48.7508],[2.399,48.7524],[2.3994,48.7497],[2.4061,48.7511],[2.4133,48.7525],[2.4181,48.7529],[2.4202,48.7497],[2.4246,48.7527],[2.4275,48.7509],[2.4319,48.7486],[2.4366,48.7451],[2.4243,48.7427],[2.4191,48.7437],[2.4148,48.7436],[2.4087,48.7422],[2.3996,48.7374],[2.3911,48.7376],[2.3884,48.737],[2.3892,48.7345],[2.3878,48.7327],[2.3851,48.7327],[2.385,48.7299],[2.3798,48.7293],[2.3758,48.7276],[2.3702,48.7279]]]}},{"type":"Feature","properties":{"code":"94055","nom":"Ormesson-sur-Marne","pop":10977},"geometry":{"type":"Polygon","coordinates":[[[2.5619,48.7879],[2.5575,48.7865],[2.5542,48.7836],[2.5497,48.7823],[2.5446,48.7825],[2.5409,48.781],[2.5355,48.777],[2.531,48.7765],[2.5296,48.778],[2.5256,48.7769],[2.5204,48.7768],[2.5226,48.7796],[2.5197,48.7809],[2.5124,48.7809],[2.5179,48.7855],[2.5224,48.782],[2.5306,48.7868],[2.5325,48.792],[2.5459,48.7907],[2.5477,48.7965],[2.5474,48.7975],[2.5534,48.7983],[2.5534,48.7956],[2.5558,48.7944],[2.5554,48.792],[2.5619,48.7879]]]}},{"type":"Feature","properties":{"code":"94056","nom":"Périgny","pop":2724},"geometry":{"type":"Polygon","coordinates":[[[2.5687,48.7072],[2.5708,48.7039],[2.5744,48.7007],[2.5815,48.6974],[2.5708,48.695],[2.5718,48.692],[2.5661,48.6917],[2.5611,48.6907],[2.5612,48.6896],[2.5539,48.6884],[2.549,48.689],[2.5511,48.6904],[2.5484,48.6925],[2.5438,48.6946],[2.5424,48.6968],[2.5442,48.6986],[2.5459,48.6995],[2.5532,48.6982],[2.5578,48.7016],[2.5619,48.7026],[2.5687,48.7072]]]}},{"type":"Feature","properties":{"code":"94058","nom":"Le Perreux-sur-Marne","pop":35260},"geometry":{"type":"Polygon","coordinates":[[[2.5051,48.8296],[2.4976,48.8308],[2.4945,48.8364],[2.4931,48.8438],[2.4916,48.8478],[2.4935,48.8487],[2.4933,48.8517],[2.4958,48.8528],[2.4972,48.8549],[2.5,48.8557],[2.5055,48.8572],[2.5087,48.8534],[2.5135,48.8513],[2.5135,48.8501],[2.5114,48.8469],[2.5116,48.8438],[2.5134,48.8391],[2.5163,48.8372],[2.5177,48.8348],[2.5166,48.8318],[2.5117,48.8294],[2.5051,48.8296]]]}},{"type":"Feature","properties":{"code":"94059","nom":"Le Plessis-Trévise","pop":21112},"geometry":{"type":"Polygon","coordinates":[[[2.5715,48.7989],[2.571,48.8021],[2.5665,48.8052],[2.5598,48.805],[2.5585,48.8076],[2.5621,48.8116],[2.5655,48.814],[2.5574,48.8188],[2.5561,48.8209],[2.5597,48.8228],[2.5673,48.8194],[2.5687,48.818],[2.5698,48.8152],[2.5742,48.813],[2.5811,48.8106],[2.5902,48.8088],[2.5918,48.8072],[2.5965,48.8057],[2.5915,48.7974],[2.5885,48.7932],[2.5821,48.7941],[2.576,48.7935],[2.575,48.7955],[2.5722,48.7956],[2.5715,48.7989]]]}},{"type":"Feature","properties":{"code":"94060","nom":"La Queue-en-Brie","pop":12241},"geometry":{"type":"Polygon","coordinates":[[[2.5975,48.7606],[2.5873,48.764],[2.5812,48.755],[2.577,48.755],[2.572,48.7572],[2.5728,48.7608],[2.5763,48.7599],[2.5808,48.765],[2.5768,48.7661],[2.576,48.7685],[2.5717,48.7671],[2.5705,48.7692],[2.5737,48.7716],[2.5721,48.7743],[2.5677,48.7746],[2.5665,48.7783],[2.5637,48.7829],[2.5638,48.7856],[2.5619,48.7879],[2.5554,48.792],[2.563,48.7955],[2.5715,48.7989],[2.5722,48.7956],[2.575,48.7955],[2.576,48.7935],[2.5821,48.7941],[2.5885,48.7932],[2.5915,48.7974],[2.596,48.7969],[2.5999,48.795],[2.5977,48.7911],[2.5941,48.7882],[2.5951,48.7849],[2.5883,48.783],[2.5881,48.7785],[2.5855,48.7771],[2.587,48.7733],[2.5895,48.7711],[2.5922,48.7711],[2.6008,48.7741],[2.6072,48.7745],[2.6122,48.7694],[2.613,48.766],[2.6148,48.7643],[2.6148,48.7611],[2.6027,48.759],[2.5975,48.7606]]]}},{"type":"Feature","properties":{"code":"94065","nom":"Rungis","pop":5611},"geometry":{"type":"Polygon","coordinates":[[[2.3686,48.7575],[2.3693,48.7461],[2.3629,48.7461],[2.3629,48.7441],[2.3592,48.7425],[2.3567,48.7381],[2.3539,48.7387],[2.3478,48.7415],[2.342,48.7403],[2.3371,48.7422],[2.3378,48.7431],[2.3334,48.7469],[2.3305,48.7482],[2.3322,48.7495],[2.3361,48.7476],[2.3439,48.7563],[2.3462,48.7604],[2.3481,48.7585],[2.3542,48.7605],[2.3555,48.7592],[2.3601,48.7606],[2.362,48.7569],[2.3686,48.7575]]]}},{"type":"Feature","properties":{"code":"94067","nom":"Saint-Mandé","pop":21071},"geometry":{"type":"Polygon","coordinates":[[[2.4163,48.8492],[2.419,48.8494],[2.4186,48.8464],[2.4282,48.8455],[2.4276,48.8416],[2.4239,48.8422],[2.4218,48.8444],[2.4195,48.8414],[2.4221,48.8358],[2.4173,48.8342],[2.4122,48.8345],[2.416,48.8466],[2.4163,48.8492]]]}},{"type":"Feature","properties":{"code":"94068","nom":"Saint-Maur-des-Fossés","pop":76572},"geometry":{"type":"Polygon","coordinates":[[[2.464,48.8074],[2.4606,48.8093],[2.4647,48.8118],[2.4661,48.8106],[2.4699,48.8124],[2.4738,48.8158],[2.4801,48.8135],[2.4979,48.8104],[2.5087,48.8102],[2.5146,48.8093],[2.52,48.8071],[2.5223,48.8042],[2.5235,48.7957],[2.5227,48.7927],[2.5196,48.7881],[2.517,48.7864],[2.5124,48.7848],[2.5102,48.7841],[2.5004,48.7847],[2.4932,48.7841],[2.4863,48.7842],[2.4788,48.786],[2.4746,48.7877],[2.4724,48.7905],[2.4718,48.7943],[2.4681,48.8046],[2.464,48.8074]]]}},{"type":"Feature","properties":{"code":"94069","nom":"Saint-Maurice","pop":14506},"geometry":{"type":"Polygon","coordinates":[[[2.4545,48.8133],[2.4511,48.8158],[2.437,48.8169],[2.4324,48.8161],[2.4198,48.8169],[2.42,48.8241],[2.428,48.8239],[2.4304,48.8229],[2.4373,48.8182],[2.4478,48.818],[2.4535,48.8171],[2.4591,48.817],[2.4612,48.8184],[2.4655,48.8163],[2.4594,48.8127],[2.4545,48.8133]]]}},{"type":"Feature","properties":{"code":"94070","nom":"Santeny","pop":3913},"geometry":{"type":"Polygon","coordinates":[[[2.5702,48.7512],[2.5755,48.7523],[2.577,48.755],[2.5812,48.755],[2.5873,48.764],[2.5975,48.7606],[2.5994,48.7554],[2.6022,48.7536],[2.5981,48.7501],[2.5961,48.7472],[2.5917,48.7476],[2.5905,48.7454],[2.5876,48.7442],[2.5852,48.7418],[2.5898,48.74],[2.5939,48.7355],[2.5947,48.7319],[2.5902,48.7312],[2.5848,48.7268],[2.5809,48.7219],[2.5794,48.7228],[2.5773,48.7189],[2.5754,48.7127],[2.5718,48.7135],[2.5711,48.7112],[2.5678,48.709],[2.563,48.7092],[2.5576,48.7142],[2.554,48.7154],[2.557,48.7181],[2.552,48.7196],[2.5534,48.7223],[2.5553,48.7261],[2.5568,48.7331],[2.5588,48.7363],[2.5649,48.735],[2.5654,48.739],[2.5729,48.7439],[2.5734,48.7478],[2.5686,48.7484],[2.5702,48.7512]]]}},{"type":"Feature","properties":{"code":"94071","nom":"Sucy-en-Brie","pop":27764},"geometry":{"type":"Polygon","coordinates":[[[2.577,48.755],[2.5755,48.7523],[2.5702,48.7512],[2.5603,48.7532],[2.5573,48.7546],[2.5389,48.7554],[2.5372,48.7545],[2.5264,48.7562],[2.5229,48.7575],[2.5167,48.7614],[2.5138,48.7609],[2.5073,48.7617],[2.5055,48.7611],[2.4996,48.763],[2.494,48.7665],[2.4955,48.7692],[2.4976,48.7691],[2.498,48.7757],[2.5024,48.777],[2.5063,48.78],[2.5121,48.7819],[2.5124,48.7848],[2.517,48.7864],[2.5179,48.7855],[2.5124,48.7809],[2.5197,48.7809],[2.5226,48.7796],[2.5204,48.7768],[2.5256,48.7769],[2.5296,48.778],[2.531,48.7765],[2.5355,48.777],[2.5368,48.7733],[2.5406,48.7707],[2.5394,48.7673],[2.5435,48.7652],[2.5505,48.7655],[2.5568,48.7643],[2.5593,48.7661],[2.5632,48.7636],[2.5681,48.7673],[2.5717,48.7671],[2.576,48.7685],[2.5768,48.7661],[2.5808,48.765],[2.5763,48.7599],[2.5728,48.7608],[2.572,48.7572],[2.577,48.755]]]}},{"type":"Feature","properties":{"code":"94073","nom":"Thiais","pop":32918},"geometry":{"type":"Polygon","coordinates":[[[2.3693,48.7461],[2.3686,48.7575],[2.3678,48.7719],[2.3711,48.77],[2.3743,48.7718],[2.3765,48.7715],[2.3791,48.7731],[2.3819,48.7718],[2.3881,48.7732],[2.3923,48.7734],[2.3987,48.7748],[2.4039,48.7669],[2.3981,48.7659],[2.4033,48.7612],[2.4061,48.7511],[2.3994,48.7497],[2.399,48.7524],[2.3932,48.7508],[2.3873,48.7528],[2.3894,48.7496],[2.3857,48.7494],[2.3821,48.7482],[2.3778,48.7493],[2.3742,48.7485],[2.3745,48.7462],[2.3693,48.7461]]]}},{"type":"Feature","properties":{"code":"94074","nom":"Valenton","pop":14406},"geometry":{"type":"Polygon","coordinates":[[[2.4423,48.7618],[2.4385,48.7636],[2.4398,48.7647],[2.4355,48.7672],[2.4392,48.7712],[2.4408,48.7718],[2.4493,48.7701],[2.4537,48.7675],[2.46,48.7657],[2.4634,48.7668],[2.4662,48.7661],[2.4682,48.7624],[2.4688,48.7601],[2.4678,48.7513],[2.4725,48.7525],[2.4736,48.7488],[2.4734,48.7451],[2.476,48.741],[2.4736,48.7399],[2.4778,48.7358],[2.4824,48.7328],[2.4846,48.7293],[2.4801,48.728],[2.4753,48.7277],[2.4728,48.7276],[2.4729,48.7335],[2.4706,48.7379],[2.4658,48.7419],[2.4623,48.7375],[2.4571,48.7401],[2.4594,48.7446],[2.462,48.7473],[2.4533,48.7491],[2.4545,48.7523],[2.4534,48.7555],[2.4491,48.7611],[2.4447,48.763],[2.4423,48.7618]]]}},{"type":"Feature","properties":{"code":"94075","nom":"Villecresnes","pop":11647},"geometry":{"type":"Polygon","coordinates":[[[2.5534,48.7223],[2.552,48.7196],[2.557,48.7181],[2.554,48.7154],[2.5517,48.7158],[2.5485,48.7119],[2.5415,48.7118],[2.5365,48.7096],[2.5344,48.7097],[2.5327,48.7054],[2.5296,48.7062],[2.5293,48.708],[2.5264,48.7096],[2.5226,48.7099],[2.5215,48.7123],[2.5191,48.7126],[2.5175,48.7171],[2.5158,48.7291],[2.51,48.7348],[2.5086,48.7369],[2.515,48.7388],[2.5169,48.7385],[2.5222,48.7324],[2.5308,48.7274],[2.5365,48.7282],[2.5369,48.7263],[2.5435,48.7253],[2.5489,48.7254],[2.5534,48.7223]]]}},{"type":"Feature","properties":{"code":"94076","nom":"Villejuif","pop":60183},"geometry":{"type":"Polygon","coordinates":[[[2.3712,48.804],[2.3731,48.8025],[2.3699,48.8008],[2.3703,48.7965],[2.3742,48.79],[2.3769,48.7866],[2.3695,48.7824],[2.3709,48.7807],[2.3674,48.7794],[2.3673,48.7809],[2.3581,48.7787],[2.3549,48.7788],[2.3526,48.781],[2.3475,48.7822],[2.3478,48.7849],[2.3447,48.7855],[2.3462,48.7896],[2.3442,48.7907],[2.3449,48.7939],[2.3438,48.7977],[2.3478,48.8015],[2.3541,48.8024],[2.3587,48.8042],[2.3581,48.806],[2.3672,48.8081],[2.3712,48.804]]]}},{"type":"Feature","properties":{"code":"94077","nom":"Villeneuve-le-Roi","pop":21000},"geometry":{"type":"Polygon","coordinates":[[[2.3708,48.72],[2.3702,48.7279],[2.3758,48.7276],[2.3798,48.7293],[2.385,48.7299],[2.3851,48.7327],[2.3878,48.7327],[2.3892,48.7345],[2.3884,48.737],[2.3911,48.7376],[2.3996,48.7374],[2.4087,48.7422],[2.4148,48.7436],[2.4191,48.7437],[2.4243,48.7427],[2.4366,48.7451],[2.4447,48.7358],[2.4449,48.7324],[2.4432,48.7269],[2.4397,48.7253],[2.435,48.7243],[2.4341,48.7266],[2.4314,48.7265],[2.4276,48.7286],[2.426,48.7282],[2.4211,48.7295],[2.4155,48.7266],[2.4109,48.7261],[2.4019,48.7267],[2.3989,48.7248],[2.3976,48.7209],[2.3918,48.7227],[2.39,48.7208],[2.3867,48.721],[2.3851,48.719],[2.3775,48.7207],[2.3766,48.7195],[2.3708,48.72]]]}},{"type":"Feature","properties":{"code":"94078","nom":"Villeneuve-Saint-Georges","pop":36221},"geometry":{"type":"Polygon","coordinates":[[[2.443,48.7206],[2.4434,48.7228],[2.4397,48.7253],[2.4432,48.7269],[2.4449,48.7324],[2.4447,48.7358],[2.4366,48.7451],[2.4319,48.7486],[2.4275,48.7509],[2.4286,48.7526],[2.4257,48.7571],[2.4285,48.7581],[2.4266,48.7605],[2.4342,48.7634],[2.4414,48.7612],[2.4423,48.7618],[2.4447,48.763],[2.4491,48.7611],[2.4534,48.7555],[2.4545,48.7523],[2.4533,48.7491],[2.462,48.7473],[2.4594,48.7446],[2.4571,48.7401],[2.4623,48.7375],[2.4658,48.7419],[2.4706,48.7379],[2.4729,48.7335],[2.4728,48.7276],[2.4683,48.7266],[2.4649,48.7272],[2.4603,48.726],[2.4599,48.7238],[2.4542,48.7247],[2.453,48.7226],[2.4542,48.7205],[2.4484,48.7217],[2.4485,48.7184],[2.4511,48.7149],[2.4488,48.7148],[2.443,48.7206]]]}},{"type":"Feature","properties":{"code":"94079","nom":"Villiers-sur-Marne","pop":33162},"geometry":{"type":"Polygon","coordinates":[[[2.525,48.8272],[2.5265,48.8289],[2.5319,48.8292],[2.5352,48.8344],[2.5335,48.8356],[2.5367,48.8385],[2.5381,48.8369],[2.5441,48.835],[2.5473,48.8361],[2.5527,48.8324],[2.5606,48.8289],[2.5613,48.8265],[2.5692,48.8241],[2.571,48.8226],[2.5687,48.818],[2.5673,48.8194],[2.5597,48.8228],[2.5561,48.8209],[2.5574,48.8188],[2.5545,48.8182],[2.5487,48.8197],[2.5449,48.8198],[2.5348,48.8171],[2.5324,48.8197],[2.5296,48.8213],[2.525,48.8214],[2.5259,48.824],[2.5241,48.8252],[2.525,48.8272]]]}},{"type":"Feature","properties":{"code":"94080","nom":"Vincennes","pop":48193},"geometry":{"type":"Polygon","coordinates":[[[2.4479,48.8449],[2.4466,48.8458],[2.4408,48.846],[2.438,48.8447],[2.4372,48.8409],[2.4276,48.8416],[2.4282,48.8455],[2.4186,48.8464],[2.419,48.8494],[2.4293,48.8487],[2.4296,48.8511],[2.4346,48.8508],[2.4352,48.8534],[2.4471,48.8512],[2.4563,48.8496],[2.4559,48.8473],[2.4579,48.8452],[2.448,48.8468],[2.4479,48.8449]]]}},{"type":"Feature","properties":{"code":"94081","nom":"Vitry-sur-Seine","pop":93963},"geometry":{"type":"Polygon","coordinates":[[[2.3712,48.804],[2.3758,48.806],[2.3793,48.8014],[2.3857,48.8043],[2.3868,48.8005],[2.3917,48.7993],[2.3946,48.7999],[2.3997,48.8043],[2.4051,48.805],[2.4042,48.8081],[2.409,48.8085],[2.411,48.8037],[2.4207,48.7957],[2.4228,48.7911],[2.422,48.7879],[2.4147,48.7772],[2.4119,48.7742],[2.4058,48.7739],[2.402,48.773],[2.3987,48.7748],[2.3923,48.7734],[2.3881,48.7732],[2.3819,48.7718],[2.3791,48.7731],[2.3765,48.7715],[2.3743,48.7718],[2.3711,48.77],[2.3678,48.7719],[2.3674,48.7794],[2.3709,48.7807],[2.3695,48.7824],[2.3769,48.7866],[2.3742,48.79],[2.3703,48.7965],[2.3699,48.8008],[2.3731,48.8025],[2.3712,48.804]]]}}]}